{"type":"FeatureCollection","features":[{"type":"Feature","geometry":{"type":"Polygon","coordinates":[[[-40.66204,-18.01274],[-40.65871,-18.0262],[-40.64052,-18.03384],[-40.63144,-18.0505],[-40.62788,-18.06723],[-40.6295,-18.07577],[-40.62283,-18.07769],[-40.61434,-18.09021],[-40.61323,-18.10622],[-40.60091,-18.09979],[-40.59645,-18.10782],[-40.58933,-18.10894],[-40.5789,-18.09606],[-40.55866,-18.11414],[-40.56264,-18.12953],[-40.56077,-18.1373],[-40.56354,-18.15374],[-40.55582,-18.15854],[-40.55627,-18.17666],[-40.55156,-18.19399],[-40.54585,-18.20329],[-40.55318,-18.22669],[-40.55881,-18.23099],[-40.61884,-18.2875],[-40.61066,-18.29889],[-40.60926,-18.32391],[-40.60207,-18.34483],[-40.5968,-18.33949],[-40.58059,-18.34028],[-40.57368,-18.34524],[-40.58234,-18.35243],[-40.58307,-18.36858],[-40.60541,-18.40836],[-40.60559,-18.41903],[-40.59692,-18.42513],[-40.59552,-18.43329],[-40.58166,-18.44048],[-40.57258,-18.43552],[-40.5671,-18.44313],[-40.5499,-18.45513],[-40.54279,-18.45458],[-40.53625,-18.46591],[-40.5271,-18.46806],[-40.52202,-18.48134],[-40.51546,-18.48562],[-40.5283,-18.48523],[-40.55023,-18.49399],[-40.5625,-18.48692],[-40.58843,-18.48973],[-40.61842,-18.49769],[-40.6336,-18.5131],[-40.64394,-18.51739],[-40.65486,-18.51637],[-40.67304,-18.5248],[-40.67013,-18.52999],[-40.67981,-18.53105],[-40.69048,-18.54905],[-40.70356,-18.55708],[-40.70487,-18.56318],[-40.72327,-18.56512],[-40.75094,-18.57722],[-40.75925,-18.57704],[-40.76964,-18.58837],[-40.77039,-18.59498],[-40.78832,-18.59704],[-40.79936,-18.58303],[-40.8052,-18.58588],[-40.80334,-18.59431],[-40.79453,-18.59957],[-40.79419,-18.61374],[-40.78016,-18.62045],[-40.77646,-18.61517],[-40.76097,-18.60927],[-40.76681,-18.59708],[-40.74644,-18.60113],[-40.74197,-18.58968],[-40.73284,-18.58738],[-40.7278,-18.602],[-40.72201,-18.60255],[-40.72249,-18.62724],[-40.72893,-18.65447],[-40.72317,-18.67823],[-40.70756,-18.68483],[-40.70527,-18.68164],[-40.68441,-18.68531],[-40.68224,-18.69133],[-40.69053,-18.69676],[-40.6991,-18.69523],[-40.69981,-18.70619],[-40.70603,-18.70343],[-40.72341,-18.70711],[-40.71222,-18.71276],[-40.71676,-18.72561],[-40.71649,-18.74609],[-40.71911,-18.75717],[-40.73302,-18.76921],[-40.7484,-18.77081],[-40.75787,-18.79327],[-40.77337,-18.7946],[-40.7662,-18.81884],[-40.77602,-18.81863],[-40.77228,-18.83337],[-40.75733,-18.83322],[-40.76402,-18.85115],[-40.77732,-18.85778],[-40.79255,-18.85787],[-40.8028,-18.8438],[-40.81393,-18.84182],[-40.82745,-18.84824],[-40.83257,-18.86028],[-40.84719,-18.85714],[-40.86275,-18.86397],[-40.85645,-18.87629],[-40.86003,-18.87986],[-40.8607,-18.89566],[-40.88108,-18.89292],[-40.89794,-18.9013],[-40.906,-18.94046],[-41.06504,-18.94485],[-41.07006,-18.94173],[-41.08022,-18.94694],[-41.07924,-18.93854],[-41.10367,-18.93406],[-41.11276,-18.92254],[-41.11817,-18.92177],[-41.11437,-18.91267],[-41.12049,-18.90802],[-41.12685,-18.89451],[-41.1438,-18.88491],[-41.15296,-18.88661],[-41.15921,-18.86436],[-41.16636,-18.85823],[-41.18666,-18.86408],[-41.20055,-18.86273],[-41.20843,-18.85505],[-41.21478,-18.87764],[-41.2301,-18.85837],[-41.24323,-18.85378],[-41.24388,-18.84357],[-41.23782,-18.83477],[-41.24514,-18.82054],[-41.24053,-18.81617],[-41.23254,-18.79728],[-41.149,-18.79751],[-41.13347,-18.79681],[-41.13003,-18.80744],[-41.1192,-18.81013],[-41.11999,-18.81766],[-41.11051,-18.83894],[-41.09747,-18.84231],[-41.08371,-18.83658],[-41.01913,-18.8373],[-40.96391,-18.84117],[-40.96302,-18.83579],[-40.95108,-18.83471],[-40.94573,-18.82544],[-40.93666,-18.83105],[-40.92791,-18.81971],[-40.91677,-18.81554],[-40.9198,-18.8004],[-40.92863,-18.79294],[-40.92661,-18.78818],[-40.94,-18.77029],[-40.9415,-18.68929],[-40.95383,-18.68161],[-40.97653,-18.67708],[-40.98782,-18.67814],[-40.98887,-18.67322],[-41.00523,-18.66728],[-41.02021,-18.65495],[-41.02966,-18.6537],[-41.02875,-18.64673],[-41.03562,-18.64403],[-41.04447,-18.64799],[-41.04156,-18.63975],[-41.05089,-18.63415],[-41.03296,-18.61876],[-41.03372,-18.60661],[-41.04199,-18.6054],[-41.0203,-18.50097],[-41.01588,-18.47675],[-41.01634,-18.46746],[-41.02303,-18.45726],[-41.17308,-18.4428],[-41.18184,-18.43958],[-41.1808,-18.43268],[-41.16667,-18.41522],[-41.14723,-18.41145],[-41.14425,-18.40524],[-41.16045,-18.4028],[-41.16254,-18.39076],[-41.1596,-18.38146],[-41.1481,-18.37915],[-41.14974,-18.36599],[-41.1475,-18.35338],[-41.15892,-18.30824],[-41.14272,-18.29811],[-41.14111,-18.29129],[-41.1275,-18.27692],[-41.12032,-18.2744],[-41.09647,-18.25558],[-41.10274,-18.23697],[-41.09135,-18.23026],[-41.10445,-18.21328],[-41.09266,-18.20584],[-41.09273,-18.1954],[-41.06655,-18.18091],[-41.05645,-18.17884],[-41.05193,-18.16511],[-41.03419,-18.16353],[-41.03381,-18.17211],[-41.0281,-18.15767],[-41.01459,-18.15758],[-41.01009,-18.16763],[-40.99322,-18.16623],[-40.98839,-18.1698],[-40.98703,-18.14677],[-40.98032,-18.14136],[-40.96752,-18.14521],[-40.96217,-18.15417],[-40.95454,-18.15449],[-40.94911,-18.12864],[-40.94051,-18.13645],[-40.93221,-18.13648],[-40.92477,-18.12713],[-40.90487,-18.11117],[-40.89171,-18.10893],[-40.89391,-18.11889],[-40.88901,-18.12402],[-40.8785,-18.11997],[-40.86643,-18.12992],[-40.8633,-18.13913],[-40.85227,-18.14624],[-40.8325,-18.15115],[-40.82419,-18.14929],[-40.80522,-18.15297],[-40.79474,-18.16005],[-40.7715,-18.15594],[-40.7733,-18.10756],[-40.90244,-17.98621],[-40.89117,-17.98303],[-40.88178,-17.97102],[-40.87705,-17.98229],[-40.86313,-17.98832],[-40.84773,-17.96751],[-40.83055,-17.95418],[-40.82497,-17.9637],[-40.80816,-17.95205],[-40.79847,-17.95695],[-40.79188,-17.97148],[-40.79227,-17.98168],[-40.78212,-17.97525],[-40.77093,-17.98642],[-40.77485,-17.99662],[-40.77177,-18.00339],[-40.76031,-18.00396],[-40.75277,-18.00962],[-40.72577,-18.00122],[-40.71617,-18.00462],[-40.70961,-18.02099],[-40.70368,-18.02373],[-40.69052,-18.01271],[-40.6813,-18.01015],[-40.66204,-18.01274]]]},"properties":{"CD_REG":"32001","NM_REG":"Barra de São Francisco","SIGLA_UF":"ES"}},{"type":"Feature","geometry":{"type":"Polygon","coordinates":[[[-40.12458,-18.48854],[-40.13277,-18.49751],[-40.16431,-18.51741],[-40.16189,-18.53451],[-40.16743,-18.54614],[-40.20861,-18.57139],[-40.20757,-18.58274],[-40.21923,-18.57791],[-40.22419,-18.58395],[-40.24065,-18.58048],[-40.24562,-18.56863],[-40.26362,-18.56981],[-40.26284,-18.57523],[-40.28427,-18.5768],[-40.33641,-18.72583],[-40.3432,-18.73208],[-40.34817,-18.74543],[-40.3619,-18.75471],[-40.37906,-18.77183],[-40.39452,-18.78177],[-40.39236,-18.79906],[-40.38459,-18.80267],[-40.39544,-18.81028],[-40.39437,-18.82108],[-40.40363,-18.82672],[-40.40559,-18.83456],[-40.40169,-18.85092],[-40.38597,-18.84802],[-40.37797,-18.84991],[-40.35121,-18.848],[-40.33764,-18.8509],[-40.31091,-18.84709],[-40.29864,-18.84771],[-40.29374,-18.84151],[-40.28368,-18.84407],[-40.27584,-18.83712],[-40.26263,-18.83711],[-40.2564,-18.84441],[-40.25093,-18.86406],[-40.24052,-18.86324],[-40.22633,-18.8776],[-40.21236,-18.87812],[-40.20556,-18.88518],[-40.20633,-18.90664],[-40.26389,-19.03289],[-40.28832,-19.07538],[-40.30489,-19.0843],[-40.32146,-19.08129],[-40.32378,-19.07625],[-40.34661,-19.08321],[-40.35336,-19.07321],[-40.36541,-19.06628],[-40.37483,-19.07916],[-40.37803,-19.08507],[-40.397,-19.08484],[-40.40333,-19.07685],[-40.4216,-19.07725],[-40.42951,-19.07366],[-40.44426,-19.05204],[-40.45562,-19.05292],[-40.46615,-19.04426],[-40.48319,-19.05114],[-40.48672,-19.04693],[-40.49823,-19.05635],[-40.50116,-19.05364],[-40.51482,-19.06003],[-40.53304,-19.05162],[-40.54147,-19.04335],[-40.54355,-19.04761],[-40.55903,-19.04594],[-40.57797,-19.06825],[-40.59808,-19.06258],[-40.60724,-19.07459],[-40.61735,-19.08205],[-40.6547,-19.0898],[-40.6584,-19.09947],[-40.67244,-19.09747],[-40.68408,-19.10509],[-40.67963,-19.12545],[-40.68951,-19.13176],[-40.69266,-19.1395],[-40.70089,-19.14125],[-40.6992,-19.13267],[-40.68902,-19.12716],[-40.68612,-19.11119],[-40.7007,-19.10759],[-40.71313,-19.10823],[-40.71751,-19.09744],[-40.71471,-19.07758],[-40.70744,-19.0729],[-40.70358,-19.06096],[-40.72417,-19.05432],[-40.72972,-19.03442],[-40.74027,-19.02984],[-40.74075,-19.02296],[-40.7516,-19.01172],[-40.7565,-19.00005],[-40.76847,-18.99492],[-40.78576,-19.0102],[-40.78307,-19.02097],[-40.78887,-19.02578],[-40.80396,-19.02389],[-40.81512,-19.01495],[-40.83844,-19.02225],[-40.84715,-19.01915],[-40.85875,-19.02167],[-40.85785,-18.94037],[-40.906,-18.94046],[-40.89794,-18.9013],[-40.88108,-18.89292],[-40.8607,-18.89566],[-40.86003,-18.87986],[-40.85645,-18.87629],[-40.86275,-18.86397],[-40.84719,-18.85714],[-40.83257,-18.86028],[-40.82745,-18.84824],[-40.81393,-18.84182],[-40.8028,-18.8438],[-40.79255,-18.85787],[-40.77732,-18.85778],[-40.76402,-18.85115],[-40.75733,-18.83322],[-40.77228,-18.83337],[-40.77602,-18.81863],[-40.7662,-18.81884],[-40.77337,-18.7946],[-40.75787,-18.79327],[-40.7484,-18.77081],[-40.73302,-18.76921],[-40.71911,-18.75717],[-40.71649,-18.74609],[-40.71676,-18.72561],[-40.71222,-18.71276],[-40.72341,-18.70711],[-40.70603,-18.70343],[-40.69981,-18.70619],[-40.6991,-18.69523],[-40.69053,-18.69676],[-40.68224,-18.69133],[-40.68441,-18.68531],[-40.70527,-18.68164],[-40.70756,-18.68483],[-40.72317,-18.67823],[-40.72893,-18.65447],[-40.72249,-18.62724],[-40.72201,-18.60255],[-40.7278,-18.602],[-40.73284,-18.58738],[-40.74197,-18.58968],[-40.74644,-18.60113],[-40.76681,-18.59708],[-40.76097,-18.60927],[-40.77646,-18.61517],[-40.78016,-18.62045],[-40.79419,-18.61374],[-40.79453,-18.59957],[-40.80334,-18.59431],[-40.8052,-18.58588],[-40.79936,-18.58303],[-40.78832,-18.59704],[-40.77039,-18.59498],[-40.76964,-18.58837],[-40.75925,-18.57704],[-40.75094,-18.57722],[-40.72327,-18.56512],[-40.70487,-18.56318],[-40.70356,-18.55708],[-40.69048,-18.54905],[-40.67981,-18.53105],[-40.67013,-18.52999],[-40.67304,-18.5248],[-40.65486,-18.51637],[-40.64394,-18.51739],[-40.6336,-18.5131],[-40.61842,-18.49769],[-40.58843,-18.48973],[-40.5625,-18.48692],[-40.55023,-18.49399],[-40.5283,-18.48523],[-40.51546,-18.48562],[-40.52202,-18.48134],[-40.5271,-18.46806],[-40.53625,-18.46591],[-40.54279,-18.45458],[-40.5499,-18.45513],[-40.5671,-18.44313],[-40.57258,-18.43552],[-40.58166,-18.44048],[-40.59552,-18.43329],[-40.59692,-18.42513],[-40.60559,-18.41903],[-40.60541,-18.40836],[-40.58307,-18.36858],[-40.57063,-18.35988],[-40.56084,-18.36369],[-40.55227,-18.35984],[-40.53888,-18.35998],[-40.53842,-18.36854],[-40.52652,-18.36541],[-40.51652,-18.38393],[-40.50903,-18.39056],[-40.49705,-18.39004],[-40.49181,-18.40978],[-40.48507,-18.41333],[-40.46965,-18.41023],[-40.45612,-18.41198],[-40.45091,-18.40672],[-40.487,-18.37736],[-40.48629,-18.36639],[-40.47506,-18.37591],[-40.46239,-18.37223],[-40.45792,-18.3752],[-40.44348,-18.36211],[-40.42383,-18.36539],[-40.40285,-18.38533],[-40.38625,-18.37935],[-40.35483,-18.37781],[-40.34003,-18.39624],[-40.3312,-18.40039],[-40.32514,-18.41062],[-40.31889,-18.44004],[-40.30557,-18.44776],[-40.30825,-18.4568],[-40.29954,-18.46425],[-40.28848,-18.4853],[-40.2845,-18.48361],[-40.27212,-18.49436],[-40.24717,-18.49665],[-40.21475,-18.49209],[-40.19789,-18.48561],[-40.18368,-18.47323],[-40.17665,-18.47141],[-40.16008,-18.47471],[-40.15168,-18.48069],[-40.12458,-18.48854]]]},"properties":{"CD_REG":"32002","NM_REG":"Nova Venécia","SIGLA_UF":"ES"}},{"type":"Feature","geometry":{"type":"Polygon","coordinates":[[[-40.37483,-19.07916],[-40.36683,-19.08518],[-40.36505,-19.0957],[-40.38779,-19.11441],[-40.40205,-19.13585],[-40.41102,-19.14029],[-40.41017,-19.14949],[-40.40008,-19.14789],[-40.39554,-19.15809],[-40.40471,-19.16161],[-40.41228,-19.18898],[-40.40321,-19.19774],[-40.41182,-19.21093],[-40.41911,-19.21095],[-40.42046,-19.23823],[-40.42709,-19.24972],[-40.43511,-19.25368],[-40.43026,-19.26135],[-40.44059,-19.26942],[-40.43493,-19.27965],[-40.4436,-19.29151],[-40.45243,-19.28598],[-40.45334,-19.2795],[-40.46159,-19.27976],[-40.47134,-19.29336],[-40.49011,-19.28875],[-40.49045,-19.29814],[-40.50746,-19.30728],[-40.50933,-19.31989],[-40.52509,-19.33164],[-40.52821,-19.34609],[-40.51533,-19.34316],[-40.49663,-19.35896],[-40.49472,-19.36932],[-40.48007,-19.36455],[-40.47261,-19.3752],[-40.47808,-19.38318],[-40.46787,-19.38954],[-40.45315,-19.40921],[-40.45702,-19.41647],[-40.44145,-19.42588],[-40.4335,-19.43586],[-40.44067,-19.43945],[-40.44422,-19.45777],[-40.43497,-19.46294],[-40.43087,-19.48282],[-40.43136,-19.49311],[-40.41658,-19.5088],[-40.39309,-19.50983],[-40.37566,-19.53122],[-40.37119,-19.55647],[-40.38847,-19.56215],[-40.38923,-19.5742],[-40.37237,-19.59479],[-40.37445,-19.60493],[-40.37023,-19.6169],[-40.37649,-19.62254],[-40.41875,-19.64132],[-40.46324,-19.63065],[-40.47522,-19.64224],[-40.48576,-19.64024],[-40.48794,-19.65176],[-40.50222,-19.65765],[-40.51674,-19.67764],[-40.52734,-19.7156],[-40.53897,-19.71003],[-40.55252,-19.71266],[-40.55909,-19.69369],[-40.56654,-19.68599],[-40.58169,-19.68444],[-40.58688,-19.66584],[-40.59619,-19.66528],[-40.60331,-19.67311],[-40.65292,-19.64328],[-40.67143,-19.62997],[-40.67351,-19.62256],[-40.70146,-19.62478],[-40.70519,-19.62909],[-40.72315,-19.62461],[-40.72607,-19.64198],[-40.73885,-19.64222],[-40.75649,-19.65236],[-40.77095,-19.64938],[-40.76894,-19.63405],[-40.77928,-19.63457],[-40.7741,-19.61564],[-40.78561,-19.59608],[-40.77887,-19.58348],[-40.78435,-19.58053],[-40.79532,-19.58544],[-40.80475,-19.59527],[-40.82312,-19.59334],[-40.82461,-19.60524],[-40.83445,-19.61709],[-40.85298,-19.6174],[-40.85989,-19.60396],[-40.85258,-19.59819],[-40.85699,-19.5866],[-40.85231,-19.57793],[-40.83409,-19.56872],[-40.84915,-19.55949],[-40.87073,-19.57524],[-40.87698,-19.57495],[-40.88282,-19.59257],[-40.8981,-19.59969],[-40.91238,-19.59944],[-40.92263,-19.60424],[-40.93061,-19.61756],[-40.93847,-19.6175],[-40.92796,-19.63235],[-40.9371,-19.64218],[-40.93188,-19.66934],[-40.92636,-19.67602],[-40.92244,-19.69715],[-40.92985,-19.69618],[-40.93712,-19.70782],[-40.94425,-19.71152],[-40.94529,-19.73063],[-40.97292,-19.72524],[-40.98352,-19.73579],[-40.98116,-19.74768],[-40.99072,-19.76056],[-40.9969,-19.7877],[-40.99379,-19.80096],[-41.005,-19.80569],[-41.01511,-19.79812],[-41.01693,-19.78589],[-41.02336,-19.78211],[-41.03496,-19.78928],[-41.05292,-19.7698],[-41.04151,-19.76543],[-41.05388,-19.76251],[-41.06181,-19.77245],[-41.08182,-19.77747],[-41.09716,-19.78756],[-41.10922,-19.78487],[-41.11176,-19.79369],[-41.12471,-19.78888],[-41.12423,-19.77298],[-41.1392,-19.7712],[-41.15353,-19.76188],[-41.17457,-19.76306],[-41.17464,-19.76724],[-41.18821,-19.75669],[-41.19107,-19.74587],[-41.17994,-19.74062],[-41.18201,-19.73218],[-41.17431,-19.71564],[-41.17689,-19.6987],[-41.16847,-19.67222],[-41.1575,-19.66108],[-41.14761,-19.6636],[-41.13732,-19.65757],[-41.1295,-19.64274],[-41.1086,-19.63947],[-41.10025,-19.61478],[-41.09931,-19.60421],[-41.09088,-19.59634],[-41.07519,-19.59885],[-41.07192,-19.58441],[-41.05508,-19.5831],[-41.057,-19.57759],[-41.03686,-19.57046],[-41.03663,-19.55671],[-41.04469,-19.53552],[-41.04124,-19.51466],[-41.04966,-19.50302],[-41.04669,-19.4874],[-41.01907,-19.50488],[-40.98828,-19.50794],[-40.97224,-19.50529],[-40.97119,-19.4946],[-40.94469,-19.46096],[-40.95784,-19.44993],[-40.9588,-19.43916],[-40.96792,-19.43044],[-40.96048,-19.41932],[-40.96221,-19.40843],[-40.95071,-19.393],[-40.93045,-19.38415],[-40.9328,-19.36303],[-40.93856,-19.36018],[-40.93847,-19.34607],[-40.92275,-19.32239],[-40.90769,-19.30881],[-40.91242,-19.30192],[-40.92455,-19.30246],[-40.93278,-19.29605],[-40.92806,-19.28611],[-40.93838,-19.2864],[-40.9445,-19.27955],[-40.93671,-19.27257],[-40.92185,-19.27189],[-40.91618,-19.25893],[-40.9202,-19.25182],[-40.93865,-19.24938],[-40.93353,-19.24376],[-40.94155,-19.23013],[-40.93102,-19.22242],[-40.92758,-19.20888],[-40.92267,-19.20409],[-40.92955,-19.19786],[-40.92593,-19.1897],[-40.93145,-19.18244],[-40.94109,-19.18057],[-40.94056,-19.1633],[-40.94886,-19.15328],[-40.94355,-19.14484],[-40.95566,-19.14524],[-40.96213,-19.1395],[-40.95612,-19.12911],[-40.96289,-19.12156],[-40.97026,-19.12233],[-40.9813,-19.1125],[-40.98476,-19.10072],[-41.00706,-19.10053],[-41.01278,-19.09133],[-41.0126,-19.0758],[-41.02541,-19.07998],[-41.03549,-19.07156],[-41.05385,-19.06886],[-41.05264,-19.06148],[-41.06556,-19.05133],[-41.06314,-19.0393],[-41.07179,-19.02385],[-41.06593,-19.01638],[-41.06705,-19.00699],[-41.03222,-18.99085],[-41.01733,-18.97926],[-41.01803,-18.97351],[-41.04324,-18.97956],[-41.05175,-18.97405],[-41.05136,-18.96622],[-41.06065,-18.96828],[-41.06504,-18.94485],[-40.906,-18.94046],[-40.85785,-18.94037],[-40.85875,-19.02167],[-40.84715,-19.01915],[-40.83844,-19.02225],[-40.81512,-19.01495],[-40.80396,-19.02389],[-40.78887,-19.02578],[-40.78307,-19.02097],[-40.78576,-19.0102],[-40.76847,-18.99492],[-40.7565,-19.00005],[-40.7516,-19.01172],[-40.74075,-19.02296],[-40.74027,-19.02984],[-40.72972,-19.03442],[-40.72417,-19.05432],[-40.70358,-19.06096],[-40.70744,-19.0729],[-40.71471,-19.07758],[-40.71751,-19.09744],[-40.71313,-19.10823],[-40.7007,-19.10759],[-40.68612,-19.11119],[-40.68902,-19.12716],[-40.6992,-19.13267],[-40.70089,-19.14125],[-40.69266,-19.1395],[-40.68951,-19.13176],[-40.67963,-19.12545],[-40.68408,-19.10509],[-40.67244,-19.09747],[-40.6584,-19.09947],[-40.6547,-19.0898],[-40.61735,-19.08205],[-40.60724,-19.07459],[-40.59808,-19.06258],[-40.57797,-19.06825],[-40.55903,-19.04594],[-40.54355,-19.04761],[-40.54147,-19.04335],[-40.53304,-19.05162],[-40.51482,-19.06003],[-40.50116,-19.05364],[-40.49823,-19.05635],[-40.48672,-19.04693],[-40.48319,-19.05114],[-40.46615,-19.04426],[-40.45562,-19.05292],[-40.44426,-19.05204],[-40.42951,-19.07366],[-40.4216,-19.07725],[-40.40333,-19.07685],[-40.397,-19.08484],[-40.37803,-19.08507],[-40.37483,-19.07916]]]},"properties":{"CD_REG":"32003","NM_REG":"Colatina","SIGLA_UF":"ES"}},{"type":"Feature","geometry":{"type":"Polygon","coordinates":[[[-40.22235,-17.98042],[-40.22038,-17.98164],[-40.21864,-17.99883],[-40.21455,-18.00366],[-40.20793,-18.02418],[-40.18508,-18.03253],[-40.17554,-18.05225],[-40.16012,-18.06593],[-40.15375,-18.06406],[-40.14762,-18.07229],[-40.12943,-18.08208],[-40.12842,-18.08805],[-40.10435,-18.0949],[-40.09814,-18.11193],[-40.09965,-18.13148],[-40.1085,-18.14039],[-40.10658,-18.15047],[-40.09531,-18.16056],[-40.0903,-18.17971],[-40.12991,-18.27418],[-40.12356,-18.27872],[-40.10616,-18.27774],[-40.09599,-18.28281],[-40.06944,-18.27819],[-40.06156,-18.28599],[-40.03484,-18.29443],[-40.02869,-18.28984],[-40.00838,-18.28617],[-39.98926,-18.28772],[-39.98377,-18.29373],[-39.96526,-18.29768],[-39.9509,-18.31575],[-39.95839,-18.32362],[-39.9591,-18.34509],[-39.93897,-18.39941],[-39.93683,-18.41192],[-39.94871,-18.42608],[-39.97421,-18.43761],[-39.99109,-18.43704],[-40.00253,-18.43231],[-40.01535,-18.43524],[-40.03091,-18.44576],[-40.04311,-18.44485],[-40.05914,-18.46443],[-40.0709,-18.47066],[-40.07922,-18.48218],[-40.09044,-18.48775],[-40.11104,-18.48619],[-40.12458,-18.48854],[-40.15168,-18.48069],[-40.16008,-18.47471],[-40.17665,-18.47141],[-40.18368,-18.47323],[-40.19789,-18.48561],[-40.21475,-18.49209],[-40.24717,-18.49665],[-40.27212,-18.49436],[-40.2845,-18.48361],[-40.28848,-18.4853],[-40.29954,-18.46425],[-40.30825,-18.4568],[-40.30557,-18.44776],[-40.31889,-18.44004],[-40.32514,-18.41062],[-40.3312,-18.40039],[-40.34003,-18.39624],[-40.35483,-18.37781],[-40.38625,-18.37935],[-40.40285,-18.38533],[-40.42383,-18.36539],[-40.44348,-18.36211],[-40.45792,-18.3752],[-40.46239,-18.37223],[-40.47506,-18.37591],[-40.48629,-18.36639],[-40.487,-18.37736],[-40.45091,-18.40672],[-40.45612,-18.41198],[-40.46965,-18.41023],[-40.48507,-18.41333],[-40.49181,-18.40978],[-40.49705,-18.39004],[-40.50903,-18.39056],[-40.51652,-18.38393],[-40.52652,-18.36541],[-40.53842,-18.36854],[-40.53888,-18.35998],[-40.55227,-18.35984],[-40.56084,-18.36369],[-40.57063,-18.35988],[-40.58307,-18.36858],[-40.58234,-18.35243],[-40.57368,-18.34524],[-40.58059,-18.34028],[-40.5968,-18.33949],[-40.60207,-18.34483],[-40.60926,-18.32391],[-40.61066,-18.29889],[-40.61884,-18.2875],[-40.55881,-18.23099],[-40.55318,-18.22669],[-40.54585,-18.20329],[-40.55156,-18.19399],[-40.55627,-18.17666],[-40.55582,-18.15854],[-40.56354,-18.15374],[-40.56077,-18.1373],[-40.56264,-18.12953],[-40.55866,-18.11414],[-40.5789,-18.09606],[-40.58933,-18.10894],[-40.59645,-18.10782],[-40.60091,-18.09979],[-40.61323,-18.10622],[-40.61434,-18.09021],[-40.62283,-18.07769],[-40.6295,-18.07577],[-40.62788,-18.06723],[-40.63144,-18.0505],[-40.64052,-18.03384],[-40.65871,-18.0262],[-40.66204,-18.01274],[-40.65149,-18.00687],[-40.64603,-17.99356],[-40.62615,-17.99105],[-40.62429,-17.97592],[-40.61416,-17.9665],[-40.62188,-17.96057],[-40.61261,-17.94951],[-40.61528,-17.94228],[-40.59719,-17.93603],[-40.58716,-17.93902],[-40.58471,-17.91817],[-40.56793,-17.91603],[-40.54036,-17.90282],[-40.52704,-17.89194],[-40.51682,-17.89442],[-40.50864,-17.90705],[-40.5006,-17.91167],[-40.48413,-17.90864],[-40.47661,-17.918],[-40.46274,-17.92821],[-40.45932,-17.92045],[-40.44505,-17.91883],[-40.41742,-17.92703],[-40.40324,-17.92353],[-40.38645,-17.92844],[-40.37256,-17.92761],[-40.36627,-17.92324],[-40.35561,-17.93045],[-40.34552,-17.92378],[-40.33396,-17.92736],[-40.32344,-17.93894],[-40.30994,-17.94094],[-40.30509,-17.94771],[-40.29111,-17.94689],[-40.29099,-17.95185],[-40.27567,-17.96256],[-40.26863,-17.96163],[-40.25535,-17.9718],[-40.23554,-17.97537],[-40.22235,-17.98042]]]},"properties":{"CD_REG":"32004","NM_REG":"Montanha","SIGLA_UF":"ES"}},{"type":"Feature","geometry":{"type":"Polygon","coordinates":[[[-40.22038,-17.98164],[-40.06148,-18.08364],[-40.02007,-18.10968],[-39.91209,-18.17884],[-39.68895,-18.32083],[-39.67423,-18.32474],[-39.66663,-18.33154],[-39.66782,-18.33719],[-39.67198,-18.35342],[-39.69094,-18.39534],[-39.71475,-18.46195],[-39.72158,-18.48456],[-39.72822,-18.51827],[-39.73003,-18.54711],[-39.73058,-18.5869],[-39.72839,-18.61108],[-39.74068,-18.65048],[-39.74601,-18.69626],[-39.74605,-18.72706],[-39.74828,-18.78039],[-39.74975,-18.83807],[-39.74475,-18.8919],[-39.74279,-18.93608],[-39.7368,-18.95569],[-39.73564,-18.97759],[-39.71929,-19.09697],[-39.72108,-19.09696],[-39.72265,-19.13951],[-39.7316,-19.14008],[-39.75149,-19.15861],[-39.76142,-19.16087],[-39.79354,-19.14873],[-39.80208,-19.14926],[-39.82591,-19.13912],[-39.8343,-19.14037],[-39.8403,-19.1244],[-39.84828,-19.12476],[-39.85639,-19.11727],[-39.87411,-19.11191],[-39.8745,-19.09897],[-39.88456,-19.09727],[-39.88195,-19.08397],[-39.87647,-19.08685],[-39.87094,-19.08052],[-39.87183,-19.06907],[-39.88143,-19.06322],[-39.87648,-19.05098],[-39.88305,-19.04731],[-39.89363,-19.05306],[-39.9052,-19.05255],[-39.9173,-19.05949],[-39.93004,-19.05998],[-39.93386,-19.0507],[-39.9476,-19.04782],[-39.95279,-19.03843],[-39.97486,-19.02129],[-39.97898,-19.00792],[-40.00288,-18.99488],[-40.01123,-18.9948],[-40.02542,-18.98819],[-40.04167,-18.9842],[-40.05303,-18.98551],[-40.06435,-18.98117],[-40.07512,-18.98355],[-40.09221,-18.97881],[-40.11165,-18.96801],[-40.11579,-18.96909],[-40.14264,-18.96155],[-40.14698,-18.95673],[-40.17762,-18.95001],[-40.18605,-18.93869],[-40.18416,-18.9312],[-40.19164,-18.92412],[-40.19886,-18.91025],[-40.20633,-18.90664],[-40.20556,-18.88518],[-40.21236,-18.87812],[-40.22633,-18.8776],[-40.24052,-18.86324],[-40.25093,-18.86406],[-40.2564,-18.84441],[-40.26263,-18.83711],[-40.27584,-18.83712],[-40.28368,-18.84407],[-40.29374,-18.84151],[-40.29864,-18.84771],[-40.31091,-18.84709],[-40.33764,-18.8509],[-40.35121,-18.848],[-40.37797,-18.84991],[-40.38597,-18.84802],[-40.40169,-18.85092],[-40.40559,-18.83456],[-40.40363,-18.82672],[-40.39437,-18.82108],[-40.39544,-18.81028],[-40.38459,-18.80267],[-40.39236,-18.79906],[-40.39452,-18.78177],[-40.37906,-18.77183],[-40.3619,-18.75471],[-40.34817,-18.74543],[-40.3432,-18.73208],[-40.33641,-18.72583],[-40.28427,-18.5768],[-40.26284,-18.57523],[-40.26362,-18.56981],[-40.24562,-18.56863],[-40.24065,-18.58048],[-40.22419,-18.58395],[-40.21923,-18.57791],[-40.20757,-18.58274],[-40.20861,-18.57139],[-40.16743,-18.54614],[-40.16189,-18.53451],[-40.16431,-18.51741],[-40.13277,-18.49751],[-40.12458,-18.48854],[-40.11104,-18.48619],[-40.09044,-18.48775],[-40.07922,-18.48218],[-40.0709,-18.47066],[-40.05914,-18.46443],[-40.04311,-18.44485],[-40.03091,-18.44576],[-40.01535,-18.43524],[-40.00253,-18.43231],[-39.99109,-18.43704],[-39.97421,-18.43761],[-39.94871,-18.42608],[-39.93683,-18.41192],[-39.93897,-18.39941],[-39.9591,-18.34509],[-39.95839,-18.32362],[-39.9509,-18.31575],[-39.96526,-18.29768],[-39.98377,-18.29373],[-39.98926,-18.28772],[-40.00838,-18.28617],[-40.02869,-18.28984],[-40.03484,-18.29443],[-40.06156,-18.28599],[-40.06944,-18.27819],[-40.09599,-18.28281],[-40.10616,-18.27774],[-40.12356,-18.27872],[-40.12991,-18.27418],[-40.0903,-18.17971],[-40.09531,-18.16056],[-40.10658,-18.15047],[-40.1085,-18.14039],[-40.09965,-18.13148],[-40.09814,-18.11193],[-40.10435,-18.0949],[-40.12842,-18.08805],[-40.12943,-18.08208],[-40.14762,-18.07229],[-40.15375,-18.06406],[-40.16012,-18.06593],[-40.17554,-18.05225],[-40.18508,-18.03253],[-40.20793,-18.02418],[-40.21455,-18.00366],[-40.21864,-17.99883],[-40.22038,-17.98164]]]},"properties":{"CD_REG":"32005","NM_REG":"São Mateus","SIGLA_UF":"ES"}},{"type":"Feature","geometry":{"type":"MultiPolygon","coordinates":[[[[-40.13359,-19.9689],[-40.13428,-19.96913],[-40.13381,-19.96804],[-40.13359,-19.9689]]],[[[-39.71929,-19.09697],[-39.7104,-19.16708],[-39.70395,-19.20912],[-39.69145,-19.27323],[-39.68906,-19.30493],[-39.69646,-19.3669],[-39.70609,-19.4016],[-39.72451,-19.44843],[-39.73046,-19.46837],[-39.74753,-19.5052],[-39.77848,-19.57638],[-39.809,-19.63416],[-39.8108,-19.64961],[-39.819,-19.65569],[-39.82734,-19.65449],[-39.8497,-19.66017],[-39.88078,-19.67181],[-39.90433,-19.68288],[-39.93945,-19.70465],[-39.96807,-19.72584],[-40.01532,-19.76814],[-40.04511,-19.80067],[-40.05478,-19.81483],[-40.06151,-19.84955],[-40.07773,-19.87305],[-40.08298,-19.87596],[-40.09832,-19.90555],[-40.102,-19.92117],[-40.13246,-19.9365],[-40.13579,-19.94135],[-40.14962,-19.94596],[-40.15391,-19.95279],[-40.14063,-19.95423],[-40.13342,-19.96215],[-40.14271,-19.98543],[-40.14856,-19.99262],[-40.14682,-20.00119],[-40.15944,-20.02067],[-40.15891,-20.03588],[-40.18363,-20.03971],[-40.19181,-20.0545],[-40.19003,-20.0454],[-40.19506,-20.03569],[-40.20478,-20.03006],[-40.22849,-20.02598],[-40.23402,-20.04275],[-40.24873,-20.04081],[-40.25165,-20.03244],[-40.25805,-20.04061],[-40.26308,-20.03137],[-40.27089,-20.03682],[-40.27192,-20.03056],[-40.28084,-20.03158],[-40.29015,-20.02298],[-40.34393,-20.03654],[-40.35667,-20.04879],[-40.36706,-20.03952],[-40.37392,-20.02268],[-40.3847,-20.01428],[-40.41623,-20.01664],[-40.41718,-20.01304],[-40.44726,-19.99488],[-40.4516,-19.95945],[-40.44905,-19.95576],[-40.45276,-19.93721],[-40.4681,-19.93451],[-40.47445,-19.93704],[-40.47444,-19.9171],[-40.47751,-19.90464],[-40.48853,-19.89547],[-40.50321,-19.87623],[-40.50263,-19.85604],[-40.50512,-19.85367],[-40.52121,-19.81566],[-40.53031,-19.80636],[-40.53291,-19.78754],[-40.52656,-19.78612],[-40.52471,-19.76646],[-40.5182,-19.73262],[-40.52734,-19.7156],[-40.51674,-19.67764],[-40.50222,-19.65765],[-40.48794,-19.65176],[-40.48576,-19.64024],[-40.47522,-19.64224],[-40.46324,-19.63065],[-40.41875,-19.64132],[-40.37649,-19.62254],[-40.37023,-19.6169],[-40.37445,-19.60493],[-40.37237,-19.59479],[-40.38923,-19.5742],[-40.38847,-19.56215],[-40.37119,-19.55647],[-40.37566,-19.53122],[-40.39309,-19.50983],[-40.41658,-19.5088],[-40.43136,-19.49311],[-40.43087,-19.48282],[-40.43497,-19.46294],[-40.44422,-19.45777],[-40.44067,-19.43945],[-40.4335,-19.43586],[-40.44145,-19.42588],[-40.45702,-19.41647],[-40.45315,-19.40921],[-40.46787,-19.38954],[-40.47808,-19.38318],[-40.47261,-19.3752],[-40.48007,-19.36455],[-40.49472,-19.36932],[-40.49663,-19.35896],[-40.51533,-19.34316],[-40.52821,-19.34609],[-40.52509,-19.33164],[-40.50933,-19.31989],[-40.50746,-19.30728],[-40.49045,-19.29814],[-40.49011,-19.28875],[-40.47134,-19.29336],[-40.46159,-19.27976],[-40.45334,-19.2795],[-40.45243,-19.28598],[-40.4436,-19.29151],[-40.43493,-19.27965],[-40.44059,-19.26942],[-40.43026,-19.26135],[-40.43511,-19.25368],[-40.42709,-19.24972],[-40.42046,-19.23823],[-40.41911,-19.21095],[-40.41182,-19.21093],[-40.40321,-19.19774],[-40.41228,-19.18898],[-40.40471,-19.16161],[-40.39554,-19.15809],[-40.40008,-19.14789],[-40.41017,-19.14949],[-40.41102,-19.14029],[-40.40205,-19.13585],[-40.38779,-19.11441],[-40.36505,-19.0957],[-40.36683,-19.08518],[-40.37483,-19.07916],[-40.36541,-19.06628],[-40.35336,-19.07321],[-40.34661,-19.08321],[-40.32378,-19.07625],[-40.32146,-19.08129],[-40.30489,-19.0843],[-40.28832,-19.07538],[-40.26389,-19.03289],[-40.20633,-18.90664],[-40.19886,-18.91025],[-40.19164,-18.92412],[-40.18416,-18.9312],[-40.18605,-18.93869],[-40.17762,-18.95001],[-40.14698,-18.95673],[-40.14264,-18.96155],[-40.11579,-18.96909],[-40.11165,-18.96801],[-40.09221,-18.97881],[-40.07512,-18.98355],[-40.06435,-18.98117],[-40.05303,-18.98551],[-40.04167,-18.9842],[-40.02542,-18.98819],[-40.01123,-18.9948],[-40.00288,-18.99488],[-39.97898,-19.00792],[-39.97486,-19.02129],[-39.95279,-19.03843],[-39.9476,-19.04782],[-39.93386,-19.0507],[-39.93004,-19.05998],[-39.9173,-19.05949],[-39.9052,-19.05255],[-39.89363,-19.05306],[-39.88305,-19.04731],[-39.87648,-19.05098],[-39.88143,-19.06322],[-39.87183,-19.06907],[-39.87094,-19.08052],[-39.87647,-19.08685],[-39.88195,-19.08397],[-39.88456,-19.09727],[-39.8745,-19.09897],[-39.87411,-19.11191],[-39.85639,-19.11727],[-39.84828,-19.12476],[-39.8403,-19.1244],[-39.8343,-19.14037],[-39.82591,-19.13912],[-39.80208,-19.14926],[-39.79354,-19.14873],[-39.76142,-19.16087],[-39.75149,-19.15861],[-39.7316,-19.14008],[-39.72265,-19.13951],[-39.72108,-19.09696],[-39.71929,-19.09697]]]]},"properties":{"CD_REG":"32006","NM_REG":"Linhares","SIGLA_UF":"ES"}},{"type":"Feature","geometry":{"type":"Polygon","coordinates":[[[-40.99379,-19.80096],[-40.98438,-19.80537],[-40.97815,-19.79978],[-40.96716,-19.79953],[-40.95698,-19.80451],[-40.94098,-19.80501],[-40.93734,-19.81663],[-40.94188,-19.82267],[-40.95806,-19.83027],[-40.94922,-19.84256],[-40.95898,-19.85296],[-40.95504,-19.86344],[-40.94778,-19.86431],[-40.93142,-19.87894],[-40.93643,-19.882],[-40.93377,-19.8954],[-40.92483,-19.90113],[-40.93437,-19.90631],[-40.9444,-19.9016],[-40.94858,-19.91767],[-40.94831,-19.92933],[-40.94376,-19.9328],[-40.95925,-19.95698],[-40.95602,-19.96475],[-40.96454,-19.97611],[-40.97054,-19.97704],[-40.97055,-20.01972],[-40.96398,-20.02865],[-40.9688,-20.03901],[-40.96658,-20.04656],[-40.94761,-20.07416],[-40.94588,-20.08322],[-40.95582,-20.09141],[-40.96297,-20.09147],[-40.96587,-20.10242],[-40.97396,-20.10453],[-40.97337,-20.1118],[-40.98067,-20.11039],[-40.98617,-20.12088],[-40.99965,-20.12391],[-40.99932,-20.1105],[-41.01142,-20.10958],[-41.0172,-20.11972],[-41.02556,-20.1187],[-41.03634,-20.13239],[-41.02851,-20.14256],[-41.01766,-20.14974],[-41.01631,-20.16136],[-41.02145,-20.17022],[-41.01401,-20.17473],[-41.01677,-20.19411],[-41.00942,-20.19455],[-41.00771,-20.20304],[-40.99877,-20.20993],[-41.00266,-20.21444],[-40.99225,-20.21994],[-40.98728,-20.21729],[-40.98066,-20.22744],[-40.96864,-20.21195],[-40.97345,-20.20041],[-40.967,-20.19033],[-40.95787,-20.18843],[-40.94221,-20.19912],[-40.92652,-20.19708],[-40.92046,-20.20386],[-40.90387,-20.19845],[-40.89916,-20.2036],[-40.89339,-20.19695],[-40.87243,-20.19276],[-40.8726,-20.18878],[-40.85593,-20.19205],[-40.85273,-20.18435],[-40.83415,-20.17678],[-40.83319,-20.16957],[-40.82035,-20.16379],[-40.81765,-20.17272],[-40.80905,-20.1748],[-40.80309,-20.16573],[-40.78602,-20.15902],[-40.78177,-20.16248],[-40.76299,-20.15566],[-40.7658,-20.16787],[-40.75935,-20.16813],[-40.74528,-20.18884],[-40.73166,-20.18411],[-40.71824,-20.18329],[-40.7024,-20.18942],[-40.68139,-20.18865],[-40.67071,-20.20219],[-40.66028,-20.2074],[-40.66451,-20.21763],[-40.63443,-20.21592],[-40.63372,-20.22376],[-40.62477,-20.2288],[-40.62639,-20.23671],[-40.61558,-20.24183],[-40.60836,-20.25202],[-40.59704,-20.24338],[-40.59459,-20.24529],[-40.60516,-20.25147],[-40.60457,-20.26733],[-40.60008,-20.2782],[-40.58095,-20.29778],[-40.58231,-20.31188],[-40.5797,-20.32207],[-40.58562,-20.34168],[-40.5946,-20.36258],[-40.59253,-20.36715],[-40.58057,-20.36718],[-40.56958,-20.37765],[-40.55829,-20.37315],[-40.56347,-20.38633],[-40.55178,-20.3888],[-40.54507,-20.3847],[-40.53448,-20.38912],[-40.548,-20.40011],[-40.54345,-20.40277],[-40.55619,-20.409],[-40.58686,-20.41492],[-40.61477,-20.41378],[-40.61779,-20.42325],[-40.62481,-20.42297],[-40.62195,-20.4358],[-40.63244,-20.4623],[-40.62624,-20.4679],[-40.63346,-20.47121],[-40.65097,-20.45933],[-40.65901,-20.45962],[-40.66029,-20.45011],[-40.67362,-20.45007],[-40.69242,-20.43316],[-40.70471,-20.43488],[-40.71441,-20.44109],[-40.70848,-20.44711],[-40.7098,-20.4589],[-40.72388,-20.45827],[-40.7429,-20.47523],[-40.74804,-20.49351],[-40.76234,-20.5046],[-40.76394,-20.49789],[-40.77888,-20.49774],[-40.78676,-20.50996],[-40.793,-20.5077],[-40.7981,-20.51432],[-40.81582,-20.52314],[-40.82195,-20.51679],[-40.80958,-20.49989],[-40.80726,-20.49188],[-40.81226,-20.48284],[-40.82247,-20.48873],[-40.82892,-20.48476],[-40.84142,-20.48485],[-40.85524,-20.49179],[-40.86792,-20.47807],[-40.86961,-20.46494],[-40.88194,-20.46555],[-40.9044,-20.46214],[-40.91245,-20.44868],[-40.92998,-20.43685],[-40.94773,-20.43918],[-40.96282,-20.43074],[-40.96271,-20.43411],[-40.98811,-20.43684],[-40.98961,-20.43088],[-41.00179,-20.42622],[-41.01038,-20.43376],[-41.00744,-20.45049],[-41.01065,-20.45803],[-41.005,-20.47048],[-41.01939,-20.47801],[-41.01855,-20.4835],[-41.0399,-20.48361],[-41.04627,-20.47668],[-41.05102,-20.48106],[-41.05621,-20.46917],[-41.05284,-20.45991],[-41.06784,-20.46029],[-41.07569,-20.44525],[-41.08922,-20.44184],[-41.10115,-20.43378],[-41.10337,-20.42017],[-41.09777,-20.40887],[-41.10485,-20.40284],[-41.11126,-20.40531],[-41.11444,-20.41974],[-41.14248,-20.43157],[-41.15913,-20.42205],[-41.16588,-20.42614],[-41.1659,-20.44497],[-41.19116,-20.44558],[-41.20488,-20.45499],[-41.21499,-20.44523],[-41.22234,-20.45203],[-41.2249,-20.46213],[-41.2164,-20.46797],[-41.21549,-20.47493],[-41.2068,-20.48224],[-41.21001,-20.49104],[-41.23644,-20.48775],[-41.24242,-20.5001],[-41.24843,-20.49178],[-41.26222,-20.48629],[-41.27088,-20.49226],[-41.28332,-20.48796],[-41.28016,-20.50788],[-41.28641,-20.506],[-41.29977,-20.5215],[-41.31123,-20.51391],[-41.32187,-20.49628],[-41.32767,-20.49755],[-41.3178,-20.49133],[-41.32067,-20.46866],[-41.31485,-20.42726],[-41.31992,-20.41788],[-41.31673,-20.40863],[-41.32324,-20.39542],[-41.32921,-20.39531],[-41.3369,-20.38557],[-41.34582,-20.38758],[-41.346,-20.37433],[-41.35751,-20.34843],[-41.35706,-20.33335],[-41.36128,-20.32545],[-41.35533,-20.30692],[-41.3505,-20.30208],[-41.3344,-20.29902],[-41.33141,-20.30332],[-41.31719,-20.30109],[-41.31462,-20.28925],[-41.31937,-20.27361],[-41.31047,-20.26938],[-41.31708,-20.25735],[-41.33493,-20.24341],[-41.34809,-20.24281],[-41.35049,-20.23411],[-41.33857,-20.22399],[-41.34999,-20.19808],[-41.36755,-20.20553],[-41.37723,-20.20569],[-41.37684,-20.21885],[-41.38155,-20.22354],[-41.39607,-20.22094],[-41.3927,-20.22602],[-41.39903,-20.23419],[-41.40822,-20.23363],[-41.41587,-20.21835],[-41.41558,-20.20736],[-41.41186,-20.2061],[-41.40909,-20.1977],[-41.40167,-20.19923],[-41.38244,-20.18908],[-41.37409,-20.16816],[-41.37593,-20.16195],[-41.36783,-20.15685],[-41.36189,-20.14208],[-41.35581,-20.1391],[-41.34746,-20.12281],[-41.34913,-20.10952],[-41.34398,-20.10013],[-41.34522,-20.08898],[-41.33819,-20.08812],[-41.33269,-20.05766],[-41.32628,-20.05451],[-41.31853,-20.04151],[-41.31726,-20.02696],[-41.30911,-20.01637],[-41.30966,-19.9951],[-41.3199,-19.97863],[-41.3118,-19.97242],[-41.30792,-19.94834],[-41.30086,-19.93653],[-41.27266,-19.94244],[-41.25461,-19.93214],[-41.24447,-19.93734],[-41.23258,-19.91899],[-41.22961,-19.907],[-41.21939,-19.90142],[-41.20505,-19.90311],[-41.19464,-19.89336],[-41.18613,-19.89132],[-41.18351,-19.86802],[-41.184,-19.84882],[-41.1757,-19.83935],[-41.18629,-19.82767],[-41.17483,-19.82483],[-41.16411,-19.80639],[-41.16595,-19.79246],[-41.17394,-19.78605],[-41.17464,-19.76724],[-41.17457,-19.76306],[-41.15353,-19.76188],[-41.1392,-19.7712],[-41.12423,-19.77298],[-41.12471,-19.78888],[-41.11176,-19.79369],[-41.10922,-19.78487],[-41.09716,-19.78756],[-41.08182,-19.77747],[-41.06181,-19.77245],[-41.05388,-19.76251],[-41.04151,-19.76543],[-41.05292,-19.7698],[-41.03496,-19.78928],[-41.02336,-19.78211],[-41.01693,-19.78589],[-41.01511,-19.79812],[-41.005,-19.80569],[-40.99379,-19.80096]]]},"properties":{"CD_REG":"32007","NM_REG":"Afonso Cláudio","SIGLA_UF":"ES"}},{"type":"Feature","geometry":{"type":"Polygon","coordinates":[[[-40.52734,-19.7156],[-40.5182,-19.73262],[-40.52471,-19.76646],[-40.52656,-19.78612],[-40.53291,-19.78754],[-40.53031,-19.80636],[-40.52121,-19.81566],[-40.50512,-19.85367],[-40.50263,-19.85604],[-40.50321,-19.87623],[-40.48853,-19.89547],[-40.47751,-19.90464],[-40.47444,-19.9171],[-40.47445,-19.93704],[-40.4681,-19.93451],[-40.45276,-19.93721],[-40.44905,-19.95576],[-40.4516,-19.95945],[-40.44726,-19.99488],[-40.41718,-20.01304],[-40.41623,-20.01664],[-40.43339,-20.09493],[-40.43576,-20.13527],[-40.42156,-20.16222],[-40.41552,-20.16187],[-40.41114,-20.17001],[-40.40205,-20.16716],[-40.39284,-20.17229],[-40.38852,-20.18482],[-40.38192,-20.19159],[-40.38342,-20.19925],[-40.37642,-20.21538],[-40.38493,-20.22296],[-40.40794,-20.23129],[-40.42148,-20.22706],[-40.43279,-20.22983],[-40.44085,-20.22522],[-40.46248,-20.22127],[-40.46346,-20.21777],[-40.48745,-20.23787],[-40.50253,-20.22902],[-40.52682,-20.24607],[-40.53058,-20.25641],[-40.55778,-20.27026],[-40.58388,-20.26855],[-40.59374,-20.27113],[-40.59617,-20.26164],[-40.59143,-20.25168],[-40.59459,-20.24529],[-40.59704,-20.24338],[-40.60836,-20.25202],[-40.61558,-20.24183],[-40.62639,-20.23671],[-40.62477,-20.2288],[-40.63372,-20.22376],[-40.63443,-20.21592],[-40.66451,-20.21763],[-40.66028,-20.2074],[-40.67071,-20.20219],[-40.68139,-20.18865],[-40.7024,-20.18942],[-40.71824,-20.18329],[-40.73166,-20.18411],[-40.74528,-20.18884],[-40.75935,-20.16813],[-40.7658,-20.16787],[-40.76299,-20.15566],[-40.78177,-20.16248],[-40.78602,-20.15902],[-40.80309,-20.16573],[-40.80905,-20.1748],[-40.81765,-20.17272],[-40.82035,-20.16379],[-40.83319,-20.16957],[-40.83415,-20.17678],[-40.85273,-20.18435],[-40.85593,-20.19205],[-40.8726,-20.18878],[-40.87243,-20.19276],[-40.89339,-20.19695],[-40.89916,-20.2036],[-40.90387,-20.19845],[-40.92046,-20.20386],[-40.92652,-20.19708],[-40.94221,-20.19912],[-40.95787,-20.18843],[-40.967,-20.19033],[-40.97345,-20.20041],[-40.96864,-20.21195],[-40.98066,-20.22744],[-40.98728,-20.21729],[-40.99225,-20.21994],[-41.00266,-20.21444],[-40.99877,-20.20993],[-41.00771,-20.20304],[-41.00942,-20.19455],[-41.01677,-20.19411],[-41.01401,-20.17473],[-41.02145,-20.17022],[-41.01631,-20.16136],[-41.01766,-20.14974],[-41.02851,-20.14256],[-41.03634,-20.13239],[-41.02556,-20.1187],[-41.0172,-20.11972],[-41.01142,-20.10958],[-40.99932,-20.1105],[-40.99965,-20.12391],[-40.98617,-20.12088],[-40.98067,-20.11039],[-40.97337,-20.1118],[-40.97396,-20.10453],[-40.96587,-20.10242],[-40.96297,-20.09147],[-40.95582,-20.09141],[-40.94588,-20.08322],[-40.94761,-20.07416],[-40.96658,-20.04656],[-40.9688,-20.03901],[-40.96398,-20.02865],[-40.97055,-20.01972],[-40.97054,-19.97704],[-40.96454,-19.97611],[-40.95602,-19.96475],[-40.95925,-19.95698],[-40.94376,-19.9328],[-40.94831,-19.92933],[-40.94858,-19.91767],[-40.9444,-19.9016],[-40.93437,-19.90631],[-40.92483,-19.90113],[-40.93377,-19.8954],[-40.93643,-19.882],[-40.93142,-19.87894],[-40.94778,-19.86431],[-40.95504,-19.86344],[-40.95898,-19.85296],[-40.94922,-19.84256],[-40.95806,-19.83027],[-40.94188,-19.82267],[-40.93734,-19.81663],[-40.94098,-19.80501],[-40.95698,-19.80451],[-40.96716,-19.79953],[-40.97815,-19.79978],[-40.98438,-19.80537],[-40.99379,-19.80096],[-40.9969,-19.7877],[-40.99072,-19.76056],[-40.98116,-19.74768],[-40.98352,-19.73579],[-40.97292,-19.72524],[-40.94529,-19.73063],[-40.94425,-19.71152],[-40.93712,-19.70782],[-40.92985,-19.69618],[-40.92244,-19.69715],[-40.92636,-19.67602],[-40.93188,-19.66934],[-40.9371,-19.64218],[-40.92796,-19.63235],[-40.93847,-19.6175],[-40.93061,-19.61756],[-40.92263,-19.60424],[-40.91238,-19.59944],[-40.8981,-19.59969],[-40.88282,-19.59257],[-40.87698,-19.57495],[-40.87073,-19.57524],[-40.84915,-19.55949],[-40.83409,-19.56872],[-40.85231,-19.57793],[-40.85699,-19.5866],[-40.85258,-19.59819],[-40.85989,-19.60396],[-40.85298,-19.6174],[-40.83445,-19.61709],[-40.82461,-19.60524],[-40.82312,-19.59334],[-40.80475,-19.59527],[-40.79532,-19.58544],[-40.78435,-19.58053],[-40.77887,-19.58348],[-40.78561,-19.59608],[-40.7741,-19.61564],[-40.77928,-19.63457],[-40.76894,-19.63405],[-40.77095,-19.64938],[-40.75649,-19.65236],[-40.73885,-19.64222],[-40.72607,-19.64198],[-40.72315,-19.62461],[-40.70519,-19.62909],[-40.70146,-19.62478],[-40.67351,-19.62256],[-40.67143,-19.62997],[-40.65292,-19.64328],[-40.60331,-19.67311],[-40.59619,-19.66528],[-40.58688,-19.66584],[-40.58169,-19.68444],[-40.56654,-19.68599],[-40.55909,-19.69369],[-40.55252,-19.71266],[-40.53897,-19.71003],[-40.52734,-19.7156]]]},"properties":{"CD_REG":"32008","NM_REG":"Santa Teresa","SIGLA_UF":"ES"}},{"type":"Feature","geometry":{"type":"MultiPolygon","coordinates":[[[[-40.35731,-20.52549],[-40.35887,-20.52446],[-40.35711,-20.52432],[-40.35731,-20.52549]]],[[[-28.84825,-20.49589],[-28.8479,-20.49789],[-28.85059,-20.49697],[-28.84825,-20.49589]]],[[[-29.33686,-20.48815],[-29.30846,-20.50815],[-29.29878,-20.52017],[-29.29958,-20.52666],[-29.31057,-20.52102],[-29.32256,-20.52527],[-29.33053,-20.52217],[-29.34416,-20.51025],[-29.34423,-20.4998],[-29.33686,-20.48815]]],[[[-28.85581,-20.47245],[-28.85545,-20.47201],[-28.85518,-20.47248],[-28.85581,-20.47245]]],[[[-28.84784,-20.47545],[-28.85134,-20.47914],[-28.85177,-20.47185],[-28.84784,-20.47545]]],[[[-28.85476,-20.47034],[-28.85654,-20.46908],[-28.8542,-20.46871],[-28.85476,-20.47034]]],[[[-40.31029,-20.42103],[-40.31214,-20.4217],[-40.31097,-20.42064],[-40.31029,-20.42103]]],[[[-40.30041,-20.38239],[-40.30071,-20.38234],[-40.30022,-20.38201],[-40.30041,-20.38239]]],[[[-40.29456,-20.3813],[-40.29704,-20.38254],[-40.29571,-20.37983],[-40.29456,-20.3813]]],[[[-40.28625,-20.37172],[-40.28647,-20.37176],[-40.28652,-20.37151],[-40.28625,-20.37172]]],[[[-40.2792,-20.36476],[-40.27994,-20.36473],[-40.27943,-20.36423],[-40.2792,-20.36476]]],[[[-40.27828,-20.36559],[-40.27912,-20.36436],[-40.27788,-20.36422],[-40.27828,-20.36559]]],[[[-40.27757,-20.36459],[-40.2775,-20.36387],[-40.27612,-20.36353],[-40.27757,-20.36459]]],[[[-40.2789,-20.3632],[-40.28116,-20.36339],[-40.27938,-20.3623],[-40.2789,-20.3632]]],[[[-40.27617,-20.36207],[-40.27705,-20.3626],[-40.27652,-20.36159],[-40.27617,-20.36207]]],[[[-40.28077,-20.3614],[-40.28154,-20.36141],[-40.28106,-20.36053],[-40.28077,-20.3614]]],[[[-40.27969,-20.36113],[-40.2799,-20.36049],[-40.27849,-20.36014],[-40.27969,-20.36113]]],[[[-40.28017,-20.35519],[-40.28136,-20.35516],[-40.28048,-20.35417],[-40.28017,-20.35519]]],[[[-40.27486,-20.35337],[-40.27499,-20.35391],[-40.27569,-20.35332],[-40.27486,-20.35337]]],[[[-40.25312,-20.35305],[-40.25251,-20.35277],[-40.2526,-20.35333],[-40.25312,-20.35305]]],[[[-40.24999,-20.35241],[-40.24985,-20.35192],[-40.24953,-20.35209],[-40.24999,-20.35241]]],[[[-40.2502,-20.35223],[-40.2507,-20.35237],[-40.25099,-20.35099],[-40.2502,-20.35223]]],[[[-40.27604,-20.35114],[-40.27645,-20.35081],[-40.27563,-20.35064],[-40.27604,-20.35114]]],[[[-40.27193,-20.33616],[-40.27222,-20.33619],[-40.27219,-20.33541],[-40.27193,-20.33616]]],[[[-40.27126,-20.3362],[-40.27185,-20.33459],[-40.27068,-20.33543],[-40.27126,-20.3362]]],[[[-40.27508,-20.33378],[-40.27519,-20.3334],[-40.27501,-20.33361],[-40.27508,-20.33378]]],[[[-40.27012,-20.33353],[-40.27132,-20.33284],[-40.27065,-20.33186],[-40.27012,-20.33353]]],[[[-40.26857,-20.33218],[-40.26873,-20.33135],[-40.2679,-20.33194],[-40.26857,-20.33218]]],[[[-40.26586,-20.32411],[-40.26591,-20.32353],[-40.26562,-20.32396],[-40.26586,-20.32411]]],[[[-40.26819,-20.32067],[-40.26868,-20.3216],[-40.26909,-20.32047],[-40.26819,-20.32067]]],[[[-40.27038,-20.3223],[-40.27187,-20.32206],[-40.27158,-20.32],[-40.27038,-20.3223]]],[[[-40.27541,-20.30935],[-40.27702,-20.30852],[-40.27616,-20.30693],[-40.27541,-20.30935]]],[[[-40.27382,-20.30704],[-40.27365,-20.30863],[-40.2751,-20.30687],[-40.27382,-20.30704]]],[[[-40.28717,-20.3052],[-40.28727,-20.30473],[-40.28701,-20.30502],[-40.28717,-20.3052]]],[[[-40.27534,-20.29865],[-40.27596,-20.29856],[-40.27561,-20.29753],[-40.27534,-20.29865]]],[[[-40.28405,-20.29275],[-40.28286,-20.29252],[-40.28325,-20.29346],[-40.28405,-20.29275]]],[[[-40.28185,-20.29266],[-40.28204,-20.29234],[-40.28163,-20.29219],[-40.28185,-20.29266]]],[[[-40.28512,-20.28476],[-40.28582,-20.28457],[-40.28532,-20.28407],[-40.28512,-20.28476]]],[[[-40.19181,-20.0545],[-40.17331,-20.07714],[-40.17197,-20.107],[-40.18155,-20.13458],[-40.18437,-20.14853],[-40.18382,-20.16729],[-40.19165,-20.1841],[-40.19019,-20.19332],[-40.19813,-20.20835],[-40.19854,-20.21607],[-40.21586,-20.23555],[-40.2129,-20.23918],[-40.22468,-20.25354],[-40.22375,-20.25723],[-40.23439,-20.2763],[-40.23126,-20.29135],[-40.23749,-20.29498],[-40.24746,-20.28398],[-40.2588,-20.26579],[-40.27748,-20.27211],[-40.28912,-20.28378],[-40.28932,-20.30857],[-40.27904,-20.30736],[-40.28041,-20.31335],[-40.26804,-20.32918],[-40.28018,-20.33571],[-40.28364,-20.35364],[-40.29335,-20.35969],[-40.30236,-20.37123],[-40.3142,-20.39253],[-40.3224,-20.41944],[-40.32192,-20.42789],[-40.34656,-20.47628],[-40.35202,-20.49558],[-40.35929,-20.50871],[-40.36013,-20.5199],[-40.36855,-20.52228],[-40.37715,-20.5355],[-40.37495,-20.53075],[-40.37994,-20.51811],[-40.48415,-20.50518],[-40.53763,-20.47285],[-40.54697,-20.47602],[-40.57899,-20.47967],[-40.58354,-20.47624],[-40.59022,-20.48286],[-40.60474,-20.48732],[-40.62624,-20.4679],[-40.63244,-20.4623],[-40.62195,-20.4358],[-40.62481,-20.42297],[-40.61779,-20.42325],[-40.61477,-20.41378],[-40.58686,-20.41492],[-40.55619,-20.409],[-40.54345,-20.40277],[-40.548,-20.40011],[-40.53448,-20.38912],[-40.54507,-20.3847],[-40.55178,-20.3888],[-40.56347,-20.38633],[-40.55829,-20.37315],[-40.56958,-20.37765],[-40.58057,-20.36718],[-40.59253,-20.36715],[-40.5946,-20.36258],[-40.58562,-20.34168],[-40.5797,-20.32207],[-40.58231,-20.31188],[-40.58095,-20.29778],[-40.60008,-20.2782],[-40.60457,-20.26733],[-40.60516,-20.25147],[-40.59459,-20.24529],[-40.59143,-20.25168],[-40.59617,-20.26164],[-40.59374,-20.27113],[-40.58388,-20.26855],[-40.55778,-20.27026],[-40.53058,-20.25641],[-40.52682,-20.24607],[-40.50253,-20.22902],[-40.48745,-20.23787],[-40.46346,-20.21777],[-40.46248,-20.22127],[-40.44085,-20.22522],[-40.43279,-20.22983],[-40.42148,-20.22706],[-40.40794,-20.23129],[-40.38493,-20.22296],[-40.37642,-20.21538],[-40.38342,-20.19925],[-40.38192,-20.19159],[-40.38852,-20.18482],[-40.39284,-20.17229],[-40.40205,-20.16716],[-40.41114,-20.17001],[-40.41552,-20.16187],[-40.42156,-20.16222],[-40.43576,-20.13527],[-40.43339,-20.09493],[-40.41623,-20.01664],[-40.3847,-20.01428],[-40.37392,-20.02268],[-40.36706,-20.03952],[-40.35667,-20.04879],[-40.34393,-20.03654],[-40.29015,-20.02298],[-40.28084,-20.03158],[-40.27192,-20.03056],[-40.27089,-20.03682],[-40.26308,-20.03137],[-40.25805,-20.04061],[-40.25165,-20.03244],[-40.24873,-20.04081],[-40.23402,-20.04275],[-40.22849,-20.02598],[-40.20478,-20.03006],[-40.19506,-20.03569],[-40.19003,-20.0454],[-40.19181,-20.0545]]]]},"properties":{"CD_REG":"32009","NM_REG":"Vitória","SIGLA_UF":"ES"}},{"type":"Feature","geometry":{"type":"MultiPolygon","coordinates":[[[[-40.72613,-20.855],[-40.72812,-20.8565],[-40.72773,-20.85469],[-40.72613,-20.855]]],[[[-40.72503,-20.84913],[-40.72797,-20.85023],[-40.7258,-20.8475],[-40.72503,-20.84913]]],[[[-40.68428,-20.8273],[-40.6844,-20.82772],[-40.68488,-20.82714],[-40.68428,-20.8273]]],[[[-40.59877,-20.80833],[-40.6005,-20.80731],[-40.59831,-20.80671],[-40.59877,-20.80833]]],[[[-40.54949,-20.76231],[-40.55003,-20.76231],[-40.54961,-20.76132],[-40.54949,-20.76231]]],[[[-40.54698,-20.75882],[-40.54614,-20.75958],[-40.54697,-20.75959],[-40.54698,-20.75882]]],[[[-40.54787,-20.75849],[-40.54711,-20.75755],[-40.5471,-20.75807],[-40.54787,-20.75849]]],[[[-40.54277,-20.74341],[-40.54285,-20.74301],[-40.54129,-20.74209],[-40.54277,-20.74341]]],[[[-40.52802,-20.73721],[-40.5285,-20.73695],[-40.52768,-20.7366],[-40.52802,-20.73721]]],[[[-40.52585,-20.73188],[-40.52635,-20.73188],[-40.52628,-20.73173],[-40.52585,-20.73188]]],[[[-40.52316,-20.73055],[-40.52342,-20.73078],[-40.52365,-20.73037],[-40.52316,-20.73055]]],[[[-40.5241,-20.73038],[-40.52448,-20.73033],[-40.52417,-20.72945],[-40.5241,-20.73038]]],[[[-40.5094,-20.71463],[-40.50974,-20.71356],[-40.50893,-20.71381],[-40.5094,-20.71463]]],[[[-40.50937,-20.71235],[-40.50887,-20.71277],[-40.50968,-20.71298],[-40.50937,-20.71235]]],[[[-40.50835,-20.71162],[-40.50859,-20.71064],[-40.50793,-20.71062],[-40.50835,-20.71162]]],[[[-40.51216,-20.70413],[-40.51218,-20.70388],[-40.51194,-20.70397],[-40.51216,-20.70413]]],[[[-40.4076,-20.70038],[-40.40633,-20.69909],[-40.40552,-20.70018],[-40.4076,-20.70038]]],[[[-40.50062,-20.68316],[-40.50212,-20.684],[-40.50168,-20.68314],[-40.50062,-20.68316]]],[[[-40.36392,-20.67792],[-40.3661,-20.67845],[-40.36497,-20.67712],[-40.36392,-20.67792]]],[[[-40.3674,-20.67593],[-40.36744,-20.67689],[-40.3684,-20.67652],[-40.3674,-20.67593]]],[[[-40.49431,-20.6619],[-40.49415,-20.66155],[-40.49399,-20.66185],[-40.49431,-20.6619]]],[[[-40.47245,-20.66142],[-40.47244,-20.66111],[-40.47213,-20.66127],[-40.47245,-20.66142]]],[[[-40.46667,-20.66209],[-40.47079,-20.66379],[-40.46853,-20.66088],[-40.46667,-20.66209]]],[[[-40.46337,-20.64473],[-40.46352,-20.64442],[-40.46293,-20.64429],[-40.46337,-20.64473]]],[[[-40.46433,-20.64411],[-40.46438,-20.64394],[-40.46414,-20.64393],[-40.46433,-20.64411]]],[[[-40.46119,-20.64395],[-40.46143,-20.64403],[-40.46151,-20.64369],[-40.46119,-20.64395]]],[[[-40.42964,-20.64068],[-40.43058,-20.64044],[-40.42927,-20.63862],[-40.42964,-20.64068]]],[[[-40.44635,-20.6382],[-40.44623,-20.6388],[-40.44697,-20.63832],[-40.44635,-20.6382]]],[[[-40.44359,-20.63806],[-40.44394,-20.63801],[-40.44342,-20.63773],[-40.44359,-20.63806]]],[[[-40.43927,-20.63749],[-40.4411,-20.63806],[-40.4409,-20.63751],[-40.43927,-20.63749]]],[[[-40.43707,-20.63592],[-40.43741,-20.63539],[-40.43701,-20.63522],[-40.43707,-20.63592]]],[[[-40.46458,-20.62745],[-40.46469,-20.62718],[-40.46438,-20.62728],[-40.46458,-20.62745]]],[[[-40.39646,-20.62264],[-40.39607,-20.62173],[-40.39565,-20.62199],[-40.39646,-20.62264]]],[[[-40.3776,-20.61424],[-40.37812,-20.61293],[-40.37639,-20.61254],[-40.3776,-20.61424]]],[[[-40.38144,-20.61099],[-40.3801,-20.61469],[-40.38418,-20.61478],[-40.38144,-20.61099]]],[[[-40.38818,-20.61097],[-40.38866,-20.61025],[-40.38775,-20.61007],[-40.38818,-20.61097]]],[[[-40.37391,-20.60838],[-40.37271,-20.61313],[-40.37631,-20.61038],[-40.37391,-20.60838]]],[[[-40.3925,-20.59846],[-40.39266,-20.5973],[-40.39053,-20.59806],[-40.3925,-20.59846]]],[[[-40.62624,-20.4679],[-40.60474,-20.48732],[-40.59022,-20.48286],[-40.58354,-20.47624],[-40.57899,-20.47967],[-40.54697,-20.47602],[-40.53763,-20.47285],[-40.48415,-20.50518],[-40.37994,-20.51811],[-40.37495,-20.53075],[-40.37715,-20.5355],[-40.39102,-20.55566],[-40.40279,-20.58255],[-40.40457,-20.5993],[-40.43455,-20.64166],[-40.43494,-20.63554],[-40.45177,-20.62425],[-40.46413,-20.62375],[-40.46819,-20.64579],[-40.47202,-20.65384],[-40.46475,-20.65264],[-40.46851,-20.66053],[-40.48056,-20.65236],[-40.48868,-20.65522],[-40.49755,-20.6639],[-40.49167,-20.66902],[-40.50178,-20.67622],[-40.51413,-20.69949],[-40.51557,-20.70808],[-40.53334,-20.74108],[-40.54742,-20.73958],[-40.55919,-20.7493],[-40.57376,-20.7693],[-40.577,-20.7883],[-40.58331,-20.80272],[-40.59342,-20.80222],[-40.61027,-20.80848],[-40.62163,-20.83405],[-40.63075,-20.8412],[-40.63327,-20.83021],[-40.62829,-20.82031],[-40.63857,-20.81124],[-40.65332,-20.80587],[-40.66581,-20.81227],[-40.68291,-20.82675],[-40.69056,-20.82807],[-40.6903,-20.83151],[-40.7059,-20.83661],[-40.71971,-20.84639],[-40.72827,-20.84216],[-40.74643,-20.85007],[-40.75889,-20.86565],[-40.82804,-20.89083],[-40.85175,-20.88619],[-40.86602,-20.89298],[-40.89075,-20.88974],[-40.92608,-20.89124],[-40.94844,-20.88479],[-40.95169,-20.88059],[-40.9796,-20.86939],[-40.98583,-20.86291],[-40.98716,-20.84203],[-40.99121,-20.83654],[-40.97862,-20.82303],[-40.98709,-20.80714],[-40.98438,-20.80208],[-40.99592,-20.79192],[-40.99445,-20.78171],[-40.96955,-20.75541],[-40.96625,-20.73597],[-40.95673,-20.71385],[-40.9633,-20.7104],[-40.95631,-20.69066],[-40.95227,-20.69563],[-40.9326,-20.68502],[-40.92972,-20.67825],[-40.93422,-20.66279],[-40.92559,-20.64766],[-40.91582,-20.64395],[-40.91078,-20.63351],[-40.91024,-20.61845],[-40.9363,-20.5996],[-40.94544,-20.60609],[-40.96262,-20.60167],[-40.95606,-20.59181],[-40.9683,-20.57645],[-40.96709,-20.56452],[-40.95509,-20.55938],[-40.96617,-20.54248],[-40.96208,-20.5381],[-40.95929,-20.52134],[-40.96232,-20.51226],[-40.95983,-20.49748],[-40.96864,-20.49728],[-40.96593,-20.48364],[-40.97242,-20.48066],[-40.97028,-20.46226],[-40.97762,-20.45597],[-40.98499,-20.46053],[-40.98483,-20.44829],[-40.99508,-20.44164],[-40.98811,-20.43684],[-40.96271,-20.43411],[-40.96282,-20.43074],[-40.94773,-20.43918],[-40.92998,-20.43685],[-40.91245,-20.44868],[-40.9044,-20.46214],[-40.88194,-20.46555],[-40.86961,-20.46494],[-40.86792,-20.47807],[-40.85524,-20.49179],[-40.84142,-20.48485],[-40.82892,-20.48476],[-40.82247,-20.48873],[-40.81226,-20.48284],[-40.80726,-20.49188],[-40.80958,-20.49989],[-40.82195,-20.51679],[-40.81582,-20.52314],[-40.7981,-20.51432],[-40.793,-20.5077],[-40.78676,-20.50996],[-40.77888,-20.49774],[-40.76394,-20.49789],[-40.76234,-20.5046],[-40.74804,-20.49351],[-40.7429,-20.47523],[-40.72388,-20.45827],[-40.7098,-20.4589],[-40.70848,-20.44711],[-40.71441,-20.44109],[-40.70471,-20.43488],[-40.69242,-20.43316],[-40.67362,-20.45007],[-40.66029,-20.45011],[-40.65901,-20.45962],[-40.65097,-20.45933],[-40.63346,-20.47121],[-40.62624,-20.4679]]]]},"properties":{"CD_REG":"32010","NM_REG":"Guarapari","SIGLA_UF":"ES"}},{"type":"Feature","geometry":{"type":"Polygon","coordinates":[[[-41.32767,-20.49755],[-41.31976,-20.50675],[-41.32836,-20.51436],[-41.34417,-20.51351],[-41.35439,-20.50669],[-41.3623,-20.51022],[-41.37732,-20.50844],[-41.37845,-20.52792],[-41.37294,-20.53678],[-41.38748,-20.54146],[-41.38542,-20.5538],[-41.40582,-20.54698],[-41.40982,-20.5709],[-41.40644,-20.58184],[-41.39715,-20.59594],[-41.39996,-20.60341],[-41.39149,-20.61012],[-41.39502,-20.61387],[-41.38904,-20.62568],[-41.3796,-20.62314],[-41.37407,-20.62837],[-41.37997,-20.63678],[-41.37218,-20.64567],[-41.38452,-20.65862],[-41.38899,-20.67133],[-41.38361,-20.69052],[-41.38862,-20.70257],[-41.39573,-20.70663],[-41.39322,-20.71912],[-41.41817,-20.78119],[-41.42886,-20.79013],[-41.44225,-20.79528],[-41.45341,-20.80557],[-41.4555,-20.82174],[-41.45357,-20.83396],[-41.45937,-20.83709],[-41.45841,-20.85563],[-41.46367,-20.86661],[-41.45633,-20.87045],[-41.45945,-20.88128],[-41.45342,-20.89134],[-41.46127,-20.8928],[-41.46136,-20.90091],[-41.47067,-20.89702],[-41.47589,-20.88353],[-41.48714,-20.88575],[-41.49057,-20.89564],[-41.49872,-20.89549],[-41.50183,-20.90827],[-41.51627,-20.89758],[-41.51437,-20.88843],[-41.5375,-20.88287],[-41.56878,-20.899],[-41.57393,-20.90957],[-41.57975,-20.9114],[-41.58414,-20.8994],[-41.59915,-20.89098],[-41.60152,-20.90091],[-41.6133,-20.90026],[-41.61122,-20.89237],[-41.61809,-20.87524],[-41.63126,-20.85838],[-41.63553,-20.84428],[-41.64656,-20.85871],[-41.64449,-20.86863],[-41.65014,-20.87745],[-41.65258,-20.89198],[-41.65998,-20.89488],[-41.66228,-20.88866],[-41.68244,-20.90905],[-41.68328,-20.9222],[-41.68758,-20.93001],[-41.69211,-20.92268],[-41.7055,-20.92144],[-41.71273,-20.93094],[-41.71868,-20.93128],[-41.72372,-20.94174],[-41.73377,-20.94334],[-41.73735,-20.92794],[-41.72247,-20.92332],[-41.71914,-20.89739],[-41.72566,-20.89514],[-41.72365,-20.88456],[-41.71146,-20.87196],[-41.7254,-20.86572],[-41.73733,-20.87015],[-41.7439,-20.85464],[-41.74164,-20.84151],[-41.73631,-20.83591],[-41.74264,-20.82562],[-41.73985,-20.8175],[-41.74613,-20.81265],[-41.75175,-20.81631],[-41.7555,-20.80827],[-41.7821,-20.7977],[-41.79403,-20.79805],[-41.79917,-20.80532],[-41.81271,-20.803],[-41.82883,-20.79434],[-41.8262,-20.7892],[-41.83244,-20.78188],[-41.84258,-20.77915],[-41.852,-20.76396],[-41.87474,-20.76593],[-41.8792,-20.76225],[-41.87641,-20.74708],[-41.87084,-20.7424],[-41.85894,-20.74349],[-41.86536,-20.72202],[-41.85461,-20.70546],[-41.84795,-20.68668],[-41.83937,-20.68345],[-41.83124,-20.66852],[-41.81323,-20.65326],[-41.81642,-20.64705],[-41.8073,-20.64369],[-41.8212,-20.63713],[-41.81741,-20.62454],[-41.83918,-20.62484],[-41.8564,-20.61719],[-41.85314,-20.60756],[-41.8413,-20.60044],[-41.8345,-20.5686],[-41.82839,-20.5573],[-41.80831,-20.55055],[-41.8043,-20.5384],[-41.82542,-20.48326],[-41.79944,-20.47728],[-41.79926,-20.46314],[-41.80287,-20.44296],[-41.79823,-20.43502],[-41.80368,-20.42198],[-41.83269,-20.41249],[-41.84103,-20.39945],[-41.84506,-20.37736],[-41.85951,-20.37284],[-41.8525,-20.35678],[-41.85325,-20.35058],[-41.8444,-20.34093],[-41.84851,-20.33048],[-41.837,-20.33064],[-41.82566,-20.31988],[-41.82509,-20.31239],[-41.80695,-20.30749],[-41.80309,-20.2992],[-41.78214,-20.29448],[-41.77627,-20.28636],[-41.7805,-20.28199],[-41.77553,-20.26083],[-41.76975,-20.2551],[-41.76711,-20.22926],[-41.75675,-20.20687],[-41.41558,-20.20736],[-41.41587,-20.21835],[-41.40822,-20.23363],[-41.39903,-20.23419],[-41.3927,-20.22602],[-41.39607,-20.22094],[-41.38155,-20.22354],[-41.37684,-20.21885],[-41.37723,-20.20569],[-41.36755,-20.20553],[-41.34999,-20.19808],[-41.33857,-20.22399],[-41.35049,-20.23411],[-41.34809,-20.24281],[-41.33493,-20.24341],[-41.31708,-20.25735],[-41.31047,-20.26938],[-41.31937,-20.27361],[-41.31462,-20.28925],[-41.31719,-20.30109],[-41.33141,-20.30332],[-41.3344,-20.29902],[-41.3505,-20.30208],[-41.35533,-20.30692],[-41.36128,-20.32545],[-41.35706,-20.33335],[-41.35751,-20.34843],[-41.346,-20.37433],[-41.34582,-20.38758],[-41.3369,-20.38557],[-41.32921,-20.39531],[-41.32324,-20.39542],[-41.31673,-20.40863],[-41.31992,-20.41788],[-41.31485,-20.42726],[-41.32067,-20.46866],[-41.3178,-20.49133],[-41.32767,-20.49755]]]},"properties":{"CD_REG":"32011","NM_REG":"Alegre","SIGLA_UF":"ES"}},{"type":"Feature","geometry":{"type":"Polygon","coordinates":[[[-40.98811,-20.43684],[-40.99508,-20.44164],[-40.98483,-20.44829],[-40.98499,-20.46053],[-40.97762,-20.45597],[-40.97028,-20.46226],[-40.97242,-20.48066],[-40.96593,-20.48364],[-40.96864,-20.49728],[-40.95983,-20.49748],[-40.96232,-20.51226],[-40.95929,-20.52134],[-40.96208,-20.5381],[-40.96617,-20.54248],[-40.95509,-20.55938],[-40.96709,-20.56452],[-40.9683,-20.57645],[-40.95606,-20.59181],[-40.96262,-20.60167],[-40.94544,-20.60609],[-40.9363,-20.5996],[-40.91024,-20.61845],[-40.91078,-20.63351],[-40.91582,-20.64395],[-40.92559,-20.64766],[-40.93422,-20.66279],[-40.92972,-20.67825],[-40.9326,-20.68502],[-40.95227,-20.69563],[-40.95631,-20.69066],[-40.9633,-20.7104],[-40.95673,-20.71385],[-40.96625,-20.73597],[-40.96955,-20.75541],[-40.99445,-20.78171],[-40.99592,-20.79192],[-40.98438,-20.80208],[-40.98709,-20.80714],[-40.97862,-20.82303],[-40.99121,-20.83654],[-40.98716,-20.84203],[-40.98583,-20.86291],[-40.9796,-20.86939],[-41.03955,-20.86935],[-41.05326,-20.87894],[-41.05723,-20.89197],[-41.05293,-20.90309],[-41.06619,-20.90793],[-41.07177,-20.91929],[-41.08026,-20.92115],[-41.07987,-20.9336],[-41.09835,-20.95772],[-41.10707,-20.95716],[-41.11991,-20.96636],[-41.10701,-20.96991],[-41.09913,-20.98511],[-41.10871,-20.98579],[-41.11044,-20.99653],[-41.10351,-21.00211],[-41.11742,-21.01196],[-41.12629,-21.01391],[-41.1319,-21.03009],[-41.14369,-21.03809],[-41.15335,-21.03894],[-41.15042,-21.0506],[-41.16026,-21.06126],[-41.17591,-21.06256],[-41.18835,-21.06884],[-41.19431,-21.06133],[-41.22185,-21.07172],[-41.23367,-21.07844],[-41.23078,-21.08602],[-41.22007,-21.09559],[-41.22296,-21.11205],[-41.21102,-21.12931],[-41.20034,-21.15677],[-41.191,-21.17442],[-41.19201,-21.19298],[-41.18386,-21.2284],[-41.18131,-21.231],[-41.15783,-21.23065],[-41.13706,-21.22742],[-41.14245,-21.23805],[-41.15563,-21.23973],[-41.15653,-21.24472],[-41.17559,-21.24472],[-41.17838,-21.23842],[-41.19036,-21.24856],[-41.22214,-21.23287],[-41.24137,-21.22036],[-41.25649,-21.22525],[-41.26195,-21.23655],[-41.27356,-21.23365],[-41.27562,-21.2397],[-41.28259,-21.23482],[-41.30346,-21.2286],[-41.3096,-21.21984],[-41.31694,-21.222],[-41.31618,-21.21355],[-41.33266,-21.21549],[-41.33199,-21.21058],[-41.35769,-21.2036],[-41.37537,-21.20155],[-41.37665,-21.1958],[-41.39128,-21.20191],[-41.41077,-21.19861],[-41.42159,-21.20332],[-41.43525,-21.2157],[-41.44617,-21.21548],[-41.4537,-21.20907],[-41.46963,-21.20279],[-41.47748,-21.19575],[-41.48652,-21.17989],[-41.49826,-21.18513],[-41.50294,-21.17765],[-41.51155,-21.17584],[-41.51674,-21.18772],[-41.53044,-21.18003],[-41.5487,-21.18305],[-41.55541,-21.17255],[-41.56462,-21.18374],[-41.56981,-21.17243],[-41.57862,-21.16955],[-41.58615,-21.15968],[-41.58613,-21.14981],[-41.61259,-21.157],[-41.62198,-21.14696],[-41.65409,-21.14217],[-41.65244,-21.13765],[-41.66536,-21.13198],[-41.66278,-21.12485],[-41.67875,-21.13321],[-41.67766,-21.12409],[-41.68874,-21.1218],[-41.69559,-21.11553],[-41.70573,-21.12082],[-41.70494,-21.12779],[-41.72056,-21.12237],[-41.70833,-21.10661],[-41.72722,-21.1073],[-41.73594,-21.1026],[-41.73127,-21.08731],[-41.72156,-21.0733],[-41.72346,-21.06699],[-41.73264,-21.0664],[-41.72792,-21.04925],[-41.72377,-21.05567],[-41.71621,-21.04681],[-41.7252,-21.03308],[-41.71455,-21.01541],[-41.72242,-21.00916],[-41.71557,-20.99131],[-41.71007,-20.99131],[-41.71802,-20.96504],[-41.71734,-20.95323],[-41.73377,-20.94334],[-41.72372,-20.94174],[-41.71868,-20.93128],[-41.71273,-20.93094],[-41.7055,-20.92144],[-41.69211,-20.92268],[-41.68758,-20.93001],[-41.68328,-20.9222],[-41.68244,-20.90905],[-41.66228,-20.88866],[-41.65998,-20.89488],[-41.65258,-20.89198],[-41.65014,-20.87745],[-41.64449,-20.86863],[-41.64656,-20.85871],[-41.63553,-20.84428],[-41.63126,-20.85838],[-41.61809,-20.87524],[-41.61122,-20.89237],[-41.6133,-20.90026],[-41.60152,-20.90091],[-41.59915,-20.89098],[-41.58414,-20.8994],[-41.57975,-20.9114],[-41.57393,-20.90957],[-41.56878,-20.899],[-41.5375,-20.88287],[-41.51437,-20.88843],[-41.51627,-20.89758],[-41.50183,-20.90827],[-41.49872,-20.89549],[-41.49057,-20.89564],[-41.48714,-20.88575],[-41.47589,-20.88353],[-41.47067,-20.89702],[-41.46136,-20.90091],[-41.46127,-20.8928],[-41.45342,-20.89134],[-41.45945,-20.88128],[-41.45633,-20.87045],[-41.46367,-20.86661],[-41.45841,-20.85563],[-41.45937,-20.83709],[-41.45357,-20.83396],[-41.4555,-20.82174],[-41.45341,-20.80557],[-41.44225,-20.79528],[-41.42886,-20.79013],[-41.41817,-20.78119],[-41.39322,-20.71912],[-41.39573,-20.70663],[-41.38862,-20.70257],[-41.38361,-20.69052],[-41.38899,-20.67133],[-41.38452,-20.65862],[-41.37218,-20.64567],[-41.37997,-20.63678],[-41.37407,-20.62837],[-41.3796,-20.62314],[-41.38904,-20.62568],[-41.39502,-20.61387],[-41.39149,-20.61012],[-41.39996,-20.60341],[-41.39715,-20.59594],[-41.40644,-20.58184],[-41.40982,-20.5709],[-41.40582,-20.54698],[-41.38542,-20.5538],[-41.38748,-20.54146],[-41.37294,-20.53678],[-41.37845,-20.52792],[-41.37732,-20.50844],[-41.3623,-20.51022],[-41.35439,-20.50669],[-41.34417,-20.51351],[-41.32836,-20.51436],[-41.31976,-20.50675],[-41.32767,-20.49755],[-41.32187,-20.49628],[-41.31123,-20.51391],[-41.29977,-20.5215],[-41.28641,-20.506],[-41.28016,-20.50788],[-41.28332,-20.48796],[-41.27088,-20.49226],[-41.26222,-20.48629],[-41.24843,-20.49178],[-41.24242,-20.5001],[-41.23644,-20.48775],[-41.21001,-20.49104],[-41.2068,-20.48224],[-41.21549,-20.47493],[-41.2164,-20.46797],[-41.2249,-20.46213],[-41.22234,-20.45203],[-41.21499,-20.44523],[-41.20488,-20.45499],[-41.19116,-20.44558],[-41.1659,-20.44497],[-41.16588,-20.42614],[-41.15913,-20.42205],[-41.14248,-20.43157],[-41.11444,-20.41974],[-41.11126,-20.40531],[-41.10485,-20.40284],[-41.09777,-20.40887],[-41.10337,-20.42017],[-41.10115,-20.43378],[-41.08922,-20.44184],[-41.07569,-20.44525],[-41.06784,-20.46029],[-41.05284,-20.45991],[-41.05621,-20.46917],[-41.05102,-20.48106],[-41.04627,-20.47668],[-41.0399,-20.48361],[-41.01855,-20.4835],[-41.01939,-20.47801],[-41.005,-20.47048],[-41.01065,-20.45803],[-41.00744,-20.45049],[-41.01038,-20.43376],[-41.00179,-20.42622],[-40.98961,-20.43088],[-40.98811,-20.43684]]]},"properties":{"CD_REG":"32012","NM_REG":"Cachoeiro de Itapemirim","SIGLA_UF":"ES"}},{"type":"Feature","geometry":{"type":"MultiPolygon","coordinates":[[[[-40.88394,-21.16182],[-40.88325,-21.16375],[-40.88506,-21.16265],[-40.88394,-21.16182]]],[[[-40.80134,-21.00689],[-40.80155,-21.00675],[-40.80038,-21.00598],[-40.80134,-21.00689]]],[[[-40.78815,-21.00337],[-40.78769,-21.00295],[-40.78779,-21.00343],[-40.78815,-21.00337]]],[[[-40.78581,-21.0025],[-40.7865,-21.00161],[-40.78524,-21.00104],[-40.78581,-21.0025]]],[[[-40.75205,-20.92745],[-40.75691,-20.92793],[-40.75308,-20.92429],[-40.75205,-20.92745]]],[[[-40.75229,-20.87478],[-40.75048,-20.87326],[-40.74944,-20.8733],[-40.75229,-20.87478]]],[[[-40.96104,-21.30112],[-40.97178,-21.29519],[-40.97992,-21.28012],[-40.98495,-21.28748],[-40.99502,-21.28638],[-40.99932,-21.27847],[-40.99823,-21.26727],[-41.00537,-21.25108],[-41.01544,-21.25189],[-41.02438,-21.2458],[-41.0358,-21.25407],[-41.04438,-21.25328],[-41.05932,-21.23465],[-41.09123,-21.2189],[-41.1054,-21.21958],[-41.11555,-21.22864],[-41.13706,-21.22742],[-41.15783,-21.23065],[-41.18131,-21.231],[-41.18386,-21.2284],[-41.19201,-21.19298],[-41.191,-21.17442],[-41.20034,-21.15677],[-41.21102,-21.12931],[-41.22296,-21.11205],[-41.22007,-21.09559],[-41.23078,-21.08602],[-41.23367,-21.07844],[-41.22185,-21.07172],[-41.19431,-21.06133],[-41.18835,-21.06884],[-41.17591,-21.06256],[-41.16026,-21.06126],[-41.15042,-21.0506],[-41.15335,-21.03894],[-41.14369,-21.03809],[-41.1319,-21.03009],[-41.12629,-21.01391],[-41.11742,-21.01196],[-41.10351,-21.00211],[-41.11044,-20.99653],[-41.10871,-20.98579],[-41.09913,-20.98511],[-41.10701,-20.96991],[-41.11991,-20.96636],[-41.10707,-20.95716],[-41.09835,-20.95772],[-41.07987,-20.9336],[-41.08026,-20.92115],[-41.07177,-20.91929],[-41.06619,-20.90793],[-41.05293,-20.90309],[-41.05723,-20.89197],[-41.05326,-20.87894],[-41.03955,-20.86935],[-40.9796,-20.86939],[-40.95169,-20.88059],[-40.94844,-20.88479],[-40.92608,-20.89124],[-40.89075,-20.88974],[-40.86602,-20.89298],[-40.85175,-20.88619],[-40.82804,-20.89083],[-40.75889,-20.86565],[-40.75847,-20.87847],[-40.76757,-20.89196],[-40.7734,-20.8932],[-40.77697,-20.90425],[-40.79499,-20.9252],[-40.80345,-20.94168],[-40.80867,-20.95925],[-40.81107,-20.98624],[-40.80488,-21.0046],[-40.81252,-21.03188],[-40.83217,-21.05354],[-40.84246,-21.08851],[-40.85628,-21.1179],[-40.85842,-21.12763],[-40.87581,-21.13854],[-40.89256,-21.15656],[-40.9042,-21.16353],[-40.91678,-21.17555],[-40.93197,-21.19839],[-40.94997,-21.22961],[-40.95752,-21.24636],[-40.96203,-21.26544],[-40.96104,-21.30112]]]]},"properties":{"CD_REG":"32013","NM_REG":"Itapemirim","SIGLA_UF":"ES"}}]}