{"type":"FeatureCollection","features":[{"type":"Feature","geometry":{"type":"Polygon","coordinates":[[[-37.17393,-6.04802],[-37.17557,-6.05494],[-37.17132,-6.07687],[-37.17157,-6.1013],[-37.16698,-6.11036],[-37.1751,-6.14218],[-37.16638,-6.15391],[-37.15692,-6.15249],[-37.16568,-6.17037],[-37.17422,-6.1801],[-37.19352,-6.18425],[-37.19424,-6.19825],[-37.20158,-6.2057],[-37.23427,-6.21328],[-37.25153,-6.22646],[-37.27055,-6.25171],[-37.27314,-6.27997],[-37.28685,-6.28227],[-37.30978,-6.27778],[-37.32145,-6.28281],[-37.33042,-6.30633],[-37.35111,-6.31437],[-37.36335,-6.32217],[-37.37733,-6.34439],[-37.37754,-6.36933],[-37.38855,-6.37973],[-37.38883,-6.39098],[-37.39612,-6.40114],[-37.39577,-6.42012],[-37.3866,-6.42604],[-37.38124,-6.43711],[-37.39095,-6.45284],[-37.39354,-6.4722],[-37.39579,-6.51009],[-37.39999,-6.51949],[-37.4117,-6.52953],[-37.42119,-6.5333],[-37.46472,-6.53266],[-37.47843,-6.53353],[-37.48763,-6.51005],[-37.49787,-6.52356],[-37.54025,-6.54564],[-37.55384,-6.54986],[-37.57413,-6.55137],[-37.6042,-6.53456],[-37.59923,-6.51503],[-37.60282,-6.51265],[-37.61419,-6.52697],[-37.62486,-6.52466],[-37.63895,-6.52948],[-37.64675,-6.5403],[-37.65831,-6.54007],[-37.66409,-6.54823],[-37.69758,-6.54661],[-37.69234,-6.55912],[-37.71073,-6.56475],[-37.71743,-6.57773],[-37.7278,-6.58122],[-37.74292,-6.57774],[-37.75406,-6.58436],[-37.75451,-6.5961],[-37.77107,-6.59844],[-37.78548,-6.60352],[-37.791,-6.61302],[-37.78435,-6.62681],[-37.78307,-6.64171],[-37.86136,-6.63846],[-37.87747,-6.62669],[-37.90086,-6.61807],[-37.91194,-6.61776],[-37.91926,-6.62326],[-37.93809,-6.62593],[-37.96466,-6.62357],[-37.97104,-6.61834],[-37.95964,-6.60633],[-37.97217,-6.5926],[-37.97331,-6.583],[-37.96336,-6.56976],[-37.98069,-6.5296],[-37.98849,-6.52739],[-38.01313,-6.52817],[-38.02394,-6.52413],[-38.0249,-6.51486],[-38.01662,-6.49101],[-38.01792,-6.48173],[-38.02676,-6.47476],[-38.02182,-6.46846],[-38.01273,-6.46827],[-38.01985,-6.44694],[-38.00823,-6.43219],[-38.0137,-6.42743],[-37.98344,-6.42814],[-37.97106,-6.42243],[-37.96802,-6.40512],[-37.9554,-6.39821],[-37.95521,-6.40806],[-37.94227,-6.42406],[-37.92605,-6.42114],[-37.92293,-6.41466],[-37.90153,-6.39968],[-37.89026,-6.40014],[-37.88426,-6.39168],[-37.88851,-6.38721],[-37.88758,-6.36414],[-37.85889,-6.37435],[-37.85424,-6.36632],[-37.84153,-6.36303],[-37.84412,-6.35436],[-37.83432,-6.34172],[-37.8432,-6.33309],[-37.84015,-6.32677],[-37.81454,-6.31231],[-37.82403,-6.30603],[-37.81042,-6.29166],[-37.79452,-6.28903],[-37.76488,-6.29224],[-37.75808,-6.28659],[-37.77142,-6.27307],[-37.76174,-6.25287],[-37.77661,-6.24587],[-37.76142,-6.23956],[-37.77562,-6.23134],[-37.76385,-6.2189],[-37.75607,-6.21716],[-37.75486,-6.20206],[-37.74237,-6.18898],[-37.709,-6.177],[-37.70007,-6.18512],[-37.67317,-6.19058],[-37.64671,-6.18939],[-37.63848,-6.17984],[-37.59991,-6.17401],[-37.58227,-6.16149],[-37.56962,-6.15544],[-37.56065,-6.16453],[-37.53999,-6.16593],[-37.53635,-6.15284],[-37.52188,-6.15179],[-37.50289,-6.15214],[-37.5034,-6.1444],[-37.48937,-6.14444],[-37.48299,-6.15168],[-37.45895,-6.145],[-37.45391,-6.12007],[-37.44569,-6.1122],[-37.42595,-6.109],[-37.40781,-6.11278],[-37.39363,-6.10939],[-37.38234,-6.08555],[-37.37156,-6.08278],[-37.35443,-6.08649],[-37.33578,-6.06746],[-37.3092,-6.05776],[-37.29557,-6.05009],[-37.28692,-6.05799],[-37.27248,-6.0557],[-37.26358,-6.04636],[-37.25647,-6.02847],[-37.25061,-6.02591],[-37.23186,-6.02759],[-37.22269,-6.04215],[-37.20216,-6.03884],[-37.19634,-6.04724],[-37.17393,-6.04802]]]},"properties":{"CD_REG":"25001","NM_REG":"Catolé do Rocha","SIGLA_UF":"PB"}},{"type":"Feature","geometry":{"type":"Polygon","coordinates":[[[-38.3438,-6.45665],[-38.32844,-6.46066],[-38.31899,-6.47276],[-38.31409,-6.48733],[-38.29751,-6.48721],[-38.28872,-6.50562],[-38.28016,-6.52168],[-38.31245,-6.52675],[-38.31451,-6.53354],[-38.30398,-6.54027],[-38.29797,-6.56267],[-38.30242,-6.5718],[-38.32279,-6.58256],[-38.32878,-6.5771],[-38.35012,-6.59336],[-38.34426,-6.60067],[-38.34953,-6.618],[-38.34195,-6.62966],[-38.34949,-6.63517],[-38.34224,-6.64381],[-38.34366,-6.65674],[-38.33506,-6.66738],[-38.34244,-6.67667],[-38.35657,-6.68464],[-38.35366,-6.69186],[-38.35325,-6.71275],[-38.36083,-6.71748],[-38.34458,-6.73624],[-38.35863,-6.74068],[-38.35189,-6.78785],[-38.37856,-6.847],[-38.36797,-6.8549],[-38.35201,-6.8863],[-38.36365,-6.91127],[-38.37506,-6.92178],[-38.37872,-6.91558],[-38.38355,-6.92812],[-38.40047,-6.92878],[-38.41059,-6.92581],[-38.4178,-6.93103],[-38.42809,-6.93092],[-38.4236,-6.9667],[-38.38693,-6.98819],[-38.36593,-6.9889],[-38.33672,-6.99279],[-38.32667,-7.0138],[-38.30808,-7.02487],[-38.2904,-7.02112],[-38.29074,-7.02658],[-38.32304,-7.06221],[-38.33036,-7.06121],[-38.329,-7.07444],[-38.3177,-7.07506],[-38.31566,-7.08114],[-38.32119,-7.09077],[-38.31971,-7.09763],[-38.32697,-7.10644],[-38.34324,-7.10487],[-38.3307,-7.14424],[-38.32097,-7.13619],[-38.31121,-7.13539],[-38.30509,-7.12828],[-38.28464,-7.13049],[-38.29536,-7.1544],[-38.31199,-7.15485],[-38.31465,-7.16362],[-38.40814,-7.20245],[-38.40445,-7.23379],[-38.41014,-7.24231],[-38.40283,-7.24709],[-38.41423,-7.25412],[-38.41978,-7.26621],[-38.41525,-7.28211],[-38.42124,-7.28858],[-38.41793,-7.29772],[-38.42332,-7.30424],[-38.41098,-7.32841],[-38.41379,-7.34081],[-38.42492,-7.34443],[-38.43294,-7.3401],[-38.434,-7.34903],[-38.44223,-7.35929],[-38.45398,-7.35992],[-38.46031,-7.3678],[-38.47663,-7.37457],[-38.47966,-7.38245],[-38.50309,-7.37499],[-38.50477,-7.36424],[-38.51909,-7.36647],[-38.52757,-7.35915],[-38.52574,-7.34847],[-38.53362,-7.34094],[-38.54502,-7.34073],[-38.54938,-7.335],[-38.54965,-7.31441],[-38.54011,-7.30622],[-38.53459,-7.29379],[-38.54163,-7.28088],[-38.54284,-7.26565],[-38.5521,-7.26356],[-38.55491,-7.25554],[-38.55196,-7.24348],[-38.55888,-7.23942],[-38.58308,-7.24838],[-38.59766,-7.24419],[-38.61537,-7.23019],[-38.62293,-7.20375],[-38.61979,-7.19706],[-38.6248,-7.19132],[-38.63655,-7.19376],[-38.64529,-7.18342],[-38.67219,-7.18519],[-38.68783,-7.19016],[-38.68302,-7.17598],[-38.67658,-7.1692],[-38.68519,-7.16134],[-38.67529,-7.15572],[-38.67788,-7.13267],[-38.6588,-7.10334],[-38.65641,-7.09243],[-38.67724,-7.0671],[-38.66985,-7.0477],[-38.6898,-7.04023],[-38.69144,-7.02914],[-38.71072,-7.01897],[-38.73058,-7.01203],[-38.75188,-6.99692],[-38.76511,-6.99323],[-38.75107,-6.98767],[-38.74225,-6.97428],[-38.74597,-6.96253],[-38.76402,-6.95237],[-38.76402,-6.94462],[-38.75572,-6.94013],[-38.75893,-6.91663],[-38.76518,-6.91094],[-38.75628,-6.90359],[-38.73029,-6.89681],[-38.73242,-6.88923],[-38.71401,-6.88615],[-38.71036,-6.87466],[-38.70041,-6.8766],[-38.68669,-6.86579],[-38.67542,-6.86183],[-38.6772,-6.85433],[-38.66888,-6.84296],[-38.67294,-6.83614],[-38.65187,-6.81171],[-38.63758,-6.8053],[-38.63909,-6.79286],[-38.61692,-6.7933],[-38.61393,-6.78244],[-38.62902,-6.77771],[-38.64027,-6.76399],[-38.65268,-6.75976],[-38.64997,-6.75224],[-38.65782,-6.73723],[-38.65598,-6.73024],[-38.66489,-6.72409],[-38.67373,-6.70799],[-38.67315,-6.69722],[-38.66058,-6.6788],[-38.65196,-6.67318],[-38.64641,-6.66243],[-38.64697,-6.65421],[-38.65708,-6.64229],[-38.65526,-6.63048],[-38.64913,-6.62759],[-38.64666,-6.61598],[-38.62916,-6.60458],[-38.63293,-6.58993],[-38.64297,-6.58213],[-38.63308,-6.56921],[-38.62661,-6.55295],[-38.61217,-6.53832],[-38.61052,-6.53229],[-38.61611,-6.52815],[-38.61229,-6.51319],[-38.59497,-6.50044],[-38.57041,-6.4702],[-38.56702,-6.45207],[-38.5564,-6.44764],[-38.55427,-6.43276],[-38.51886,-6.40573],[-38.5294,-6.39289],[-38.54477,-6.40226],[-38.55152,-6.39817],[-38.57197,-6.40411],[-38.58099,-6.40176],[-38.58717,-6.39427],[-38.59413,-6.39686],[-38.6018,-6.39171],[-38.59247,-6.37825],[-38.57311,-6.37492],[-38.5771,-6.36424],[-38.56251,-6.35565],[-38.54507,-6.35376],[-38.54501,-6.34459],[-38.53262,-6.34171],[-38.51515,-6.34717],[-38.50425,-6.35614],[-38.49418,-6.34482],[-38.4765,-6.33383],[-38.45839,-6.33021],[-38.47604,-6.34573],[-38.48856,-6.36161],[-38.48432,-6.37499],[-38.48506,-6.39942],[-38.45079,-6.39277],[-38.44796,-6.40335],[-38.42705,-6.41377],[-38.40174,-6.40956],[-38.38453,-6.42222],[-38.37777,-6.43687],[-38.37251,-6.45613],[-38.36379,-6.45364],[-38.36098,-6.46199],[-38.35522,-6.45722],[-38.3438,-6.45665]]]},"properties":{"CD_REG":"25002","NM_REG":"Cajazeiras","SIGLA_UF":"PB"}},{"type":"Feature","geometry":{"type":"Polygon","coordinates":[[[-38.02676,-6.47476],[-38.01792,-6.48173],[-38.01662,-6.49101],[-38.0249,-6.51486],[-38.02394,-6.52413],[-38.01313,-6.52817],[-37.98849,-6.52739],[-37.98069,-6.5296],[-37.96336,-6.56976],[-37.97331,-6.583],[-37.97217,-6.5926],[-37.95964,-6.60633],[-37.97104,-6.61834],[-37.96466,-6.62357],[-37.93809,-6.62593],[-37.91926,-6.62326],[-37.91194,-6.61776],[-37.90086,-6.61807],[-37.87747,-6.62669],[-37.86136,-6.63846],[-37.78307,-6.64171],[-37.78435,-6.62681],[-37.791,-6.61302],[-37.78548,-6.60352],[-37.77107,-6.59844],[-37.75451,-6.5961],[-37.75406,-6.58436],[-37.74292,-6.57774],[-37.7278,-6.58122],[-37.71743,-6.57773],[-37.71073,-6.56475],[-37.69234,-6.55912],[-37.69758,-6.54661],[-37.66409,-6.54823],[-37.65831,-6.54007],[-37.64675,-6.5403],[-37.63895,-6.52948],[-37.62486,-6.52466],[-37.61419,-6.52697],[-37.60282,-6.51265],[-37.59923,-6.51503],[-37.6042,-6.53456],[-37.57413,-6.55137],[-37.55384,-6.54986],[-37.54025,-6.54564],[-37.49787,-6.52356],[-37.48763,-6.51005],[-37.47843,-6.53353],[-37.46472,-6.53266],[-37.48236,-6.54771],[-37.48191,-6.55725],[-37.47481,-6.56445],[-37.47861,-6.57823],[-37.48038,-6.60522],[-37.47453,-6.61791],[-37.47636,-6.6448],[-37.46619,-6.65996],[-37.4752,-6.67282],[-37.47086,-6.67953],[-37.4847,-6.71004],[-37.48948,-6.70634],[-37.5023,-6.71499],[-37.51439,-6.71831],[-37.52845,-6.73169],[-37.52345,-6.71506],[-37.53662,-6.71869],[-37.54785,-6.74082],[-37.53952,-6.74793],[-37.54669,-6.76728],[-37.55373,-6.77539],[-37.53473,-6.77723],[-37.52323,-6.76944],[-37.50514,-6.78144],[-37.50726,-6.80173],[-37.50536,-6.81417],[-37.52697,-6.82093],[-37.52762,-6.83082],[-37.51876,-6.83599],[-37.51063,-6.85133],[-37.49972,-6.86173],[-37.50089,-6.86813],[-37.5099,-6.86558],[-37.51298,-6.8706],[-37.50001,-6.87547],[-37.49371,-6.88958],[-37.49727,-6.90013],[-37.48219,-6.91576],[-37.48264,-6.92031],[-37.46699,-6.93754],[-37.47028,-6.94734],[-37.45352,-6.95668],[-37.46437,-6.96608],[-37.47762,-6.96632],[-37.48514,-6.97076],[-37.4942,-6.95822],[-37.50724,-6.95941],[-37.51162,-6.96961],[-37.522,-6.97264],[-37.52452,-6.988],[-37.51293,-6.99365],[-37.52006,-7.00164],[-37.58931,-6.99585],[-37.59857,-7.0005],[-37.62692,-6.99092],[-37.65288,-6.99968],[-37.65979,-7.0074],[-37.68306,-7.01878],[-37.71169,-7.02204],[-37.75749,-7.02242],[-37.78484,-7.01911],[-37.8125,-7.01876],[-37.83853,-7.02242],[-37.86936,-7.01645],[-37.87804,-7.01868],[-37.93016,-6.99536],[-38.00612,-6.94376],[-38.02177,-6.95325],[-38.03909,-6.97538],[-38.05927,-6.96922],[-38.0742,-6.97362],[-38.07839,-6.98404],[-38.07395,-6.99463],[-38.07695,-7.0086],[-38.09521,-7.01244],[-38.13281,-7.00761],[-38.17155,-7.01078],[-38.20144,-7.00985],[-38.21503,-7.00712],[-38.23144,-6.9988],[-38.23557,-6.99982],[-38.26412,-6.99252],[-38.27969,-7.0076],[-38.28472,-7.00831],[-38.2904,-7.02112],[-38.30808,-7.02487],[-38.32667,-7.0138],[-38.33672,-6.99279],[-38.36593,-6.9889],[-38.38693,-6.98819],[-38.4236,-6.9667],[-38.42809,-6.93092],[-38.4178,-6.93103],[-38.41059,-6.92581],[-38.40047,-6.92878],[-38.38355,-6.92812],[-38.37872,-6.91558],[-38.37506,-6.92178],[-38.36365,-6.91127],[-38.35201,-6.8863],[-38.36797,-6.8549],[-38.37856,-6.847],[-38.35189,-6.78785],[-38.35863,-6.74068],[-38.34458,-6.73624],[-38.36083,-6.71748],[-38.35325,-6.71275],[-38.35366,-6.69186],[-38.35657,-6.68464],[-38.34244,-6.67667],[-38.33506,-6.66738],[-38.34366,-6.65674],[-38.34224,-6.64381],[-38.34949,-6.63517],[-38.34195,-6.62966],[-38.34953,-6.618],[-38.34426,-6.60067],[-38.35012,-6.59336],[-38.32878,-6.5771],[-38.32279,-6.58256],[-38.30242,-6.5718],[-38.29797,-6.56267],[-38.30398,-6.54027],[-38.31451,-6.53354],[-38.31245,-6.52675],[-38.28016,-6.52168],[-38.28872,-6.50562],[-38.26985,-6.49444],[-38.26141,-6.48515],[-38.24727,-6.48498],[-38.24172,-6.4808],[-38.20055,-6.48828],[-38.19173,-6.49859],[-38.15979,-6.4986],[-38.14788,-6.49149],[-38.13912,-6.50594],[-38.13552,-6.51848],[-38.11706,-6.52267],[-38.09713,-6.50815],[-38.0954,-6.49359],[-38.08143,-6.48349],[-38.07015,-6.46275],[-38.05395,-6.45368],[-38.05145,-6.44241],[-38.0434,-6.44335],[-38.04392,-6.45198],[-38.03701,-6.45705],[-38.04092,-6.47029],[-38.03742,-6.47523],[-38.02676,-6.47476]]]},"properties":{"CD_REG":"25003","NM_REG":"Sousa","SIGLA_UF":"PB"}},{"type":"Feature","geometry":{"type":"Polygon","coordinates":[[[-37.2346,-6.82464],[-37.22233,-6.84238],[-37.21337,-6.88671],[-37.21249,-6.9052],[-37.19917,-6.90832],[-37.19478,-6.91451],[-37.20037,-6.91982],[-37.18431,-6.91895],[-37.17848,-6.92648],[-37.19319,-6.93386],[-37.17405,-6.94331],[-37.18108,-6.96281],[-37.17463,-6.97212],[-37.17318,-6.98314],[-37.15463,-6.99077],[-37.14172,-7.00178],[-37.12944,-7.00465],[-37.12167,-7.01277],[-37.10921,-7.0155],[-37.10297,-7.02264],[-37.08628,-7.02209],[-37.07526,-7.01427],[-37.05694,-7.02318],[-37.05949,-7.03987],[-37.03919,-7.0421],[-37.02414,-7.04871],[-37.00523,-7.05187],[-36.99034,-7.06188],[-36.94253,-7.04071],[-36.92256,-7.05254],[-36.91537,-7.08055],[-36.92256,-7.08875],[-36.92177,-7.10271],[-36.92683,-7.1115],[-36.92603,-7.12334],[-36.93053,-7.14984],[-36.93404,-7.17278],[-36.95772,-7.17344],[-36.96015,-7.17696],[-36.99371,-7.1808],[-37.02027,-7.19098],[-37.05443,-7.15643],[-37.06918,-7.15635],[-37.0767,-7.16667],[-37.08982,-7.16899],[-37.10073,-7.16648],[-37.12842,-7.181],[-37.14414,-7.19163],[-37.15916,-7.19062],[-37.16924,-7.19672],[-37.16861,-7.21704],[-37.1755,-7.22843],[-37.20094,-7.21544],[-37.21391,-7.20576],[-37.23128,-7.19838],[-37.24795,-7.19921],[-37.30862,-7.19673],[-37.33389,-7.21672],[-37.32171,-7.21589],[-37.32592,-7.22628],[-37.35364,-7.2343],[-37.35668,-7.24274],[-37.36698,-7.24009],[-37.37627,-7.24839],[-37.40126,-7.25878],[-37.40897,-7.26941],[-37.39139,-7.28046],[-37.38023,-7.29447],[-37.38487,-7.30146],[-37.39699,-7.30826],[-37.40263,-7.30711],[-37.40454,-7.29476],[-37.41872,-7.30161],[-37.43346,-7.32416],[-37.45606,-7.31206],[-37.51639,-7.31835],[-37.52909,-7.31583],[-37.53621,-7.31897],[-37.5699,-7.31624],[-37.55383,-7.30507],[-37.54086,-7.29031],[-37.52426,-7.28629],[-37.52109,-7.26125],[-37.51157,-7.2503],[-37.50288,-7.2485],[-37.49419,-7.22719],[-37.54322,-7.10966],[-37.51236,-7.11062],[-37.52006,-7.00164],[-37.51293,-6.99365],[-37.52452,-6.988],[-37.522,-6.97264],[-37.51162,-6.96961],[-37.50724,-6.95941],[-37.4942,-6.95822],[-37.48514,-6.97076],[-37.47762,-6.96632],[-37.46437,-6.96608],[-37.45352,-6.95668],[-37.47028,-6.94734],[-37.46699,-6.93754],[-37.48264,-6.92031],[-37.48219,-6.91576],[-37.49727,-6.90013],[-37.49371,-6.88958],[-37.50001,-6.87547],[-37.51298,-6.8706],[-37.5099,-6.86558],[-37.50089,-6.86813],[-37.49972,-6.86173],[-37.51063,-6.85133],[-37.51876,-6.83599],[-37.52762,-6.83082],[-37.52697,-6.82093],[-37.50536,-6.81417],[-37.50726,-6.80173],[-37.50514,-6.78144],[-37.52323,-6.76944],[-37.53473,-6.77723],[-37.55373,-6.77539],[-37.54669,-6.76728],[-37.53952,-6.74793],[-37.54785,-6.74082],[-37.53662,-6.71869],[-37.52345,-6.71506],[-37.52845,-6.73169],[-37.51439,-6.71831],[-37.5023,-6.71499],[-37.48948,-6.70634],[-37.4847,-6.71004],[-37.40733,-6.6972],[-37.3957,-6.70037],[-37.34271,-6.70125],[-37.3143,-6.68897],[-37.28372,-6.69391],[-37.29017,-6.71304],[-37.27992,-6.72423],[-37.26392,-6.73217],[-37.26798,-6.74396],[-37.26936,-6.76199],[-37.27395,-6.76679],[-37.2579,-6.77947],[-37.26059,-6.78736],[-37.25524,-6.7994],[-37.25514,-6.81106],[-37.2346,-6.82464]]]},"properties":{"CD_REG":"25004","NM_REG":"Patos","SIGLA_UF":"PB"}},{"type":"Feature","geometry":{"type":"Polygon","coordinates":[[[-37.52006,-7.00164],[-37.51236,-7.11062],[-37.54322,-7.10966],[-37.49419,-7.22719],[-37.50288,-7.2485],[-37.51157,-7.2503],[-37.52109,-7.26125],[-37.52426,-7.28629],[-37.54086,-7.29031],[-37.55383,-7.30507],[-37.5699,-7.31624],[-37.57669,-7.32744],[-37.587,-7.33353],[-37.61161,-7.32867],[-37.62654,-7.33076],[-37.64793,-7.32247],[-37.65809,-7.32499],[-37.66927,-7.32083],[-37.69183,-7.32838],[-37.69986,-7.33753],[-37.71056,-7.36759],[-37.71609,-7.37006],[-37.73011,-7.36389],[-37.7391,-7.36819],[-37.73699,-7.37809],[-37.72122,-7.38311],[-37.7247,-7.38708],[-37.75382,-7.39788],[-37.76055,-7.39187],[-37.76622,-7.39971],[-37.77604,-7.4018],[-37.78051,-7.38789],[-37.80139,-7.403],[-37.80818,-7.40327],[-37.82206,-7.41208],[-37.82693,-7.40979],[-37.84578,-7.42457],[-37.85211,-7.43317],[-37.92021,-7.47512],[-37.9561,-7.4986],[-37.98084,-7.52635],[-37.99731,-7.53067],[-38.02062,-7.5303],[-38.02371,-7.52397],[-38.04626,-7.51385],[-38.03613,-7.50444],[-38.0394,-7.48728],[-38.04934,-7.47815],[-38.04556,-7.45247],[-38.05125,-7.43058],[-38.06098,-7.42291],[-38.07042,-7.40943],[-38.06622,-7.40313],[-38.07988,-7.39635],[-38.08144,-7.38585],[-38.07438,-7.36244],[-38.06345,-7.34987],[-38.05712,-7.35028],[-38.0525,-7.3177],[-38.08589,-7.29451],[-38.09141,-7.235],[-38.15571,-7.22195],[-38.15768,-7.19007],[-38.17236,-7.16123],[-38.17953,-7.16236],[-38.19788,-7.17478],[-38.20902,-7.16536],[-38.2259,-7.16763],[-38.23251,-7.16041],[-38.24175,-7.1682],[-38.27729,-7.1781],[-38.28522,-7.17586],[-38.2948,-7.16253],[-38.29536,-7.1544],[-38.28464,-7.13049],[-38.30509,-7.12828],[-38.31121,-7.13539],[-38.32097,-7.13619],[-38.3307,-7.14424],[-38.34324,-7.10487],[-38.32697,-7.10644],[-38.31971,-7.09763],[-38.32119,-7.09077],[-38.31566,-7.08114],[-38.3177,-7.07506],[-38.329,-7.07444],[-38.33036,-7.06121],[-38.32304,-7.06221],[-38.29074,-7.02658],[-38.2904,-7.02112],[-38.28472,-7.00831],[-38.27969,-7.0076],[-38.26412,-6.99252],[-38.23557,-6.99982],[-38.23144,-6.9988],[-38.21503,-7.00712],[-38.20144,-7.00985],[-38.17155,-7.01078],[-38.13281,-7.00761],[-38.09521,-7.01244],[-38.07695,-7.0086],[-38.07395,-6.99463],[-38.07839,-6.98404],[-38.0742,-6.97362],[-38.05927,-6.96922],[-38.03909,-6.97538],[-38.02177,-6.95325],[-38.00612,-6.94376],[-37.93016,-6.99536],[-37.87804,-7.01868],[-37.86936,-7.01645],[-37.83853,-7.02242],[-37.8125,-7.01876],[-37.78484,-7.01911],[-37.75749,-7.02242],[-37.71169,-7.02204],[-37.68306,-7.01878],[-37.65979,-7.0074],[-37.65288,-6.99968],[-37.62692,-6.99092],[-37.59857,-7.0005],[-37.58931,-6.99585],[-37.52006,-7.00164]]]},"properties":{"CD_REG":"25005","NM_REG":"Piancó","SIGLA_UF":"PB"}},{"type":"Feature","geometry":{"type":"Polygon","coordinates":[[[-38.04626,-7.51385],[-38.04078,-7.53678],[-38.04835,-7.54845],[-38.06997,-7.55714],[-38.0887,-7.56093],[-38.14831,-7.60037],[-38.14188,-7.60989],[-38.18359,-7.61367],[-38.17921,-7.63979],[-38.23077,-7.64726],[-38.24818,-7.66106],[-38.24446,-7.66545],[-38.24644,-7.68003],[-38.26574,-7.69454],[-38.27365,-7.69517],[-38.29042,-7.71038],[-38.29003,-7.71641],[-38.31088,-7.73908],[-38.31588,-7.72847],[-38.31203,-7.71631],[-38.32077,-7.69796],[-38.32669,-7.6937],[-38.34469,-7.695],[-38.35498,-7.67843],[-38.37007,-7.69265],[-38.37017,-7.69692],[-38.38225,-7.70748],[-38.40393,-7.71444],[-38.40082,-7.72006],[-38.40951,-7.73049],[-38.42763,-7.73004],[-38.43422,-7.72045],[-38.45708,-7.71811],[-38.46398,-7.73089],[-38.4807,-7.73218],[-38.4958,-7.73881],[-38.49658,-7.75003],[-38.5166,-7.74933],[-38.52496,-7.75464],[-38.53853,-7.75326],[-38.54313,-7.749],[-38.56393,-7.75669],[-38.57802,-7.74661],[-38.58432,-7.75345],[-38.59363,-7.75435],[-38.59774,-7.74204],[-38.60758,-7.73948],[-38.60783,-7.72705],[-38.61407,-7.71566],[-38.62619,-7.70635],[-38.62593,-7.6956],[-38.64199,-7.68615],[-38.64208,-7.67764],[-38.65141,-7.67708],[-38.65071,-7.66856],[-38.6636,-7.65752],[-38.66994,-7.66048],[-38.68674,-7.63504],[-38.69505,-7.6333],[-38.70541,-7.62204],[-38.71511,-7.62192],[-38.71407,-7.59934],[-38.71103,-7.58663],[-38.70366,-7.58096],[-38.68882,-7.58219],[-38.67717,-7.57057],[-38.65533,-7.56554],[-38.65913,-7.56062],[-38.65325,-7.5505],[-38.65149,-7.5278],[-38.6548,-7.52333],[-38.64594,-7.51438],[-38.646,-7.50193],[-38.6309,-7.48733],[-38.64492,-7.46002],[-38.63808,-7.45795],[-38.622,-7.46067],[-38.61718,-7.45717],[-38.60333,-7.45759],[-38.6058,-7.44457],[-38.59502,-7.43394],[-38.5853,-7.43482],[-38.5845,-7.41635],[-38.59563,-7.41558],[-38.59039,-7.40118],[-38.5836,-7.3982],[-38.57899,-7.38094],[-38.55835,-7.35394],[-38.54938,-7.335],[-38.54502,-7.34073],[-38.53362,-7.34094],[-38.52574,-7.34847],[-38.52757,-7.35915],[-38.51909,-7.36647],[-38.50477,-7.36424],[-38.50309,-7.37499],[-38.47966,-7.38245],[-38.47663,-7.37457],[-38.46031,-7.3678],[-38.45398,-7.35992],[-38.44223,-7.35929],[-38.434,-7.34903],[-38.43294,-7.3401],[-38.42492,-7.34443],[-38.41379,-7.34081],[-38.41098,-7.32841],[-38.42332,-7.30424],[-38.41793,-7.29772],[-38.42124,-7.28858],[-38.41525,-7.28211],[-38.41978,-7.26621],[-38.41423,-7.25412],[-38.40283,-7.24709],[-38.41014,-7.24231],[-38.40445,-7.23379],[-38.40814,-7.20245],[-38.31465,-7.16362],[-38.31199,-7.15485],[-38.29536,-7.1544],[-38.2948,-7.16253],[-38.28522,-7.17586],[-38.27729,-7.1781],[-38.24175,-7.1682],[-38.23251,-7.16041],[-38.2259,-7.16763],[-38.20902,-7.16536],[-38.19788,-7.17478],[-38.17953,-7.16236],[-38.17236,-7.16123],[-38.15768,-7.19007],[-38.15571,-7.22195],[-38.09141,-7.235],[-38.08589,-7.29451],[-38.0525,-7.3177],[-38.05712,-7.35028],[-38.06345,-7.34987],[-38.07438,-7.36244],[-38.08144,-7.38585],[-38.07988,-7.39635],[-38.06622,-7.40313],[-38.07042,-7.40943],[-38.06098,-7.42291],[-38.05125,-7.43058],[-38.04556,-7.45247],[-38.04934,-7.47815],[-38.0394,-7.48728],[-38.03613,-7.50444],[-38.04626,-7.51385]]]},"properties":{"CD_REG":"25006","NM_REG":"Itaporanga","SIGLA_UF":"PB"}},{"type":"Feature","geometry":{"type":"Polygon","coordinates":[[[-37.02027,-7.19098],[-37.03523,-7.18877],[-37.01468,-7.24891],[-37.01204,-7.28347],[-37.02735,-7.28698],[-37.05223,-7.3785],[-37.05318,-7.3795],[-37.06741,-7.38338],[-37.07295,-7.36828],[-37.08562,-7.35826],[-37.09735,-7.35397],[-37.10186,-7.35663],[-37.12156,-7.35091],[-37.12798,-7.344],[-37.13531,-7.34666],[-37.14494,-7.33505],[-37.16534,-7.3366],[-37.16853,-7.31995],[-37.17692,-7.30955],[-37.19667,-7.29467],[-37.21418,-7.2913],[-37.23418,-7.27389],[-37.27527,-7.27429],[-37.28833,-7.28829],[-37.32048,-7.29049],[-37.32822,-7.28806],[-37.35728,-7.32311],[-37.34938,-7.33512],[-37.37242,-7.35056],[-37.38571,-7.35669],[-37.40814,-7.3581],[-37.41547,-7.36172],[-37.42551,-7.35292],[-37.4337,-7.3587],[-37.44755,-7.36104],[-37.46592,-7.35804],[-37.49604,-7.36482],[-37.49809,-7.37113],[-37.48763,-7.38942],[-37.50569,-7.41916],[-37.51564,-7.42756],[-37.5274,-7.44838],[-37.52796,-7.46531],[-37.54259,-7.47829],[-37.55693,-7.47975],[-37.58673,-7.49911],[-37.60977,-7.50803],[-37.61591,-7.52494],[-37.63038,-7.53251],[-37.64943,-7.53071],[-37.65582,-7.52342],[-37.67663,-7.53561],[-37.68215,-7.54838],[-37.70651,-7.55058],[-37.71009,-7.55953],[-37.70657,-7.56947],[-37.71726,-7.58036],[-37.72873,-7.57973],[-37.73495,-7.59721],[-37.74145,-7.59753],[-37.74571,-7.60933],[-37.75585,-7.61952],[-37.74037,-7.63609],[-37.74418,-7.6545],[-37.75065,-7.66289],[-37.76097,-7.66681],[-37.77106,-7.64739],[-37.77802,-7.64327],[-37.77817,-7.63477],[-37.78583,-7.6258],[-37.80106,-7.62605],[-37.80984,-7.64375],[-37.83113,-7.64735],[-37.83787,-7.6445],[-37.85716,-7.65197],[-37.86844,-7.66461],[-37.8806,-7.68365],[-37.90275,-7.69474],[-37.89433,-7.71363],[-37.91307,-7.70947],[-37.92393,-7.71511],[-37.92685,-7.72993],[-37.9431,-7.74104],[-37.94755,-7.75622],[-37.95257,-7.75663],[-37.95909,-7.76871],[-37.9706,-7.77758],[-37.98479,-7.77294],[-37.99027,-7.77888],[-38.00397,-7.77899],[-38.01246,-7.7658],[-38.02992,-7.74984],[-38.03958,-7.74812],[-38.0714,-7.77423],[-38.07526,-7.78242],[-38.07574,-7.80538],[-38.06535,-7.81975],[-38.07707,-7.83058],[-38.11618,-7.82256],[-38.12944,-7.8059],[-38.13143,-7.79576],[-38.14376,-7.78341],[-38.16422,-7.77991],[-38.17467,-7.78989],[-38.2036,-7.80759],[-38.21267,-7.81071],[-38.21861,-7.81847],[-38.23546,-7.82596],[-38.23857,-7.83073],[-38.25704,-7.83106],[-38.26309,-7.8281],[-38.27545,-7.83424],[-38.28679,-7.83022],[-38.29775,-7.81395],[-38.29899,-7.79744],[-38.30252,-7.7915],[-38.2946,-7.77797],[-38.30334,-7.76208],[-38.31676,-7.76461],[-38.30216,-7.7452],[-38.31088,-7.73908],[-38.29003,-7.71641],[-38.29042,-7.71038],[-38.27365,-7.69517],[-38.26574,-7.69454],[-38.24644,-7.68003],[-38.24446,-7.66545],[-38.24818,-7.66106],[-38.23077,-7.64726],[-38.17921,-7.63979],[-38.18359,-7.61367],[-38.14188,-7.60989],[-38.14831,-7.60037],[-38.0887,-7.56093],[-38.06997,-7.55714],[-38.04835,-7.54845],[-38.04078,-7.53678],[-38.04626,-7.51385],[-38.02371,-7.52397],[-38.02062,-7.5303],[-37.99731,-7.53067],[-37.98084,-7.52635],[-37.9561,-7.4986],[-37.92021,-7.47512],[-37.85211,-7.43317],[-37.84578,-7.42457],[-37.82693,-7.40979],[-37.82206,-7.41208],[-37.80818,-7.40327],[-37.80139,-7.403],[-37.78051,-7.38789],[-37.77604,-7.4018],[-37.76622,-7.39971],[-37.76055,-7.39187],[-37.75382,-7.39788],[-37.7247,-7.38708],[-37.72122,-7.38311],[-37.73699,-7.37809],[-37.7391,-7.36819],[-37.73011,-7.36389],[-37.71609,-7.37006],[-37.71056,-7.36759],[-37.69986,-7.33753],[-37.69183,-7.32838],[-37.66927,-7.32083],[-37.65809,-7.32499],[-37.64793,-7.32247],[-37.62654,-7.33076],[-37.61161,-7.32867],[-37.587,-7.33353],[-37.57669,-7.32744],[-37.5699,-7.31624],[-37.53621,-7.31897],[-37.52909,-7.31583],[-37.51639,-7.31835],[-37.45606,-7.31206],[-37.43346,-7.32416],[-37.41872,-7.30161],[-37.40454,-7.29476],[-37.40263,-7.30711],[-37.39699,-7.30826],[-37.38487,-7.30146],[-37.38023,-7.29447],[-37.39139,-7.28046],[-37.40897,-7.26941],[-37.40126,-7.25878],[-37.37627,-7.24839],[-37.36698,-7.24009],[-37.35668,-7.24274],[-37.35364,-7.2343],[-37.32592,-7.22628],[-37.32171,-7.21589],[-37.33389,-7.21672],[-37.30862,-7.19673],[-37.24795,-7.19921],[-37.23128,-7.19838],[-37.21391,-7.20576],[-37.20094,-7.21544],[-37.1755,-7.22843],[-37.16861,-7.21704],[-37.16924,-7.19672],[-37.15916,-7.19062],[-37.14414,-7.19163],[-37.12842,-7.181],[-37.10073,-7.16648],[-37.08982,-7.16899],[-37.0767,-7.16667],[-37.06918,-7.15635],[-37.05443,-7.15643],[-37.02027,-7.19098]]]},"properties":{"CD_REG":"25007","NM_REG":"Serra do Teixeira","SIGLA_UF":"PB"}},{"type":"Feature","geometry":{"type":"Polygon","coordinates":[[[-36.65488,-6.92824],[-36.65924,-6.93019],[-36.66073,-6.95415],[-36.66833,-6.97332],[-36.68726,-6.98984],[-36.69285,-7.00171],[-36.70105,-7.00771],[-36.72569,-7.00661],[-36.72797,-7.01648],[-36.73871,-7.0202],[-36.75396,-7.04249],[-36.75528,-7.08389],[-36.77869,-7.10887],[-36.80287,-7.14396],[-36.81838,-7.13993],[-36.82953,-7.14442],[-36.86751,-7.1532],[-36.88066,-7.15995],[-36.89731,-7.16311],[-36.89755,-7.15778],[-36.91172,-7.15232],[-36.9191,-7.15529],[-36.93053,-7.14984],[-36.92603,-7.12334],[-36.92683,-7.1115],[-36.92177,-7.10271],[-36.92256,-7.08875],[-36.91537,-7.08055],[-36.92256,-7.05254],[-36.94253,-7.04071],[-36.99034,-7.06188],[-37.00523,-7.05187],[-37.02414,-7.04871],[-37.03919,-7.0421],[-37.05949,-7.03987],[-37.05694,-7.02318],[-37.07526,-7.01427],[-37.08628,-7.02209],[-37.10297,-7.02264],[-37.10921,-7.0155],[-37.12167,-7.01277],[-37.12944,-7.00465],[-37.14172,-7.00178],[-37.15463,-6.99077],[-37.17318,-6.98314],[-37.17463,-6.97212],[-37.18108,-6.96281],[-37.17405,-6.94331],[-37.19319,-6.93386],[-37.17848,-6.92648],[-37.18431,-6.91895],[-37.20037,-6.91982],[-37.19478,-6.91451],[-37.19917,-6.90832],[-37.21249,-6.9052],[-37.21337,-6.88671],[-37.22233,-6.84238],[-37.2346,-6.82464],[-37.19266,-6.82614],[-37.17281,-6.81526],[-37.16633,-6.80707],[-37.15371,-6.79979],[-37.14369,-6.78325],[-37.13807,-6.78136],[-37.12766,-6.76556],[-37.12006,-6.76729],[-37.06294,-6.751],[-37.04129,-6.74006],[-37.00359,-6.70961],[-36.99353,-6.70754],[-36.97762,-6.72186],[-36.9718,-6.74065],[-36.97333,-6.7582],[-36.96923,-6.7705],[-36.95266,-6.77515],[-36.9591,-6.7833],[-36.95714,-6.79048],[-36.93731,-6.77261],[-36.90343,-6.75361],[-36.87433,-6.74318],[-36.83503,-6.73107],[-36.77273,-6.78707],[-36.76947,-6.83875],[-36.73398,-6.83479],[-36.7302,-6.8364],[-36.74499,-6.87951],[-36.75741,-6.89936],[-36.7621,-6.92687],[-36.76654,-6.93587],[-36.75455,-6.956],[-36.73738,-6.97281],[-36.71855,-6.98273],[-36.70927,-6.97469],[-36.69467,-6.93449],[-36.68722,-6.92596],[-36.65488,-6.92824]]]},"properties":{"CD_REG":"25008","NM_REG":"Seridó Ocidental Paraibano","SIGLA_UF":"PB"}},{"type":"Feature","geometry":{"type":"Polygon","coordinates":[[[-36.22653,-6.43403],[-36.2251,-6.55949],[-36.23177,-6.59663],[-36.24202,-6.64225],[-36.25017,-6.68537],[-36.26087,-6.8368],[-36.27759,-6.88114],[-36.29929,-6.93185],[-36.3047,-6.94076],[-36.3292,-6.93514],[-36.34206,-6.95254],[-36.37563,-6.97426],[-36.47671,-6.99421],[-36.48994,-7.03446],[-36.47435,-7.12939],[-36.48844,-7.16642],[-36.48507,-7.1887],[-36.56347,-7.18214],[-36.59206,-7.1731],[-36.61264,-7.12972],[-36.66052,-7.12943],[-36.66382,-7.10956],[-36.67135,-7.10046],[-36.66508,-7.0961],[-36.66796,-7.07869],[-36.658,-7.0746],[-36.66243,-7.05615],[-36.65631,-7.05038],[-36.67003,-7.02283],[-36.67907,-7.01194],[-36.70105,-7.00771],[-36.69285,-7.00171],[-36.68726,-6.98984],[-36.66833,-6.97332],[-36.66073,-6.95415],[-36.65924,-6.93019],[-36.65488,-6.92824],[-36.63745,-6.93381],[-36.61653,-6.93402],[-36.61146,-6.93766],[-36.60361,-6.93046],[-36.59732,-6.91653],[-36.58992,-6.90869],[-36.56794,-6.8748],[-36.56679,-6.86659],[-36.57408,-6.85746],[-36.5698,-6.84801],[-36.56016,-6.84077],[-36.54515,-6.84307],[-36.52917,-6.8254],[-36.50996,-6.81795],[-36.50549,-6.80882],[-36.5013,-6.77757],[-36.50475,-6.75394],[-36.52057,-6.74568],[-36.52777,-6.73494],[-36.54228,-6.73237],[-36.55794,-6.7126],[-36.55869,-6.70765],[-36.54742,-6.69515],[-36.54175,-6.66606],[-36.53131,-6.63489],[-36.52301,-6.619],[-36.52124,-6.60698],[-36.52454,-6.59965],[-36.51381,-6.59439],[-36.49377,-6.60355],[-36.47171,-6.61655],[-36.46052,-6.63439],[-36.44935,-6.6242],[-36.43586,-6.62588],[-36.44145,-6.5951],[-36.44223,-6.56471],[-36.44439,-6.55832],[-36.4545,-6.55171],[-36.47154,-6.54835],[-36.47927,-6.53987],[-36.48096,-6.52308],[-36.48859,-6.51643],[-36.50043,-6.51351],[-36.51647,-6.50291],[-36.52585,-6.50116],[-36.52665,-6.48447],[-36.53082,-6.47183],[-36.53097,-6.45207],[-36.51867,-6.41808],[-36.51073,-6.40748],[-36.50022,-6.37039],[-36.49985,-6.35816],[-36.4326,-6.3631],[-36.42848,-6.35966],[-36.39456,-6.29397],[-36.3626,-6.30998],[-36.35427,-6.30852],[-36.31364,-6.28336],[-36.30352,-6.28303],[-36.29498,-6.29211],[-36.27987,-6.30886],[-36.27675,-6.34043],[-36.28155,-6.3546],[-36.29284,-6.36481],[-36.29881,-6.37654],[-36.29522,-6.39456],[-36.25901,-6.40478],[-36.25116,-6.40442],[-36.24977,-6.43736],[-36.22653,-6.43403]]]},"properties":{"CD_REG":"25009","NM_REG":"Seridó Oriental Paraibano","SIGLA_UF":"PB"}},{"type":"Feature","geometry":{"type":"Polygon","coordinates":[[[-36.70105,-7.00771],[-36.67907,-7.01194],[-36.67003,-7.02283],[-36.65631,-7.05038],[-36.66243,-7.05615],[-36.658,-7.0746],[-36.66796,-7.07869],[-36.66508,-7.0961],[-36.67135,-7.10046],[-36.66382,-7.10956],[-36.66052,-7.12943],[-36.66232,-7.13694],[-36.65669,-7.1476],[-36.65956,-7.17686],[-36.65551,-7.18708],[-36.67246,-7.20652],[-36.66756,-7.2123],[-36.67291,-7.23229],[-36.70668,-7.27007],[-36.6922,-7.26624],[-36.66519,-7.26867],[-36.66069,-7.28083],[-36.65745,-7.27684],[-36.65078,-7.28558],[-36.61171,-7.28393],[-36.58737,-7.29283],[-36.55582,-7.32104],[-36.57617,-7.32429],[-36.58346,-7.33349],[-36.60807,-7.34419],[-36.60105,-7.35219],[-36.60105,-7.37789],[-36.61249,-7.38673],[-36.62995,-7.39286],[-36.53009,-7.52815],[-36.59891,-7.58378],[-36.58806,-7.63517],[-36.56182,-7.65857],[-36.5546,-7.65989],[-36.546,-7.66889],[-36.54171,-7.67957],[-36.55154,-7.68181],[-36.5515,-7.68844],[-36.56046,-7.69377],[-36.57716,-7.71136],[-36.57756,-7.7181],[-36.58988,-7.71537],[-36.59802,-7.70798],[-36.61897,-7.70624],[-36.61615,-7.73658],[-36.62079,-7.75024],[-36.61486,-7.7612],[-36.59703,-7.77193],[-36.56735,-7.80159],[-36.55444,-7.80805],[-36.55954,-7.81873],[-36.55631,-7.82738],[-36.56776,-7.86015],[-36.53646,-7.90161],[-36.55202,-7.89871],[-36.57171,-7.9045],[-36.5782,-7.91525],[-36.57253,-7.93057],[-36.57999,-7.94668],[-36.57419,-7.95167],[-36.57678,-7.95965],[-36.58686,-7.95866],[-36.61188,-7.9479],[-36.61346,-7.95652],[-36.62265,-7.96951],[-36.62317,-7.98208],[-36.62785,-7.98641],[-36.62655,-8.0027],[-36.62927,-8.02545],[-36.62882,-8.05706],[-36.64121,-8.06224],[-36.65647,-8.07307],[-36.65727,-8.08208],[-36.65036,-8.08133],[-36.64766,-8.09126],[-36.63698,-8.09325],[-36.62785,-8.10286],[-36.62861,-8.11105],[-36.64032,-8.11991],[-36.66523,-8.12326],[-36.69386,-8.14077],[-36.68704,-8.15568],[-36.70369,-8.15805],[-36.72281,-8.15096],[-36.72578,-8.15645],[-36.71578,-8.16732],[-36.72397,-8.17247],[-36.74089,-8.17237],[-36.75014,-8.1757],[-36.75351,-8.19148],[-36.76157,-8.19629],[-36.77537,-8.19072],[-36.7932,-8.18945],[-36.80578,-8.19544],[-36.81251,-8.20529],[-36.8617,-8.22243],[-36.87923,-8.23564],[-36.89595,-8.24082],[-36.90826,-8.25309],[-36.923,-8.26983],[-36.94703,-8.27737],[-36.94731,-8.29106],[-36.9602,-8.30047],[-36.97802,-8.29742],[-36.99116,-8.30296],[-37.02304,-8.28859],[-37.04028,-8.26618],[-37.05823,-8.26398],[-37.07572,-8.268],[-37.08223,-8.26189],[-37.08062,-8.24108],[-37.06653,-8.233],[-37.0809,-8.22189],[-37.08989,-8.23117],[-37.10043,-8.23371],[-37.11039,-8.22555],[-37.12291,-8.20907],[-37.1261,-8.1915],[-37.11895,-8.18399],[-37.11826,-8.17535],[-37.12645,-8.17368],[-37.14119,-8.17723],[-37.16023,-8.1704],[-37.16342,-8.15869],[-37.151,-8.15004],[-37.15861,-8.13887],[-37.15323,-8.12747],[-37.14417,-8.125],[-37.14256,-8.11794],[-37.14782,-8.10009],[-37.14371,-8.08797],[-37.14664,-8.07858],[-37.15685,-8.06453],[-37.15809,-8.05122],[-37.1484,-8.03512],[-37.15179,-8.00941],[-37.16042,-7.99715],[-37.17531,-7.99686],[-37.19276,-7.98357],[-37.19268,-7.9606],[-37.20792,-7.95187],[-37.22152,-7.96345],[-37.21959,-7.97279],[-37.24111,-7.97278],[-37.26354,-7.96818],[-37.2774,-7.97198],[-37.29178,-7.96531],[-37.30334,-7.97021],[-37.31243,-7.96776],[-37.34029,-7.97968],[-37.3406,-7.97514],[-37.35737,-7.97496],[-37.34767,-7.95436],[-37.35022,-7.9486],[-37.33473,-7.94305],[-37.31898,-7.9431],[-37.30898,-7.93418],[-37.3114,-7.92165],[-37.30809,-7.91627],[-37.3157,-7.90756],[-37.30365,-7.90418],[-37.28739,-7.90388],[-37.27712,-7.89785],[-37.26179,-7.88395],[-37.24409,-7.87385],[-37.24715,-7.8468],[-37.22209,-7.84225],[-37.22811,-7.82115],[-37.24046,-7.82309],[-37.24366,-7.819],[-37.23018,-7.81311],[-37.23056,-7.80674],[-37.21742,-7.80669],[-37.19796,-7.79892],[-37.19154,-7.79117],[-37.18304,-7.79072],[-37.17438,-7.79972],[-37.17137,-7.79517],[-37.15848,-7.79233],[-37.15195,-7.77984],[-37.15703,-7.773],[-37.13894,-7.74552],[-37.1506,-7.72903],[-37.15019,-7.71687],[-37.15454,-7.7064],[-37.17406,-7.68429],[-37.17681,-7.67278],[-37.18777,-7.65763],[-37.19513,-7.65206],[-37.19795,-7.6353],[-37.19275,-7.62382],[-37.18316,-7.61305],[-37.17898,-7.59709],[-37.16357,-7.57471],[-37.1371,-7.5552],[-37.12878,-7.54273],[-37.11834,-7.53443],[-37.1061,-7.53113],[-37.08506,-7.5173],[-37.06989,-7.51744],[-37.05382,-7.50457],[-37.04316,-7.50391],[-37.02167,-7.49669],[-37.01056,-7.48956],[-37.00325,-7.49639],[-36.98423,-7.48226],[-36.98542,-7.4756],[-36.99545,-7.47259],[-36.99406,-7.46471],[-37.00334,-7.45489],[-37.01073,-7.45364],[-37.01318,-7.44498],[-37.02362,-7.43387],[-37.01451,-7.43037],[-37.02598,-7.42246],[-37.01297,-7.40429],[-37.02562,-7.38604],[-37.04999,-7.37759],[-37.05318,-7.3795],[-37.05223,-7.3785],[-37.02735,-7.28698],[-37.01204,-7.28347],[-37.01468,-7.24891],[-37.03523,-7.18877],[-37.02027,-7.19098],[-36.99371,-7.1808],[-36.96015,-7.17696],[-36.95772,-7.17344],[-36.93404,-7.17278],[-36.93053,-7.14984],[-36.9191,-7.15529],[-36.91172,-7.15232],[-36.89755,-7.15778],[-36.89731,-7.16311],[-36.88066,-7.15995],[-36.86751,-7.1532],[-36.82953,-7.14442],[-36.81838,-7.13993],[-36.80287,-7.14396],[-36.77869,-7.10887],[-36.75528,-7.08389],[-36.75396,-7.04249],[-36.73871,-7.0202],[-36.72797,-7.01648],[-36.72569,-7.00661],[-36.70105,-7.00771]]]},"properties":{"CD_REG":"25010","NM_REG":"Cariri Ocidental","SIGLA_UF":"PB"}},{"type":"Feature","geometry":{"type":"Polygon","coordinates":[[[-36.48507,-7.1887],[-36.41857,-7.20007],[-36.40499,-7.21994],[-36.39612,-7.22263],[-36.32609,-7.18873],[-36.33044,-7.30545],[-36.34574,-7.36731],[-36.28193,-7.3692],[-36.27309,-7.35874],[-36.25254,-7.36319],[-36.24068,-7.35541],[-36.23383,-7.36226],[-36.23568,-7.36967],[-36.22216,-7.36819],[-36.21346,-7.35578],[-36.20661,-7.36115],[-36.1959,-7.36176],[-36.17586,-7.34726],[-36.15031,-7.34467],[-36.14172,-7.35737],[-36.12386,-7.36191],[-36.03845,-7.36634],[-36.02864,-7.37163],[-36.01364,-7.38663],[-36.00036,-7.38432],[-35.99892,-7.391],[-36.00969,-7.40066],[-35.99827,-7.41244],[-36.00937,-7.41305],[-36.01691,-7.42174],[-36.00402,-7.42299],[-36.00768,-7.43922],[-36.01386,-7.43739],[-36.02104,-7.44411],[-36.00768,-7.45003],[-35.99346,-7.46015],[-35.99242,-7.46683],[-35.98069,-7.4711],[-35.97306,-7.48067],[-35.96539,-7.48197],[-35.96272,-7.49082],[-35.94821,-7.49513],[-35.93863,-7.50615],[-35.92197,-7.51396],[-35.91501,-7.50624],[-35.90276,-7.50819],[-35.90106,-7.51605],[-35.89192,-7.51044],[-35.87517,-7.51173],[-35.88168,-7.51366],[-35.88041,-7.5234],[-35.88476,-7.54254],[-35.86781,-7.54932],[-35.85812,-7.54686],[-35.84575,-7.55827],[-35.82211,-7.56631],[-35.83419,-7.57582],[-35.8448,-7.57544],[-35.8515,-7.58447],[-35.86711,-7.58945],[-35.86657,-7.60434],[-35.8753,-7.6055],[-35.87636,-7.61608],[-35.86604,-7.63832],[-35.86856,-7.66276],[-35.88837,-7.66347],[-35.90217,-7.67402],[-35.93049,-7.68272],[-35.93273,-7.67035],[-35.94659,-7.66065],[-35.95348,-7.65136],[-35.96567,-7.66032],[-35.97611,-7.68454],[-35.97406,-7.7008],[-35.98074,-7.71839],[-35.99126,-7.73118],[-35.98627,-7.73841],[-35.99881,-7.7453],[-36.00182,-7.76053],[-36.00928,-7.75784],[-36.01439,-7.78421],[-36.0126,-7.79155],[-36.02159,-7.81024],[-36.03364,-7.7966],[-36.04199,-7.79369],[-36.0505,-7.80112],[-36.05618,-7.79916],[-36.06899,-7.78097],[-36.09411,-7.77847],[-36.11851,-7.7858],[-36.14337,-7.78156],[-36.18353,-7.7839],[-36.19787,-7.79038],[-36.20435,-7.78296],[-36.20648,-7.77038],[-36.21663,-7.7641],[-36.22722,-7.76997],[-36.24631,-7.78531],[-36.2542,-7.79639],[-36.25123,-7.80457],[-36.24231,-7.80733],[-36.24001,-7.81768],[-36.2475,-7.8261],[-36.26133,-7.83208],[-36.27111,-7.83057],[-36.28524,-7.81789],[-36.30201,-7.80834],[-36.3134,-7.80643],[-36.33688,-7.80942],[-36.36317,-7.80608],[-36.37345,-7.81262],[-36.39454,-7.80761],[-36.40742,-7.81408],[-36.42405,-7.81578],[-36.42996,-7.82711],[-36.43094,-7.84985],[-36.42906,-7.86704],[-36.43992,-7.8762],[-36.4297,-7.88656],[-36.43692,-7.90027],[-36.44576,-7.90817],[-36.4463,-7.91638],[-36.46125,-7.91466],[-36.48014,-7.92476],[-36.48666,-7.91635],[-36.49939,-7.92031],[-36.51285,-7.91487],[-36.53646,-7.90161],[-36.56776,-7.86015],[-36.55631,-7.82738],[-36.55954,-7.81873],[-36.55444,-7.80805],[-36.56735,-7.80159],[-36.59703,-7.77193],[-36.61486,-7.7612],[-36.62079,-7.75024],[-36.61615,-7.73658],[-36.61897,-7.70624],[-36.59802,-7.70798],[-36.58988,-7.71537],[-36.57756,-7.7181],[-36.57716,-7.71136],[-36.56046,-7.69377],[-36.5515,-7.68844],[-36.55154,-7.68181],[-36.54171,-7.67957],[-36.546,-7.66889],[-36.5546,-7.65989],[-36.56182,-7.65857],[-36.58806,-7.63517],[-36.59891,-7.58378],[-36.53009,-7.52815],[-36.62995,-7.39286],[-36.61249,-7.38673],[-36.60105,-7.37789],[-36.60105,-7.35219],[-36.60807,-7.34419],[-36.58346,-7.33349],[-36.57617,-7.32429],[-36.55582,-7.32104],[-36.58737,-7.29283],[-36.61171,-7.28393],[-36.65078,-7.28558],[-36.65745,-7.27684],[-36.66069,-7.28083],[-36.66519,-7.26867],[-36.6922,-7.26624],[-36.70668,-7.27007],[-36.67291,-7.23229],[-36.66756,-7.2123],[-36.67246,-7.20652],[-36.65551,-7.18708],[-36.65956,-7.17686],[-36.65669,-7.1476],[-36.66232,-7.13694],[-36.66052,-7.12943],[-36.61264,-7.12972],[-36.59206,-7.1731],[-36.56347,-7.18214],[-36.48507,-7.1887]]]},"properties":{"CD_REG":"25011","NM_REG":"Cariri Oriental","SIGLA_UF":"PB"}},{"type":"Feature","geometry":{"type":"Polygon","coordinates":[[[-35.87036,-6.48864],[-35.86537,-6.49263],[-35.86723,-6.54472],[-35.87699,-6.5778],[-35.86599,-6.67928],[-35.8721,-6.69086],[-35.89412,-6.69219],[-35.90072,-6.69927],[-35.8976,-6.70555],[-35.9092,-6.71616],[-35.92411,-6.721],[-35.92412,-6.72957],[-35.89867,-6.74363],[-35.89638,-6.75046],[-35.90284,-6.75898],[-35.89937,-6.77582],[-35.9068,-6.78395],[-35.89806,-6.79247],[-35.8877,-6.7953],[-35.86108,-6.82434],[-35.84283,-6.83809],[-35.82805,-6.85829],[-35.81181,-6.86154],[-35.80592,-6.85748],[-35.81505,-6.84581],[-35.80619,-6.83542],[-35.79362,-6.83625],[-35.78283,-6.82519],[-35.76671,-6.83287],[-35.76273,-6.82125],[-35.75196,-6.82781],[-35.75008,-6.81908],[-35.74305,-6.81388],[-35.72665,-6.81838],[-35.71947,-6.82496],[-35.70024,-6.81434],[-35.69102,-6.81826],[-35.70377,-6.82888],[-35.69934,-6.83796],[-35.70635,-6.84175],[-35.69702,-6.84959],[-35.6928,-6.85973],[-35.6777,-6.86816],[-35.67094,-6.86559],[-35.65698,-6.8683],[-35.65229,-6.88324],[-35.64585,-6.88314],[-35.64957,-6.91061],[-35.65551,-6.91121],[-35.68147,-6.89018],[-35.73598,-6.88409],[-35.74982,-6.87471],[-35.76924,-6.87873],[-35.80078,-6.86436],[-35.80736,-6.87369],[-35.7851,-6.90752],[-35.79116,-6.91856],[-35.78341,-6.92749],[-35.79005,-6.93428],[-35.78738,-6.94494],[-35.7748,-6.96164],[-35.77688,-7.02121],[-35.79341,-7.01416],[-35.79942,-7.01835],[-35.81225,-7.00839],[-35.81591,-7.00116],[-35.81366,-6.98242],[-35.80674,-6.9785],[-35.82284,-6.97937],[-35.85348,-6.96785],[-35.86814,-6.95822],[-35.88571,-6.96077],[-35.89468,-6.95257],[-35.90765,-6.93514],[-35.91024,-6.93767],[-35.93751,-6.93425],[-35.94257,-6.93908],[-35.93676,-6.94652],[-35.94941,-6.95998],[-35.95728,-6.95986],[-35.96875,-6.96981],[-35.97708,-6.96932],[-35.97692,-6.98641],[-35.96774,-7.00498],[-35.95666,-7.01803],[-35.96125,-7.02476],[-35.95099,-7.02927],[-35.95841,-7.04314],[-35.95937,-7.05972],[-35.97023,-7.06899],[-35.98512,-7.09748],[-35.97946,-7.10042],[-36.02535,-7.16637],[-36.03223,-7.16576],[-36.03239,-7.17389],[-36.04627,-7.16518],[-36.06508,-7.16588],[-36.09745,-7.15332],[-36.1076,-7.152],[-36.13585,-7.16262],[-36.14213,-7.16714],[-36.1687,-7.20165],[-36.22398,-7.19783],[-36.32609,-7.18873],[-36.39612,-7.22263],[-36.40499,-7.21994],[-36.41857,-7.20007],[-36.48507,-7.1887],[-36.48844,-7.16642],[-36.47435,-7.12939],[-36.48994,-7.03446],[-36.47671,-6.99421],[-36.37563,-6.97426],[-36.34206,-6.95254],[-36.3292,-6.93514],[-36.3047,-6.94076],[-36.29929,-6.93185],[-36.27759,-6.88114],[-36.26087,-6.8368],[-36.25017,-6.68537],[-36.24202,-6.64225],[-36.23177,-6.59663],[-36.2251,-6.55949],[-36.22653,-6.43403],[-36.18852,-6.43232],[-36.14375,-6.42532],[-36.1285,-6.42521],[-36.11019,-6.42918],[-36.10311,-6.42155],[-36.08544,-6.41456],[-36.08001,-6.40519],[-36.06723,-6.41509],[-36.06105,-6.41091],[-36.05568,-6.4262],[-36.03671,-6.44427],[-36.01682,-6.45203],[-36.00834,-6.46512],[-36.01286,-6.47104],[-36.00535,-6.48105],[-35.97467,-6.48882],[-35.96524,-6.48436],[-35.94418,-6.49301],[-35.87036,-6.48864]]]},"properties":{"CD_REG":"25012","NM_REG":"Curimataú Ocidental","SIGLA_UF":"PB"}},{"type":"Feature","geometry":{"type":"Polygon","coordinates":[[[-35.4421,-6.48659],[-35.44004,-6.50008],[-35.42964,-6.50514],[-35.42613,-6.51288],[-35.42907,-6.5278],[-35.43568,-6.53216],[-35.43115,-6.53821],[-35.43587,-6.54709],[-35.43661,-6.56089],[-35.44872,-6.57205],[-35.44316,-6.5754],[-35.44826,-6.60321],[-35.45629,-6.61286],[-35.46778,-6.61062],[-35.4737,-6.61746],[-35.48914,-6.62098],[-35.49192,-6.63334],[-35.5043,-6.63458],[-35.50359,-6.64592],[-35.52642,-6.6452],[-35.52456,-6.6079],[-35.53828,-6.5957],[-35.5446,-6.59781],[-35.543,-6.6124],[-35.55114,-6.6116],[-35.56138,-6.60061],[-35.56842,-6.60877],[-35.57765,-6.60623],[-35.58186,-6.61683],[-35.58789,-6.61778],[-35.59675,-6.6347],[-35.60169,-6.63608],[-35.61214,-6.65438],[-35.62682,-6.65641],[-35.63894,-6.64523],[-35.64744,-6.64516],[-35.66327,-6.63499],[-35.66966,-6.63811],[-35.67017,-6.65097],[-35.68208,-6.65068],[-35.68354,-6.66226],[-35.6774,-6.65951],[-35.67663,-6.67165],[-35.68873,-6.67906],[-35.67246,-6.68593],[-35.6769,-6.69281],[-35.67178,-6.70801],[-35.67606,-6.72772],[-35.6684,-6.73983],[-35.66279,-6.74202],[-35.64737,-6.75834],[-35.64172,-6.80068],[-35.66852,-6.81091],[-35.68128,-6.82569],[-35.69102,-6.81826],[-35.70024,-6.81434],[-35.71947,-6.82496],[-35.72665,-6.81838],[-35.74305,-6.81388],[-35.75008,-6.81908],[-35.75196,-6.82781],[-35.76273,-6.82125],[-35.76671,-6.83287],[-35.78283,-6.82519],[-35.79362,-6.83625],[-35.80619,-6.83542],[-35.81505,-6.84581],[-35.80592,-6.85748],[-35.81181,-6.86154],[-35.82805,-6.85829],[-35.84283,-6.83809],[-35.86108,-6.82434],[-35.8877,-6.7953],[-35.89806,-6.79247],[-35.9068,-6.78395],[-35.89937,-6.77582],[-35.90284,-6.75898],[-35.89638,-6.75046],[-35.89867,-6.74363],[-35.92412,-6.72957],[-35.92411,-6.721],[-35.9092,-6.71616],[-35.8976,-6.70555],[-35.90072,-6.69927],[-35.89412,-6.69219],[-35.8721,-6.69086],[-35.86599,-6.67928],[-35.87699,-6.5778],[-35.86723,-6.54472],[-35.86537,-6.49263],[-35.87036,-6.48864],[-35.76336,-6.48219],[-35.74116,-6.4763],[-35.72619,-6.46961],[-35.7186,-6.47253],[-35.70717,-6.46954],[-35.68197,-6.44793],[-35.67372,-6.45159],[-35.6636,-6.44683],[-35.62931,-6.45487],[-35.61797,-6.46202],[-35.60409,-6.45921],[-35.59216,-6.47163],[-35.59213,-6.47658],[-35.58053,-6.48711],[-35.56419,-6.48747],[-35.5648,-6.49178],[-35.55151,-6.49019],[-35.54778,-6.48247],[-35.53364,-6.48303],[-35.5253,-6.4761],[-35.51906,-6.47907],[-35.50141,-6.4778],[-35.48321,-6.4864],[-35.46422,-6.48271],[-35.46079,-6.47695],[-35.4421,-6.48659]]]},"properties":{"CD_REG":"25013","NM_REG":"Curimataú Oriental","SIGLA_UF":"PB"}},{"type":"Feature","geometry":{"type":"Polygon","coordinates":[[[-35.77688,-7.02121],[-35.78573,-7.02708],[-35.79829,-7.025],[-35.80752,-7.03239],[-35.83757,-7.02538],[-35.84006,-7.0381],[-35.85094,-7.04577],[-35.85546,-7.06251],[-35.85216,-7.07194],[-35.84151,-7.07452],[-35.82608,-7.07001],[-35.81746,-7.07619],[-35.81223,-7.09547],[-35.81385,-7.1056],[-35.82746,-7.12478],[-35.85454,-7.11682],[-35.86425,-7.11981],[-35.8682,-7.11068],[-35.88071,-7.10062],[-35.89096,-7.09774],[-35.88673,-7.0905],[-35.89515,-7.08556],[-35.89597,-7.09235],[-35.90829,-7.09559],[-35.91112,-7.1021],[-35.93385,-7.10868],[-35.94165,-7.10684],[-35.96612,-7.11272],[-35.97946,-7.10042],[-35.98512,-7.09748],[-35.97023,-7.06899],[-35.95937,-7.05972],[-35.95841,-7.04314],[-35.95099,-7.02927],[-35.96125,-7.02476],[-35.95666,-7.01803],[-35.96774,-7.00498],[-35.97692,-6.98641],[-35.97708,-6.96932],[-35.96875,-6.96981],[-35.95728,-6.95986],[-35.94941,-6.95998],[-35.93676,-6.94652],[-35.94257,-6.93908],[-35.93751,-6.93425],[-35.91024,-6.93767],[-35.90765,-6.93514],[-35.89468,-6.95257],[-35.88571,-6.96077],[-35.86814,-6.95822],[-35.85348,-6.96785],[-35.82284,-6.97937],[-35.80674,-6.9785],[-35.81366,-6.98242],[-35.81591,-7.00116],[-35.81225,-7.00839],[-35.79942,-7.01835],[-35.79341,-7.01416],[-35.77688,-7.02121]]]},"properties":{"CD_REG":"25014","NM_REG":"Esperança","SIGLA_UF":"PB"}},{"type":"Feature","geometry":{"type":"Polygon","coordinates":[[[-35.52642,-6.6452],[-35.53076,-6.67486],[-35.54023,-6.68694],[-35.53952,-6.69678],[-35.54952,-6.71056],[-35.54434,-6.72388],[-35.53706,-6.72682],[-35.53723,-6.73645],[-35.52217,-6.75133],[-35.52159,-6.76636],[-35.52705,-6.76546],[-35.5331,-6.77435],[-35.57541,-6.80717],[-35.57625,-6.82337],[-35.58777,-6.83934],[-35.56507,-6.88653],[-35.5649,-6.90899],[-35.58402,-6.92166],[-35.57136,-6.94086],[-35.58138,-6.9406],[-35.59323,-6.9494],[-35.58822,-6.95239],[-35.5882,-6.96432],[-35.57462,-6.96001],[-35.56493,-6.97709],[-35.55921,-6.97919],[-35.53651,-7.00756],[-35.52494,-7.01884],[-35.52145,-7.02987],[-35.51011,-7.03548],[-35.49709,-7.03427],[-35.4932,-7.04456],[-35.50006,-7.05178],[-35.49157,-7.07207],[-35.49413,-7.09331],[-35.50249,-7.09484],[-35.52093,-7.10571],[-35.53265,-7.12078],[-35.5629,-7.12129],[-35.62767,-7.13247],[-35.63149,-7.13204],[-35.64437,-7.145],[-35.65168,-7.13868],[-35.66236,-7.13906],[-35.66768,-7.14553],[-35.67755,-7.14622],[-35.70643,-7.10376],[-35.78607,-7.15122],[-35.78827,-7.14245],[-35.78212,-7.13702],[-35.79401,-7.1297],[-35.80508,-7.13179],[-35.81042,-7.12589],[-35.81613,-7.13401],[-35.82856,-7.13027],[-35.82746,-7.12478],[-35.81385,-7.1056],[-35.81223,-7.09547],[-35.81746,-7.07619],[-35.82608,-7.07001],[-35.84151,-7.07452],[-35.85216,-7.07194],[-35.85546,-7.06251],[-35.85094,-7.04577],[-35.84006,-7.0381],[-35.83757,-7.02538],[-35.80752,-7.03239],[-35.79829,-7.025],[-35.78573,-7.02708],[-35.77688,-7.02121],[-35.7748,-6.96164],[-35.78738,-6.94494],[-35.79005,-6.93428],[-35.78341,-6.92749],[-35.79116,-6.91856],[-35.7851,-6.90752],[-35.80736,-6.87369],[-35.80078,-6.86436],[-35.76924,-6.87873],[-35.74982,-6.87471],[-35.73598,-6.88409],[-35.68147,-6.89018],[-35.65551,-6.91121],[-35.64957,-6.91061],[-35.64585,-6.88314],[-35.65229,-6.88324],[-35.65698,-6.8683],[-35.67094,-6.86559],[-35.6777,-6.86816],[-35.6928,-6.85973],[-35.69702,-6.84959],[-35.70635,-6.84175],[-35.69934,-6.83796],[-35.70377,-6.82888],[-35.69102,-6.81826],[-35.68128,-6.82569],[-35.66852,-6.81091],[-35.64172,-6.80068],[-35.64737,-6.75834],[-35.66279,-6.74202],[-35.6684,-6.73983],[-35.67606,-6.72772],[-35.67178,-6.70801],[-35.6769,-6.69281],[-35.67246,-6.68593],[-35.68873,-6.67906],[-35.67663,-6.67165],[-35.6774,-6.65951],[-35.68354,-6.66226],[-35.68208,-6.65068],[-35.67017,-6.65097],[-35.66966,-6.63811],[-35.66327,-6.63499],[-35.64744,-6.64516],[-35.63894,-6.64523],[-35.62682,-6.65641],[-35.61214,-6.65438],[-35.60169,-6.63608],[-35.59675,-6.6347],[-35.58789,-6.61778],[-35.58186,-6.61683],[-35.57765,-6.60623],[-35.56842,-6.60877],[-35.56138,-6.60061],[-35.55114,-6.6116],[-35.543,-6.6124],[-35.5446,-6.59781],[-35.53828,-6.5957],[-35.52456,-6.6079],[-35.52642,-6.6452]]]},"properties":{"CD_REG":"25015","NM_REG":"Brejo Paraibano","SIGLA_UF":"PB"}},{"type":"Feature","geometry":{"type":"Polygon","coordinates":[[[-35.4421,-6.48659],[-35.43482,-6.48891],[-35.41239,-6.48825],[-35.39476,-6.49403],[-35.36451,-6.51204],[-35.39555,-6.56299],[-35.38925,-6.60382],[-35.37895,-6.60635],[-35.37107,-6.59826],[-35.3483,-6.59878],[-35.33987,-6.58847],[-35.3334,-6.59132],[-35.32603,-6.60259],[-35.32862,-6.62166],[-35.34045,-6.6488],[-35.33358,-6.65258],[-35.31961,-6.67106],[-35.32011,-6.70864],[-35.33344,-6.70264],[-35.34605,-6.72169],[-35.34601,-6.74539],[-35.35173,-6.75189],[-35.37048,-6.75576],[-35.3578,-6.75803],[-35.35359,-6.77192],[-35.34261,-6.7775],[-35.33487,-6.77532],[-35.31587,-6.78942],[-35.32352,-6.80289],[-35.32717,-6.82536],[-35.31425,-6.82794],[-35.30401,-6.83442],[-35.29886,-6.85184],[-35.31739,-6.8609],[-35.31374,-6.87317],[-35.30325,-6.88278],[-35.30453,-6.8976],[-35.29524,-6.91795],[-35.28995,-6.92127],[-35.28939,-6.93947],[-35.28552,-6.94537],[-35.27536,-6.94435],[-35.26356,-6.95615],[-35.27795,-6.96932],[-35.32849,-6.99186],[-35.33815,-6.99174],[-35.34482,-6.98467],[-35.3484,-6.99065],[-35.35668,-6.98941],[-35.35898,-6.99815],[-35.36665,-7.00168],[-35.37714,-7.03266],[-35.38401,-7.04069],[-35.39864,-7.04515],[-35.41702,-7.04322],[-35.42514,-7.05613],[-35.45225,-7.07392],[-35.49157,-7.07207],[-35.50006,-7.05178],[-35.4932,-7.04456],[-35.49709,-7.03427],[-35.51011,-7.03548],[-35.52145,-7.02987],[-35.52494,-7.01884],[-35.53651,-7.00756],[-35.55921,-6.97919],[-35.56493,-6.97709],[-35.57462,-6.96001],[-35.5882,-6.96432],[-35.58822,-6.95239],[-35.59323,-6.9494],[-35.58138,-6.9406],[-35.57136,-6.94086],[-35.58402,-6.92166],[-35.5649,-6.90899],[-35.56507,-6.88653],[-35.58777,-6.83934],[-35.57625,-6.82337],[-35.57541,-6.80717],[-35.5331,-6.77435],[-35.52705,-6.76546],[-35.52159,-6.76636],[-35.52217,-6.75133],[-35.53723,-6.73645],[-35.53706,-6.72682],[-35.54434,-6.72388],[-35.54952,-6.71056],[-35.53952,-6.69678],[-35.54023,-6.68694],[-35.53076,-6.67486],[-35.52642,-6.6452],[-35.50359,-6.64592],[-35.5043,-6.63458],[-35.49192,-6.63334],[-35.48914,-6.62098],[-35.4737,-6.61746],[-35.46778,-6.61062],[-35.45629,-6.61286],[-35.44826,-6.60321],[-35.44316,-6.5754],[-35.44872,-6.57205],[-35.43661,-6.56089],[-35.43587,-6.54709],[-35.43115,-6.53821],[-35.43568,-6.53216],[-35.42907,-6.5278],[-35.42613,-6.51288],[-35.42964,-6.50514],[-35.44004,-6.50008],[-35.4421,-6.48659]]]},"properties":{"CD_REG":"25016","NM_REG":"Guarabira","SIGLA_UF":"PB"}},{"type":"Feature","geometry":{"type":"Polygon","coordinates":[[[-35.82746,-7.12478],[-35.82856,-7.13027],[-35.81613,-7.13401],[-35.81042,-7.12589],[-35.80508,-7.13179],[-35.79401,-7.1297],[-35.78212,-7.13702],[-35.78827,-7.14245],[-35.78607,-7.15122],[-35.70643,-7.10376],[-35.67755,-7.14622],[-35.66768,-7.14553],[-35.66236,-7.13906],[-35.65168,-7.13868],[-35.64437,-7.145],[-35.63149,-7.13204],[-35.62767,-7.13247],[-35.61899,-7.15376],[-35.60515,-7.16942],[-35.65847,-7.19005],[-35.6713,-7.20883],[-35.69857,-7.21891],[-35.70432,-7.26009],[-35.74309,-7.34127],[-35.72907,-7.33728],[-35.71746,-7.34112],[-35.70321,-7.33744],[-35.7557,-7.47231],[-35.7591,-7.47876],[-35.77326,-7.48126],[-35.77236,-7.47384],[-35.77989,-7.47047],[-35.78536,-7.47546],[-35.78633,-7.46613],[-35.79195,-7.47034],[-35.80747,-7.47156],[-35.80532,-7.46468],[-35.81389,-7.4589],[-35.82096,-7.46463],[-35.82509,-7.45947],[-35.83565,-7.46578],[-35.83523,-7.48535],[-35.84211,-7.49248],[-35.85087,-7.4896],[-35.85399,-7.50759],[-35.87517,-7.51173],[-35.89192,-7.51044],[-35.90106,-7.51605],[-35.90276,-7.50819],[-35.91501,-7.50624],[-35.92197,-7.51396],[-35.93863,-7.50615],[-35.94821,-7.49513],[-35.96272,-7.49082],[-35.96539,-7.48197],[-35.97306,-7.48067],[-35.98069,-7.4711],[-35.99242,-7.46683],[-35.99346,-7.46015],[-36.00768,-7.45003],[-36.02104,-7.44411],[-36.01386,-7.43739],[-36.00768,-7.43922],[-36.00402,-7.42299],[-36.01691,-7.42174],[-36.00937,-7.41305],[-35.99827,-7.41244],[-36.00969,-7.40066],[-35.99892,-7.391],[-36.00036,-7.38432],[-36.01364,-7.38663],[-36.02864,-7.37163],[-36.03845,-7.36634],[-36.12386,-7.36191],[-36.14172,-7.35737],[-36.15031,-7.34467],[-36.17586,-7.34726],[-36.1959,-7.36176],[-36.20661,-7.36115],[-36.21346,-7.35578],[-36.22216,-7.36819],[-36.23568,-7.36967],[-36.23383,-7.36226],[-36.24068,-7.35541],[-36.25254,-7.36319],[-36.27309,-7.35874],[-36.28193,-7.3692],[-36.34574,-7.36731],[-36.33044,-7.30545],[-36.32609,-7.18873],[-36.22398,-7.19783],[-36.1687,-7.20165],[-36.14213,-7.16714],[-36.13585,-7.16262],[-36.1076,-7.152],[-36.09745,-7.15332],[-36.06508,-7.16588],[-36.04627,-7.16518],[-36.03239,-7.17389],[-36.03223,-7.16576],[-36.02535,-7.16637],[-35.97946,-7.10042],[-35.96612,-7.11272],[-35.94165,-7.10684],[-35.93385,-7.10868],[-35.91112,-7.1021],[-35.90829,-7.09559],[-35.89597,-7.09235],[-35.89515,-7.08556],[-35.88673,-7.0905],[-35.89096,-7.09774],[-35.88071,-7.10062],[-35.8682,-7.11068],[-35.86425,-7.11981],[-35.85454,-7.11682],[-35.82746,-7.12478]]]},"properties":{"CD_REG":"25017","NM_REG":"Campina Grande","SIGLA_UF":"PB"}},{"type":"Feature","geometry":{"type":"Polygon","coordinates":[[[-35.37714,-7.03266],[-35.32935,-7.09633],[-35.32141,-7.10162],[-35.3222,-7.11044],[-35.31496,-7.10955],[-35.31496,-7.11821],[-35.30528,-7.11887],[-35.29807,-7.11196],[-35.29108,-7.11275],[-35.30603,-7.14343],[-35.31414,-7.15281],[-35.32534,-7.15545],[-35.33408,-7.18355],[-35.34865,-7.19456],[-35.38296,-7.21023],[-35.37437,-7.23895],[-35.4187,-7.23936],[-35.42524,-7.24637],[-35.44793,-7.25674],[-35.43943,-7.2627],[-35.4157,-7.27291],[-35.41223,-7.26829],[-35.38497,-7.25971],[-35.37856,-7.25157],[-35.37551,-7.26236],[-35.34454,-7.27556],[-35.32427,-7.28937],[-35.31422,-7.30136],[-35.30891,-7.323],[-35.29129,-7.3211],[-35.2711,-7.36395],[-35.28612,-7.37856],[-35.28018,-7.38766],[-35.29588,-7.40137],[-35.30905,-7.40904],[-35.31404,-7.40575],[-35.3241,-7.41132],[-35.33502,-7.4068],[-35.33191,-7.41915],[-35.35263,-7.42416],[-35.3486,-7.43494],[-35.35299,-7.44127],[-35.36835,-7.44063],[-35.37596,-7.44889],[-35.3855,-7.44958],[-35.39222,-7.456],[-35.40983,-7.4628],[-35.41288,-7.47058],[-35.42471,-7.47442],[-35.4326,-7.47234],[-35.43766,-7.46055],[-35.45037,-7.45341],[-35.45381,-7.4626],[-35.46352,-7.46235],[-35.47608,-7.47623],[-35.48599,-7.4772],[-35.49493,-7.48391],[-35.50954,-7.48504],[-35.52455,-7.47981],[-35.53751,-7.47077],[-35.54901,-7.46852],[-35.54488,-7.45331],[-35.53862,-7.45205],[-35.53984,-7.43364],[-35.55704,-7.44451],[-35.56806,-7.43963],[-35.59392,-7.45425],[-35.61456,-7.44971],[-35.64539,-7.45418],[-35.65978,-7.45924],[-35.66777,-7.46611],[-35.67421,-7.4605],[-35.68722,-7.47741],[-35.69843,-7.46902],[-35.71856,-7.47482],[-35.72438,-7.46582],[-35.73251,-7.47445],[-35.73707,-7.46838],[-35.74642,-7.47493],[-35.7557,-7.47231],[-35.70321,-7.33744],[-35.71746,-7.34112],[-35.72907,-7.33728],[-35.74309,-7.34127],[-35.70432,-7.26009],[-35.69857,-7.21891],[-35.6713,-7.20883],[-35.65847,-7.19005],[-35.60515,-7.16942],[-35.61899,-7.15376],[-35.62767,-7.13247],[-35.5629,-7.12129],[-35.53265,-7.12078],[-35.52093,-7.10571],[-35.50249,-7.09484],[-35.49413,-7.09331],[-35.49157,-7.07207],[-35.45225,-7.07392],[-35.42514,-7.05613],[-35.41702,-7.04322],[-35.39864,-7.04515],[-35.38401,-7.04069],[-35.37714,-7.03266]]]},"properties":{"CD_REG":"25018","NM_REG":"Itabaiana","SIGLA_UF":"PB"}},{"type":"Feature","geometry":{"type":"Polygon","coordinates":[[[-35.49493,-7.48391],[-35.50401,-7.50797],[-35.50193,-7.51251],[-35.50918,-7.51749],[-35.51244,-7.53147],[-35.52138,-7.54118],[-35.51992,-7.55038],[-35.52721,-7.56996],[-35.53291,-7.57364],[-35.53784,-7.58664],[-35.52785,-7.59021],[-35.51519,-7.58502],[-35.52115,-7.59641],[-35.5181,-7.60643],[-35.52581,-7.60756],[-35.53169,-7.62167],[-35.51963,-7.64002],[-35.51506,-7.64224],[-35.52972,-7.64648],[-35.53461,-7.65548],[-35.5503,-7.66119],[-35.57192,-7.65797],[-35.58769,-7.65022],[-35.59749,-7.65434],[-35.60787,-7.65341],[-35.62477,-7.66588],[-35.62131,-7.66861],[-35.63152,-7.68124],[-35.64527,-7.69241],[-35.6568,-7.69768],[-35.66747,-7.69743],[-35.67989,-7.70358],[-35.68411,-7.7078],[-35.69535,-7.69397],[-35.70677,-7.69577],[-35.71362,-7.70737],[-35.73655,-7.7096],[-35.74725,-7.7232],[-35.759,-7.72241],[-35.78058,-7.73835],[-35.80032,-7.74182],[-35.8285,-7.75165],[-35.83581,-7.74761],[-35.85066,-7.74751],[-35.86229,-7.75103],[-35.87212,-7.74954],[-35.88183,-7.75445],[-35.88383,-7.77478],[-35.89825,-7.78892],[-35.90936,-7.79251],[-35.92847,-7.78518],[-35.93866,-7.7889],[-35.95903,-7.78726],[-35.97402,-7.792],[-35.98137,-7.80319],[-35.99104,-7.79987],[-35.99822,-7.81376],[-36.02159,-7.81024],[-36.0126,-7.79155],[-36.01439,-7.78421],[-36.00928,-7.75784],[-36.00182,-7.76053],[-35.99881,-7.7453],[-35.98627,-7.73841],[-35.99126,-7.73118],[-35.98074,-7.71839],[-35.97406,-7.7008],[-35.97611,-7.68454],[-35.96567,-7.66032],[-35.95348,-7.65136],[-35.94659,-7.66065],[-35.93273,-7.67035],[-35.93049,-7.68272],[-35.90217,-7.67402],[-35.88837,-7.66347],[-35.86856,-7.66276],[-35.86604,-7.63832],[-35.87636,-7.61608],[-35.8753,-7.6055],[-35.86657,-7.60434],[-35.86711,-7.58945],[-35.8515,-7.58447],[-35.8448,-7.57544],[-35.83419,-7.57582],[-35.82211,-7.56631],[-35.84575,-7.55827],[-35.85812,-7.54686],[-35.86781,-7.54932],[-35.88476,-7.54254],[-35.88041,-7.5234],[-35.88168,-7.51366],[-35.87517,-7.51173],[-35.85399,-7.50759],[-35.85087,-7.4896],[-35.84211,-7.49248],[-35.83523,-7.48535],[-35.83565,-7.46578],[-35.82509,-7.45947],[-35.82096,-7.46463],[-35.81389,-7.4589],[-35.80532,-7.46468],[-35.80747,-7.47156],[-35.79195,-7.47034],[-35.78633,-7.46613],[-35.78536,-7.47546],[-35.77989,-7.47047],[-35.77236,-7.47384],[-35.77326,-7.48126],[-35.7591,-7.47876],[-35.7557,-7.47231],[-35.74642,-7.47493],[-35.73707,-7.46838],[-35.73251,-7.47445],[-35.72438,-7.46582],[-35.71856,-7.47482],[-35.69843,-7.46902],[-35.68722,-7.47741],[-35.67421,-7.4605],[-35.66777,-7.46611],[-35.65978,-7.45924],[-35.64539,-7.45418],[-35.61456,-7.44971],[-35.59392,-7.45425],[-35.56806,-7.43963],[-35.55704,-7.44451],[-35.53984,-7.43364],[-35.53862,-7.45205],[-35.54488,-7.45331],[-35.54901,-7.46852],[-35.53751,-7.47077],[-35.52455,-7.47981],[-35.50954,-7.48504],[-35.49493,-7.48391]]]},"properties":{"CD_REG":"25019","NM_REG":"Umbuzeiro","SIGLA_UF":"PB"}},{"type":"Feature","geometry":{"type":"Polygon","coordinates":[[[-34.96846,-6.4872],[-34.96738,-6.50085],[-34.9658,-6.60035],[-34.96371,-6.60383],[-34.96308,-6.63109],[-34.95741,-6.65878],[-34.95274,-6.67262],[-34.94554,-6.68228],[-34.93079,-6.68818],[-34.93394,-6.69748],[-34.93138,-6.72091],[-34.93408,-6.72914],[-34.92797,-6.74039],[-34.94047,-6.75397],[-34.93343,-6.75644],[-34.93228,-6.76503],[-34.91887,-6.77074],[-34.915,-6.78742],[-34.91122,-6.82616],[-34.89871,-6.8659],[-34.91227,-6.86567],[-34.93337,-6.88997],[-34.95022,-6.89417],[-34.96419,-6.90279],[-34.97669,-6.90219],[-34.98929,-6.90845],[-35.01446,-6.91627],[-35.0194,-6.91375],[-35.04213,-6.92533],[-35.06394,-6.93334],[-35.09032,-6.9399],[-35.10889,-6.93766],[-35.12063,-6.94309],[-35.13365,-6.94256],[-35.15219,-6.94117],[-35.18345,-6.95616],[-35.19696,-6.9493],[-35.2045,-6.94089],[-35.21917,-6.94397],[-35.23656,-6.95516],[-35.24606,-6.95528],[-35.24908,-6.94903],[-35.26356,-6.95615],[-35.27536,-6.94435],[-35.28552,-6.94537],[-35.28939,-6.93947],[-35.28995,-6.92127],[-35.29524,-6.91795],[-35.30453,-6.8976],[-35.30325,-6.88278],[-35.31374,-6.87317],[-35.31739,-6.8609],[-35.29886,-6.85184],[-35.30401,-6.83442],[-35.31425,-6.82794],[-35.32717,-6.82536],[-35.32352,-6.80289],[-35.31587,-6.78942],[-35.33487,-6.77532],[-35.34261,-6.7775],[-35.35359,-6.77192],[-35.3578,-6.75803],[-35.37048,-6.75576],[-35.35173,-6.75189],[-35.34601,-6.74539],[-35.34605,-6.72169],[-35.33344,-6.70264],[-35.32011,-6.70864],[-35.31961,-6.67106],[-35.33358,-6.65258],[-35.34045,-6.6488],[-35.32862,-6.62166],[-35.32603,-6.60259],[-35.3334,-6.59132],[-35.33987,-6.58847],[-35.3483,-6.59878],[-35.37107,-6.59826],[-35.37895,-6.60635],[-35.38925,-6.60382],[-35.39555,-6.56299],[-35.36451,-6.51204],[-35.34126,-6.53862],[-35.33077,-6.54434],[-35.27457,-6.54388],[-35.25321,-6.53401],[-35.22978,-6.53033],[-35.22288,-6.51613],[-35.21823,-6.5186],[-35.20731,-6.54372],[-35.19947,-6.54994],[-35.16885,-6.55826],[-35.15748,-6.55171],[-35.14544,-6.55271],[-35.13263,-6.53576],[-35.12345,-6.52986],[-35.11255,-6.50512],[-35.10368,-6.50585],[-35.09554,-6.49768],[-35.07542,-6.5144],[-35.06715,-6.52466],[-35.05773,-6.52779],[-35.03696,-6.51713],[-35.02854,-6.50552],[-35.01112,-6.50612],[-34.99207,-6.50149],[-34.97836,-6.48726],[-34.96846,-6.4872]]]},"properties":{"CD_REG":"25020","NM_REG":"Litoral Norte","SIGLA_UF":"PB"}},{"type":"Feature","geometry":{"type":"Polygon","coordinates":[[[-35.13365,-6.94256],[-35.13661,-6.95704],[-35.14537,-6.9753],[-35.13849,-6.98171],[-35.13517,-7.00302],[-35.13032,-7.00877],[-35.15787,-7.02747],[-35.05921,-7.08111],[-35.04427,-7.12353],[-35.04068,-7.12845],[-35.04036,-7.14314],[-35.06726,-7.2285],[-35.09021,-7.23076],[-35.11009,-7.23013],[-35.11434,-7.22371],[-35.12308,-7.2278],[-35.13984,-7.21749],[-35.14804,-7.20549],[-35.16941,-7.2519],[-35.17207,-7.27756],[-35.18138,-7.2963],[-35.19017,-7.30326],[-35.19762,-7.31881],[-35.18464,-7.33848],[-35.18133,-7.35182],[-35.16963,-7.35183],[-35.14964,-7.37185],[-35.15565,-7.37811],[-35.15379,-7.39246],[-35.17207,-7.38804],[-35.18081,-7.3959],[-35.19074,-7.39789],[-35.19955,-7.38773],[-35.21674,-7.38094],[-35.24859,-7.37478],[-35.28018,-7.38766],[-35.28612,-7.37856],[-35.2711,-7.36395],[-35.29129,-7.3211],[-35.30891,-7.323],[-35.31422,-7.30136],[-35.32427,-7.28937],[-35.34454,-7.27556],[-35.37551,-7.26236],[-35.37856,-7.25157],[-35.38497,-7.25971],[-35.41223,-7.26829],[-35.4157,-7.27291],[-35.43943,-7.2627],[-35.44793,-7.25674],[-35.42524,-7.24637],[-35.4187,-7.23936],[-35.37437,-7.23895],[-35.38296,-7.21023],[-35.34865,-7.19456],[-35.33408,-7.18355],[-35.32534,-7.15545],[-35.31414,-7.15281],[-35.30603,-7.14343],[-35.29108,-7.11275],[-35.29807,-7.11196],[-35.30528,-7.11887],[-35.31496,-7.11821],[-35.31496,-7.10955],[-35.3222,-7.11044],[-35.32141,-7.10162],[-35.32935,-7.09633],[-35.37714,-7.03266],[-35.36665,-7.00168],[-35.35898,-6.99815],[-35.35668,-6.98941],[-35.3484,-6.99065],[-35.34482,-6.98467],[-35.33815,-6.99174],[-35.32849,-6.99186],[-35.27795,-6.96932],[-35.26356,-6.95615],[-35.24908,-6.94903],[-35.24606,-6.95528],[-35.23656,-6.95516],[-35.21917,-6.94397],[-35.2045,-6.94089],[-35.19696,-6.9493],[-35.18345,-6.95616],[-35.15219,-6.94117],[-35.13365,-6.94256]]]},"properties":{"CD_REG":"25021","NM_REG":"Sapé","SIGLA_UF":"PB"}},{"type":"Feature","geometry":{"type":"MultiPolygon","coordinates":[[[[-34.79785,-7.36312],[-34.79816,-7.36298],[-34.798,-7.36278],[-34.79785,-7.36312]]],[[[-34.79896,-7.36257],[-34.79894,-7.36237],[-34.79873,-7.36248],[-34.79896,-7.36257]]],[[[-34.7989,-7.36067],[-34.79898,-7.36055],[-34.79876,-7.36056],[-34.7989,-7.36067]]],[[[-34.79595,-7.349],[-34.79549,-7.34856],[-34.79559,-7.34979],[-34.79595,-7.349]]],[[[-34.79734,-7.34883],[-34.79763,-7.34873],[-34.79728,-7.34851],[-34.79734,-7.34883]]],[[[-34.84756,-6.98309],[-34.85064,-7.00453],[-34.85944,-7.01525],[-34.86554,-7.00153],[-34.86627,-6.98158],[-34.84756,-6.98309]]],[[[-34.89871,-6.8659],[-34.88756,-6.8832],[-34.87376,-6.89475],[-34.85394,-6.90061],[-34.86605,-6.93038],[-34.86446,-6.94287],[-34.8556,-6.96056],[-34.85527,-6.97028],[-34.87069,-6.97974],[-34.87396,-6.98711],[-34.8706,-7.01134],[-34.86526,-7.02958],[-34.85501,-7.02885],[-34.83821,-7.01172],[-34.83396,-6.99112],[-34.83595,-6.9775],[-34.84313,-6.96235],[-34.83006,-6.96623],[-34.82796,-6.97324],[-34.82546,-7.00582],[-34.8296,-7.03067],[-34.83823,-7.04071],[-34.84241,-7.05589],[-34.83989,-7.06421],[-34.83015,-7.07341],[-34.83151,-7.10102],[-34.82112,-7.11224],[-34.82148,-7.12979],[-34.80924,-7.14555],[-34.79677,-7.14705],[-34.79316,-7.15456],[-34.7961,-7.17407],[-34.79474,-7.19424],[-34.80408,-7.21799],[-34.80589,-7.24268],[-34.80358,-7.26811],[-34.79895,-7.2779],[-34.80131,-7.29604],[-34.79848,-7.30368],[-34.80258,-7.31316],[-34.79453,-7.33295],[-34.79981,-7.35978],[-34.79894,-7.36291],[-34.79736,-7.36598],[-34.80273,-7.38793],[-34.80455,-7.37769],[-34.81271,-7.36506],[-34.81571,-7.35345],[-34.83213,-7.34595],[-34.84659,-7.3432],[-34.85067,-7.34713],[-34.87308,-7.33367],[-34.89232,-7.3155],[-34.89825,-7.31542],[-34.91866,-7.30349],[-34.91612,-7.28467],[-34.92388,-7.27245],[-34.93816,-7.27396],[-34.93336,-7.25228],[-34.94321,-7.24862],[-34.94413,-7.26261],[-34.94972,-7.27629],[-34.96499,-7.28293],[-34.97492,-7.27472],[-34.99928,-7.26748],[-35.0224,-7.26995],[-35.04358,-7.27916],[-35.04498,-7.27089],[-35.05914,-7.25641],[-35.06726,-7.2285],[-35.04036,-7.14314],[-35.04068,-7.12845],[-35.04427,-7.12353],[-35.05921,-7.08111],[-35.15787,-7.02747],[-35.13032,-7.00877],[-35.13517,-7.00302],[-35.13849,-6.98171],[-35.14537,-6.9753],[-35.13661,-6.95704],[-35.13365,-6.94256],[-35.12063,-6.94309],[-35.10889,-6.93766],[-35.09032,-6.9399],[-35.06394,-6.93334],[-35.04213,-6.92533],[-35.0194,-6.91375],[-35.01446,-6.91627],[-34.98929,-6.90845],[-34.97669,-6.90219],[-34.96419,-6.90279],[-34.95022,-6.89417],[-34.93337,-6.88997],[-34.91227,-6.86567],[-34.89871,-6.8659]]]]},"properties":{"CD_REG":"25022","NM_REG":"João Pessoa","SIGLA_UF":"PB"}},{"type":"Feature","geometry":{"type":"Polygon","coordinates":[[[-35.06726,-7.2285],[-35.05914,-7.25641],[-35.04498,-7.27089],[-35.04358,-7.27916],[-35.0224,-7.26995],[-34.99928,-7.26748],[-34.97492,-7.27472],[-34.96499,-7.28293],[-34.94972,-7.27629],[-34.94413,-7.26261],[-34.94321,-7.24862],[-34.93336,-7.25228],[-34.93816,-7.27396],[-34.92388,-7.27245],[-34.91612,-7.28467],[-34.91866,-7.30349],[-34.89825,-7.31542],[-34.89232,-7.3155],[-34.87308,-7.33367],[-34.85067,-7.34713],[-34.84659,-7.3432],[-34.83213,-7.34595],[-34.81571,-7.35345],[-34.81271,-7.36506],[-34.80455,-7.37769],[-34.80273,-7.38793],[-34.80956,-7.43438],[-34.81095,-7.45423],[-34.8039,-7.47127],[-34.81408,-7.48927],[-34.80908,-7.50947],[-34.82173,-7.53427],[-34.82597,-7.55069],[-34.83388,-7.54863],[-34.83859,-7.5443],[-34.85802,-7.53795],[-34.86739,-7.54796],[-34.88874,-7.5359],[-34.89554,-7.54507],[-34.8999,-7.53743],[-34.91732,-7.54177],[-34.93268,-7.52852],[-34.95062,-7.53762],[-34.96079,-7.53877],[-34.96944,-7.52107],[-34.98423,-7.50789],[-34.99018,-7.48888],[-34.98435,-7.46353],[-35.00274,-7.45353],[-35.0146,-7.44345],[-35.02956,-7.42582],[-35.0481,-7.41781],[-35.07052,-7.39876],[-35.10796,-7.40553],[-35.1276,-7.40168],[-35.13486,-7.39678],[-35.15379,-7.39246],[-35.15565,-7.37811],[-35.14964,-7.37185],[-35.16963,-7.35183],[-35.18133,-7.35182],[-35.18464,-7.33848],[-35.19762,-7.31881],[-35.19017,-7.30326],[-35.18138,-7.2963],[-35.17207,-7.27756],[-35.16941,-7.2519],[-35.14804,-7.20549],[-35.13984,-7.21749],[-35.12308,-7.2278],[-35.11434,-7.22371],[-35.11009,-7.23013],[-35.09021,-7.23076],[-35.06726,-7.2285]]]},"properties":{"CD_REG":"25023","NM_REG":"Litoral Sul","SIGLA_UF":"PB"}}]}