{"type":"FeatureCollection","features":[{"type":"Feature","geometry":{"type":"Polygon","coordinates":[[[-47.3085,-16.04997],[-47.31001,-16.03627],[-47.32568,-16.02962],[-47.33907,-16.01243],[-47.35131,-16.00657],[-47.36039,-16.00781],[-47.36866,-16.00316],[-47.37892,-15.97322],[-47.36869,-15.94729],[-47.37205,-15.93531],[-47.36503,-15.93313],[-47.36204,-15.92178],[-47.36906,-15.92013],[-47.36559,-15.90933],[-47.37464,-15.90695],[-47.37242,-15.90031],[-47.37874,-15.88416],[-47.37359,-15.87725],[-47.36797,-15.85192],[-47.3674,-15.82875],[-47.36277,-15.82764],[-47.34184,-15.79765],[-47.33627,-15.78147],[-47.33291,-15.78143],[-47.32595,-15.76102],[-47.31482,-15.74808],[-47.31361,-15.73823],[-47.32069,-15.71862],[-47.31522,-15.7152],[-47.31252,-15.69738],[-47.3195,-15.68822],[-47.33147,-15.6835],[-47.32616,-15.6696],[-47.32664,-15.65277],[-47.33334,-15.63234],[-47.32224,-15.59805],[-47.31597,-15.59712],[-47.32088,-15.58661],[-47.33481,-15.58756],[-47.34674,-15.57956],[-47.36152,-15.58008],[-47.37789,-15.57598],[-47.38142,-15.56661],[-47.38887,-15.56752],[-47.39941,-15.55063],[-47.41841,-15.54566],[-47.41841,-15.50182],[-47.5791,-15.50208],[-48.20001,-15.50228],[-48.19973,-15.62291],[-48.21822,-15.62334],[-48.23416,-15.64191],[-48.23462,-15.66687],[-48.24091,-15.68598],[-48.24122,-15.70555],[-48.23051,-15.7098],[-48.21881,-15.70897],[-48.20804,-15.71793],[-48.20884,-15.74972],[-48.21729,-15.7676],[-48.23189,-15.77844],[-48.24037,-15.79826],[-48.24627,-15.79709],[-48.26783,-15.80838],[-48.28066,-15.82395],[-48.28507,-15.83661],[-48.28404,-15.85323],[-48.27919,-15.86007],[-48.28034,-15.86884],[-48.2717,-15.88409],[-48.27628,-15.8923],[-48.27626,-15.906],[-48.27012,-15.91042],[-48.27,-15.91937],[-48.27633,-15.93132],[-48.26086,-15.92803],[-48.25133,-15.93769],[-48.25139,-15.95565],[-48.26027,-15.96687],[-48.25815,-15.98336],[-48.26159,-15.98524],[-48.27235,-16.01351],[-48.26988,-16.02221],[-48.27859,-16.04202],[-48.27781,-16.0496],[-48.14709,-16.04958],[-47.83137,-16.04996],[-47.62921,-16.04981],[-47.3085,-16.04997]]]},"properties":{"CD_REG":"53001","NM_REG":"Brasília","SIGLA_UF":"DF"}}]}