{"type":"FeatureCollection","features":[{"type":"Feature","geometry":{"type":"Polygon","coordinates":[[[-37.52531,-8.96336],[-37.51911,-8.96833],[-37.50439,-8.96539],[-37.49709,-8.97204],[-37.49321,-8.99336],[-37.48398,-8.98898],[-37.4682,-8.99858],[-37.4312,-9.00768],[-37.4165,-9.00656],[-37.39614,-9.02011],[-37.39557,-9.0281],[-37.39477,-9.0421],[-37.40551,-9.05314],[-37.41976,-9.07585],[-37.41989,-9.08935],[-37.42721,-9.10336],[-37.4235,-9.13281],[-37.41877,-9.13499],[-37.42525,-9.15534],[-37.42191,-9.1607],[-37.44437,-9.19258],[-37.4567,-9.19759],[-37.47145,-9.21218],[-37.48049,-9.21672],[-37.48008,-9.22386],[-37.48969,-9.23026],[-37.50611,-9.23588],[-37.5202,-9.24447],[-37.52381,-9.25409],[-37.53171,-9.25997],[-37.54229,-9.25924],[-37.54863,-9.26711],[-37.56461,-9.27348],[-37.57111,-9.28258],[-37.58823,-9.28683],[-37.58784,-9.30158],[-37.59441,-9.31673],[-37.60877,-9.3343],[-37.61733,-9.35696],[-37.63401,-9.3743],[-37.64661,-9.39345],[-37.6467,-9.40039],[-37.65416,-9.4088],[-37.76882,-9.28878],[-37.77704,-9.32432],[-37.80845,-9.32943],[-37.82338,-9.34118],[-37.82525,-9.35001],[-37.83284,-9.35235],[-37.83399,-9.36348],[-37.84503,-9.37737],[-37.85804,-9.39987],[-37.87228,-9.40663],[-38.15637,-9.25007],[-38.15631,-9.24236],[-38.14391,-9.2182],[-38.13524,-9.21396],[-38.11537,-9.19836],[-38.11405,-9.194],[-38.09229,-9.17272],[-38.08257,-9.17059],[-38.0661,-9.17422],[-38.05698,-9.16763],[-38.04454,-9.16882],[-38.02951,-9.16451],[-38.02579,-9.15551],[-38.01101,-9.15603],[-37.99948,-9.15224],[-37.99366,-9.15533],[-37.97856,-9.14766],[-37.9712,-9.12434],[-37.96158,-9.12013],[-37.95485,-9.11131],[-37.95064,-9.09654],[-37.94268,-9.09222],[-37.93768,-9.08012],[-37.90709,-9.05116],[-37.90654,-9.04295],[-37.88771,-9.03507],[-37.88098,-9.04035],[-37.87523,-9.02462],[-37.8796,-9.01541],[-37.86715,-9.01163],[-37.85309,-9.00014],[-37.84601,-8.98477],[-37.8391,-8.97838],[-37.82623,-8.93272],[-37.83364,-8.92641],[-37.82036,-8.9087],[-37.82564,-8.88857],[-37.80975,-8.87711],[-37.79293,-8.87391],[-37.78483,-8.85945],[-37.77365,-8.85303],[-37.7659,-8.85446],[-37.75536,-8.84636],[-37.74649,-8.85908],[-37.74143,-8.87624],[-37.73222,-8.8795],[-37.71939,-8.9081],[-37.70371,-8.92231],[-37.69861,-8.94488],[-37.69049,-8.9488],[-37.68942,-8.95561],[-37.67192,-8.9745],[-37.684,-8.97637],[-37.69983,-8.98406],[-37.69774,-8.99121],[-37.68707,-8.98774],[-37.68215,-8.99733],[-37.65809,-8.9858],[-37.65778,-8.99267],[-37.6399,-8.99513],[-37.63836,-9.0038],[-37.61017,-8.98786],[-37.59575,-8.96881],[-37.57244,-8.97203],[-37.55594,-8.97047],[-37.54597,-8.96094],[-37.52803,-8.96042],[-37.52531,-8.96336]]]},"properties":{"CD_REG":"27001","NM_REG":"Serrana do Sertão Alagoano","SIGLA_UF":"AL"}},{"type":"Feature","geometry":{"type":"Polygon","coordinates":[[[-37.65416,-9.4088],[-37.66343,-9.43979],[-37.66199,-9.44512],[-37.66897,-9.46255],[-37.66601,-9.47645],[-37.6596,-9.48561],[-37.67343,-9.49964],[-37.66994,-9.50543],[-37.67607,-9.52423],[-37.66431,-9.55623],[-37.65015,-9.57605],[-37.63698,-9.60168],[-37.64297,-9.62142],[-37.65943,-9.65732],[-37.65597,-9.66722],[-37.65962,-9.67824],[-37.67039,-9.65598],[-37.67827,-9.64878],[-37.71012,-9.63007],[-37.72488,-9.62998],[-37.74699,-9.62492],[-37.78654,-9.63865],[-37.7931,-9.62061],[-37.80976,-9.60702],[-37.81825,-9.59289],[-37.83179,-9.59488],[-37.83754,-9.58328],[-37.8638,-9.56655],[-37.88617,-9.55017],[-37.89592,-9.54006],[-37.91714,-9.54895],[-37.94819,-9.53882],[-37.9563,-9.53408],[-37.9778,-9.53145],[-37.98933,-9.52736],[-38.00329,-9.51503],[-37.99795,-9.49928],[-38.01093,-9.47873],[-38.02215,-9.46999],[-38.03611,-9.4658],[-38.04316,-9.4686],[-38.05756,-9.4592],[-38.0687,-9.45639],[-38.07025,-9.44798],[-38.07776,-9.44111],[-38.0967,-9.43704],[-38.11338,-9.43618],[-38.11812,-9.44226],[-38.14193,-9.43776],[-38.154,-9.44352],[-38.18125,-9.42583],[-38.20257,-9.41983],[-38.20501,-9.41672],[-38.20088,-9.39891],[-38.19418,-9.39439],[-38.19429,-9.38572],[-38.20029,-9.37943],[-38.20557,-9.36365],[-38.2236,-9.34691],[-38.23759,-9.32979],[-38.20308,-9.2969],[-38.17955,-9.29125],[-38.15738,-9.26262],[-38.15637,-9.25007],[-37.87228,-9.40663],[-37.85804,-9.39987],[-37.84503,-9.37737],[-37.83399,-9.36348],[-37.83284,-9.35235],[-37.82525,-9.35001],[-37.82338,-9.34118],[-37.80845,-9.32943],[-37.77704,-9.32432],[-37.76882,-9.28878],[-37.65416,-9.4088]]]},"properties":{"CD_REG":"27002","NM_REG":"Alagoana do Sertão do São Francisco","SIGLA_UF":"AL"}},{"type":"Feature","geometry":{"type":"Polygon","coordinates":[[[-37.05534,-9.30745],[-37.04752,-9.31489],[-37.02429,-9.31572],[-37.01284,-9.33933],[-37.00336,-9.35261],[-36.97964,-9.35933],[-36.99416,-9.3743],[-37.02278,-9.3696],[-37.03971,-9.41783],[-37.10458,-9.46057],[-37.11761,-9.46001],[-37.11773,-9.4377],[-37.19809,-9.43226],[-37.2077,-9.43461],[-37.21401,-9.4453],[-37.25515,-9.44664],[-37.26708,-9.44951],[-37.27332,-9.46461],[-37.27926,-9.45647],[-37.31274,-9.47108],[-37.38029,-9.50288],[-37.3731,-9.52478],[-37.31358,-9.55315],[-37.35657,-9.63767],[-37.35115,-9.64525],[-37.30306,-9.63603],[-37.2884,-9.68655],[-37.24046,-9.73602],[-37.24939,-9.73713],[-37.25145,-9.74936],[-37.25909,-9.75733],[-37.27467,-9.76597],[-37.27621,-9.77199],[-37.28835,-9.77193],[-37.28693,-9.77746],[-37.29738,-9.78276],[-37.31019,-9.8037],[-37.29837,-9.81738],[-37.29652,-9.83058],[-37.3188,-9.822],[-37.32594,-9.81692],[-37.34662,-9.79118],[-37.38163,-9.78049],[-37.39362,-9.77924],[-37.40802,-9.76411],[-37.42492,-9.76157],[-37.44205,-9.75379],[-37.47309,-9.74636],[-37.51537,-9.74587],[-37.52756,-9.7423],[-37.57242,-9.73862],[-37.58182,-9.73414],[-37.59708,-9.72127],[-37.63353,-9.70013],[-37.63735,-9.69311],[-37.65405,-9.68633],[-37.65962,-9.67824],[-37.65597,-9.66722],[-37.65943,-9.65732],[-37.64297,-9.62142],[-37.63698,-9.60168],[-37.65015,-9.57605],[-37.66431,-9.55623],[-37.67607,-9.52423],[-37.66994,-9.50543],[-37.67343,-9.49964],[-37.6596,-9.48561],[-37.66601,-9.47645],[-37.66897,-9.46255],[-37.66199,-9.44512],[-37.66343,-9.43979],[-37.65416,-9.4088],[-37.6467,-9.40039],[-37.64661,-9.39345],[-37.63401,-9.3743],[-37.61733,-9.35696],[-37.60877,-9.3343],[-37.59441,-9.31673],[-37.58784,-9.30158],[-37.58823,-9.28683],[-37.57111,-9.28258],[-37.56461,-9.27348],[-37.54863,-9.26711],[-37.54229,-9.25924],[-37.53171,-9.25997],[-37.52381,-9.25409],[-37.5202,-9.24447],[-37.50611,-9.23588],[-37.48969,-9.23026],[-37.48008,-9.22386],[-37.48049,-9.21672],[-37.47145,-9.21218],[-37.4567,-9.19759],[-37.44437,-9.19258],[-37.42191,-9.1607],[-37.42525,-9.15534],[-37.41877,-9.13499],[-37.4235,-9.13281],[-37.42721,-9.10336],[-37.41989,-9.08935],[-37.41976,-9.07585],[-37.40551,-9.05314],[-37.39477,-9.0421],[-37.39557,-9.0281],[-37.39141,-9.02698],[-37.35864,-9.05389],[-37.33444,-9.08186],[-37.3277,-9.09323],[-37.31745,-9.0924],[-37.3107,-9.10042],[-37.31106,-9.10754],[-37.29657,-9.12092],[-37.28229,-9.14884],[-37.26656,-9.15905],[-37.24708,-9.17902],[-37.24679,-9.19038],[-37.23481,-9.20453],[-37.23236,-9.22232],[-37.22878,-9.22554],[-37.23434,-9.24018],[-37.21217,-9.22112],[-37.19832,-9.21548],[-37.15986,-9.23825],[-37.16828,-9.25183],[-37.16939,-9.27243],[-37.16434,-9.27571],[-37.14239,-9.26808],[-37.12992,-9.26006],[-37.11648,-9.24093],[-37.10817,-9.23872],[-37.09067,-9.24636],[-37.0673,-9.26724],[-37.0572,-9.28179],[-37.06193,-9.29737],[-37.05758,-9.31754],[-37.05534,-9.30745]]]},"properties":{"CD_REG":"27003","NM_REG":"Santana do Ipanema","SIGLA_UF":"AL"}},{"type":"Feature","geometry":{"type":"Polygon","coordinates":[[[-36.83146,-9.55194],[-36.84505,-9.57277],[-36.84922,-9.56962],[-36.87436,-9.5872],[-36.87951,-9.59789],[-36.88738,-9.59814],[-36.88847,-9.60737],[-36.904,-9.61574],[-36.9,-9.62319],[-36.90664,-9.62855],[-36.93478,-9.62578],[-36.94242,-9.62851],[-36.94364,-9.64149],[-36.952,-9.64285],[-36.95255,-9.6624],[-36.96475,-9.67493],[-36.9692,-9.69399],[-36.97573,-9.69296],[-36.9789,-9.7025],[-36.98534,-9.7057],[-36.98385,-9.71476],[-36.99978,-9.72886],[-36.99723,-9.75608],[-36.99896,-9.76363],[-37.01474,-9.76972],[-37.02211,-9.78611],[-37.03108,-9.78683],[-37.04019,-9.80731],[-37.10302,-9.84679],[-37.10785,-9.85446],[-37.10706,-9.86518],[-37.1183,-9.87328],[-37.11823,-9.89021],[-37.1256,-9.89229],[-37.12671,-9.90291],[-37.13378,-9.91377],[-37.16254,-9.89385],[-37.17757,-9.899],[-37.19597,-9.89603],[-37.21402,-9.89976],[-37.23472,-9.89762],[-37.24554,-9.89184],[-37.24951,-9.87516],[-37.26088,-9.8507],[-37.28522,-9.83063],[-37.29652,-9.83058],[-37.29837,-9.81738],[-37.31019,-9.8037],[-37.29738,-9.78276],[-37.28693,-9.77746],[-37.28835,-9.77193],[-37.27621,-9.77199],[-37.27467,-9.76597],[-37.25909,-9.75733],[-37.25145,-9.74936],[-37.24939,-9.73713],[-37.24046,-9.73602],[-37.2884,-9.68655],[-37.30306,-9.63603],[-37.35115,-9.64525],[-37.35657,-9.63767],[-37.31358,-9.55315],[-37.3731,-9.52478],[-37.38029,-9.50288],[-37.31274,-9.47108],[-37.27926,-9.45647],[-37.27332,-9.46461],[-37.26708,-9.44951],[-37.25515,-9.44664],[-37.21401,-9.4453],[-37.2077,-9.43461],[-37.19809,-9.43226],[-37.11773,-9.4377],[-37.11761,-9.46001],[-37.10458,-9.46057],[-37.03971,-9.41783],[-37.02063,-9.41428],[-37.01684,-9.43846],[-37.0042,-9.44881],[-37.00286,-9.45591],[-36.98309,-9.47513],[-36.97966,-9.48613],[-36.90604,-9.52795],[-36.90298,-9.52631],[-36.8782,-9.5338],[-36.86966,-9.54408],[-36.8592,-9.54657],[-36.84385,-9.53171],[-36.836,-9.5336],[-36.83848,-9.5406],[-36.83146,-9.55194]]]},"properties":{"CD_REG":"27004","NM_REG":"Batalha","SIGLA_UF":"AL"}},{"type":"Feature","geometry":{"type":"Polygon","coordinates":[[[-36.35593,-9.21839],[-36.34668,-9.23668],[-36.34057,-9.24043],[-36.33619,-9.2734],[-36.3264,-9.27351],[-36.32716,-9.28538],[-36.33989,-9.28671],[-36.36582,-9.36077],[-36.36582,-9.38447],[-36.37418,-9.37454],[-36.38936,-9.42538],[-36.33942,-9.46458],[-36.35542,-9.46934],[-36.35374,-9.48169],[-36.34303,-9.49328],[-36.33996,-9.51122],[-36.32933,-9.51019],[-36.32042,-9.51783],[-36.30635,-9.52236],[-36.29273,-9.51955],[-36.25557,-9.51881],[-36.24115,-9.51063],[-36.22095,-9.48426],[-36.22684,-9.5145],[-36.21852,-9.56319],[-36.19166,-9.60015],[-36.21144,-9.59591],[-36.24004,-9.59347],[-36.24993,-9.62333],[-36.28797,-9.60881],[-36.29677,-9.60151],[-36.30756,-9.60966],[-36.32087,-9.61013],[-36.35134,-9.60694],[-36.34424,-9.59845],[-36.35081,-9.59237],[-36.3921,-9.6029],[-36.38861,-9.62877],[-36.38083,-9.63537],[-36.39416,-9.64837],[-36.40792,-9.6361],[-36.40209,-9.6184],[-36.41735,-9.61112],[-36.43229,-9.6166],[-36.44558,-9.60557],[-36.45206,-9.61446],[-36.46538,-9.61833],[-36.46768,-9.60714],[-36.49525,-9.60388],[-36.53766,-9.53328],[-36.55565,-9.53935],[-36.5593,-9.55047],[-36.5689,-9.56188],[-36.57426,-9.56078],[-36.57894,-9.57003],[-36.58764,-9.57449],[-36.59669,-9.56773],[-36.61016,-9.58024],[-36.62384,-9.58044],[-36.62079,-9.58752],[-36.62512,-9.60252],[-36.61422,-9.60925],[-36.61177,-9.61927],[-36.62399,-9.62078],[-36.63112,-9.63032],[-36.61699,-9.62625],[-36.60866,-9.63617],[-36.6118,-9.64359],[-36.60634,-9.65337],[-36.62363,-9.65519],[-36.63924,-9.63597],[-36.65583,-9.64314],[-36.68607,-9.63545],[-36.6852,-9.61948],[-36.68024,-9.60212],[-36.68795,-9.59796],[-36.69842,-9.59914],[-36.69519,-9.57915],[-36.71573,-9.58848],[-36.72397,-9.58252],[-36.74352,-9.57553],[-36.75535,-9.57552],[-36.75644,-9.56572],[-36.76392,-9.55799],[-36.77431,-9.55749],[-36.78556,-9.55022],[-36.79769,-9.55769],[-36.80395,-9.55604],[-36.8127,-9.56407],[-36.83146,-9.55194],[-36.83848,-9.5406],[-36.836,-9.5336],[-36.84385,-9.53171],[-36.8592,-9.54657],[-36.86966,-9.54408],[-36.8782,-9.5338],[-36.90298,-9.52631],[-36.90604,-9.52795],[-36.97966,-9.48613],[-36.98309,-9.47513],[-37.00286,-9.45591],[-37.0042,-9.44881],[-37.01684,-9.43846],[-37.02063,-9.41428],[-37.03971,-9.41783],[-37.02278,-9.3696],[-36.99416,-9.3743],[-36.97964,-9.35933],[-36.95546,-9.38125],[-36.94027,-9.38028],[-36.93044,-9.37004],[-36.93677,-9.36121],[-36.93655,-9.34989],[-36.92227,-9.33976],[-36.92679,-9.32721],[-36.92141,-9.30956],[-36.91369,-9.29606],[-36.89795,-9.2812],[-36.88979,-9.28364],[-36.87477,-9.27696],[-36.86747,-9.26853],[-36.84678,-9.27771],[-36.83604,-9.28863],[-36.79683,-9.28042],[-36.76177,-9.27146],[-36.68922,-9.29644],[-36.68745,-9.30082],[-36.67042,-9.31324],[-36.65893,-9.31606],[-36.64469,-9.31437],[-36.63545,-9.32078],[-36.63462,-9.3269],[-36.615,-9.32367],[-36.60655,-9.34072],[-36.56658,-9.33144],[-36.56405,-9.32351],[-36.57445,-9.30949],[-36.57184,-9.29258],[-36.55322,-9.28259],[-36.49134,-9.26241],[-36.48717,-9.2402],[-36.47612,-9.24377],[-36.46252,-9.23925],[-36.45366,-9.23239],[-36.45426,-9.22566],[-36.43183,-9.21213],[-36.4233,-9.21565],[-36.42437,-9.22602],[-36.4153,-9.22967],[-36.40693,-9.22067],[-36.39174,-9.22512],[-36.37587,-9.2167],[-36.3657,-9.22263],[-36.35593,-9.21839]]]},"properties":{"CD_REG":"27005","NM_REG":"Palmeira dos Índios","SIGLA_UF":"AL"}},{"type":"Feature","geometry":{"type":"Polygon","coordinates":[[[-36.39416,-9.64837],[-36.37944,-9.65768],[-36.37208,-9.67753],[-36.37035,-9.69828],[-36.34314,-9.71321],[-36.34282,-9.73991],[-36.34756,-9.74897],[-36.35276,-9.74652],[-36.361,-9.75334],[-36.35349,-9.75821],[-36.3596,-9.76929],[-36.36982,-9.76532],[-36.37976,-9.76679],[-36.3938,-9.77433],[-36.40097,-9.78315],[-36.4145,-9.77746],[-36.46378,-9.78347],[-36.4702,-9.80456],[-36.47317,-9.80292],[-36.52604,-9.80325],[-36.55317,-9.83906],[-36.52758,-9.8477],[-36.5155,-9.85955],[-36.50364,-9.85648],[-36.49655,-9.86696],[-36.49983,-9.89139],[-36.49772,-9.90077],[-36.48772,-9.91615],[-36.48694,-9.92605],[-36.471,-9.93898],[-36.47297,-9.95357],[-36.48011,-9.9612],[-36.47209,-9.97479],[-36.47441,-9.99959],[-36.4805,-10.00263],[-36.48783,-10.01597],[-36.48352,-10.02704],[-36.45495,-10.03227],[-36.49136,-10.07109],[-36.50958,-10.06862],[-36.51058,-10.05595],[-36.51722,-10.04052],[-36.65103,-10.0346],[-36.64231,-10.00845],[-36.65076,-10.00339],[-36.64324,-9.99399],[-36.64586,-9.98527],[-36.66887,-9.97109],[-36.68689,-9.96547],[-36.70694,-10.00059],[-36.70511,-10.01959],[-36.71395,-10.04549],[-36.78758,-10.02203],[-36.78806,-10.01381],[-36.7993,-10.006],[-36.80854,-10.00982],[-36.82019,-10.00225],[-36.83411,-10.01284],[-36.84308,-10.0102],[-36.83841,-10.00192],[-36.82739,-9.99788],[-36.8095,-9.98175],[-36.79819,-9.95806],[-36.8053,-9.96028],[-36.81753,-9.95591],[-36.82654,-9.94569],[-36.84558,-9.93269],[-36.90187,-9.8978],[-36.92517,-9.88942],[-36.94954,-9.85864],[-36.93413,-9.84202],[-36.93512,-9.82847],[-36.9306,-9.82256],[-36.90426,-9.8093],[-36.9071,-9.79214],[-36.89843,-9.79016],[-36.89754,-9.77336],[-36.88552,-9.74591],[-36.9692,-9.69399],[-36.96475,-9.67493],[-36.95255,-9.6624],[-36.952,-9.64285],[-36.94364,-9.64149],[-36.94242,-9.62851],[-36.93478,-9.62578],[-36.90664,-9.62855],[-36.9,-9.62319],[-36.904,-9.61574],[-36.88847,-9.60737],[-36.88738,-9.59814],[-36.87951,-9.59789],[-36.87436,-9.5872],[-36.84922,-9.56962],[-36.84505,-9.57277],[-36.83146,-9.55194],[-36.8127,-9.56407],[-36.80395,-9.55604],[-36.79769,-9.55769],[-36.78556,-9.55022],[-36.77431,-9.55749],[-36.76392,-9.55799],[-36.75644,-9.56572],[-36.75535,-9.57552],[-36.74352,-9.57553],[-36.72397,-9.58252],[-36.71573,-9.58848],[-36.69519,-9.57915],[-36.69842,-9.59914],[-36.68795,-9.59796],[-36.68024,-9.60212],[-36.6852,-9.61948],[-36.68607,-9.63545],[-36.65583,-9.64314],[-36.63924,-9.63597],[-36.62363,-9.65519],[-36.60634,-9.65337],[-36.6118,-9.64359],[-36.60866,-9.63617],[-36.61699,-9.62625],[-36.63112,-9.63032],[-36.62399,-9.62078],[-36.61177,-9.61927],[-36.61422,-9.60925],[-36.62512,-9.60252],[-36.62079,-9.58752],[-36.62384,-9.58044],[-36.61016,-9.58024],[-36.59669,-9.56773],[-36.58764,-9.57449],[-36.57894,-9.57003],[-36.57426,-9.56078],[-36.5689,-9.56188],[-36.5593,-9.55047],[-36.55565,-9.53935],[-36.53766,-9.53328],[-36.49525,-9.60388],[-36.46768,-9.60714],[-36.46538,-9.61833],[-36.45206,-9.61446],[-36.44558,-9.60557],[-36.43229,-9.6166],[-36.41735,-9.61112],[-36.40209,-9.6184],[-36.40792,-9.6361],[-36.39416,-9.64837]]]},"properties":{"CD_REG":"27006","NM_REG":"Arapiraca","SIGLA_UF":"AL"}},{"type":"Feature","geometry":{"type":"Polygon","coordinates":[[[-36.9692,-9.69399],[-36.88552,-9.74591],[-36.89754,-9.77336],[-36.89843,-9.79016],[-36.9071,-9.79214],[-36.90426,-9.8093],[-36.9306,-9.82256],[-36.93512,-9.82847],[-36.93413,-9.84202],[-36.94954,-9.85864],[-36.92517,-9.88942],[-36.90187,-9.8978],[-36.84558,-9.93269],[-36.82654,-9.94569],[-36.81753,-9.95591],[-36.8053,-9.96028],[-36.79819,-9.95806],[-36.8095,-9.98175],[-36.82739,-9.99788],[-36.83841,-10.00192],[-36.84308,-10.0102],[-36.83411,-10.01284],[-36.82019,-10.00225],[-36.80854,-10.00982],[-36.7993,-10.006],[-36.78806,-10.01381],[-36.78758,-10.02203],[-36.71395,-10.04549],[-36.71438,-10.05384],[-36.72689,-10.06564],[-36.73561,-10.08405],[-36.75114,-10.09385],[-36.76608,-10.11175],[-36.76856,-10.12261],[-36.80242,-10.14324],[-36.81272,-10.14611],[-36.83073,-10.16282],[-36.83824,-10.16584],[-36.85039,-10.17845],[-36.85575,-10.16486],[-36.86627,-10.15609],[-36.87142,-10.14651],[-36.88974,-10.14746],[-36.89438,-10.13953],[-36.91142,-10.13878],[-36.92529,-10.11578],[-36.93096,-10.09808],[-36.9457,-10.08736],[-36.94916,-10.06755],[-36.9566,-10.05373],[-36.95345,-10.02282],[-36.96169,-9.99637],[-36.97329,-9.98436],[-36.98471,-9.98315],[-36.9957,-9.97244],[-37.00436,-9.97812],[-37.03309,-9.98758],[-37.05087,-9.9821],[-37.06495,-9.9806],[-37.06786,-9.97345],[-37.08594,-9.9517],[-37.1063,-9.93943],[-37.11202,-9.92778],[-37.13378,-9.91377],[-37.12671,-9.90291],[-37.1256,-9.89229],[-37.11823,-9.89021],[-37.1183,-9.87328],[-37.10706,-9.86518],[-37.10785,-9.85446],[-37.10302,-9.84679],[-37.04019,-9.80731],[-37.03108,-9.78683],[-37.02211,-9.78611],[-37.01474,-9.76972],[-36.99896,-9.76363],[-36.99723,-9.75608],[-36.99978,-9.72886],[-36.98385,-9.71476],[-36.98534,-9.7057],[-36.9789,-9.7025],[-36.97573,-9.69296],[-36.9692,-9.69399]]]},"properties":{"CD_REG":"27007","NM_REG":"Traipu","SIGLA_UF":"AL"}},{"type":"Feature","geometry":{"type":"Polygon","coordinates":[[[-35.82657,-8.87042],[-35.83533,-8.94471],[-35.83457,-8.98429],[-35.86051,-9.05349],[-35.86449,-9.06774],[-35.88857,-9.13831],[-35.94261,-9.16409],[-36.05904,-9.21596],[-36.06554,-9.2067],[-36.08025,-9.20628],[-36.08728,-9.20146],[-36.11075,-9.20807],[-36.1257,-9.20181],[-36.15096,-9.20682],[-36.16541,-9.21255],[-36.1823,-9.21201],[-36.20083,-9.21876],[-36.15438,-9.30534],[-36.18629,-9.39023],[-36.20641,-9.44568],[-36.20729,-9.45384],[-36.22095,-9.48426],[-36.24115,-9.51063],[-36.25557,-9.51881],[-36.29273,-9.51955],[-36.30635,-9.52236],[-36.32042,-9.51783],[-36.32933,-9.51019],[-36.33996,-9.51122],[-36.34303,-9.49328],[-36.35374,-9.48169],[-36.35542,-9.46934],[-36.33942,-9.46458],[-36.38936,-9.42538],[-36.37418,-9.37454],[-36.36582,-9.38447],[-36.36582,-9.36077],[-36.33989,-9.28671],[-36.32716,-9.28538],[-36.3264,-9.27351],[-36.33619,-9.2734],[-36.34057,-9.24043],[-36.34668,-9.23668],[-36.35593,-9.21839],[-36.34923,-9.21299],[-36.35141,-9.20136],[-36.33889,-9.20701],[-36.32764,-9.20077],[-36.32152,-9.18538],[-36.29498,-9.17244],[-36.27417,-9.1662],[-36.26707,-9.17158],[-36.25725,-9.14015],[-36.26354,-9.126],[-36.26069,-9.11852],[-36.267,-9.11109],[-36.26684,-9.10238],[-36.24096,-9.09939],[-36.23646,-9.10349],[-36.22247,-9.08643],[-36.22191,-9.0733],[-36.21034,-9.07314],[-36.2028,-9.06684],[-36.19851,-9.04668],[-36.17946,-9.04102],[-36.15173,-9.04269],[-36.12728,-9.03367],[-36.1115,-9.01767],[-36.11377,-9.00921],[-36.10433,-8.99893],[-36.11219,-8.98779],[-36.12461,-8.9834],[-36.12849,-8.97714],[-36.12825,-8.95772],[-36.12245,-8.95273],[-36.10095,-8.94928],[-36.08228,-8.94094],[-36.07345,-8.92564],[-36.06394,-8.91534],[-36.03326,-8.90842],[-36.00538,-8.913],[-35.99191,-8.90472],[-35.97066,-8.9004],[-35.96355,-8.90241],[-35.96196,-8.89541],[-35.94254,-8.8856],[-35.92428,-8.88463],[-35.91142,-8.86129],[-35.90099,-8.86241],[-35.8962,-8.85427],[-35.88881,-8.86263],[-35.87552,-8.85889],[-35.86089,-8.8589],[-35.84914,-8.87181],[-35.82739,-8.86971],[-35.82657,-8.87042]]]},"properties":{"CD_REG":"27008","NM_REG":"Serrana dos Quilombos","SIGLA_UF":"AL"}},{"type":"Feature","geometry":{"type":"Polygon","coordinates":[[[-35.35075,-8.86071],[-35.34188,-8.87459],[-35.35958,-8.88489],[-35.36696,-8.90886],[-35.37207,-8.91237],[-35.36913,-8.93746],[-35.35402,-8.96362],[-35.35835,-8.98119],[-35.33121,-9.01318],[-35.31069,-9.01971],[-35.30299,-9.02847],[-35.33607,-9.03189],[-35.33702,-9.04727],[-35.33415,-9.05426],[-35.33776,-9.06314],[-35.33627,-9.08364],[-35.32792,-9.10598],[-35.32596,-9.12027],[-35.30099,-9.13598],[-35.31225,-9.14701],[-35.32115,-9.14725],[-35.33749,-9.13714],[-35.3326,-9.13123],[-35.34068,-9.12807],[-35.35657,-9.11484],[-35.34854,-9.11243],[-35.35487,-9.10343],[-35.35979,-9.10608],[-35.37197,-9.08884],[-35.42078,-9.0774],[-35.42596,-9.07071],[-35.43938,-9.06725],[-35.45543,-9.06839],[-35.46599,-9.07606],[-35.48188,-9.07278],[-35.49477,-9.07769],[-35.51246,-9.10005],[-35.52054,-9.10173],[-35.52655,-9.11831],[-35.521,-9.13508],[-35.50987,-9.13268],[-35.48228,-9.1457],[-35.46708,-9.16731],[-35.45479,-9.16512],[-35.43477,-9.17747],[-35.45866,-9.18471],[-35.46767,-9.17736],[-35.48461,-9.17698],[-35.47578,-9.19059],[-35.55498,-9.19129],[-35.58006,-9.15781],[-35.61709,-9.13516],[-35.59544,-9.17337],[-35.59783,-9.18735],[-35.59062,-9.18969],[-35.59209,-9.20342],[-35.59907,-9.21712],[-35.59718,-9.22684],[-35.58776,-9.24486],[-35.56841,-9.26419],[-35.51367,-9.30773],[-35.5144,-9.3143],[-35.52024,-9.32371],[-35.51398,-9.34183],[-35.51783,-9.355],[-35.53605,-9.3469],[-35.55993,-9.35792],[-35.58087,-9.3593],[-35.69055,-9.371],[-35.76961,-9.38959],[-35.7695,-9.38761],[-35.87742,-9.41669],[-35.92889,-9.37557],[-35.93089,-9.46173],[-35.93279,-9.47961],[-35.93724,-9.49249],[-35.95975,-9.52804],[-36.00066,-9.57447],[-36.00568,-9.58572],[-36.01725,-9.57636],[-36.04103,-9.58388],[-36.07235,-9.59868],[-36.09347,-9.60107],[-36.10213,-9.59738],[-36.12012,-9.59617],[-36.12858,-9.59966],[-36.13841,-9.61307],[-36.14981,-9.61202],[-36.15708,-9.61854],[-36.18092,-9.61225],[-36.19166,-9.60015],[-36.21852,-9.56319],[-36.22684,-9.5145],[-36.22095,-9.48426],[-36.20729,-9.45384],[-36.20641,-9.44568],[-36.18629,-9.39023],[-36.15438,-9.30534],[-36.20083,-9.21876],[-36.1823,-9.21201],[-36.16541,-9.21255],[-36.15096,-9.20682],[-36.1257,-9.20181],[-36.11075,-9.20807],[-36.08728,-9.20146],[-36.08025,-9.20628],[-36.06554,-9.2067],[-36.05904,-9.21596],[-35.94261,-9.16409],[-35.88857,-9.13831],[-35.86449,-9.06774],[-35.86051,-9.05349],[-35.83457,-8.98429],[-35.83533,-8.94471],[-35.82657,-8.87042],[-35.82298,-8.85742],[-35.8079,-8.86039],[-35.79508,-8.84769],[-35.7876,-8.85113],[-35.78132,-8.86097],[-35.77598,-8.85846],[-35.77692,-8.86927],[-35.78368,-8.882],[-35.77914,-8.88864],[-35.78298,-8.89754],[-35.77324,-8.90614],[-35.76092,-8.90808],[-35.7484,-8.91715],[-35.7137,-8.9048],[-35.70028,-8.90659],[-35.69212,-8.90077],[-35.6712,-8.89663],[-35.65635,-8.8804],[-35.64427,-8.88298],[-35.63213,-8.88128],[-35.61378,-8.86439],[-35.59543,-8.85985],[-35.59411,-8.85485],[-35.58065,-8.84459],[-35.56838,-8.84162],[-35.56748,-8.83544],[-35.53462,-8.81992],[-35.5328,-8.82708],[-35.51777,-8.81676],[-35.50714,-8.81862],[-35.49575,-8.8283],[-35.48212,-8.82615],[-35.48058,-8.81993],[-35.46429,-8.81636],[-35.46676,-8.82826],[-35.45909,-8.83887],[-35.44948,-8.842],[-35.41123,-8.83623],[-35.39999,-8.85031],[-35.39457,-8.84984],[-35.35075,-8.86071]]]},"properties":{"CD_REG":"27009","NM_REG":"Mata Alagoana","SIGLA_UF":"AL"}},{"type":"Feature","geometry":{"type":"Polygon","coordinates":[[[-35.15265,-8.91386],[-35.16675,-8.9349],[-35.17665,-8.96914],[-35.18163,-8.97817],[-35.20216,-8.99352],[-35.21672,-9.00821],[-35.23017,-9.03658],[-35.23915,-9.04942],[-35.23977,-9.068],[-35.24506,-9.07926],[-35.25635,-9.0883],[-35.25909,-9.10069],[-35.27124,-9.12344],[-35.28469,-9.13205],[-35.28525,-9.14974],[-35.29583,-9.15592],[-35.29482,-9.17133],[-35.30771,-9.19406],[-35.31975,-9.199],[-35.33183,-9.22421],[-35.33908,-9.23198],[-35.35411,-9.25521],[-35.37663,-9.27966],[-35.39346,-9.29359],[-35.39563,-9.30133],[-35.41991,-9.31634],[-35.41644,-9.32145],[-35.42993,-9.32311],[-35.43934,-9.33084],[-35.44091,-9.33878],[-35.45973,-9.34408],[-35.47249,-9.35803],[-35.5144,-9.3143],[-35.51367,-9.30773],[-35.56841,-9.26419],[-35.58776,-9.24486],[-35.59718,-9.22684],[-35.59907,-9.21712],[-35.59209,-9.20342],[-35.59062,-9.18969],[-35.59783,-9.18735],[-35.59544,-9.17337],[-35.61709,-9.13516],[-35.58006,-9.15781],[-35.55498,-9.19129],[-35.47578,-9.19059],[-35.48461,-9.17698],[-35.46767,-9.17736],[-35.45866,-9.18471],[-35.43477,-9.17747],[-35.45479,-9.16512],[-35.46708,-9.16731],[-35.48228,-9.1457],[-35.50987,-9.13268],[-35.521,-9.13508],[-35.52655,-9.11831],[-35.52054,-9.10173],[-35.51246,-9.10005],[-35.49477,-9.07769],[-35.48188,-9.07278],[-35.46599,-9.07606],[-35.45543,-9.06839],[-35.43938,-9.06725],[-35.42596,-9.07071],[-35.42078,-9.0774],[-35.37197,-9.08884],[-35.35979,-9.10608],[-35.35487,-9.10343],[-35.34854,-9.11243],[-35.35657,-9.11484],[-35.34068,-9.12807],[-35.3326,-9.13123],[-35.33749,-9.13714],[-35.32115,-9.14725],[-35.31225,-9.14701],[-35.30099,-9.13598],[-35.32596,-9.12027],[-35.32792,-9.10598],[-35.33627,-9.08364],[-35.33776,-9.06314],[-35.33415,-9.05426],[-35.33702,-9.04727],[-35.33607,-9.03189],[-35.30299,-9.02847],[-35.31069,-9.01971],[-35.33121,-9.01318],[-35.35835,-8.98119],[-35.35402,-8.96362],[-35.36913,-8.93746],[-35.37207,-8.91237],[-35.36696,-8.90886],[-35.35958,-8.88489],[-35.34188,-8.87459],[-35.35075,-8.86071],[-35.28765,-8.87656],[-35.27758,-8.87516],[-35.25278,-8.88723],[-35.23784,-8.88272],[-35.21145,-8.88885],[-35.1981,-8.88736],[-35.17123,-8.89056],[-35.15598,-8.90277],[-35.15265,-8.91386]]]},"properties":{"CD_REG":"27010","NM_REG":"Litoral Norte Alagoano","SIGLA_UF":"AL"}},{"type":"Feature","geometry":{"type":"MultiPolygon","coordinates":[[[[-35.75839,-9.69364],[-35.76044,-9.69483],[-35.75837,-9.69331],[-35.75839,-9.69364]]],[[[-35.47249,-9.35803],[-35.4921,-9.38353],[-35.49644,-9.39778],[-35.50002,-9.42166],[-35.51324,-9.4399],[-35.52506,-9.44284],[-35.53038,-9.45683],[-35.53416,-9.45647],[-35.55392,-9.47565],[-35.56025,-9.48918],[-35.57929,-9.50285],[-35.58719,-9.51157],[-35.59283,-9.53077],[-35.60705,-9.53284],[-35.61676,-9.54707],[-35.63434,-9.55481],[-35.6508,-9.56854],[-35.65761,-9.58135],[-35.67688,-9.60043],[-35.69091,-9.61988],[-35.6996,-9.64885],[-35.69718,-9.66511],[-35.70834,-9.66508],[-35.72369,-9.68465],[-35.72303,-9.6756],[-35.73303,-9.6712],[-35.7487,-9.67477],[-35.76114,-9.68324],[-35.79563,-9.71732],[-35.80587,-9.71592],[-35.80436,-9.7224],[-35.81659,-9.73464],[-35.82234,-9.74779],[-35.85687,-9.79014],[-35.88934,-9.83962],[-35.90249,-9.84673],[-35.90474,-9.85585],[-35.91621,-9.83964],[-35.92271,-9.83789],[-35.94153,-9.84537],[-35.95427,-9.8432],[-35.96238,-9.8336],[-35.99102,-9.81841],[-35.99719,-9.81963],[-36.00566,-9.81113],[-36.02816,-9.80896],[-35.9893,-9.73864],[-35.98746,-9.70336],[-36.00354,-9.70612],[-36.02383,-9.70121],[-36.03349,-9.70164],[-36.03855,-9.69289],[-36.05548,-9.69215],[-36.06258,-9.68889],[-36.08891,-9.65932],[-36.09907,-9.6519],[-36.10497,-9.63889],[-36.11527,-9.64943],[-36.14088,-9.64544],[-36.1415,-9.63886],[-36.15774,-9.62381],[-36.17694,-9.62132],[-36.18092,-9.61225],[-36.15708,-9.61854],[-36.14981,-9.61202],[-36.13841,-9.61307],[-36.12858,-9.59966],[-36.12012,-9.59617],[-36.10213,-9.59738],[-36.09347,-9.60107],[-36.07235,-9.59868],[-36.04103,-9.58388],[-36.01725,-9.57636],[-36.00568,-9.58572],[-36.00066,-9.57447],[-35.95975,-9.52804],[-35.93724,-9.49249],[-35.93279,-9.47961],[-35.93089,-9.46173],[-35.92889,-9.37557],[-35.87742,-9.41669],[-35.7695,-9.38761],[-35.76961,-9.38959],[-35.69055,-9.371],[-35.58087,-9.3593],[-35.55993,-9.35792],[-35.53605,-9.3469],[-35.51783,-9.355],[-35.51398,-9.34183],[-35.52024,-9.32371],[-35.5144,-9.3143],[-35.47249,-9.35803]]]]},"properties":{"CD_REG":"27011","NM_REG":"Maceió","SIGLA_UF":"AL"}},{"type":"Feature","geometry":{"type":"Polygon","coordinates":[[[-36.19166,-9.60015],[-36.18092,-9.61225],[-36.17694,-9.62132],[-36.15774,-9.62381],[-36.1415,-9.63886],[-36.14088,-9.64544],[-36.11527,-9.64943],[-36.10497,-9.63889],[-36.09907,-9.6519],[-36.08891,-9.65932],[-36.06258,-9.68889],[-36.05548,-9.69215],[-36.03855,-9.69289],[-36.03349,-9.70164],[-36.02383,-9.70121],[-36.00354,-9.70612],[-35.98746,-9.70336],[-35.9893,-9.73864],[-36.02816,-9.80896],[-36.00566,-9.81113],[-35.99719,-9.81963],[-35.99102,-9.81841],[-35.96238,-9.8336],[-35.95427,-9.8432],[-35.94153,-9.84537],[-35.92271,-9.83789],[-35.91621,-9.83964],[-35.90474,-9.85585],[-35.90649,-9.87359],[-35.93793,-9.90243],[-35.9545,-9.93066],[-35.96303,-9.94123],[-35.97519,-9.96655],[-36.00445,-10.00477],[-36.02685,-10.04556],[-36.04234,-10.06405],[-36.04499,-10.07388],[-36.05801,-10.08434],[-36.06972,-10.08477],[-36.08527,-10.09179],[-36.09254,-10.09854],[-36.10744,-10.12291],[-36.10934,-10.1301],[-36.12036,-10.13765],[-36.13385,-10.1598],[-36.14295,-10.15536],[-36.16793,-10.17212],[-36.18464,-10.1979],[-36.22144,-10.22588],[-36.24388,-10.25223],[-36.25963,-10.26405],[-36.37132,-10.23026],[-36.35197,-10.21263],[-36.3538,-10.20266],[-36.33815,-10.18592],[-36.33677,-10.17416],[-36.34338,-10.16474],[-36.36016,-10.15722],[-36.36244,-10.1493],[-36.36027,-10.13471],[-36.36205,-10.12159],[-36.37824,-10.104],[-36.39971,-10.10179],[-36.39933,-10.08368],[-36.41272,-10.08479],[-36.41819,-10.0664],[-36.43483,-10.07367],[-36.44866,-10.06019],[-36.44841,-10.0477],[-36.45495,-10.03227],[-36.48352,-10.02704],[-36.48783,-10.01597],[-36.4805,-10.00263],[-36.47441,-9.99959],[-36.47209,-9.97479],[-36.48011,-9.9612],[-36.47297,-9.95357],[-36.471,-9.93898],[-36.48694,-9.92605],[-36.48772,-9.91615],[-36.49772,-9.90077],[-36.49983,-9.89139],[-36.49655,-9.86696],[-36.50364,-9.85648],[-36.5155,-9.85955],[-36.52758,-9.8477],[-36.55317,-9.83906],[-36.52604,-9.80325],[-36.47317,-9.80292],[-36.4702,-9.80456],[-36.46378,-9.78347],[-36.4145,-9.77746],[-36.40097,-9.78315],[-36.3938,-9.77433],[-36.37976,-9.76679],[-36.36982,-9.76532],[-36.3596,-9.76929],[-36.35349,-9.75821],[-36.361,-9.75334],[-36.35276,-9.74652],[-36.34756,-9.74897],[-36.34282,-9.73991],[-36.34314,-9.71321],[-36.37035,-9.69828],[-36.37208,-9.67753],[-36.37944,-9.65768],[-36.39416,-9.64837],[-36.38083,-9.63537],[-36.38861,-9.62877],[-36.3921,-9.6029],[-36.35081,-9.59237],[-36.34424,-9.59845],[-36.35134,-9.60694],[-36.32087,-9.61013],[-36.30756,-9.60966],[-36.29677,-9.60151],[-36.28797,-9.60881],[-36.24993,-9.62333],[-36.24004,-9.59347],[-36.21144,-9.59591],[-36.19166,-9.60015]]]},"properties":{"CD_REG":"27012","NM_REG":"São Miguel dos Campos","SIGLA_UF":"AL"}},{"type":"Feature","geometry":{"type":"Polygon","coordinates":[[[-36.45495,-10.03227],[-36.44841,-10.0477],[-36.44866,-10.06019],[-36.43483,-10.07367],[-36.41819,-10.0664],[-36.41272,-10.08479],[-36.39933,-10.08368],[-36.39971,-10.10179],[-36.37824,-10.104],[-36.36205,-10.12159],[-36.36027,-10.13471],[-36.36244,-10.1493],[-36.36016,-10.15722],[-36.34338,-10.16474],[-36.33677,-10.17416],[-36.33815,-10.18592],[-36.3538,-10.20266],[-36.35197,-10.21263],[-36.37132,-10.23026],[-36.25963,-10.26405],[-36.2761,-10.28028],[-36.28823,-10.29568],[-36.29858,-10.31399],[-36.30279,-10.33098],[-36.3015,-10.34429],[-36.29403,-10.35278],[-36.29981,-10.36291],[-36.30589,-10.36477],[-36.31923,-10.3806],[-36.34005,-10.41399],[-36.359,-10.45008],[-36.38771,-10.49863],[-36.39594,-10.49687],[-36.40357,-10.48698],[-36.42195,-10.44286],[-36.43072,-10.42995],[-36.45151,-10.41367],[-36.4631,-10.40848],[-36.50193,-10.43113],[-36.53507,-10.43028],[-36.54973,-10.42591],[-36.56113,-10.41762],[-36.55674,-10.37708],[-36.56449,-10.35831],[-36.56395,-10.34297],[-36.57183,-10.31615],[-36.60371,-10.28577],[-36.61058,-10.27033],[-36.62155,-10.25639],[-36.63857,-10.25196],[-36.65771,-10.26791],[-36.6858,-10.27121],[-36.70162,-10.2704],[-36.72121,-10.2646],[-36.73521,-10.24193],[-36.74888,-10.22819],[-36.75834,-10.22491],[-36.76947,-10.22794],[-36.79147,-10.22722],[-36.80144,-10.21311],[-36.81446,-10.2152],[-36.82635,-10.21119],[-36.8342,-10.19723],[-36.84647,-10.18751],[-36.85039,-10.17845],[-36.83824,-10.16584],[-36.83073,-10.16282],[-36.81272,-10.14611],[-36.80242,-10.14324],[-36.76856,-10.12261],[-36.76608,-10.11175],[-36.75114,-10.09385],[-36.73561,-10.08405],[-36.72689,-10.06564],[-36.71438,-10.05384],[-36.71395,-10.04549],[-36.70511,-10.01959],[-36.70694,-10.00059],[-36.68689,-9.96547],[-36.66887,-9.97109],[-36.64586,-9.98527],[-36.64324,-9.99399],[-36.65076,-10.00339],[-36.64231,-10.00845],[-36.65103,-10.0346],[-36.51722,-10.04052],[-36.51058,-10.05595],[-36.50958,-10.06862],[-36.49136,-10.07109],[-36.45495,-10.03227]]]},"properties":{"CD_REG":"27013","NM_REG":"Penedo","SIGLA_UF":"AL"}}]}