{"type":"FeatureCollection","features":[{"type":"Feature","geometry":{"type":"Polygon","coordinates":[[[-55.25404,-21.01567],[-55.2664,-20.99833],[-55.27784,-21.00137],[-55.30083,-21.02154],[-55.30529,-21.03645],[-55.31902,-21.05091],[-55.33665,-21.03993],[-55.36247,-21.03443],[-55.37863,-21.04539],[-55.3904,-21.04831],[-55.40904,-21.04722],[-55.42318,-21.05215],[-55.43873,-21.04652],[-55.44254,-21.03604],[-55.45539,-21.03463],[-55.45761,-21.02842],[-55.4733,-21.01941],[-55.48612,-21.02237],[-55.51664,-20.99412],[-55.55659,-20.99091],[-55.56199,-20.99568],[-55.56921,-20.9914],[-55.58491,-20.99742],[-55.5916,-20.98569],[-55.60228,-20.98503],[-55.60809,-20.97665],[-55.62095,-20.97528],[-55.63901,-20.94887],[-55.64788,-20.94483],[-55.65125,-20.93669],[-55.65986,-20.93725],[-55.68653,-20.91791],[-55.68935,-20.90541],[-55.68851,-20.8871],[-55.6933,-20.87354],[-55.70778,-20.85232],[-55.70857,-20.83214],[-55.72621,-20.82474],[-55.72002,-20.81783],[-55.72458,-20.80819],[-55.72052,-20.79991],[-55.72751,-20.79078],[-55.73017,-20.7757],[-55.73779,-20.77472],[-55.73974,-20.76329],[-55.75614,-20.75474],[-55.77069,-20.76423],[-55.78189,-20.76221],[-55.78839,-20.7474],[-55.79424,-20.7477],[-55.84557,-20.73335],[-55.84275,-20.73948],[-55.84546,-20.75433],[-55.85538,-20.76789],[-55.86215,-20.76734],[-55.87223,-20.77901],[-55.87123,-20.78653],[-55.88297,-20.79641],[-55.89073,-20.80741],[-55.90124,-20.80429],[-55.92511,-20.81151],[-55.93846,-20.82169],[-55.94831,-20.81709],[-55.96793,-20.81967],[-55.99152,-20.81136],[-56.00876,-20.80175],[-56.00233,-20.79115],[-56.00937,-20.79356],[-56.01194,-20.78636],[-56.00701,-20.77582],[-56.01475,-20.77775],[-56.02471,-20.77353],[-56.0243,-20.78443],[-56.03568,-20.78097],[-56.03986,-20.76603],[-56.05358,-20.7644],[-56.07406,-20.76782],[-56.0745,-20.76252],[-56.08913,-20.76628],[-56.09289,-20.75755],[-56.10965,-20.73961],[-56.1178,-20.74074],[-56.11541,-20.72992],[-56.12368,-20.72505],[-56.13178,-20.72756],[-56.12846,-20.70933],[-56.13689,-20.70389],[-56.14083,-20.69232],[-56.13173,-20.68987],[-56.14609,-20.67058],[-56.16295,-20.67026],[-56.16387,-20.66229],[-56.15018,-20.65871],[-56.14764,-20.64956],[-56.15482,-20.6404],[-56.14964,-20.62539],[-56.16868,-20.61622],[-56.17466,-20.61952],[-56.17631,-20.62963],[-56.18456,-20.6322],[-56.20199,-20.6159],[-56.19738,-20.61044],[-56.20155,-20.60419],[-56.21057,-20.60359],[-56.21818,-20.60945],[-56.21253,-20.62883],[-56.20998,-20.64686],[-56.22076,-20.64281],[-56.23032,-20.65801],[-56.24577,-20.64813],[-56.24362,-20.63955],[-56.26745,-20.63871],[-56.26566,-20.64457],[-56.2752,-20.64357],[-56.2751,-20.63633],[-56.28215,-20.63474],[-56.27749,-20.62157],[-56.29441,-20.61129],[-56.29578,-20.59386],[-56.30806,-20.58978],[-56.30595,-20.5817],[-56.29752,-20.57612],[-56.30413,-20.57378],[-56.31601,-20.58223],[-56.32408,-20.58248],[-56.32545,-20.57048],[-56.33779,-20.55362],[-56.34597,-20.55309],[-56.34753,-20.54559],[-56.35787,-20.53925],[-56.3503,-20.53574],[-56.36443,-20.53131],[-56.37069,-20.50636],[-56.37518,-20.50417],[-56.37724,-20.48398],[-56.39309,-20.48344],[-56.39706,-20.46751],[-56.39569,-20.4551],[-56.38609,-20.45097],[-56.38705,-20.44008],[-56.40319,-20.43947],[-56.39658,-20.42679],[-56.39287,-20.41067],[-56.39765,-20.41297],[-56.40051,-20.40106],[-56.39212,-20.40287],[-56.39283,-20.39276],[-56.40898,-20.38467],[-56.39444,-20.37499],[-56.40116,-20.36929],[-56.39085,-20.35779],[-56.39393,-20.34566],[-56.38872,-20.33349],[-56.41782,-20.3362],[-56.41892,-20.34823],[-56.42899,-20.31926],[-56.44338,-20.31961],[-56.45152,-20.31349],[-56.46147,-20.31575],[-56.47179,-20.32869],[-56.50906,-20.34418],[-56.51649,-20.35651],[-56.52754,-20.36056],[-56.54687,-20.36242],[-56.56808,-20.35632],[-56.68063,-20.35769],[-56.67788,-20.36662],[-56.68428,-20.38898],[-56.68858,-20.38569],[-56.69432,-20.39968],[-56.70041,-20.39629],[-56.70267,-20.40479],[-56.72172,-20.40785],[-56.72408,-20.40116],[-56.73193,-20.40037],[-56.74179,-20.40695],[-56.75266,-20.40246],[-56.76846,-20.40953],[-56.77721,-20.41686],[-56.79179,-20.40466],[-56.79372,-20.39932],[-56.81912,-20.38664],[-56.82046,-20.37237],[-56.83294,-20.35733],[-56.82935,-20.34182],[-56.833,-20.33554],[-56.83266,-20.31579],[-56.826,-20.27127],[-56.83572,-20.26528],[-56.8498,-20.2679],[-56.86035,-20.25963],[-56.87795,-20.25718],[-56.88711,-20.23946],[-56.90596,-20.23631],[-56.91323,-20.22437],[-56.92698,-20.21411],[-56.92915,-20.19982],[-56.94712,-20.18696],[-56.99798,-20.18892],[-56.99441,-20.19558],[-56.9789,-20.20551],[-56.96581,-20.22147],[-56.96678,-20.235],[-56.95745,-20.24554],[-56.9594,-20.25729],[-56.96824,-20.2733],[-56.96334,-20.29191],[-56.94648,-20.30361],[-56.94723,-20.3324],[-56.99248,-20.33977],[-57.00683,-20.34076],[-57.01374,-20.34474],[-57.00794,-20.35693],[-57.00904,-20.36387],[-56.99865,-20.36866],[-57.00255,-20.38292],[-56.99075,-20.39439],[-56.9874,-20.41491],[-56.99373,-20.41764],[-56.97757,-20.42717],[-56.96751,-20.42494],[-56.96928,-20.4171],[-56.94888,-20.41047],[-56.93361,-20.43101],[-56.93929,-20.44168],[-56.92596,-20.4537],[-56.92075,-20.46433],[-56.92005,-20.48211],[-56.92398,-20.4909],[-56.91073,-20.50723],[-56.91295,-20.51228],[-56.9061,-20.53335],[-56.89405,-20.55685],[-56.87337,-20.5802],[-56.87762,-20.59583],[-56.86979,-20.6113],[-56.8718,-20.61835],[-56.8689,-20.63879],[-56.88346,-20.65901],[-56.89271,-20.68418],[-56.88982,-20.69734],[-56.87189,-20.72809],[-56.86652,-20.74785],[-56.86852,-20.7638],[-56.85781,-20.77291],[-56.84646,-20.79239],[-56.85861,-20.83504],[-56.87383,-20.85756],[-56.8738,-20.8662],[-56.85967,-20.88638],[-56.86478,-20.90201],[-56.88051,-20.93052],[-56.87676,-20.94941],[-56.86047,-20.98252],[-56.86784,-21.00514],[-56.86941,-21.01798],[-56.86703,-21.04444],[-56.84474,-21.07534],[-56.85889,-21.11375],[-56.8313,-21.15181],[-56.82479,-21.1651],[-56.81617,-21.19073],[-56.79656,-21.22949],[-56.7883,-21.29234],[-56.81197,-21.32605],[-56.8041,-21.35016],[-56.80928,-21.36747],[-56.80874,-21.37898],[-56.8152,-21.38702],[-56.81505,-21.40217],[-56.80358,-21.43468],[-56.78713,-21.44848],[-56.8052,-21.4555],[-56.7991,-21.47506],[-56.81109,-21.48626],[-56.81652,-21.48408],[-56.81881,-21.47305],[-56.82739,-21.47146],[-56.82565,-21.46343],[-56.83458,-21.46092],[-56.84814,-21.46555],[-56.84814,-21.45936],[-56.85986,-21.4679],[-56.85576,-21.47674],[-56.86876,-21.482],[-56.87505,-21.49985],[-56.88609,-21.50235],[-56.88872,-21.51124],[-56.8976,-21.50839],[-56.90389,-21.52143],[-56.91607,-21.53553],[-56.92567,-21.53646],[-56.91898,-21.54458],[-56.92003,-21.55221],[-56.92644,-21.55077],[-56.93585,-21.5626],[-56.92998,-21.57206],[-56.9379,-21.57649],[-56.93536,-21.58739],[-56.94459,-21.59429],[-56.94238,-21.60774],[-56.94981,-21.62667],[-56.95559,-21.6198],[-56.96907,-21.62498],[-56.95932,-21.63058],[-56.96995,-21.64142],[-56.97109,-21.63455],[-56.98972,-21.63579],[-56.99071,-21.63024],[-57.01144,-21.62264],[-57.01563,-21.63044],[-57.02823,-21.63099],[-57.03671,-21.64748],[-57.04332,-21.65303],[-57.05759,-21.65404],[-57.06143,-21.66183],[-57.07298,-21.65896],[-57.08839,-21.6595],[-57.08389,-21.66399],[-57.09237,-21.66813],[-57.09253,-21.67623],[-57.10549,-21.67816],[-57.11661,-21.70459],[-57.12293,-21.70975],[-57.14132,-21.70933],[-57.13932,-21.72145],[-57.1484,-21.73886],[-57.15723,-21.74216],[-57.15718,-21.75148],[-57.16971,-21.7639],[-57.1587,-21.77243],[-57.15668,-21.7844],[-57.16447,-21.79634],[-57.17545,-21.80312],[-57.17876,-21.81591],[-57.18687,-21.82161],[-57.19256,-21.83831],[-57.19039,-21.85305],[-57.19864,-21.86701],[-57.18854,-21.87762],[-57.19262,-21.88647],[-57.20572,-21.88682],[-57.21661,-21.89693],[-57.22622,-21.89444],[-57.22607,-21.90511],[-57.23501,-21.9169],[-57.24741,-21.92714],[-57.24837,-21.93905],[-57.25847,-21.93611],[-57.26414,-21.94006],[-57.27023,-21.93366],[-57.28398,-21.93992],[-57.29636,-21.93728],[-57.3037,-21.93004],[-57.31289,-21.94154],[-57.32122,-21.94214],[-57.3407,-21.96309],[-57.36098,-21.96189],[-57.36691,-21.97141],[-57.37777,-21.96939],[-57.38555,-21.98469],[-57.37695,-21.98931],[-57.37807,-21.99608],[-57.39669,-22.00411],[-57.40118,-22.01272],[-57.41817,-22.02655],[-57.42443,-22.04497],[-57.42048,-22.05455],[-57.43156,-22.05783],[-57.42984,-22.06935],[-57.43756,-22.07297],[-57.44472,-22.06882],[-57.44858,-22.08243],[-57.45822,-22.08014],[-57.46053,-22.08839],[-57.45402,-22.09614],[-57.45425,-22.10579],[-57.46427,-22.10885],[-57.46849,-22.12307],[-57.46529,-22.13146],[-57.48713,-22.13486],[-57.48788,-22.14876],[-57.49779,-22.15754],[-57.50822,-22.15855],[-57.50958,-22.17689],[-57.51683,-22.17363],[-57.52414,-22.16862],[-57.52612,-22.17415],[-57.54062,-22.18133],[-57.55353,-22.18122],[-57.58077,-22.17534],[-57.58839,-22.16518],[-57.58567,-22.15259],[-57.58795,-22.13928],[-57.59118,-22.14471],[-57.5981,-22.13049],[-57.61283,-22.1223],[-57.60868,-22.11645],[-57.61297,-22.11041],[-57.6101,-22.09543],[-57.61528,-22.0946],[-57.6395,-22.10635],[-57.6643,-22.10641],[-57.67489,-22.10276],[-57.69111,-22.0884],[-57.70693,-22.09105],[-57.70439,-22.09979],[-57.71625,-22.10608],[-57.71693,-22.11379],[-57.72994,-22.10014],[-57.7376,-22.10267],[-57.74203,-22.11472],[-57.73439,-22.12272],[-57.73763,-22.13321],[-57.74772,-22.13905],[-57.76486,-22.13512],[-57.77927,-22.12517],[-57.78891,-22.13065],[-57.79841,-22.14975],[-57.80523,-22.15005],[-57.80991,-22.14159],[-57.81872,-22.13854],[-57.82299,-22.12286],[-57.83413,-22.11961],[-57.8448,-22.12702],[-57.86398,-22.13185],[-57.88609,-22.13031],[-57.8881,-22.12335],[-57.90706,-22.12557],[-57.9137,-22.12148],[-57.92972,-22.12027],[-57.92166,-22.10975],[-57.93281,-22.10488],[-57.942,-22.08292],[-57.95235,-22.08758],[-57.96099,-22.07874],[-57.96719,-22.08934],[-57.99,-22.09093],[-57.99507,-22.08871],[-57.98327,-22.0707],[-57.98768,-22.05914],[-58.00129,-22.05381],[-58.00959,-22.04528],[-58.00616,-22.03121],[-57.97495,-22.01541],[-57.96474,-22.00109],[-57.96502,-21.98361],[-57.95488,-21.96585],[-57.937,-21.92792],[-57.9382,-21.91522],[-57.94759,-21.91071],[-57.94799,-21.90039],[-57.93323,-21.88827],[-57.91689,-21.88932],[-57.91617,-21.87629],[-57.95984,-21.85317],[-57.96964,-21.85114],[-57.96978,-21.84425],[-57.94266,-21.83545],[-57.93111,-21.82459],[-57.92499,-21.80926],[-57.91404,-21.79037],[-57.90849,-21.77397],[-57.91102,-21.76962],[-57.92672,-21.76677],[-57.94027,-21.75835],[-57.94742,-21.74595],[-57.94089,-21.73291],[-57.90797,-21.71267],[-57.89269,-21.70049],[-57.88323,-21.68907],[-57.88518,-21.68358],[-57.92031,-21.66626],[-57.93004,-21.65733],[-57.94324,-21.62857],[-57.93805,-21.61518],[-57.91456,-21.59561],[-57.91896,-21.5822],[-57.93623,-21.57355],[-57.9508,-21.56993],[-57.96162,-21.56244],[-57.96853,-21.53534],[-57.96768,-21.52148],[-57.96049,-21.50992],[-57.94664,-21.49898],[-57.93442,-21.48412],[-57.92509,-21.46195],[-57.92726,-21.44983],[-57.91009,-21.42097],[-57.9081,-21.40261],[-57.89245,-21.37795],[-57.86112,-21.35062],[-57.8537,-21.33211],[-57.85474,-21.31687],[-57.89496,-21.30717],[-57.90567,-21.30062],[-57.92043,-21.28464],[-57.92097,-21.27765],[-57.90646,-21.26555],[-57.87719,-21.24777],[-57.85302,-21.22713],[-57.84828,-21.19501],[-57.84896,-21.18786],[-57.8601,-21.15828],[-57.86499,-21.13634],[-57.84589,-21.09693],[-57.86579,-21.06671],[-57.86861,-21.04617],[-57.86636,-21.03927],[-57.8462,-21.01727],[-57.84054,-21.00559],[-57.81753,-20.98058],[-57.82527,-20.96524],[-57.81882,-20.94841],[-57.81978,-20.938],[-57.83211,-20.93488],[-57.84443,-20.94649],[-57.8636,-20.94885],[-57.87461,-20.9398],[-57.87979,-20.91861],[-57.88653,-20.90865],[-57.90217,-20.90181],[-57.91649,-20.90455],[-57.92624,-20.90273],[-57.92894,-20.89523],[-57.91464,-20.88346],[-57.89194,-20.87012],[-57.87268,-20.8539],[-57.8579,-20.85093],[-57.85403,-20.84111],[-57.8594,-20.82486],[-57.87384,-20.80721],[-57.89329,-20.79078],[-57.91101,-20.78896],[-57.94123,-20.80082],[-57.95949,-20.79791],[-57.96177,-20.79262],[-57.95394,-20.78076],[-57.94953,-20.76528],[-57.93415,-20.74595],[-57.92037,-20.74394],[-57.87352,-20.7508],[-57.86469,-20.7464],[-57.87017,-20.72547],[-57.87807,-20.7137],[-57.90329,-20.68982],[-57.91367,-20.67076],[-57.92918,-20.66403],[-57.93679,-20.67001],[-57.95018,-20.6983],[-57.95825,-20.7049],[-57.98103,-20.70575],[-57.98789,-20.69955],[-57.98823,-20.68673],[-57.97775,-20.66761],[-57.97039,-20.64419],[-57.99557,-20.63173],[-58.01079,-20.61621],[-58.01313,-20.6083],[-58.00663,-20.58895],[-57.99718,-20.57237],[-58.01566,-20.52854],[-58.01991,-20.51439],[-58.0136,-20.48026],[-57.99856,-20.45556],[-57.99645,-20.44341],[-58.00435,-20.42659],[-58.02462,-20.4001],[-58.03974,-20.39903],[-58.07319,-20.38799],[-58.08402,-20.37217],[-58.09394,-20.35136],[-58.10305,-20.32117],[-58.09475,-20.30125],[-58.09077,-20.28503],[-58.08989,-20.26453],[-58.09665,-20.25392],[-58.10765,-20.24913],[-58.11952,-20.24958],[-58.14455,-20.27178],[-58.1594,-20.26385],[-58.16642,-20.23663],[-58.16357,-20.22733],[-58.15422,-20.21573],[-58.13201,-20.20726],[-58.12185,-20.19439],[-58.1326,-20.18194],[-58.15933,-20.18142],[-58.16586,-20.17722],[-58.16864,-20.16578],[-58.14862,-20.15182],[-58.13265,-20.15217],[-58.11675,-20.14665],[-58.09542,-20.11037],[-58.08769,-20.10674],[-58.07086,-20.10557],[-58.05382,-20.10828],[-58.04408,-20.09964],[-58.0358,-20.06771],[-58.02404,-20.05887],[-58.00054,-20.05643],[-57.9891,-20.05864],[-57.97898,-20.05546],[-57.97099,-20.04521],[-57.9634,-20.02696],[-57.95036,-20.01985],[-57.93018,-20.02212],[-57.9063,-20.04285],[-57.90251,-20.0424],[-57.89212,-20.02204],[-57.86684,-19.98962],[-57.8591,-19.97175],[-57.93119,-19.91514],[-58.13138,-19.75936],[-58.03164,-19.55253],[-58.00091,-19.48706],[-57.96554,-19.41429],[-57.78329,-19.03507],[-57.74305,-19.03372],[-57.71045,-19.03466],[-57.70774,-19.02577],[-57.69769,-19.01131],[-57.69741,-18.99655],[-57.71461,-18.97717],[-57.71924,-18.97814],[-57.71971,-18.89946],[-57.76669,-18.89947],[-57.55828,-18.24067],[-57.45479,-18.23337],[-57.45712,-18.22529],[-57.46924,-18.22276],[-57.48137,-18.19761],[-57.49112,-18.20284],[-57.50244,-18.19559],[-57.50513,-18.19862],[-57.57413,-18.1316],[-57.60038,-18.04267],[-57.72143,-17.82899],[-57.68399,-17.82899],[-57.68401,-17.80905],[-57.71931,-17.77308],[-57.7113,-17.72866],[-57.73358,-17.71591],[-57.74215,-17.69419],[-57.75002,-17.69614],[-57.75748,-17.67116],[-57.76323,-17.66056],[-57.77589,-17.65802],[-57.78301,-17.63682],[-57.77408,-17.62645],[-57.77256,-17.6136],[-57.78239,-17.61554],[-57.78427,-17.60771],[-57.77461,-17.59938],[-57.78239,-17.59419],[-57.77669,-17.58675],[-57.78996,-17.58827],[-57.7815,-17.57955],[-57.7852,-17.57061],[-57.80038,-17.55952],[-57.7674,-17.56254],[-57.76506,-17.56925],[-57.75229,-17.56446],[-57.74005,-17.53631],[-57.72806,-17.52975],[-57.71214,-17.54313],[-57.71095,-17.56608],[-57.70067,-17.58328],[-57.70388,-17.58973],[-57.69722,-17.60123],[-57.70205,-17.60124],[-57.69689,-17.62064],[-57.6877,-17.62824],[-57.67939,-17.6577],[-57.67178,-17.66411],[-57.67203,-17.68208],[-57.68073,-17.68491],[-57.68314,-17.69626],[-57.68012,-17.70404],[-57.68461,-17.71648],[-57.67239,-17.71972],[-57.67169,-17.72833],[-57.66355,-17.72985],[-57.64597,-17.72436],[-57.6403,-17.71736],[-57.62311,-17.73636],[-57.61489,-17.76681],[-57.60342,-17.77168],[-57.60273,-17.77903],[-57.61258,-17.77941],[-57.60931,-17.79754],[-57.60236,-17.80487],[-57.57633,-17.80053],[-57.56968,-17.81665],[-57.55763,-17.81616],[-57.552,-17.82821],[-57.53103,-17.83911],[-57.53525,-17.85219],[-57.51636,-17.86283],[-57.48527,-17.86223],[-57.47759,-17.85905],[-57.47767,-17.87888],[-57.46714,-17.88862],[-57.46025,-17.89985],[-57.45247,-17.90264],[-57.44592,-17.89197],[-57.44728,-17.87569],[-57.43638,-17.86966],[-57.42628,-17.8564],[-57.40975,-17.85392],[-57.40058,-17.84782],[-57.39928,-17.84038],[-57.39136,-17.84552],[-57.38466,-17.84344],[-57.38007,-17.82734],[-57.36808,-17.8262],[-57.35616,-17.8372],[-57.34258,-17.83128],[-57.32523,-17.82915],[-57.3248,-17.82453],[-57.31138,-17.81782],[-57.30649,-17.81051],[-57.29977,-17.81685],[-57.29002,-17.81155],[-57.2935,-17.81993],[-57.28333,-17.82269],[-57.28377,-17.81291],[-57.26484,-17.82035],[-57.25261,-17.81076],[-57.23263,-17.81238],[-57.24547,-17.80631],[-57.25202,-17.79346],[-57.24447,-17.79779],[-57.22524,-17.78284],[-57.21105,-17.7889],[-57.19124,-17.78581],[-57.17485,-17.77624],[-57.15397,-17.7773],[-57.14814,-17.76852],[-57.128,-17.77413],[-57.11902,-17.78104],[-57.112,-17.77134],[-57.1015,-17.77219],[-57.08916,-17.75081],[-57.07982,-17.74913],[-57.07532,-17.73684],[-57.05672,-17.7295],[-57.0478,-17.73253],[-57.0366,-17.71109],[-57.03338,-17.69474],[-57.01927,-17.69217],[-57.01327,-17.67243],[-57.00044,-17.67072],[-56.98822,-17.65929],[-56.98525,-17.6448],[-56.97361,-17.62801],[-56.96475,-17.62174],[-56.95885,-17.60569],[-56.9728,-17.61361],[-56.98227,-17.60957],[-56.97596,-17.59596],[-56.98236,-17.58023],[-56.97349,-17.58038],[-56.9668,-17.5714],[-56.95199,-17.56936],[-56.94619,-17.55476],[-56.90958,-17.53255],[-56.89577,-17.53938],[-56.87597,-17.53297],[-56.86147,-17.50521],[-56.86616,-17.49963],[-56.86521,-17.49002],[-56.85794,-17.48278],[-56.85147,-17.48697],[-56.84605,-17.48058],[-56.84994,-17.47074],[-56.84541,-17.46244],[-56.83217,-17.46367],[-56.82549,-17.45309],[-56.84091,-17.44201],[-56.83324,-17.43504],[-56.82272,-17.43756],[-56.8196,-17.4302],[-56.82441,-17.42308],[-56.8343,-17.42345],[-56.84202,-17.41819],[-56.83135,-17.40974],[-56.82871,-17.38996],[-56.80441,-17.38663],[-56.79103,-17.39107],[-56.78599,-17.38753],[-56.78899,-17.37405],[-56.78431,-17.36865],[-56.76746,-17.36458],[-56.76091,-17.35165],[-56.76887,-17.34086],[-56.75721,-17.33684],[-56.75779,-17.32669],[-56.74346,-17.32734],[-56.73651,-17.32073],[-56.73385,-17.30986],[-56.71802,-17.30833],[-56.71354,-17.31879],[-56.69193,-17.31811],[-56.69629,-17.3255],[-56.68318,-17.31657],[-56.67394,-17.32525],[-56.67252,-17.33458],[-56.66207,-17.3389],[-56.65519,-17.33184],[-56.66269,-17.32676],[-56.65671,-17.32144],[-56.64771,-17.33946],[-56.64234,-17.33052],[-56.64901,-17.3258],[-56.64744,-17.31699],[-56.6408,-17.32698],[-56.63044,-17.3342],[-56.62857,-17.32376],[-56.62002,-17.32203],[-56.61185,-17.33191],[-56.60568,-17.32876],[-56.59589,-17.33254],[-56.57657,-17.33105],[-56.57935,-17.3203],[-56.56764,-17.31491],[-56.55102,-17.32288],[-56.53105,-17.3135],[-56.52596,-17.3205],[-56.52032,-17.30984],[-56.51387,-17.31282],[-56.51119,-17.30239],[-56.51546,-17.29282],[-56.50807,-17.29528],[-56.5026,-17.28743],[-56.49907,-17.29773],[-56.4901,-17.29832],[-56.47312,-17.31001],[-56.46504,-17.3048],[-56.46557,-17.31414],[-56.45096,-17.3119],[-56.45088,-17.32639],[-56.44057,-17.33042],[-56.43496,-17.32105],[-56.41726,-17.31162],[-56.4081,-17.3161],[-56.40285,-17.30629],[-56.38893,-17.30195],[-56.38307,-17.28796],[-56.36065,-17.28084],[-56.36249,-17.2717],[-56.35441,-17.26658],[-56.34296,-17.27304],[-56.35198,-17.27636],[-56.33587,-17.28995],[-56.33499,-17.28243],[-56.32326,-17.28572],[-56.32324,-17.27619],[-56.31354,-17.26943],[-56.29785,-17.27659],[-56.28657,-17.27044],[-56.2811,-17.25582],[-56.28343,-17.24667],[-56.26813,-17.24813],[-56.26904,-17.23979],[-56.25787,-17.24453],[-56.26182,-17.23304],[-56.25173,-17.23235],[-56.25134,-17.21902],[-56.23793,-17.2222],[-56.23373,-17.22734],[-56.22093,-17.22879],[-56.22001,-17.22009],[-56.20877,-17.22727],[-56.21218,-17.20952],[-56.20546,-17.2141],[-56.2004,-17.20627],[-56.19046,-17.21129],[-56.18318,-17.18921],[-56.17493,-17.19505],[-56.17082,-17.18868],[-56.16335,-17.1947],[-56.15718,-17.18713],[-56.11851,-17.17437],[-56.11234,-17.16635],[-56.10209,-17.17408],[-56.08273,-17.17775],[-56.06959,-17.17031],[-56.06168,-17.17071],[-56.0564,-17.18191],[-56.04724,-17.18482],[-56.04952,-17.17243],[-56.04412,-17.1714],[-56.03015,-17.18671],[-56.01607,-17.19023],[-56.00551,-17.2042],[-56.01707,-17.20863],[-56.02095,-17.216],[-56.00863,-17.21419],[-56.0127,-17.22265],[-56.01204,-17.23668],[-56.00376,-17.23373],[-56.00384,-17.24479],[-55.99205,-17.23988],[-55.99176,-17.25022],[-55.98573,-17.2584],[-55.97827,-17.24671],[-55.97393,-17.25361],[-55.95107,-17.25111],[-55.95582,-17.25645],[-55.94699,-17.27129],[-55.93821,-17.27852],[-55.93148,-17.27381],[-55.92634,-17.25786],[-55.92015,-17.26449],[-55.88949,-17.26319],[-55.90193,-17.2734],[-55.89087,-17.27233],[-55.88656,-17.28476],[-55.87551,-17.2806],[-55.87993,-17.27335],[-55.87481,-17.26863],[-55.85823,-17.28353],[-55.85257,-17.27873],[-55.84523,-17.29861],[-55.83832,-17.30051],[-55.8351,-17.29136],[-55.82623,-17.292],[-55.83173,-17.30161],[-55.82615,-17.30677],[-55.82095,-17.2977],[-55.80651,-17.29801],[-55.80501,-17.30944],[-55.78442,-17.33005],[-55.78065,-17.32143],[-55.77254,-17.33205],[-55.76121,-17.32353],[-55.74026,-17.33715],[-55.72987,-17.33988],[-55.71967,-17.34886],[-55.7091,-17.33762],[-55.70437,-17.35168],[-55.68926,-17.34044],[-55.68623,-17.35087],[-55.68265,-17.34143],[-55.67518,-17.34035],[-55.66811,-17.35069],[-55.65657,-17.33826],[-55.65601,-17.34635],[-55.64873,-17.35831],[-55.63893,-17.34979],[-55.64507,-17.34316],[-55.63712,-17.34253],[-55.63589,-17.35305],[-55.62634,-17.36403],[-55.61229,-17.36729],[-55.61201,-17.36022],[-55.60278,-17.36737],[-55.58291,-17.37907],[-55.5866,-17.39821],[-55.58706,-17.42171],[-55.57534,-17.4188],[-55.57487,-17.43467],[-55.56826,-17.43513],[-55.55048,-17.44691],[-55.55737,-17.4519],[-55.54274,-17.45651],[-55.52484,-17.47692],[-55.50568,-17.48597],[-55.49009,-17.48514],[-55.48304,-17.47869],[-55.46545,-17.48686],[-55.45379,-17.5004],[-55.4539,-17.50768],[-55.44374,-17.51178],[-55.44529,-17.50589],[-55.43272,-17.51174],[-55.42334,-17.50988],[-55.41636,-17.51492],[-55.4052,-17.5124],[-55.38062,-17.52385],[-55.37711,-17.51504],[-55.37331,-17.52151],[-55.35376,-17.53162],[-55.35182,-17.54769],[-55.33158,-17.54927],[-55.3225,-17.54243],[-55.30998,-17.54545],[-55.29967,-17.54119],[-55.29233,-17.54455],[-55.29653,-17.55112],[-55.28383,-17.55216],[-55.274,-17.56454],[-55.2692,-17.55677],[-55.26414,-17.57792],[-55.25809,-17.57438],[-55.25067,-17.58344],[-55.25239,-17.59231],[-55.24492,-17.59141],[-55.24253,-17.60212],[-55.23192,-17.59558],[-55.21814,-17.60752],[-55.2215,-17.6171],[-55.20481,-17.61376],[-55.19428,-17.62039],[-55.19089,-17.6278],[-55.18667,-17.62058],[-55.16681,-17.63421],[-55.16306,-17.64217],[-55.14896,-17.64289],[-55.142,-17.63929],[-55.139,-17.64783],[-55.2024,-17.87596],[-55.30618,-18.24798],[-55.30698,-18.24761],[-55.399,-18.58209],[-55.44207,-19.00035],[-55.46495,-19.21865],[-55.45086,-19.22323],[-55.44706,-19.23185],[-55.43568,-19.23588],[-55.42345,-19.24888],[-55.41745,-19.26084],[-55.40553,-19.26117],[-55.39955,-19.2656],[-55.39516,-19.26001],[-55.37498,-19.25772],[-55.36772,-19.26506],[-55.35071,-19.26346],[-55.35288,-19.25456],[-55.34469,-19.24434],[-55.3198,-19.23889],[-55.31044,-19.24531],[-55.30457,-19.25785],[-55.27694,-19.249],[-55.26275,-19.24777],[-55.24981,-19.25188],[-55.24009,-19.26498],[-55.22886,-19.27141],[-55.22269,-19.28505],[-55.21716,-19.27962],[-55.20397,-19.28503],[-55.19217,-19.2977],[-55.19135,-19.30744],[-55.18474,-19.30661],[-55.17684,-19.31556],[-55.16998,-19.33334],[-55.15965,-19.33369],[-55.13678,-19.34615],[-55.13568,-19.34212],[-55.12009,-19.33834],[-55.12334,-19.33478],[-55.11446,-19.32674],[-55.10167,-19.335],[-55.12401,-19.35296],[-55.11191,-19.36994],[-55.14457,-19.38714],[-55.1492,-19.38634],[-55.16348,-19.40347],[-55.17841,-19.40637],[-55.18749,-19.40422],[-55.20393,-19.41676],[-55.20417,-19.42855],[-55.20916,-19.43362],[-55.207,-19.44244],[-55.21447,-19.4483],[-55.22138,-19.46389],[-55.22596,-19.49623],[-55.23993,-19.50067],[-55.24114,-19.5214],[-55.24929,-19.5367],[-55.26594,-19.58578],[-55.28846,-19.60739],[-55.28504,-19.61807],[-55.29293,-19.63232],[-55.30577,-19.67267],[-55.31342,-19.6766],[-55.32412,-19.69313],[-55.32203,-19.70098],[-55.33245,-19.71047],[-55.33758,-19.73195],[-55.34702,-19.73855],[-55.34659,-19.76074],[-55.36373,-19.77424],[-55.3762,-19.77355],[-55.38236,-19.77981],[-55.37808,-19.78748],[-55.39461,-19.8015],[-55.38868,-19.83312],[-55.38171,-19.8385],[-55.3785,-19.84991],[-55.35436,-19.86315],[-55.35254,-19.86821],[-55.33829,-19.87976],[-55.33139,-19.90153],[-55.32977,-19.92464],[-55.32282,-19.94176],[-55.30974,-19.94785],[-55.30904,-19.95545],[-55.32242,-19.97032],[-55.32367,-19.97898],[-55.31696,-19.98822],[-55.29299,-19.98923],[-55.27002,-20.00062],[-55.26095,-19.99611],[-55.2591,-19.98722],[-55.22956,-19.98547],[-55.22335,-19.97921],[-55.21262,-19.9843],[-55.21021,-19.99021],[-55.19966,-19.99414],[-55.1795,-19.99269],[-55.17401,-19.98804],[-55.16199,-19.98701],[-55.15719,-19.97853],[-55.13967,-19.9718],[-55.13925,-19.98631],[-55.12861,-19.99914],[-55.11112,-20.00501],[-55.09732,-20.02281],[-55.09639,-20.0456],[-55.08825,-20.06352],[-55.08123,-20.06908],[-55.07559,-20.08865],[-55.06401,-20.10879],[-55.06752,-20.13246],[-55.08063,-20.13655],[-55.08045,-20.15192],[-55.09496,-20.15637],[-55.10664,-20.1489],[-55.1158,-20.15448],[-55.13235,-20.1567],[-55.13471,-20.14547],[-55.14661,-20.14772],[-55.1723,-20.16673],[-55.19206,-20.17337],[-55.20259,-20.18064],[-55.20039,-20.18858],[-55.21791,-20.18839],[-55.21725,-20.20148],[-55.22765,-20.20094],[-55.23301,-20.213],[-55.24037,-20.21435],[-55.24984,-20.22948],[-55.25468,-20.23006],[-55.25361,-20.24326],[-55.26881,-20.24787],[-55.26906,-20.26783],[-55.26407,-20.27199],[-55.27132,-20.28621],[-55.26147,-20.28351],[-55.2478,-20.28513],[-55.2433,-20.30221],[-55.25327,-20.3095],[-55.24638,-20.32066],[-55.26461,-20.33819],[-55.26725,-20.3316],[-55.28018,-20.32184],[-55.29711,-20.32253],[-55.29467,-20.33592],[-55.30333,-20.34079],[-55.3197,-20.33684],[-55.31877,-20.32768],[-55.34453,-20.31504],[-55.34973,-20.3253],[-55.3407,-20.33843],[-55.34636,-20.35046],[-55.35642,-20.3483],[-55.35817,-20.36631],[-55.35118,-20.37242],[-55.35549,-20.38608],[-55.36289,-20.38849],[-55.36855,-20.40111],[-55.38765,-20.40934],[-55.39115,-20.43211],[-55.38357,-20.43419],[-55.37928,-20.44755],[-55.35988,-20.43746],[-55.35332,-20.44718],[-55.3506,-20.44001],[-55.35654,-20.43047],[-55.34884,-20.42858],[-55.34606,-20.42139],[-55.33712,-20.41689],[-55.33648,-20.40981],[-55.32417,-20.40459],[-55.30685,-20.41339],[-55.30449,-20.43023],[-55.28621,-20.44208],[-55.28351,-20.44909],[-55.27138,-20.45139],[-55.27363,-20.46492],[-55.26996,-20.47839],[-55.26251,-20.48388],[-55.25395,-20.47904],[-55.25139,-20.49547],[-55.25652,-20.50317],[-55.24951,-20.50541],[-55.25084,-20.51226],[-55.23646,-20.52133],[-55.24061,-20.52716],[-55.23365,-20.53653],[-55.21731,-20.54407],[-55.21279,-20.55132],[-55.21672,-20.55697],[-55.21355,-20.56672],[-55.20385,-20.57914],[-55.20956,-20.59575],[-55.20062,-20.60089],[-55.20373,-20.6182],[-55.21059,-20.61793],[-55.21331,-20.62785],[-55.21022,-20.63699],[-55.21793,-20.65229],[-55.21075,-20.65834],[-55.21015,-20.6696],[-55.21914,-20.67849],[-55.22077,-20.69221],[-55.21046,-20.69457],[-55.20319,-20.70667],[-55.20368,-20.722],[-55.19126,-20.72739],[-55.18285,-20.73748],[-55.17736,-20.73529],[-55.16625,-20.75565],[-55.16964,-20.76585],[-55.15955,-20.77294],[-55.15148,-20.80234],[-55.15616,-20.83157],[-55.1653,-20.83228],[-55.17051,-20.84179],[-55.16449,-20.86043],[-55.19311,-20.87815],[-55.20065,-20.89051],[-55.20069,-20.92152],[-55.19778,-20.92821],[-55.20291,-20.94853],[-55.1987,-20.9597],[-55.20183,-20.96421],[-55.19208,-20.98258],[-55.18327,-20.9905],[-55.19061,-20.99744],[-55.20704,-21.00174],[-55.21114,-21.01377],[-55.20773,-21.03551],[-55.25404,-21.01567]]]},"properties":{"CD_REG":"5001","NM_REG":"Pantanais Sul Mato-grossense","SIGLA_UF":"MS"}},{"type":"Feature","geometry":{"type":"Polygon","coordinates":[[[-53.23776,-18.00744],[-53.23632,-18.05134],[-53.22547,-18.06618],[-53.22701,-18.07628],[-53.22423,-18.10946],[-53.22047,-18.12669],[-53.23499,-18.13863],[-53.23649,-18.14516],[-53.24888,-18.15999],[-53.26598,-18.16502],[-53.28025,-18.18158],[-53.28699,-18.1829],[-53.29439,-18.19719],[-53.31426,-18.20947],[-53.32643,-18.20966],[-53.35774,-18.194],[-53.36421,-18.20127],[-53.37966,-18.20346],[-53.35528,-18.22173],[-53.34757,-18.22354],[-53.33028,-18.23917],[-53.34749,-18.25702],[-53.35208,-18.25361],[-53.36308,-18.25638],[-53.38503,-18.24659],[-53.39111,-18.24058],[-53.40022,-18.23998],[-53.41036,-18.24576],[-53.43974,-18.25458],[-53.44669,-18.2668],[-53.45511,-18.2692],[-53.46075,-18.27812],[-53.45082,-18.2881],[-53.44461,-18.30326],[-53.44643,-18.30958],[-53.43115,-18.32729],[-53.43361,-18.33582],[-53.4489,-18.35062],[-53.44667,-18.35995],[-53.43553,-18.38258],[-53.4455,-18.39057],[-53.45288,-18.3909],[-53.46181,-18.4034],[-53.48081,-18.40876],[-53.48725,-18.41577],[-53.49231,-18.40402],[-53.49892,-18.40132],[-53.50763,-18.40922],[-53.52078,-18.40776],[-53.52472,-18.41682],[-53.54574,-18.41897],[-53.55653,-18.43296],[-53.56686,-18.43723],[-53.5795,-18.43569],[-53.5773,-18.442],[-53.56584,-18.44642],[-53.55911,-18.45546],[-53.56042,-18.47025],[-53.55154,-18.4746],[-53.52517,-18.50689],[-53.51601,-18.51535],[-53.50054,-18.52146],[-53.48451,-18.55987],[-53.47246,-18.57748],[-53.47428,-18.58605],[-53.47049,-18.5977],[-53.46325,-18.6017],[-53.4692,-18.6184],[-53.45822,-18.62936],[-53.43494,-18.63056],[-53.43315,-18.65456],[-53.41488,-18.65395],[-53.39718,-18.66751],[-53.37336,-18.68017],[-53.36922,-18.69689],[-53.37472,-18.69763],[-53.3731,-18.70784],[-53.38169,-18.72305],[-53.37737,-18.74067],[-53.36321,-18.75125],[-53.36219,-18.75899],[-53.34534,-18.7754],[-53.48855,-18.83755],[-53.48957,-18.84974],[-53.46322,-18.87451],[-53.45621,-18.89443],[-53.43654,-18.89623],[-53.41475,-18.91521],[-53.41134,-18.92825],[-53.40107,-18.94124],[-53.38243,-18.94354],[-53.38695,-18.98115],[-53.40193,-19.00638],[-53.36934,-19.02061],[-53.3397,-19.0501],[-53.35448,-19.06282],[-53.37729,-19.07403],[-53.39329,-19.07883],[-53.40253,-19.09772],[-53.42255,-19.11335],[-53.42335,-19.13469],[-53.42767,-19.14212],[-53.42851,-19.15884],[-53.44124,-19.17698],[-53.46856,-19.18515],[-53.4871,-19.18607],[-53.51867,-19.18103],[-53.54072,-19.18649],[-53.57851,-19.18518],[-53.60181,-19.17989],[-53.60827,-19.18365],[-53.61107,-19.19307],[-53.60921,-19.21504],[-53.61626,-19.22399],[-53.61478,-19.23802],[-53.62193,-19.25474],[-53.63494,-19.26141],[-53.63775,-19.26687],[-53.62215,-19.2843],[-53.6205,-19.29183],[-53.6069,-19.30258],[-53.60855,-19.30979],[-53.60253,-19.32968],[-53.59006,-19.34783],[-53.58008,-19.35284],[-53.57896,-19.37099],[-53.57142,-19.37776],[-53.56323,-19.41474],[-53.55406,-19.43001],[-53.55433,-19.44176],[-53.54774,-19.44725],[-53.55582,-19.45874],[-53.5474,-19.47431],[-53.53886,-19.47553],[-53.52859,-19.49375],[-53.52654,-19.51545],[-53.51901,-19.51889],[-53.51942,-19.52943],[-53.51467,-19.53975],[-53.49939,-19.54572],[-53.5041,-19.55107],[-53.49739,-19.55568],[-53.50428,-19.56817],[-53.49486,-19.57572],[-53.49573,-19.58041],[-53.48215,-19.59011],[-53.47455,-19.61573],[-53.48777,-19.64011],[-53.4851,-19.65605],[-53.49362,-19.65937],[-53.48767,-19.66736],[-53.49507,-19.67249],[-53.48703,-19.69164],[-53.46823,-19.69717],[-53.46229,-19.70643],[-53.45989,-19.71928],[-53.46341,-19.72902],[-53.44986,-19.73548],[-53.44923,-19.74683],[-53.43505,-19.76545],[-53.43435,-19.77336],[-53.42472,-19.7849],[-53.44552,-19.79223],[-53.45496,-19.798],[-53.47097,-19.78826],[-53.49354,-19.79421],[-53.51268,-19.79071],[-53.51439,-19.78488],[-53.53236,-19.78159],[-53.55079,-19.78457],[-53.56434,-19.78235],[-53.57821,-19.77566],[-53.57966,-19.77105],[-53.60129,-19.7698],[-53.61535,-19.75881],[-53.61803,-19.75014],[-53.63395,-19.74003],[-53.64856,-19.70782],[-53.65683,-19.70718],[-53.66622,-19.69726],[-53.67546,-19.69557],[-53.71134,-19.6803],[-53.71927,-19.66616],[-53.73868,-19.65417],[-53.74671,-19.6449],[-53.76202,-19.63672],[-53.77359,-19.62094],[-53.7827,-19.61688],[-53.79477,-19.58104],[-53.82249,-19.55121],[-53.8465,-19.53349],[-53.86259,-19.53028],[-53.90435,-19.70224],[-53.90872,-19.7071],[-53.92209,-19.70877],[-53.9276,-19.71445],[-53.9473,-19.70839],[-53.95616,-19.71045],[-53.96555,-19.72225],[-53.98492,-19.72123],[-53.99532,-19.72912],[-53.98685,-19.75075],[-53.99129,-19.76805],[-53.97818,-19.78152],[-53.97805,-19.80235],[-53.9712,-19.80944],[-53.97338,-19.82149],[-53.97205,-19.83795],[-53.9643,-19.84906],[-53.96311,-19.86155],[-53.94827,-19.86739],[-53.94114,-19.88328],[-53.93211,-19.89029],[-53.93034,-19.90077],[-53.9195,-19.91284],[-53.91881,-19.92683],[-53.90787,-19.93739],[-53.90453,-19.95034],[-53.90399,-19.97419],[-53.89912,-19.97814],[-53.89557,-19.99515],[-53.90971,-19.99763],[-53.95185,-19.99917],[-53.96018,-20.01827],[-53.9583,-20.03101],[-53.97818,-20.04937],[-54.05433,-20.06981],[-54.05942,-20.0876],[-54.06698,-20.08922],[-54.0856,-20.10119],[-54.10004,-20.11809],[-54.09438,-20.12613],[-54.06889,-20.14949],[-54.063,-20.17031],[-54.06522,-20.17925],[-54.05877,-20.18982],[-54.04744,-20.19671],[-54.04286,-20.21213],[-54.03764,-20.20912],[-54.00887,-20.23856],[-54.01134,-20.24958],[-54.00521,-20.25794],[-54.00627,-20.26468],[-53.99752,-20.26342],[-53.99302,-20.2725],[-53.98581,-20.27485],[-53.98208,-20.29036],[-53.99062,-20.29834],[-53.98397,-20.31353],[-53.9621,-20.31751],[-53.95357,-20.33138],[-53.93035,-20.34302],[-53.91596,-20.3412],[-53.9091,-20.35257],[-53.89898,-20.35216],[-53.88934,-20.35856],[-53.88752,-20.37218],[-53.89739,-20.37017],[-53.92108,-20.37047],[-53.92441,-20.37741],[-53.93549,-20.37745],[-53.94682,-20.38322],[-53.96667,-20.38172],[-53.97204,-20.39077],[-53.98555,-20.39734],[-53.98962,-20.39104],[-53.99633,-20.39914],[-54.0113,-20.39923],[-54.00944,-20.40951],[-54.02149,-20.41142],[-54.02389,-20.40153],[-54.02978,-20.40387],[-54.03762,-20.42104],[-54.06125,-20.42053],[-54.05996,-20.42861],[-54.07714,-20.42607],[-54.08099,-20.43413],[-54.09017,-20.43618],[-54.09777,-20.43086],[-54.10404,-20.4389],[-54.11312,-20.43566],[-54.12125,-20.43885],[-54.11423,-20.44406],[-54.12624,-20.44314],[-54.13419,-20.45297],[-54.14383,-20.45524],[-54.15649,-20.44558],[-54.1616,-20.45562],[-54.16816,-20.45456],[-54.18313,-20.46081],[-54.18279,-20.49015],[-54.18643,-20.50952],[-54.19546,-20.53635],[-54.19258,-20.55856],[-54.18338,-20.57685],[-54.18266,-20.59055],[-54.17768,-20.59591],[-54.1826,-20.6201],[-54.1933,-20.6367],[-54.19583,-20.6569],[-54.20664,-20.67304],[-54.20239,-20.71103],[-54.19715,-20.70876],[-54.17526,-20.72544],[-54.17279,-20.75056],[-54.16484,-20.75467],[-54.15819,-20.77164],[-54.14567,-20.78043],[-54.12825,-20.78843],[-54.1114,-20.78524],[-54.10301,-20.79385],[-54.09218,-20.79796],[-54.08861,-20.80697],[-54.079,-20.81613],[-54.07286,-20.82873],[-54.06425,-20.83659],[-54.02302,-20.85491],[-54.01697,-20.88124],[-54.00603,-20.89173],[-54.00547,-20.92282],[-53.98605,-20.93392],[-53.9825,-20.94237],[-53.96895,-20.95644],[-53.94665,-20.95997],[-53.9422,-20.95668],[-53.91603,-20.95808],[-53.89951,-20.96788],[-53.88651,-20.97966],[-53.87613,-20.98307],[-53.86765,-20.98072],[-53.85627,-20.98964],[-53.85671,-20.99574],[-53.84723,-21.00754],[-53.84388,-21.01706],[-53.85032,-21.01904],[-53.84588,-21.03129],[-53.84806,-21.04393],[-53.82819,-21.05076],[-53.82187,-21.06176],[-53.80172,-21.07435],[-53.79679,-21.07055],[-53.77942,-21.07167],[-53.76115,-21.07922],[-53.75861,-21.09056],[-53.73567,-21.10729],[-53.73887,-21.11744],[-53.72686,-21.13238],[-53.72628,-21.14607],[-53.70609,-21.15632],[-53.69703,-21.17344],[-53.68735,-21.17617],[-53.68345,-21.1888],[-53.68347,-21.22386],[-53.67659,-21.22936],[-53.67973,-21.23629],[-53.6742,-21.24196],[-53.67014,-21.26015],[-53.66313,-21.26457],[-53.66055,-21.27774],[-53.64787,-21.2892],[-53.63837,-21.31588],[-53.64006,-21.329],[-53.6375,-21.34041],[-53.63269,-21.34063],[-53.62449,-21.36076],[-53.61732,-21.36296],[-53.62123,-21.38222],[-53.61274,-21.38464],[-53.62325,-21.41057],[-53.61896,-21.42062],[-53.6277,-21.42314],[-53.62507,-21.43499],[-53.62965,-21.44623],[-53.63616,-21.44653],[-53.63788,-21.46804],[-53.62191,-21.47062],[-53.61307,-21.47857],[-53.6138,-21.49368],[-53.6067,-21.50166],[-53.61334,-21.52116],[-53.6117,-21.52994],[-53.60403,-21.5353],[-53.61085,-21.54774],[-53.6014,-21.55259],[-53.62035,-21.57364],[-53.64224,-21.57784],[-53.64538,-21.56096],[-53.65184,-21.56531],[-53.65859,-21.55833],[-53.67002,-21.56045],[-53.66857,-21.5528],[-53.69621,-21.55726],[-53.70007,-21.56365],[-53.69539,-21.57517],[-53.70513,-21.56611],[-53.71706,-21.57055],[-53.72283,-21.57839],[-53.74143,-21.58409],[-53.74484,-21.57941],[-53.73769,-21.57411],[-53.73998,-21.56857],[-53.75811,-21.57112],[-53.76062,-21.58024],[-53.76872,-21.57034],[-53.78389,-21.56511],[-53.78407,-21.56927],[-53.81313,-21.55888],[-53.81848,-21.54784],[-53.8266,-21.55665],[-53.83657,-21.55254],[-53.84797,-21.56693],[-53.86662,-21.56082],[-53.87593,-21.56408],[-53.88632,-21.55482],[-53.9087,-21.54973],[-53.92641,-21.54222],[-53.94034,-21.54587],[-53.95997,-21.54223],[-53.96471,-21.53289],[-53.9803,-21.53753],[-53.98489,-21.52403],[-53.99784,-21.51175],[-54.01059,-21.50948],[-54.01336,-21.50198],[-54.02442,-21.49187],[-54.03562,-21.48632],[-54.04003,-21.47362],[-54.05546,-21.46579],[-54.06644,-21.46836],[-54.06265,-21.45958],[-54.07629,-21.45019],[-54.08607,-21.45039],[-54.0832,-21.44361],[-54.10118,-21.43889],[-54.10572,-21.42573],[-54.10169,-21.42007],[-54.11086,-21.41469],[-54.10721,-21.40837],[-54.11653,-21.40363],[-54.12068,-21.40735],[-54.13138,-21.40078],[-54.1292,-21.39705],[-54.14185,-21.38627],[-54.15686,-21.36459],[-54.17221,-21.35507],[-54.17247,-21.34887],[-54.18769,-21.34594],[-54.1864,-21.33981],[-54.19471,-21.3403],[-54.20377,-21.3186],[-54.20896,-21.31395],[-54.20089,-21.29944],[-54.22127,-21.29814],[-54.21582,-21.28578],[-54.2293,-21.29101],[-54.23879,-21.27188],[-54.22589,-21.27314],[-54.22286,-21.26152],[-54.22788,-21.25549],[-54.23333,-21.26256],[-54.25408,-21.25355],[-54.25014,-21.24901],[-54.25912,-21.23587],[-54.26431,-21.2435],[-54.27277,-21.23764],[-54.26605,-21.23501],[-54.26077,-21.22197],[-54.26035,-21.20476],[-54.27433,-21.1965],[-54.27181,-21.18331],[-54.27949,-21.17514],[-54.29601,-21.17401],[-54.30642,-21.16561],[-54.29149,-21.15741],[-54.29763,-21.15523],[-54.29184,-21.14056],[-54.29933,-21.1388],[-54.3112,-21.12876],[-54.31697,-21.13161],[-54.33058,-21.11501],[-54.33696,-21.12121],[-54.34447,-21.11464],[-54.34092,-21.10814],[-54.34696,-21.10305],[-54.35322,-21.1064],[-54.36971,-21.10153],[-54.37655,-21.106],[-54.38209,-21.09979],[-54.38262,-21.08932],[-54.39158,-21.08208],[-54.38936,-21.07087],[-54.40998,-21.05069],[-54.41791,-21.04978],[-54.40824,-21.04216],[-54.43066,-21.03361],[-54.42897,-21.02293],[-54.45268,-21.0229],[-54.4612,-21.01696],[-54.46323,-21.00898],[-54.4713,-21.01044],[-54.48677,-21.00309],[-54.49158,-21.00414],[-54.498,-20.99423],[-54.50683,-20.99413],[-54.50892,-21.00951],[-54.48225,-21.12251],[-54.50191,-21.13088],[-54.50521,-21.12796],[-54.5237,-21.12815],[-54.52912,-21.13407],[-54.55905,-21.14834],[-54.55096,-21.16324],[-54.5393,-21.1771],[-54.52424,-21.18958],[-54.51624,-21.20948],[-54.53025,-21.21256],[-54.57353,-21.2391],[-54.57412,-21.24987],[-54.58792,-21.26247],[-54.59778,-21.2619],[-54.62048,-21.28083],[-54.6309,-21.29248],[-54.64437,-21.30265],[-54.67167,-21.30434],[-54.67935,-21.31509],[-54.67556,-21.32231],[-54.68077,-21.34509],[-54.69867,-21.35128],[-54.70143,-21.35544],[-54.77013,-21.37813],[-54.77278,-21.36942],[-54.78518,-21.36725],[-54.78356,-21.34596],[-54.79551,-21.34184],[-54.80066,-21.34762],[-54.81441,-21.34291],[-54.81751,-21.33772],[-54.83027,-21.34232],[-54.83647,-21.35259],[-54.86442,-21.33695],[-54.87615,-21.33526],[-54.89257,-21.33772],[-55.01336,-21.48458],[-55.01644,-21.50521],[-55.01483,-21.53242],[-55.01881,-21.54833],[-55.01924,-21.56362],[-55.02444,-21.57032],[-55.02792,-21.58598],[-55.03658,-21.57714],[-55.0387,-21.56827],[-55.04734,-21.57194],[-55.04492,-21.58173],[-55.06003,-21.58555],[-55.06315,-21.55786],[-55.07211,-21.56176],[-55.07793,-21.55521],[-55.08903,-21.55994],[-55.0867,-21.56487],[-55.09546,-21.57147],[-55.09702,-21.55949],[-55.10538,-21.55355],[-55.10097,-21.54734],[-55.10364,-21.53906],[-55.11836,-21.53251],[-55.12813,-21.53861],[-55.13863,-21.53443],[-55.12248,-21.52542],[-55.12745,-21.50528],[-55.13718,-21.51177],[-55.14654,-21.50254],[-55.13844,-21.49914],[-55.14183,-21.48842],[-55.13952,-21.47951],[-55.14764,-21.47484],[-55.15532,-21.48549],[-55.16621,-21.48384],[-55.17335,-21.47798],[-55.16688,-21.46445],[-55.17964,-21.45114],[-55.19156,-21.44672],[-55.19445,-21.45995],[-55.21051,-21.44237],[-55.2176,-21.42382],[-55.23937,-21.41768],[-55.23611,-21.40889],[-55.24821,-21.40586],[-55.25692,-21.40886],[-55.26711,-21.39268],[-55.27466,-21.38706],[-55.27742,-21.3718],[-55.28478,-21.36651],[-55.28505,-21.35408],[-55.29725,-21.34602],[-55.29736,-21.33864],[-55.28837,-21.32305],[-55.28146,-21.31749],[-55.30387,-21.29914],[-55.29617,-21.29148],[-55.29406,-21.26492],[-55.30047,-21.24887],[-55.3195,-21.24212],[-55.3152,-21.2295],[-55.31935,-21.21602],[-55.31607,-21.20399],[-55.32857,-21.19812],[-55.3305,-21.19179],[-55.32194,-21.18638],[-55.32073,-21.17833],[-55.33011,-21.17365],[-55.31641,-21.16918],[-55.3168,-21.16052],[-55.30708,-21.13397],[-55.3179,-21.1275],[-55.32165,-21.11745],[-55.31848,-21.11092],[-55.30822,-21.10667],[-55.30677,-21.07991],[-55.29397,-21.06843],[-55.29334,-21.05283],[-55.28391,-21.04375],[-55.27744,-21.03087],[-55.27417,-21.01438],[-55.2695,-21.00893],[-55.25404,-21.01567],[-55.20773,-21.03551],[-55.21114,-21.01377],[-55.20704,-21.00174],[-55.19061,-20.99744],[-55.18327,-20.9905],[-55.19208,-20.98258],[-55.20183,-20.96421],[-55.1987,-20.9597],[-55.20291,-20.94853],[-55.19778,-20.92821],[-55.20069,-20.92152],[-55.20065,-20.89051],[-55.19311,-20.87815],[-55.16449,-20.86043],[-55.17051,-20.84179],[-55.1653,-20.83228],[-55.15616,-20.83157],[-55.15148,-20.80234],[-55.15955,-20.77294],[-55.16964,-20.76585],[-55.16625,-20.75565],[-55.17736,-20.73529],[-55.18285,-20.73748],[-55.19126,-20.72739],[-55.20368,-20.722],[-55.20319,-20.70667],[-55.21046,-20.69457],[-55.22077,-20.69221],[-55.21914,-20.67849],[-55.21015,-20.6696],[-55.21075,-20.65834],[-55.21793,-20.65229],[-55.21022,-20.63699],[-55.21331,-20.62785],[-55.21059,-20.61793],[-55.20373,-20.6182],[-55.20062,-20.60089],[-55.20956,-20.59575],[-55.20385,-20.57914],[-55.21355,-20.56672],[-55.21672,-20.55697],[-55.21279,-20.55132],[-55.21731,-20.54407],[-55.23365,-20.53653],[-55.24061,-20.52716],[-55.23646,-20.52133],[-55.25084,-20.51226],[-55.24951,-20.50541],[-55.25652,-20.50317],[-55.25139,-20.49547],[-55.25395,-20.47904],[-55.26251,-20.48388],[-55.26996,-20.47839],[-55.27363,-20.46492],[-55.27138,-20.45139],[-55.28351,-20.44909],[-55.28621,-20.44208],[-55.30449,-20.43023],[-55.30685,-20.41339],[-55.32417,-20.40459],[-55.33648,-20.40981],[-55.33712,-20.41689],[-55.34606,-20.42139],[-55.34884,-20.42858],[-55.35654,-20.43047],[-55.3506,-20.44001],[-55.35332,-20.44718],[-55.35988,-20.43746],[-55.37928,-20.44755],[-55.38357,-20.43419],[-55.39115,-20.43211],[-55.38765,-20.40934],[-55.36855,-20.40111],[-55.36289,-20.38849],[-55.35549,-20.38608],[-55.35118,-20.37242],[-55.35817,-20.36631],[-55.35642,-20.3483],[-55.34636,-20.35046],[-55.3407,-20.33843],[-55.34973,-20.3253],[-55.34453,-20.31504],[-55.31877,-20.32768],[-55.3197,-20.33684],[-55.30333,-20.34079],[-55.29467,-20.33592],[-55.29711,-20.32253],[-55.28018,-20.32184],[-55.26725,-20.3316],[-55.26461,-20.33819],[-55.24638,-20.32066],[-55.25327,-20.3095],[-55.2433,-20.30221],[-55.2478,-20.28513],[-55.26147,-20.28351],[-55.27132,-20.28621],[-55.26407,-20.27199],[-55.26906,-20.26783],[-55.26881,-20.24787],[-55.25361,-20.24326],[-55.25468,-20.23006],[-55.24984,-20.22948],[-55.24037,-20.21435],[-55.23301,-20.213],[-55.22765,-20.20094],[-55.21725,-20.20148],[-55.21791,-20.18839],[-55.20039,-20.18858],[-55.20259,-20.18064],[-55.19206,-20.17337],[-55.1723,-20.16673],[-55.14661,-20.14772],[-55.13471,-20.14547],[-55.13235,-20.1567],[-55.1158,-20.15448],[-55.10664,-20.1489],[-55.09496,-20.15637],[-55.08045,-20.15192],[-55.08063,-20.13655],[-55.06752,-20.13246],[-55.06401,-20.10879],[-55.07559,-20.08865],[-55.08123,-20.06908],[-55.08825,-20.06352],[-55.09639,-20.0456],[-55.09732,-20.02281],[-55.11112,-20.00501],[-55.12861,-19.99914],[-55.13925,-19.98631],[-55.13967,-19.9718],[-55.15719,-19.97853],[-55.16199,-19.98701],[-55.17401,-19.98804],[-55.1795,-19.99269],[-55.19966,-19.99414],[-55.21021,-19.99021],[-55.21262,-19.9843],[-55.22335,-19.97921],[-55.22956,-19.98547],[-55.2591,-19.98722],[-55.26095,-19.99611],[-55.27002,-20.00062],[-55.29299,-19.98923],[-55.31696,-19.98822],[-55.32367,-19.97898],[-55.32242,-19.97032],[-55.30904,-19.95545],[-55.30974,-19.94785],[-55.32282,-19.94176],[-55.32977,-19.92464],[-55.33139,-19.90153],[-55.33829,-19.87976],[-55.35254,-19.86821],[-55.35436,-19.86315],[-55.3785,-19.84991],[-55.38171,-19.8385],[-55.38868,-19.83312],[-55.39461,-19.8015],[-55.37808,-19.78748],[-55.38236,-19.77981],[-55.3762,-19.77355],[-55.36373,-19.77424],[-55.34659,-19.76074],[-55.34702,-19.73855],[-55.33758,-19.73195],[-55.33245,-19.71047],[-55.32203,-19.70098],[-55.32412,-19.69313],[-55.31342,-19.6766],[-55.30577,-19.67267],[-55.29293,-19.63232],[-55.28504,-19.61807],[-55.28846,-19.60739],[-55.26594,-19.58578],[-55.24929,-19.5367],[-55.24114,-19.5214],[-55.23993,-19.50067],[-55.22596,-19.49623],[-55.22138,-19.46389],[-55.21447,-19.4483],[-55.207,-19.44244],[-55.20916,-19.43362],[-55.20417,-19.42855],[-55.20393,-19.41676],[-55.18749,-19.40422],[-55.17841,-19.40637],[-55.16348,-19.40347],[-55.1492,-19.38634],[-55.14457,-19.38714],[-55.11191,-19.36994],[-55.12401,-19.35296],[-55.10167,-19.335],[-55.11446,-19.32674],[-55.12334,-19.33478],[-55.12009,-19.33834],[-55.13568,-19.34212],[-55.13678,-19.34615],[-55.15965,-19.33369],[-55.16998,-19.33334],[-55.17684,-19.31556],[-55.18474,-19.30661],[-55.19135,-19.30744],[-55.19217,-19.2977],[-55.20397,-19.28503],[-55.21716,-19.27962],[-55.22269,-19.28505],[-55.22886,-19.27141],[-55.24009,-19.26498],[-55.24981,-19.25188],[-55.26275,-19.24777],[-55.27694,-19.249],[-55.30457,-19.25785],[-55.31044,-19.24531],[-55.3198,-19.23889],[-55.34469,-19.24434],[-55.35288,-19.25456],[-55.35071,-19.26346],[-55.36772,-19.26506],[-55.37498,-19.25772],[-55.39516,-19.26001],[-55.39955,-19.2656],[-55.40553,-19.26117],[-55.41745,-19.26084],[-55.42345,-19.24888],[-55.43568,-19.23588],[-55.44706,-19.23185],[-55.45086,-19.22323],[-55.46495,-19.21865],[-55.44207,-19.00035],[-55.399,-18.58209],[-55.30698,-18.24761],[-55.30618,-18.24798],[-55.2024,-17.87596],[-55.139,-17.64783],[-55.12726,-17.65272],[-55.11389,-17.64396],[-55.11136,-17.63123],[-55.10431,-17.62846],[-55.09337,-17.63604],[-55.08734,-17.62992],[-55.07265,-17.63163],[-55.0625,-17.63905],[-55.04731,-17.64033],[-55.02303,-17.63476],[-55.01631,-17.62981],[-54.99183,-17.6384],[-54.98494,-17.62408],[-54.96639,-17.62093],[-54.94342,-17.60903],[-54.93072,-17.61094],[-54.91431,-17.60845],[-54.90217,-17.61155],[-54.89704,-17.62035],[-54.88064,-17.61687],[-54.86086,-17.62385],[-54.85159,-17.61303],[-54.83911,-17.61394],[-54.825,-17.60968],[-54.82131,-17.59739],[-54.79744,-17.58137],[-54.79159,-17.58229],[-54.77881,-17.57142],[-54.7625,-17.56865],[-54.75689,-17.55996],[-54.76217,-17.55442],[-54.75598,-17.54518],[-54.757,-17.53449],[-54.74691,-17.51994],[-54.73009,-17.51553],[-54.7205,-17.51866],[-54.70206,-17.5077],[-54.69972,-17.49738],[-54.69553,-17.50352],[-54.68131,-17.50685],[-54.67675,-17.50153],[-54.66945,-17.50423],[-54.65673,-17.4969],[-54.65639,-17.49138],[-54.64631,-17.49061],[-54.63608,-17.49572],[-54.61899,-17.48811],[-54.61734,-17.49042],[-54.58861,-17.47712],[-54.58333,-17.46895],[-54.56733,-17.47556],[-54.55419,-17.48867],[-54.53633,-17.47759],[-54.5023,-17.48071],[-54.49094,-17.48862],[-54.48131,-17.48766],[-54.48306,-17.49397],[-54.47423,-17.49799],[-54.47955,-17.50784],[-54.46872,-17.52719],[-54.45308,-17.53353],[-54.42147,-17.5365],[-54.41372,-17.55153],[-54.40536,-17.55515],[-54.40371,-17.56454],[-54.39314,-17.56605],[-54.38147,-17.57568],[-54.38633,-17.58598],[-54.38019,-17.59415],[-54.3846,-17.60136],[-54.37442,-17.60858],[-54.3878,-17.63194],[-54.37164,-17.64505],[-54.35313,-17.65144],[-54.35058,-17.65711],[-54.30242,-17.66166],[-54.29197,-17.653],[-54.27455,-17.65405],[-54.25169,-17.64124],[-54.24374,-17.6289],[-54.23291,-17.62677],[-54.22222,-17.61992],[-54.21672,-17.62121],[-54.20466,-17.6128],[-54.19983,-17.61455],[-54.19163,-17.60565],[-54.17883,-17.60285],[-54.16969,-17.60744],[-54.15744,-17.605],[-54.14672,-17.615],[-54.14131,-17.61067],[-54.13419,-17.61873],[-54.12294,-17.61322],[-54.1186,-17.61914],[-54.11197,-17.61353],[-54.09955,-17.61312],[-54.09019,-17.61766],[-54.07641,-17.61575],[-54.07944,-17.60474],[-54.07266,-17.59677],[-54.07327,-17.5878],[-54.05891,-17.57565],[-54.05163,-17.56277],[-54.05217,-17.54746],[-54.04591,-17.53723],[-54.05547,-17.5293],[-54.05808,-17.51313],[-54.04125,-17.50052],[-54.03764,-17.48645],[-54.02327,-17.47707],[-53.99725,-17.47136],[-53.97305,-17.47224],[-53.97127,-17.46582],[-53.95225,-17.45934],[-53.94794,-17.45208],[-53.9311,-17.43945],[-53.92857,-17.43121],[-53.91955,-17.42521],[-53.9146,-17.41441],[-53.88357,-17.38707],[-53.87844,-17.3752],[-53.86944,-17.36919],[-53.83744,-17.35903],[-53.83132,-17.35502],[-53.83516,-17.3392],[-53.83071,-17.31728],[-53.82613,-17.31266],[-53.82007,-17.29462],[-53.80664,-17.28796],[-53.78571,-17.28752],[-53.76571,-17.2601],[-53.76283,-17.2466],[-53.74701,-17.24264],[-53.73652,-17.23218],[-53.70515,-17.22815],[-53.6945,-17.23398],[-53.69246,-17.24646],[-53.68007,-17.25357],[-53.6934,-17.5002],[-53.70389,-17.66134],[-53.72005,-17.66881],[-53.72783,-17.66357],[-53.73977,-17.66501],[-53.75697,-17.67346],[-53.77947,-17.67244],[-53.78549,-17.67637],[-53.79883,-17.67053],[-53.80633,-17.67237],[-53.81341,-17.68146],[-53.82511,-17.68796],[-53.83894,-17.6901],[-53.85591,-17.70272],[-53.86094,-17.72071],[-53.87702,-17.73188],[-53.87836,-17.73894],[-53.88838,-17.74899],[-53.89647,-17.76931],[-53.89549,-17.77702],[-53.9103,-17.79846],[-53.91035,-17.80389],[-53.93594,-17.8321],[-53.94117,-17.8402],[-53.9483,-17.86161],[-53.95502,-17.87124],[-53.95575,-17.88302],[-53.94466,-17.90734],[-53.9523,-17.91469],[-53.94891,-17.92342],[-53.94399,-17.91668],[-53.93855,-17.92009],[-53.93241,-17.91317],[-53.92236,-17.92016],[-53.92022,-17.91602],[-53.9013,-17.91685],[-53.89855,-17.9088],[-53.88544,-17.91328],[-53.87883,-17.92279],[-53.87016,-17.9274],[-53.86047,-17.9246],[-53.85038,-17.92923],[-53.84422,-17.93818],[-53.83755,-17.9347],[-53.83561,-17.94694],[-53.83082,-17.94284],[-53.82547,-17.95504],[-53.80866,-17.96101],[-53.81316,-17.96396],[-53.80861,-17.97225],[-53.79319,-17.97466],[-53.79399,-17.98072],[-53.78394,-17.99597],[-53.77422,-18.00077],[-53.7506,-17.99864],[-53.73668,-17.9949],[-53.7268,-18.00347],[-53.7193,-17.99807],[-53.71571,-18.00629],[-53.70058,-18.00582],[-53.69219,-18.01368],[-53.69272,-18.00692],[-53.67644,-17.98993],[-53.66247,-17.98602],[-53.66125,-17.97751],[-53.61255,-17.97803],[-53.60699,-17.99549],[-53.59313,-18.00056],[-53.58865,-18.00972],[-53.57502,-18.01265],[-53.56499,-18.00456],[-53.55724,-18.00565],[-53.55649,-18.01643],[-53.54755,-18.01456],[-53.52905,-18.02158],[-53.51788,-18.02065],[-53.51354,-18.02694],[-53.50188,-18.02814],[-53.49913,-18.03591],[-53.48607,-18.0404],[-53.46785,-18.03489],[-53.46638,-18.02435],[-53.46016,-18.02203],[-53.45729,-17.9997],[-53.44919,-17.99881],[-53.43505,-17.98458],[-53.42557,-17.98929],[-53.42133,-17.98579],[-53.41788,-17.9948],[-53.40138,-17.99341],[-53.39701,-17.99982],[-53.38077,-18.00876],[-53.36024,-18.00603],[-53.33567,-18.00691],[-53.33235,-18.00156],[-53.30757,-17.99598],[-53.29191,-17.99587],[-53.27412,-18.00167],[-53.24154,-18.00471],[-53.23776,-18.00744]]]},"properties":{"CD_REG":"5002","NM_REG":"Centro Norte de Mato Grosso do Sul","SIGLA_UF":"MS"}},{"type":"Feature","geometry":{"type":"Polygon","coordinates":[[[-53.10519,-22.62193],[-53.14761,-22.67808],[-53.16603,-22.6938],[-53.18537,-22.71873],[-53.20672,-22.73126],[-53.23094,-22.73142],[-53.28889,-22.7496],[-53.32909,-22.76521],[-53.35204,-22.77568],[-53.36381,-22.78359],[-53.37245,-22.79853],[-53.37979,-22.80443],[-53.39873,-22.80673],[-53.40798,-22.81139],[-53.42965,-22.83296],[-53.45086,-22.84194],[-53.48476,-22.86385],[-53.52358,-22.88011],[-53.53105,-22.88105],[-53.54683,-22.8901],[-53.55944,-22.90596],[-53.56078,-22.91616],[-53.57077,-22.92849],[-53.58931,-22.93624],[-53.60742,-22.95133],[-53.61664,-22.97415],[-53.63412,-22.9985],[-53.634,-23.00338],[-53.6407,-23.0044],[-53.64705,-22.98919],[-53.65645,-22.98142],[-53.64954,-22.9534],[-53.65286,-22.93952],[-53.65187,-22.91961],[-53.64843,-22.91445],[-53.6345,-22.90995],[-53.62227,-22.9018],[-53.61694,-22.88832],[-53.61828,-22.87724],[-53.61326,-22.87173],[-53.61085,-22.85832],[-53.58691,-22.84157],[-53.56918,-22.83596],[-53.55959,-22.80995],[-53.52447,-22.79306],[-53.5147,-22.78015],[-53.5062,-22.76317],[-53.49172,-22.76289],[-53.48731,-22.75895],[-53.48856,-22.74858],[-53.50015,-22.74673],[-53.52195,-22.75592],[-53.5202,-22.74556],[-53.52612,-22.73646],[-53.54086,-22.74367],[-53.54102,-22.73327],[-53.53467,-22.72062],[-53.53693,-22.71446],[-53.54659,-22.71167],[-53.54965,-22.70374],[-53.54617,-22.69187],[-53.562,-22.6808],[-53.5583,-22.6595],[-53.55355,-22.6495],[-53.54391,-22.65294],[-53.52273,-22.64165],[-53.51252,-22.6319],[-53.51285,-22.6265],[-53.52447,-22.61351],[-53.51316,-22.60008],[-53.50058,-22.60548],[-53.5004,-22.58389],[-53.51587,-22.57526],[-53.53448,-22.5804],[-53.54457,-22.5777],[-53.55208,-22.57034],[-53.56272,-22.56782],[-53.56019,-22.5555],[-53.54864,-22.54485],[-53.53302,-22.54306],[-53.52039,-22.53571],[-53.52001,-22.52412],[-53.51123,-22.51061],[-53.49837,-22.50301],[-53.50091,-22.49073],[-53.48745,-22.47431],[-53.48291,-22.45532],[-53.49523,-22.43599],[-53.50738,-22.43557],[-53.51437,-22.40293],[-53.52575,-22.39757],[-53.53207,-22.38144],[-53.53895,-22.37493],[-53.53682,-22.36253],[-53.55097,-22.36527],[-53.55066,-22.35791],[-53.53777,-22.35611],[-53.53443,-22.33323],[-53.55634,-22.30937],[-53.55232,-22.29281],[-53.56716,-22.27607],[-53.57554,-22.24624],[-53.56912,-22.23763],[-53.56174,-22.23599],[-53.56425,-22.22919],[-53.57738,-22.21727],[-53.58605,-22.21656],[-53.59071,-22.20886],[-53.58659,-22.19013],[-53.59397,-22.17173],[-53.58595,-22.15847],[-53.59613,-22.14773],[-53.62135,-22.14502],[-53.62681,-22.13883],[-53.62376,-22.12994],[-53.62737,-22.12237],[-53.65289,-22.11136],[-53.66341,-22.11168],[-53.6703,-22.09599],[-53.66839,-22.08959],[-53.67232,-22.07544],[-53.68664,-22.06469],[-53.69266,-22.05462],[-53.6872,-22.03962],[-53.69465,-22.0328],[-53.70332,-22.03208],[-53.71399,-22.02294],[-53.73325,-22.01788],[-53.74832,-22.00982],[-53.74569,-22.00266],[-53.7337,-22.00113],[-53.73581,-21.98703],[-53.75377,-21.98597],[-53.76073,-21.99378],[-53.75978,-21.96307],[-53.79052,-21.94145],[-53.79321,-21.92837],[-53.78605,-21.91252],[-53.79081,-21.90795],[-53.79036,-21.88894],[-53.77942,-21.86597],[-53.7495,-21.82594],[-53.73912,-21.81961],[-53.7277,-21.80574],[-53.73706,-21.78939],[-53.73317,-21.75645],[-53.73234,-21.73029],[-53.73808,-21.71138],[-53.74128,-21.68223],[-53.72903,-21.66851],[-53.73258,-21.65404],[-53.72844,-21.63601],[-53.73358,-21.6215],[-53.62633,-21.6132],[-53.61703,-21.59726],[-53.60835,-21.59024],[-53.62035,-21.57364],[-53.6014,-21.55259],[-53.61085,-21.54774],[-53.60403,-21.5353],[-53.6117,-21.52994],[-53.61334,-21.52116],[-53.6067,-21.50166],[-53.6138,-21.49368],[-53.61307,-21.47857],[-53.62191,-21.47062],[-53.63788,-21.46804],[-53.63616,-21.44653],[-53.62965,-21.44623],[-53.62507,-21.43499],[-53.6277,-21.42314],[-53.61896,-21.42062],[-53.62325,-21.41057],[-53.61274,-21.38464],[-53.62123,-21.38222],[-53.61732,-21.36296],[-53.62449,-21.36076],[-53.63269,-21.34063],[-53.6375,-21.34041],[-53.64006,-21.329],[-53.63837,-21.31588],[-53.64787,-21.2892],[-53.66055,-21.27774],[-53.66313,-21.26457],[-53.67014,-21.26015],[-53.6742,-21.24196],[-53.67973,-21.23629],[-53.67659,-21.22936],[-53.68347,-21.22386],[-53.68345,-21.1888],[-53.68735,-21.17617],[-53.69703,-21.17344],[-53.70609,-21.15632],[-53.72628,-21.14607],[-53.72686,-21.13238],[-53.73887,-21.11744],[-53.73567,-21.10729],[-53.75861,-21.09056],[-53.76115,-21.07922],[-53.77942,-21.07167],[-53.79679,-21.07055],[-53.80172,-21.07435],[-53.82187,-21.06176],[-53.82819,-21.05076],[-53.84806,-21.04393],[-53.84588,-21.03129],[-53.85032,-21.01904],[-53.84388,-21.01706],[-53.84723,-21.00754],[-53.85671,-20.99574],[-53.85627,-20.98964],[-53.86765,-20.98072],[-53.87613,-20.98307],[-53.88651,-20.97966],[-53.89951,-20.96788],[-53.91603,-20.95808],[-53.9422,-20.95668],[-53.94665,-20.95997],[-53.96895,-20.95644],[-53.9825,-20.94237],[-53.98605,-20.93392],[-54.00547,-20.92282],[-54.00603,-20.89173],[-54.01697,-20.88124],[-54.02302,-20.85491],[-54.06425,-20.83659],[-54.07286,-20.82873],[-54.079,-20.81613],[-54.08861,-20.80697],[-54.09218,-20.79796],[-54.10301,-20.79385],[-54.1114,-20.78524],[-54.12825,-20.78843],[-54.14567,-20.78043],[-54.15819,-20.77164],[-54.16484,-20.75467],[-54.17279,-20.75056],[-54.17526,-20.72544],[-54.19715,-20.70876],[-54.20239,-20.71103],[-54.20664,-20.67304],[-54.19583,-20.6569],[-54.1933,-20.6367],[-54.1826,-20.6201],[-54.17768,-20.59591],[-54.18266,-20.59055],[-54.18338,-20.57685],[-54.19258,-20.55856],[-54.19546,-20.53635],[-54.18643,-20.50952],[-54.18279,-20.49015],[-54.18313,-20.46081],[-54.16816,-20.45456],[-54.1616,-20.45562],[-54.15649,-20.44558],[-54.14383,-20.45524],[-54.13419,-20.45297],[-54.12624,-20.44314],[-54.11423,-20.44406],[-54.12125,-20.43885],[-54.11312,-20.43566],[-54.10404,-20.4389],[-54.09777,-20.43086],[-54.09017,-20.43618],[-54.08099,-20.43413],[-54.07714,-20.42607],[-54.05996,-20.42861],[-54.06125,-20.42053],[-54.03762,-20.42104],[-54.02978,-20.40387],[-54.02389,-20.40153],[-54.02149,-20.41142],[-54.00944,-20.40951],[-54.0113,-20.39923],[-53.99633,-20.39914],[-53.98962,-20.39104],[-53.98555,-20.39734],[-53.97204,-20.39077],[-53.96667,-20.38172],[-53.94682,-20.38322],[-53.93549,-20.37745],[-53.92441,-20.37741],[-53.92108,-20.37047],[-53.89739,-20.37017],[-53.88752,-20.37218],[-53.88934,-20.35856],[-53.89898,-20.35216],[-53.9091,-20.35257],[-53.91596,-20.3412],[-53.93035,-20.34302],[-53.95357,-20.33138],[-53.9621,-20.31751],[-53.98397,-20.31353],[-53.99062,-20.29834],[-53.98208,-20.29036],[-53.98581,-20.27485],[-53.99302,-20.2725],[-53.99752,-20.26342],[-54.00627,-20.26468],[-54.00521,-20.25794],[-54.01134,-20.24958],[-54.00887,-20.23856],[-54.03764,-20.20912],[-54.04286,-20.21213],[-54.04744,-20.19671],[-54.05877,-20.18982],[-54.06522,-20.17925],[-54.063,-20.17031],[-54.06889,-20.14949],[-54.09438,-20.12613],[-54.10004,-20.11809],[-54.0856,-20.10119],[-54.06698,-20.08922],[-54.05942,-20.0876],[-54.05433,-20.06981],[-53.97818,-20.04937],[-53.9583,-20.03101],[-53.96018,-20.01827],[-53.95185,-19.99917],[-53.90971,-19.99763],[-53.89557,-19.99515],[-53.89912,-19.97814],[-53.90399,-19.97419],[-53.90453,-19.95034],[-53.90787,-19.93739],[-53.91881,-19.92683],[-53.9195,-19.91284],[-53.93034,-19.90077],[-53.93211,-19.89029],[-53.94114,-19.88328],[-53.94827,-19.86739],[-53.96311,-19.86155],[-53.9643,-19.84906],[-53.97205,-19.83795],[-53.97338,-19.82149],[-53.9712,-19.80944],[-53.97805,-19.80235],[-53.97818,-19.78152],[-53.99129,-19.76805],[-53.98685,-19.75075],[-53.99532,-19.72912],[-53.98492,-19.72123],[-53.96555,-19.72225],[-53.95616,-19.71045],[-53.9473,-19.70839],[-53.9276,-19.71445],[-53.92209,-19.70877],[-53.90872,-19.7071],[-53.90435,-19.70224],[-53.86259,-19.53028],[-53.8465,-19.53349],[-53.82249,-19.55121],[-53.79477,-19.58104],[-53.7827,-19.61688],[-53.77359,-19.62094],[-53.76202,-19.63672],[-53.74671,-19.6449],[-53.73868,-19.65417],[-53.71927,-19.66616],[-53.71134,-19.6803],[-53.67546,-19.69557],[-53.66622,-19.69726],[-53.65683,-19.70718],[-53.64856,-19.70782],[-53.63395,-19.74003],[-53.61803,-19.75014],[-53.61535,-19.75881],[-53.60129,-19.7698],[-53.57966,-19.77105],[-53.57821,-19.77566],[-53.56434,-19.78235],[-53.55079,-19.78457],[-53.53236,-19.78159],[-53.51439,-19.78488],[-53.51268,-19.79071],[-53.49354,-19.79421],[-53.47097,-19.78826],[-53.45496,-19.798],[-53.44552,-19.79223],[-53.42472,-19.7849],[-53.43435,-19.77336],[-53.43505,-19.76545],[-53.44923,-19.74683],[-53.44986,-19.73548],[-53.46341,-19.72902],[-53.45989,-19.71928],[-53.46229,-19.70643],[-53.46823,-19.69717],[-53.48703,-19.69164],[-53.49507,-19.67249],[-53.48767,-19.66736],[-53.49362,-19.65937],[-53.4851,-19.65605],[-53.48777,-19.64011],[-53.47455,-19.61573],[-53.48215,-19.59011],[-53.49573,-19.58041],[-53.49486,-19.57572],[-53.50428,-19.56817],[-53.49739,-19.55568],[-53.5041,-19.55107],[-53.49939,-19.54572],[-53.51467,-19.53975],[-53.51942,-19.52943],[-53.51901,-19.51889],[-53.52654,-19.51545],[-53.52859,-19.49375],[-53.53886,-19.47553],[-53.5474,-19.47431],[-53.55582,-19.45874],[-53.54774,-19.44725],[-53.55433,-19.44176],[-53.55406,-19.43001],[-53.56323,-19.41474],[-53.57142,-19.37776],[-53.57896,-19.37099],[-53.58008,-19.35284],[-53.59006,-19.34783],[-53.60253,-19.32968],[-53.60855,-19.30979],[-53.6069,-19.30258],[-53.6205,-19.29183],[-53.62215,-19.2843],[-53.63775,-19.26687],[-53.63494,-19.26141],[-53.62193,-19.25474],[-53.61478,-19.23802],[-53.61626,-19.22399],[-53.60921,-19.21504],[-53.61107,-19.19307],[-53.60827,-19.18365],[-53.60181,-19.17989],[-53.57851,-19.18518],[-53.54072,-19.18649],[-53.51867,-19.18103],[-53.4871,-19.18607],[-53.46856,-19.18515],[-53.44124,-19.17698],[-53.42851,-19.15884],[-53.42767,-19.14212],[-53.42335,-19.13469],[-53.42255,-19.11335],[-53.40253,-19.09772],[-53.39329,-19.07883],[-53.37729,-19.07403],[-53.35448,-19.06282],[-53.3397,-19.0501],[-53.36934,-19.02061],[-53.40193,-19.00638],[-53.38695,-18.98115],[-53.38243,-18.94354],[-53.40107,-18.94124],[-53.41134,-18.92825],[-53.41475,-18.91521],[-53.43654,-18.89623],[-53.45621,-18.89443],[-53.46322,-18.87451],[-53.48957,-18.84974],[-53.48855,-18.83755],[-53.34534,-18.7754],[-53.36219,-18.75899],[-53.36321,-18.75125],[-53.37737,-18.74067],[-53.38169,-18.72305],[-53.3731,-18.70784],[-53.37472,-18.69763],[-53.36922,-18.69689],[-53.37336,-18.68017],[-53.39718,-18.66751],[-53.41488,-18.65395],[-53.43315,-18.65456],[-53.43494,-18.63056],[-53.45822,-18.62936],[-53.4692,-18.6184],[-53.46325,-18.6017],[-53.47049,-18.5977],[-53.47428,-18.58605],[-53.47246,-18.57748],[-53.48451,-18.55987],[-53.50054,-18.52146],[-53.51601,-18.51535],[-53.52517,-18.50689],[-53.55154,-18.4746],[-53.56042,-18.47025],[-53.55911,-18.45546],[-53.56584,-18.44642],[-53.5773,-18.442],[-53.5795,-18.43569],[-53.56686,-18.43723],[-53.55653,-18.43296],[-53.54574,-18.41897],[-53.52472,-18.41682],[-53.52078,-18.40776],[-53.50763,-18.40922],[-53.49892,-18.40132],[-53.49231,-18.40402],[-53.48725,-18.41577],[-53.48081,-18.40876],[-53.46181,-18.4034],[-53.45288,-18.3909],[-53.4455,-18.39057],[-53.43553,-18.38258],[-53.44667,-18.35995],[-53.4489,-18.35062],[-53.43361,-18.33582],[-53.43115,-18.32729],[-53.44643,-18.30958],[-53.44461,-18.30326],[-53.45082,-18.2881],[-53.46075,-18.27812],[-53.45511,-18.2692],[-53.44669,-18.2668],[-53.43974,-18.25458],[-53.41036,-18.24576],[-53.40022,-18.23998],[-53.39111,-18.24058],[-53.38503,-18.24659],[-53.36308,-18.25638],[-53.35208,-18.25361],[-53.34749,-18.25702],[-53.33028,-18.23917],[-53.34757,-18.22354],[-53.35528,-18.22173],[-53.37966,-18.20346],[-53.36421,-18.20127],[-53.35774,-18.194],[-53.32643,-18.20966],[-53.31426,-18.20947],[-53.29439,-18.19719],[-53.28699,-18.1829],[-53.28025,-18.18158],[-53.26598,-18.16502],[-53.24888,-18.15999],[-53.23649,-18.14516],[-53.23499,-18.13863],[-53.22047,-18.12669],[-53.22423,-18.10946],[-53.22701,-18.07628],[-53.22547,-18.06618],[-53.23632,-18.05134],[-53.23776,-18.00744],[-53.2176,-18.01357],[-53.20515,-18.02189],[-53.19879,-18.02031],[-53.19054,-18.0363],[-53.17433,-18.0416],[-53.07228,-18.03398],[-53.07571,-18.0508],[-53.08184,-18.05476],[-53.10297,-18.05885],[-53.12365,-18.05883],[-53.13992,-18.07211],[-53.14315,-18.08408],[-53.13671,-18.11852],[-53.12902,-18.13848],[-53.12974,-18.1607],[-53.11019,-18.21956],[-53.11129,-18.23527],[-53.10751,-18.26014],[-53.10204,-18.27262],[-53.10352,-18.29182],[-53.09966,-18.31362],[-53.08299,-18.32678],[-53.07174,-18.34154],[-53.06487,-18.34409],[-53.04454,-18.34392],[-53.02785,-18.3516],[-53.02307,-18.34946],[-53.01394,-18.32614],[-53.00489,-18.32247],[-52.9841,-18.30733],[-52.96527,-18.29894],[-52.93523,-18.29655],[-52.91424,-18.30143],[-52.87321,-18.31483],[-52.85638,-18.31201],[-52.81426,-18.3113],[-52.79692,-18.316],[-52.7759,-18.32875],[-52.75932,-18.34807],[-52.75887,-18.36314],[-52.76996,-18.38026],[-52.78374,-18.3883],[-52.79851,-18.41486],[-52.82751,-18.41962],[-52.83829,-18.42366],[-52.85143,-18.42227],[-52.87118,-18.42581],[-52.8764,-18.43092],[-52.88096,-18.46549],[-52.8991,-18.47683],[-52.91006,-18.49174],[-52.91301,-18.50484],[-52.91971,-18.51074],[-52.94251,-18.51703],[-52.96235,-18.54082],[-52.96493,-18.55003],[-52.95363,-18.56239],[-52.95182,-18.57667],[-52.94154,-18.58592],[-52.93445,-18.59911],[-52.94062,-18.6115],[-52.91766,-18.61524],[-52.91399,-18.62792],[-52.91676,-18.64029],[-52.89293,-18.64559],[-52.87713,-18.64519],[-52.86833,-18.64859],[-52.84647,-18.66695],[-52.83623,-18.66664],[-52.82202,-18.67217],[-52.8085,-18.6676],[-52.78557,-18.68122],[-52.76308,-18.68138],[-52.7481,-18.69206],[-52.73066,-18.68857],[-52.7161,-18.69141],[-52.68731,-18.67834],[-52.64858,-18.68596],[-52.63241,-18.69559],[-52.62199,-18.6886],[-52.59007,-18.68771],[-52.58601,-18.6809],[-52.5736,-18.67352],[-52.56623,-18.66458],[-52.5524,-18.65708],[-52.53155,-18.65748],[-52.52071,-18.6698],[-52.51204,-18.67],[-52.47126,-18.68677],[-52.45413,-18.6884],[-52.44803,-18.69197],[-52.43824,-18.71243],[-52.42435,-18.73298],[-52.41256,-18.73963],[-52.4106,-18.75274],[-52.40084,-18.75867],[-52.39553,-18.76922],[-52.37919,-18.7817],[-52.36663,-18.79517],[-52.36951,-18.79949],[-52.3539,-18.8002],[-52.34596,-18.81652],[-52.33382,-18.82906],[-52.32354,-18.83132],[-52.30514,-18.84044],[-52.29335,-18.82925],[-52.28706,-18.82773],[-52.27265,-18.83236],[-52.26565,-18.8289],[-52.2505,-18.83987],[-52.22005,-18.84198],[-52.20009,-18.85089],[-52.19283,-18.84653],[-52.18309,-18.84764],[-52.16363,-18.87005],[-52.16446,-18.8769],[-52.15606,-18.88086],[-52.15686,-18.88845],[-52.14623,-18.89466],[-52.13597,-18.89028],[-52.13366,-18.89691],[-52.11873,-18.90102],[-52.11081,-18.8987],[-52.10658,-18.92414],[-52.07936,-18.95109],[-52.06684,-18.95376],[-52.05564,-18.94582],[-52.04364,-18.95069],[-52.04263,-18.95928],[-52.03447,-18.95806],[-52.01872,-18.96344],[-52.01586,-18.98246],[-52.00269,-18.96805],[-51.99625,-18.97408],[-51.97936,-18.97362],[-51.97644,-18.9814],[-51.96959,-18.97771],[-51.96905,-18.96721],[-51.95968,-18.97755],[-51.95099,-18.98114],[-51.95154,-18.97483],[-51.94074,-18.96823],[-51.93355,-18.97612],[-51.9256,-18.97661],[-51.926,-18.98492],[-51.91732,-18.98386],[-51.90715,-18.99438],[-51.89709,-18.99449],[-51.8908,-19.01752],[-51.88412,-19.01921],[-51.87629,-19.03096],[-51.85222,-19.05249],[-51.84465,-19.04197],[-51.83552,-19.04556],[-51.84409,-19.05311],[-51.84124,-19.05712],[-51.82338,-19.05381],[-51.79631,-19.06643],[-51.79137,-19.07963],[-51.77199,-19.08254],[-51.75823,-19.08885],[-51.74445,-19.08605],[-51.74788,-19.09368],[-51.74007,-19.1008],[-51.73151,-19.09987],[-51.72754,-19.10776],[-51.71165,-19.10304],[-51.71033,-19.11116],[-51.70011,-19.11879],[-51.68353,-19.12069],[-51.67815,-19.12584],[-51.6516,-19.136],[-51.63808,-19.12652],[-51.62349,-19.13815],[-51.60898,-19.14104],[-51.59732,-19.13652],[-51.59221,-19.12679],[-51.56907,-19.13453],[-51.55519,-19.13219],[-51.55093,-19.14065],[-51.53878,-19.14255],[-51.5271,-19.13892],[-51.51385,-19.1504],[-51.50052,-19.14905],[-51.49867,-19.161],[-51.48172,-19.15991],[-51.4728,-19.15415],[-51.45899,-19.16752],[-51.45519,-19.16119],[-51.44573,-19.15907],[-51.44292,-19.16851],[-51.42963,-19.17035],[-51.42007,-19.16621],[-51.41687,-19.17434],[-51.39453,-19.19623],[-51.37799,-19.1927],[-51.37012,-19.19959],[-51.37048,-19.20868],[-51.36396,-19.22251],[-51.34556,-19.21398],[-51.33703,-19.22229],[-51.30877,-19.2178],[-51.303,-19.22392],[-51.30834,-19.23584],[-51.28987,-19.24543],[-51.28647,-19.2524],[-51.2793,-19.24922],[-51.27661,-19.2605],[-51.25503,-19.26781],[-51.22871,-19.26488],[-51.2255,-19.25898],[-51.21553,-19.25924],[-51.20718,-19.26605],[-51.20083,-19.26423],[-51.18655,-19.27031],[-51.18316,-19.27982],[-51.16917,-19.28696],[-51.14414,-19.28685],[-51.12697,-19.30296],[-51.11105,-19.30733],[-51.08853,-19.30773],[-51.08744,-19.31243],[-51.06525,-19.33058],[-51.05814,-19.3304],[-51.04554,-19.34337],[-51.04226,-19.35612],[-51.02991,-19.36698],[-51.02047,-19.38662],[-51.02575,-19.39872],[-51.00451,-19.40141],[-51.00145,-19.41533],[-50.988,-19.40844],[-50.98608,-19.4292],[-50.95213,-19.44263],[-50.94522,-19.45353],[-50.93591,-19.46064],[-50.935,-19.46748],[-50.94944,-19.47105],[-50.96386,-19.48635],[-50.96295,-19.50058],[-50.93088,-19.54224],[-50.92417,-19.55862],[-50.92439,-19.58088],[-50.93056,-19.59028],[-50.94654,-19.59169],[-50.9618,-19.58174],[-50.97791,-19.58251],[-50.98755,-19.58951],[-50.99047,-19.6054],[-51.01077,-19.64453],[-51.01318,-19.65436],[-51.02213,-19.66063],[-51.03818,-19.69177],[-51.0385,-19.71953],[-51.04541,-19.7274],[-51.04608,-19.73558],[-51.0279,-19.75658],[-51.03994,-19.77712],[-51.03727,-19.78784],[-51.02363,-19.80395],[-51.0182,-19.83728],[-51.01931,-19.87045],[-50.99947,-19.90638],[-51.0025,-19.92479],[-51.01029,-19.93525],[-51.02091,-19.95909],[-51.02082,-19.96787],[-51.00549,-19.99606],[-51.00604,-20.0253],[-51.01686,-20.04159],[-51.01789,-20.04839],[-51.00976,-20.07203],[-51.00048,-20.08538],[-51.00119,-20.09633],[-51.02158,-20.13335],[-51.03775,-20.17466],[-51.04881,-20.19858],[-51.05893,-20.23516],[-51.06916,-20.25005],[-51.10939,-20.28009],[-51.13241,-20.29553],[-51.16077,-20.30522],[-51.19761,-20.31227],[-51.23991,-20.31694],[-51.29568,-20.32848],[-51.32144,-20.33962],[-51.34271,-20.35466],[-51.35398,-20.36859],[-51.36122,-20.38454],[-51.37808,-20.40178],[-51.39896,-20.44576],[-51.40928,-20.45957],[-51.43539,-20.47333],[-51.44923,-20.48282],[-51.45661,-20.49566],[-51.49286,-20.54651],[-51.50022,-20.56822],[-51.53301,-20.59699],[-51.5775,-20.62517],[-51.59415,-20.64385],[-51.6033,-20.6617],[-51.61147,-20.68562],[-51.62429,-20.71252],[-51.6349,-20.75485],[-51.6224,-20.77687],[-51.62748,-20.7847],[-51.62615,-20.79627],[-51.63298,-20.82156],[-51.62845,-20.8687],[-51.61509,-20.88609],[-51.61368,-20.89632],[-51.61762,-20.91061],[-51.619,-20.93259],[-51.62359,-20.94443],[-51.64428,-20.95552],[-51.65965,-20.9685],[-51.67873,-20.97294],[-51.69644,-20.97048],[-51.7137,-20.97146],[-51.72297,-20.97744],[-51.74388,-21.00529],[-51.75965,-21.0222],[-51.77126,-21.04266],[-51.77248,-21.05112],[-51.77564,-21.07309],[-51.78967,-21.10212],[-51.80801,-21.11002],[-51.81445,-21.12139],[-51.82359,-21.12684],[-51.84459,-21.13146],[-51.86547,-21.13054],[-51.87586,-21.13615],[-51.87898,-21.14814],[-51.87576,-21.18104],[-51.87972,-21.19792],[-51.86368,-21.22671],[-51.8552,-21.25027],[-51.85461,-21.2599],[-51.84851,-21.26664],[-51.84937,-21.27619],[-51.85693,-21.28953],[-51.86137,-21.31711],[-51.86106,-21.33667],[-51.86876,-21.35353],[-51.89993,-21.37761],[-51.91114,-21.39274],[-51.91821,-21.41218],[-51.92241,-21.44043],[-51.92868,-21.45582],[-51.9524,-21.4736],[-51.9679,-21.50176],[-52.00037,-21.51663],[-52.05707,-21.50361],[-52.06645,-21.50459],[-52.07779,-21.51522],[-52.10229,-21.55484],[-52.1034,-21.56456],[-52.09877,-21.57499],[-52.08418,-21.58334],[-52.06888,-21.59811],[-52.06079,-21.62434],[-52.04952,-21.64309],[-52.04834,-21.65634],[-52.05583,-21.67716],[-52.07649,-21.71488],[-52.09387,-21.73051],[-52.10379,-21.74605],[-52.11821,-21.74877],[-52.14779,-21.75959],[-52.16126,-21.77077],[-52.17096,-21.7864],[-52.18398,-21.81446],[-52.1836,-21.82637],[-52.18935,-21.84432],[-52.20673,-21.86214],[-52.22854,-21.87913],[-52.24841,-21.90228],[-52.2637,-21.9123],[-52.27496,-21.91494],[-52.28027,-21.92282],[-52.30148,-21.94217],[-52.31902,-21.97213],[-52.33919,-22.04783],[-52.35513,-22.07723],[-52.37722,-22.10668],[-52.39191,-22.11468],[-52.40168,-22.12636],[-52.40819,-22.14164],[-52.43303,-22.16336],[-52.44574,-22.17695],[-52.47997,-22.20088],[-52.48771,-22.21721],[-52.50344,-22.22538],[-52.52323,-22.22902],[-52.54208,-22.24027],[-52.57102,-22.24843],[-52.58694,-22.25675],[-52.60443,-22.27313],[-52.62336,-22.27902],[-52.63338,-22.28499],[-52.6458,-22.29828],[-52.65689,-22.3038],[-52.69513,-22.31461],[-52.72427,-22.33511],[-52.74584,-22.34331],[-52.79833,-22.37827],[-52.80821,-22.38828],[-52.83989,-22.41531],[-52.85476,-22.43911],[-52.88584,-22.45287],[-52.97969,-22.48355],[-52.99858,-22.49318],[-53.00706,-22.51305],[-53.01436,-22.52067],[-53.0398,-22.5274],[-53.058,-22.53693],[-53.07381,-22.54886],[-53.08602,-22.56232],[-53.10786,-22.59551],[-53.11011,-22.61022],[-53.10519,-22.62193]]]},"properties":{"CD_REG":"5003","NM_REG":"Leste de Mato Grosso do Sul","SIGLA_UF":"MS"}},{"type":"Feature","geometry":{"type":"Polygon","coordinates":[[[-57.51683,-22.17363],[-57.50958,-22.17689],[-57.50822,-22.15855],[-57.49779,-22.15754],[-57.48788,-22.14876],[-57.48713,-22.13486],[-57.46529,-22.13146],[-57.46849,-22.12307],[-57.46427,-22.10885],[-57.45425,-22.10579],[-57.45402,-22.09614],[-57.46053,-22.08839],[-57.45822,-22.08014],[-57.44858,-22.08243],[-57.44472,-22.06882],[-57.43756,-22.07297],[-57.42984,-22.06935],[-57.43156,-22.05783],[-57.42048,-22.05455],[-57.42443,-22.04497],[-57.41817,-22.02655],[-57.40118,-22.01272],[-57.39669,-22.00411],[-57.37807,-21.99608],[-57.37695,-21.98931],[-57.38555,-21.98469],[-57.37777,-21.96939],[-57.36691,-21.97141],[-57.36098,-21.96189],[-57.3407,-21.96309],[-57.32122,-21.94214],[-57.31289,-21.94154],[-57.3037,-21.93004],[-57.29636,-21.93728],[-57.28398,-21.93992],[-57.27023,-21.93366],[-57.26414,-21.94006],[-57.25847,-21.93611],[-57.24837,-21.93905],[-57.24741,-21.92714],[-57.23501,-21.9169],[-57.22607,-21.90511],[-57.22622,-21.89444],[-57.21661,-21.89693],[-57.20572,-21.88682],[-57.19262,-21.88647],[-57.18854,-21.87762],[-57.19864,-21.86701],[-57.19039,-21.85305],[-57.19256,-21.83831],[-57.18687,-21.82161],[-57.17876,-21.81591],[-57.17545,-21.80312],[-57.16447,-21.79634],[-57.15668,-21.7844],[-57.1587,-21.77243],[-57.16971,-21.7639],[-57.15718,-21.75148],[-57.15723,-21.74216],[-57.1484,-21.73886],[-57.13932,-21.72145],[-57.14132,-21.70933],[-57.12293,-21.70975],[-57.11661,-21.70459],[-57.10549,-21.67816],[-57.09253,-21.67623],[-57.09237,-21.66813],[-57.08389,-21.66399],[-57.08839,-21.6595],[-57.07298,-21.65896],[-57.06143,-21.66183],[-57.05759,-21.65404],[-57.04332,-21.65303],[-57.03671,-21.64748],[-57.02823,-21.63099],[-57.01563,-21.63044],[-57.01144,-21.62264],[-56.99071,-21.63024],[-56.98972,-21.63579],[-56.97109,-21.63455],[-56.96995,-21.64142],[-56.95932,-21.63058],[-56.96907,-21.62498],[-56.95559,-21.6198],[-56.94981,-21.62667],[-56.94238,-21.60774],[-56.94459,-21.59429],[-56.93536,-21.58739],[-56.9379,-21.57649],[-56.92998,-21.57206],[-56.93585,-21.5626],[-56.92644,-21.55077],[-56.92003,-21.55221],[-56.91898,-21.54458],[-56.92567,-21.53646],[-56.91607,-21.53553],[-56.90389,-21.52143],[-56.8976,-21.50839],[-56.88872,-21.51124],[-56.88609,-21.50235],[-56.87505,-21.49985],[-56.86876,-21.482],[-56.85576,-21.47674],[-56.85986,-21.4679],[-56.84814,-21.45936],[-56.84814,-21.46555],[-56.83458,-21.46092],[-56.82565,-21.46343],[-56.82739,-21.47146],[-56.81881,-21.47305],[-56.81652,-21.48408],[-56.81109,-21.48626],[-56.7991,-21.47506],[-56.8052,-21.4555],[-56.78713,-21.44848],[-56.80358,-21.43468],[-56.81505,-21.40217],[-56.8152,-21.38702],[-56.80874,-21.37898],[-56.80928,-21.36747],[-56.8041,-21.35016],[-56.81197,-21.32605],[-56.7883,-21.29234],[-56.79656,-21.22949],[-56.81617,-21.19073],[-56.82479,-21.1651],[-56.8313,-21.15181],[-56.85889,-21.11375],[-56.84474,-21.07534],[-56.86703,-21.04444],[-56.86941,-21.01798],[-56.86784,-21.00514],[-56.86047,-20.98252],[-56.87676,-20.94941],[-56.88051,-20.93052],[-56.86478,-20.90201],[-56.85967,-20.88638],[-56.8738,-20.8662],[-56.87383,-20.85756],[-56.85861,-20.83504],[-56.84646,-20.79239],[-56.85781,-20.77291],[-56.86852,-20.7638],[-56.86652,-20.74785],[-56.87189,-20.72809],[-56.88982,-20.69734],[-56.89271,-20.68418],[-56.88346,-20.65901],[-56.8689,-20.63879],[-56.8718,-20.61835],[-56.86979,-20.6113],[-56.87762,-20.59583],[-56.87337,-20.5802],[-56.89405,-20.55685],[-56.9061,-20.53335],[-56.91295,-20.51228],[-56.91073,-20.50723],[-56.92398,-20.4909],[-56.92005,-20.48211],[-56.92075,-20.46433],[-56.92596,-20.4537],[-56.93929,-20.44168],[-56.93361,-20.43101],[-56.94888,-20.41047],[-56.96928,-20.4171],[-56.96751,-20.42494],[-56.97757,-20.42717],[-56.99373,-20.41764],[-56.9874,-20.41491],[-56.99075,-20.39439],[-57.00255,-20.38292],[-56.99865,-20.36866],[-57.00904,-20.36387],[-57.00794,-20.35693],[-57.01374,-20.34474],[-57.00683,-20.34076],[-56.99248,-20.33977],[-56.94723,-20.3324],[-56.94648,-20.30361],[-56.96334,-20.29191],[-56.96824,-20.2733],[-56.9594,-20.25729],[-56.95745,-20.24554],[-56.96678,-20.235],[-56.96581,-20.22147],[-56.9789,-20.20551],[-56.99441,-20.19558],[-56.99798,-20.18892],[-56.94712,-20.18696],[-56.92915,-20.19982],[-56.92698,-20.21411],[-56.91323,-20.22437],[-56.90596,-20.23631],[-56.88711,-20.23946],[-56.87795,-20.25718],[-56.86035,-20.25963],[-56.8498,-20.2679],[-56.83572,-20.26528],[-56.826,-20.27127],[-56.83266,-20.31579],[-56.833,-20.33554],[-56.82935,-20.34182],[-56.83294,-20.35733],[-56.82046,-20.37237],[-56.81912,-20.38664],[-56.79372,-20.39932],[-56.79179,-20.40466],[-56.77721,-20.41686],[-56.76846,-20.40953],[-56.75266,-20.40246],[-56.74179,-20.40695],[-56.73193,-20.40037],[-56.72408,-20.40116],[-56.72172,-20.40785],[-56.70267,-20.40479],[-56.70041,-20.39629],[-56.69432,-20.39968],[-56.68858,-20.38569],[-56.68428,-20.38898],[-56.67788,-20.36662],[-56.68063,-20.35769],[-56.56808,-20.35632],[-56.54687,-20.36242],[-56.52754,-20.36056],[-56.51649,-20.35651],[-56.50906,-20.34418],[-56.47179,-20.32869],[-56.46147,-20.31575],[-56.45152,-20.31349],[-56.44338,-20.31961],[-56.42899,-20.31926],[-56.41892,-20.34823],[-56.41782,-20.3362],[-56.38872,-20.33349],[-56.39393,-20.34566],[-56.39085,-20.35779],[-56.40116,-20.36929],[-56.39444,-20.37499],[-56.40898,-20.38467],[-56.39283,-20.39276],[-56.39212,-20.40287],[-56.40051,-20.40106],[-56.39765,-20.41297],[-56.39287,-20.41067],[-56.39658,-20.42679],[-56.40319,-20.43947],[-56.38705,-20.44008],[-56.38609,-20.45097],[-56.39569,-20.4551],[-56.39706,-20.46751],[-56.39309,-20.48344],[-56.37724,-20.48398],[-56.37518,-20.50417],[-56.37069,-20.50636],[-56.36443,-20.53131],[-56.3503,-20.53574],[-56.35787,-20.53925],[-56.34753,-20.54559],[-56.34597,-20.55309],[-56.33779,-20.55362],[-56.32545,-20.57048],[-56.32408,-20.58248],[-56.31601,-20.58223],[-56.30413,-20.57378],[-56.29752,-20.57612],[-56.30595,-20.5817],[-56.30806,-20.58978],[-56.29578,-20.59386],[-56.29441,-20.61129],[-56.27749,-20.62157],[-56.28215,-20.63474],[-56.2751,-20.63633],[-56.2752,-20.64357],[-56.26566,-20.64457],[-56.26745,-20.63871],[-56.24362,-20.63955],[-56.24577,-20.64813],[-56.23032,-20.65801],[-56.22076,-20.64281],[-56.20998,-20.64686],[-56.21253,-20.62883],[-56.21818,-20.60945],[-56.21057,-20.60359],[-56.20155,-20.60419],[-56.19738,-20.61044],[-56.20199,-20.6159],[-56.18456,-20.6322],[-56.17631,-20.62963],[-56.17466,-20.61952],[-56.16868,-20.61622],[-56.14964,-20.62539],[-56.15482,-20.6404],[-56.14764,-20.64956],[-56.15018,-20.65871],[-56.16387,-20.66229],[-56.16295,-20.67026],[-56.14609,-20.67058],[-56.13173,-20.68987],[-56.14083,-20.69232],[-56.13689,-20.70389],[-56.12846,-20.70933],[-56.13178,-20.72756],[-56.12368,-20.72505],[-56.11541,-20.72992],[-56.1178,-20.74074],[-56.10965,-20.73961],[-56.09289,-20.75755],[-56.08913,-20.76628],[-56.0745,-20.76252],[-56.07406,-20.76782],[-56.05358,-20.7644],[-56.03986,-20.76603],[-56.03568,-20.78097],[-56.0243,-20.78443],[-56.02471,-20.77353],[-56.01475,-20.77775],[-56.00701,-20.77582],[-56.01194,-20.78636],[-56.00937,-20.79356],[-56.00233,-20.79115],[-56.00876,-20.80175],[-55.99152,-20.81136],[-55.96793,-20.81967],[-55.94831,-20.81709],[-55.93846,-20.82169],[-55.92511,-20.81151],[-55.90124,-20.80429],[-55.89073,-20.80741],[-55.88297,-20.79641],[-55.87123,-20.78653],[-55.87223,-20.77901],[-55.86215,-20.76734],[-55.85538,-20.76789],[-55.84546,-20.75433],[-55.84275,-20.73948],[-55.84557,-20.73335],[-55.79424,-20.7477],[-55.78839,-20.7474],[-55.78189,-20.76221],[-55.77069,-20.76423],[-55.75614,-20.75474],[-55.73974,-20.76329],[-55.73779,-20.77472],[-55.73017,-20.7757],[-55.72751,-20.79078],[-55.72052,-20.79991],[-55.72458,-20.80819],[-55.72002,-20.81783],[-55.72621,-20.82474],[-55.70857,-20.83214],[-55.70778,-20.85232],[-55.6933,-20.87354],[-55.68851,-20.8871],[-55.68935,-20.90541],[-55.68653,-20.91791],[-55.65986,-20.93725],[-55.65125,-20.93669],[-55.64788,-20.94483],[-55.63901,-20.94887],[-55.62095,-20.97528],[-55.60809,-20.97665],[-55.60228,-20.98503],[-55.5916,-20.98569],[-55.58491,-20.99742],[-55.56921,-20.9914],[-55.56199,-20.99568],[-55.55659,-20.99091],[-55.51664,-20.99412],[-55.48612,-21.02237],[-55.4733,-21.01941],[-55.45761,-21.02842],[-55.45539,-21.03463],[-55.44254,-21.03604],[-55.43873,-21.04652],[-55.42318,-21.05215],[-55.40904,-21.04722],[-55.3904,-21.04831],[-55.37863,-21.04539],[-55.36247,-21.03443],[-55.33665,-21.03993],[-55.31902,-21.05091],[-55.30529,-21.03645],[-55.30083,-21.02154],[-55.27784,-21.00137],[-55.2664,-20.99833],[-55.25404,-21.01567],[-55.2695,-21.00893],[-55.27417,-21.01438],[-55.27744,-21.03087],[-55.28391,-21.04375],[-55.29334,-21.05283],[-55.29397,-21.06843],[-55.30677,-21.07991],[-55.30822,-21.10667],[-55.31848,-21.11092],[-55.32165,-21.11745],[-55.3179,-21.1275],[-55.30708,-21.13397],[-55.3168,-21.16052],[-55.31641,-21.16918],[-55.33011,-21.17365],[-55.32073,-21.17833],[-55.32194,-21.18638],[-55.3305,-21.19179],[-55.32857,-21.19812],[-55.31607,-21.20399],[-55.31935,-21.21602],[-55.3152,-21.2295],[-55.3195,-21.24212],[-55.30047,-21.24887],[-55.29406,-21.26492],[-55.29617,-21.29148],[-55.30387,-21.29914],[-55.28146,-21.31749],[-55.28837,-21.32305],[-55.29736,-21.33864],[-55.29725,-21.34602],[-55.28505,-21.35408],[-55.28478,-21.36651],[-55.27742,-21.3718],[-55.27466,-21.38706],[-55.26711,-21.39268],[-55.25692,-21.40886],[-55.24821,-21.40586],[-55.23611,-21.40889],[-55.23937,-21.41768],[-55.2176,-21.42382],[-55.21051,-21.44237],[-55.19445,-21.45995],[-55.19156,-21.44672],[-55.17964,-21.45114],[-55.16688,-21.46445],[-55.17335,-21.47798],[-55.16621,-21.48384],[-55.15532,-21.48549],[-55.14764,-21.47484],[-55.13952,-21.47951],[-55.14183,-21.48842],[-55.13844,-21.49914],[-55.14654,-21.50254],[-55.13718,-21.51177],[-55.12745,-21.50528],[-55.12248,-21.52542],[-55.13863,-21.53443],[-55.12813,-21.53861],[-55.11836,-21.53251],[-55.10364,-21.53906],[-55.10097,-21.54734],[-55.10538,-21.55355],[-55.09702,-21.55949],[-55.09546,-21.57147],[-55.0867,-21.56487],[-55.08903,-21.55994],[-55.07793,-21.55521],[-55.07211,-21.56176],[-55.06315,-21.55786],[-55.06003,-21.58555],[-55.04492,-21.58173],[-55.04734,-21.57194],[-55.0387,-21.56827],[-55.03658,-21.57714],[-55.02792,-21.58598],[-55.02444,-21.57032],[-55.01924,-21.56362],[-55.01881,-21.54833],[-55.01483,-21.53242],[-55.01644,-21.50521],[-55.01336,-21.48458],[-54.89257,-21.33772],[-54.87615,-21.33526],[-54.86442,-21.33695],[-54.83647,-21.35259],[-54.83027,-21.34232],[-54.81751,-21.33772],[-54.81441,-21.34291],[-54.80066,-21.34762],[-54.79551,-21.34184],[-54.78356,-21.34596],[-54.78518,-21.36725],[-54.77278,-21.36942],[-54.77013,-21.37813],[-54.70143,-21.35544],[-54.69867,-21.35128],[-54.68077,-21.34509],[-54.67556,-21.32231],[-54.67935,-21.31509],[-54.67167,-21.30434],[-54.64437,-21.30265],[-54.6309,-21.29248],[-54.62048,-21.28083],[-54.59778,-21.2619],[-54.58792,-21.26247],[-54.57412,-21.24987],[-54.57353,-21.2391],[-54.53025,-21.21256],[-54.51624,-21.20948],[-54.52424,-21.18958],[-54.5393,-21.1771],[-54.55096,-21.16324],[-54.55905,-21.14834],[-54.52912,-21.13407],[-54.5237,-21.12815],[-54.50521,-21.12796],[-54.50191,-21.13088],[-54.48225,-21.12251],[-54.50892,-21.00951],[-54.50683,-20.99413],[-54.498,-20.99423],[-54.49158,-21.00414],[-54.48677,-21.00309],[-54.4713,-21.01044],[-54.46323,-21.00898],[-54.4612,-21.01696],[-54.45268,-21.0229],[-54.42897,-21.02293],[-54.43066,-21.03361],[-54.40824,-21.04216],[-54.41791,-21.04978],[-54.40998,-21.05069],[-54.38936,-21.07087],[-54.39158,-21.08208],[-54.38262,-21.08932],[-54.38209,-21.09979],[-54.37655,-21.106],[-54.36971,-21.10153],[-54.35322,-21.1064],[-54.34696,-21.10305],[-54.34092,-21.10814],[-54.34447,-21.11464],[-54.33696,-21.12121],[-54.33058,-21.11501],[-54.31697,-21.13161],[-54.3112,-21.12876],[-54.29933,-21.1388],[-54.29184,-21.14056],[-54.29763,-21.15523],[-54.29149,-21.15741],[-54.30642,-21.16561],[-54.29601,-21.17401],[-54.27949,-21.17514],[-54.27181,-21.18331],[-54.27433,-21.1965],[-54.26035,-21.20476],[-54.26077,-21.22197],[-54.26605,-21.23501],[-54.27277,-21.23764],[-54.26431,-21.2435],[-54.25912,-21.23587],[-54.25014,-21.24901],[-54.25408,-21.25355],[-54.23333,-21.26256],[-54.22788,-21.25549],[-54.22286,-21.26152],[-54.22589,-21.27314],[-54.23879,-21.27188],[-54.2293,-21.29101],[-54.21582,-21.28578],[-54.22127,-21.29814],[-54.20089,-21.29944],[-54.20896,-21.31395],[-54.20377,-21.3186],[-54.19471,-21.3403],[-54.1864,-21.33981],[-54.18769,-21.34594],[-54.17247,-21.34887],[-54.17221,-21.35507],[-54.15686,-21.36459],[-54.14185,-21.38627],[-54.1292,-21.39705],[-54.13138,-21.40078],[-54.12068,-21.40735],[-54.11653,-21.40363],[-54.10721,-21.40837],[-54.11086,-21.41469],[-54.10169,-21.42007],[-54.10572,-21.42573],[-54.10118,-21.43889],[-54.0832,-21.44361],[-54.08607,-21.45039],[-54.07629,-21.45019],[-54.06265,-21.45958],[-54.06644,-21.46836],[-54.05546,-21.46579],[-54.04003,-21.47362],[-54.03562,-21.48632],[-54.02442,-21.49187],[-54.01336,-21.50198],[-54.01059,-21.50948],[-53.99784,-21.51175],[-53.98489,-21.52403],[-53.9803,-21.53753],[-53.96471,-21.53289],[-53.95997,-21.54223],[-53.94034,-21.54587],[-53.92641,-21.54222],[-53.9087,-21.54973],[-53.88632,-21.55482],[-53.87593,-21.56408],[-53.86662,-21.56082],[-53.84797,-21.56693],[-53.83657,-21.55254],[-53.8266,-21.55665],[-53.81848,-21.54784],[-53.81313,-21.55888],[-53.78407,-21.56927],[-53.78389,-21.56511],[-53.76872,-21.57034],[-53.76062,-21.58024],[-53.75811,-21.57112],[-53.73998,-21.56857],[-53.73769,-21.57411],[-53.74484,-21.57941],[-53.74143,-21.58409],[-53.72283,-21.57839],[-53.71706,-21.57055],[-53.70513,-21.56611],[-53.69539,-21.57517],[-53.70007,-21.56365],[-53.69621,-21.55726],[-53.66857,-21.5528],[-53.67002,-21.56045],[-53.65859,-21.55833],[-53.65184,-21.56531],[-53.64538,-21.56096],[-53.64224,-21.57784],[-53.62035,-21.57364],[-53.60835,-21.59024],[-53.61703,-21.59726],[-53.62633,-21.6132],[-53.73358,-21.6215],[-53.72844,-21.63601],[-53.73258,-21.65404],[-53.72903,-21.66851],[-53.74128,-21.68223],[-53.73808,-21.71138],[-53.73234,-21.73029],[-53.73317,-21.75645],[-53.73706,-21.78939],[-53.7277,-21.80574],[-53.73912,-21.81961],[-53.7495,-21.82594],[-53.77942,-21.86597],[-53.79036,-21.88894],[-53.79081,-21.90795],[-53.78605,-21.91252],[-53.79321,-21.92837],[-53.79052,-21.94145],[-53.75978,-21.96307],[-53.76073,-21.99378],[-53.75377,-21.98597],[-53.73581,-21.98703],[-53.7337,-22.00113],[-53.74569,-22.00266],[-53.74832,-22.00982],[-53.73325,-22.01788],[-53.71399,-22.02294],[-53.70332,-22.03208],[-53.69465,-22.0328],[-53.6872,-22.03962],[-53.69266,-22.05462],[-53.68664,-22.06469],[-53.67232,-22.07544],[-53.66839,-22.08959],[-53.6703,-22.09599],[-53.66341,-22.11168],[-53.65289,-22.11136],[-53.62737,-22.12237],[-53.62376,-22.12994],[-53.62681,-22.13883],[-53.62135,-22.14502],[-53.59613,-22.14773],[-53.58595,-22.15847],[-53.59397,-22.17173],[-53.58659,-22.19013],[-53.59071,-22.20886],[-53.58605,-22.21656],[-53.57738,-22.21727],[-53.56425,-22.22919],[-53.56174,-22.23599],[-53.56912,-22.23763],[-53.57554,-22.24624],[-53.56716,-22.27607],[-53.55232,-22.29281],[-53.55634,-22.30937],[-53.53443,-22.33323],[-53.53777,-22.35611],[-53.55066,-22.35791],[-53.55097,-22.36527],[-53.53682,-22.36253],[-53.53895,-22.37493],[-53.53207,-22.38144],[-53.52575,-22.39757],[-53.51437,-22.40293],[-53.50738,-22.43557],[-53.49523,-22.43599],[-53.48291,-22.45532],[-53.48745,-22.47431],[-53.50091,-22.49073],[-53.49837,-22.50301],[-53.51123,-22.51061],[-53.52001,-22.52412],[-53.52039,-22.53571],[-53.53302,-22.54306],[-53.54864,-22.54485],[-53.56019,-22.5555],[-53.56272,-22.56782],[-53.55208,-22.57034],[-53.54457,-22.5777],[-53.53448,-22.5804],[-53.51587,-22.57526],[-53.5004,-22.58389],[-53.50058,-22.60548],[-53.51316,-22.60008],[-53.52447,-22.61351],[-53.51285,-22.6265],[-53.51252,-22.6319],[-53.52273,-22.64165],[-53.54391,-22.65294],[-53.55355,-22.6495],[-53.5583,-22.6595],[-53.562,-22.6808],[-53.54617,-22.69187],[-53.54965,-22.70374],[-53.54659,-22.71167],[-53.53693,-22.71446],[-53.53467,-22.72062],[-53.54102,-22.73327],[-53.54086,-22.74367],[-53.52612,-22.73646],[-53.5202,-22.74556],[-53.52195,-22.75592],[-53.50015,-22.74673],[-53.48856,-22.74858],[-53.48731,-22.75895],[-53.49172,-22.76289],[-53.5062,-22.76317],[-53.5147,-22.78015],[-53.52447,-22.79306],[-53.55959,-22.80995],[-53.56918,-22.83596],[-53.58691,-22.84157],[-53.61085,-22.85832],[-53.61326,-22.87173],[-53.61828,-22.87724],[-53.61694,-22.88832],[-53.62227,-22.9018],[-53.6345,-22.90995],[-53.64843,-22.91445],[-53.65187,-22.91961],[-53.65286,-22.93952],[-53.64954,-22.9534],[-53.65645,-22.98142],[-53.64705,-22.98919],[-53.6407,-23.0044],[-53.634,-23.00338],[-53.6299,-23.0135],[-53.63224,-23.07027],[-53.63659,-23.12503],[-53.65475,-23.14416],[-53.66033,-23.15446],[-53.65903,-23.16281],[-53.66936,-23.18426],[-53.67956,-23.19526],[-53.69934,-23.2349],[-53.7056,-23.26325],[-53.71218,-23.27651],[-53.72522,-23.31043],[-53.74132,-23.33564],[-53.75927,-23.35402],[-53.76636,-23.36813],[-53.77596,-23.37534],[-53.81602,-23.38564],[-53.82455,-23.39148],[-53.85585,-23.40675],[-53.87659,-23.41979],[-53.90753,-23.43225],[-53.93206,-23.44595],[-53.9602,-23.44341],[-53.97202,-23.44784],[-53.98738,-23.46661],[-53.99466,-23.49041],[-54.00434,-23.51108],[-54.00735,-23.54475],[-54.01271,-23.56156],[-54.02402,-23.58608],[-54.02343,-23.59727],[-54.02912,-23.61341],[-54.03086,-23.64606],[-54.0346,-23.65589],[-54.04461,-23.66866],[-54.05351,-23.70168],[-54.0519,-23.72114],[-54.05493,-23.7306],[-54.07571,-23.76448],[-54.08046,-23.7809],[-54.08606,-23.82516],[-54.0831,-23.8311],[-54.08811,-23.84453],[-54.07941,-23.88076],[-54.08046,-23.89125],[-54.0931,-23.92401],[-54.10176,-23.95196],[-54.11755,-23.97133],[-54.14026,-23.9884],[-54.16901,-23.99899],[-54.17469,-24.00197],[-54.21719,-24.03599],[-54.24946,-24.0559],[-54.27677,-24.06226],[-54.28623,-24.06823],[-54.30996,-24.04631],[-54.3136,-24.03415],[-54.32163,-24.02454],[-54.31883,-24.01177],[-54.32419,-24.00382],[-54.33573,-24.00603],[-54.3463,-24.00139],[-54.35196,-24.00767],[-54.38686,-23.98282],[-54.39431,-23.96526],[-54.4147,-23.95811],[-54.41654,-23.94612],[-54.42683,-23.93109],[-54.42622,-23.91571],[-54.44014,-23.90428],[-54.45627,-23.89911],[-54.47773,-23.89795],[-54.48732,-23.90368],[-54.48678,-23.89398],[-54.493,-23.88516],[-54.50726,-23.88242],[-54.51488,-23.88518],[-54.52316,-23.87359],[-54.53518,-23.87316],[-54.54344,-23.8681],[-54.56858,-23.87447],[-54.57031,-23.86796],[-54.56439,-23.85421],[-54.58148,-23.8458],[-54.58417,-23.83703],[-54.60079,-23.85224],[-54.60974,-23.85138],[-54.61659,-23.83502],[-54.63136,-23.83003],[-54.64677,-23.83376],[-54.65262,-23.82155],[-54.66865,-23.81719],[-54.66947,-23.8125],[-54.68099,-23.82837],[-54.69857,-23.842],[-54.69793,-23.85777],[-54.70518,-23.86461],[-54.72118,-23.86556],[-54.7333,-23.86966],[-54.74529,-23.86871],[-54.74926,-23.86097],[-54.75911,-23.85674],[-54.76405,-23.86621],[-54.77457,-23.8654],[-54.77906,-23.87063],[-54.7928,-23.86808],[-54.80583,-23.87917],[-54.81432,-23.89043],[-54.83632,-23.88392],[-54.84979,-23.897],[-54.84991,-23.90822],[-54.86011,-23.9052],[-54.87353,-23.90926],[-54.88512,-23.897],[-54.89089,-23.90022],[-54.89359,-23.91077],[-54.90869,-23.91137],[-54.91328,-23.92215],[-54.92688,-23.92481],[-54.92416,-23.93742],[-54.93033,-23.94432],[-54.92525,-23.96028],[-54.94222,-23.96502],[-54.96668,-23.96617],[-54.97642,-23.95771],[-54.98535,-23.96274],[-54.99859,-23.95759],[-55.02008,-23.97262],[-55.03329,-23.9739],[-55.04598,-23.98417],[-55.06233,-23.99329],[-55.07341,-23.98503],[-55.09036,-23.98257],[-55.09417,-23.97501],[-55.10697,-23.96521],[-55.1184,-23.97715],[-55.12467,-23.97607],[-55.12873,-23.98373],[-55.14908,-23.98938],[-55.15595,-23.98315],[-55.15995,-23.98776],[-55.17866,-23.9938],[-55.1812,-23.98787],[-55.19842,-23.98669],[-55.19939,-23.99581],[-55.20692,-24.0036],[-55.22904,-24.01397],[-55.23537,-24.00662],[-55.26024,-23.99423],[-55.26425,-23.98754],[-55.2778,-23.98456],[-55.28325,-23.97766],[-55.30418,-23.96503],[-55.31772,-23.96289],[-55.33609,-23.99295],[-55.34933,-23.99355],[-55.36396,-23.98223],[-55.37927,-23.97496],[-55.3876,-23.9675],[-55.3895,-23.97218],[-55.40286,-23.97416],[-55.40526,-23.96489],[-55.41386,-23.9653],[-55.41999,-23.9573],[-55.41684,-23.94854],[-55.42702,-23.93971],[-55.43277,-23.94072],[-55.42787,-23.92632],[-55.44634,-23.91693],[-55.43949,-23.9049],[-55.43557,-23.87238],[-55.43947,-23.86606],[-55.44155,-23.82935],[-55.45389,-23.81927],[-55.44414,-23.80921],[-55.43513,-23.79326],[-55.43018,-23.79014],[-55.43382,-23.77106],[-55.44724,-23.76021],[-55.44284,-23.756],[-55.44867,-23.74227],[-55.43626,-23.71676],[-55.44113,-23.7101],[-55.45483,-23.71698],[-55.46347,-23.71197],[-55.46648,-23.7035],[-55.46216,-23.68394],[-55.47597,-23.6752],[-55.47467,-23.65047],[-55.48401,-23.64027],[-55.48947,-23.64291],[-55.51034,-23.63262],[-55.51109,-23.62325],[-55.53043,-23.62782],[-55.53987,-23.62519],[-55.53601,-23.61726],[-55.53818,-23.59189],[-55.52842,-23.58026],[-55.53124,-23.57157],[-55.52653,-23.56735],[-55.53613,-23.55499],[-55.53722,-23.53976],[-55.54668,-23.52261],[-55.5517,-23.48944],[-55.55901,-23.48869],[-55.56212,-23.47621],[-55.54499,-23.47728],[-55.54059,-23.45553],[-55.54469,-23.44933],[-55.51559,-23.40958],[-55.50448,-23.37847],[-55.50651,-23.37029],[-55.51942,-23.36517],[-55.52062,-23.35229],[-55.53457,-23.33336],[-55.55591,-23.31632],[-55.54918,-23.30371],[-55.55463,-23.28823],[-55.55308,-23.27953],[-55.53299,-23.26932],[-55.52266,-23.25971],[-55.53728,-23.25126],[-55.54047,-23.23405],[-55.5462,-23.2202],[-55.54023,-23.22083],[-55.52623,-23.20821],[-55.52328,-23.19779],[-55.5431,-23.18079],[-55.53996,-23.17499],[-55.54452,-23.16697],[-55.54189,-23.15613],[-55.55496,-23.153],[-55.5734,-23.14334],[-55.59678,-23.1526],[-55.59582,-23.11947],[-55.59973,-23.10416],[-55.61736,-23.08172],[-55.61131,-23.07684],[-55.61132,-23.04766],[-55.62378,-23.03295],[-55.63939,-23.02591],[-55.63293,-23.00832],[-55.63391,-22.99178],[-55.62193,-22.98449],[-55.63683,-22.96479],[-55.63837,-22.95055],[-55.64758,-22.94987],[-55.64391,-22.94238],[-55.65161,-22.93106],[-55.64549,-22.92444],[-55.6511,-22.9025],[-55.65097,-22.88729],[-55.66122,-22.88219],[-55.66011,-22.86397],[-55.66585,-22.85246],[-55.65899,-22.84103],[-55.66087,-22.82741],[-55.65337,-22.81664],[-55.65567,-22.80857],[-55.64917,-22.80162],[-55.65064,-22.79333],[-55.639,-22.78269],[-55.6366,-22.77173],[-55.62765,-22.76662],[-55.6185,-22.76795],[-55.62661,-22.75763],[-55.62015,-22.75336],[-55.62093,-22.74527],[-55.61306,-22.73894],[-55.61701,-22.72508],[-55.61339,-22.71702],[-55.61361,-22.69281],[-55.60929,-22.68901],[-55.61728,-22.67761],[-55.61442,-22.6551],[-55.62287,-22.65047],[-55.62516,-22.62825],[-55.64137,-22.61271],[-55.68288,-22.58887],[-55.69491,-22.57758],[-55.69847,-22.56327],[-55.72365,-22.55178],[-55.7378,-22.52642],[-55.74728,-22.50551],[-55.74669,-22.48618],[-55.75284,-22.47475],[-55.74811,-22.46452],[-55.73528,-22.4589],[-55.7382,-22.45442],[-55.73392,-22.44153],[-55.73959,-22.42376],[-55.73722,-22.41116],[-55.74585,-22.40369],[-55.742,-22.39534],[-55.74871,-22.38342],[-55.75706,-22.3862],[-55.77982,-22.38432],[-55.79109,-22.38842],[-55.79131,-22.38048],[-55.80371,-22.37224],[-55.79855,-22.36472],[-55.80086,-22.3553],[-55.82099,-22.34511],[-55.83238,-22.32565],[-55.83312,-22.31468],[-55.84313,-22.28711],[-55.85677,-22.28071],[-55.86534,-22.28355],[-55.88747,-22.28222],[-55.90496,-22.2846],[-55.91273,-22.27895],[-55.92912,-22.27854],[-55.9456,-22.2834],[-55.94881,-22.29276],[-55.9662,-22.28879],[-55.9699,-22.29203],[-55.98098,-22.27872],[-55.99632,-22.28275],[-56.01016,-22.29463],[-56.01246,-22.28624],[-56.04032,-22.28336],[-56.04904,-22.27766],[-56.06311,-22.27643],[-56.06943,-22.28672],[-56.08276,-22.28209],[-56.09268,-22.28564],[-56.10101,-22.27886],[-56.12457,-22.27064],[-56.1313,-22.28426],[-56.15024,-22.28171],[-56.16573,-22.28831],[-56.17433,-22.28561],[-56.17438,-22.27916],[-56.18807,-22.27956],[-56.19358,-22.27095],[-56.19954,-22.27806],[-56.20908,-22.27821],[-56.2339,-22.25543],[-56.23274,-22.24517],[-56.23746,-22.23662],[-56.26406,-22.23932],[-56.27009,-22.23324],[-56.2851,-22.23214],[-56.29922,-22.21764],[-56.30874,-22.21405],[-56.3166,-22.21839],[-56.34013,-22.1887],[-56.34948,-22.17376],[-56.35772,-22.17584],[-56.36475,-22.16959],[-56.36596,-22.15852],[-56.37381,-22.14975],[-56.36766,-22.13685],[-56.37189,-22.12604],[-56.3846,-22.10954],[-56.38071,-22.10548],[-56.39273,-22.1009],[-56.39564,-22.09419],[-56.389,-22.0891],[-56.39294,-22.075],[-56.40225,-22.08008],[-56.41885,-22.07982],[-56.43432,-22.08517],[-56.44759,-22.08504],[-56.44793,-22.0773],[-56.45682,-22.08445],[-56.45811,-22.07925],[-56.47145,-22.08019],[-56.47699,-22.0942],[-56.48865,-22.09344],[-56.50337,-22.0974],[-56.51892,-22.10871],[-56.52701,-22.13032],[-56.51926,-22.14098],[-56.52643,-22.14008],[-56.52836,-22.14826],[-56.54002,-22.14716],[-56.53756,-22.15803],[-56.55705,-22.16909],[-56.55175,-22.18539],[-56.55609,-22.19552],[-56.56911,-22.20663],[-56.58232,-22.20564],[-56.59384,-22.21849],[-56.60847,-22.22017],[-56.60559,-22.23198],[-56.61577,-22.23579],[-56.6269,-22.24641],[-56.63457,-22.24066],[-56.64334,-22.24615],[-56.63651,-22.26323],[-56.64225,-22.26513],[-56.66748,-22.24886],[-56.67864,-22.24669],[-56.68226,-22.23656],[-56.68187,-22.22281],[-56.69059,-22.21773],[-56.7038,-22.22275],[-56.69403,-22.22863],[-56.70532,-22.23687],[-56.70594,-22.24327],[-56.7203,-22.25667],[-56.72039,-22.26489],[-56.73435,-22.25663],[-56.73084,-22.24806],[-56.7441,-22.24124],[-56.75087,-22.24493],[-56.76707,-22.24421],[-56.76234,-22.24918],[-56.77737,-22.26012],[-56.78834,-22.25354],[-56.79364,-22.24256],[-56.80197,-22.24903],[-56.8079,-22.27174],[-56.80133,-22.28124],[-56.82632,-22.29612],[-56.84396,-22.30105],[-56.85635,-22.28909],[-56.86017,-22.29238],[-56.88077,-22.27557],[-56.87535,-22.26352],[-56.87888,-22.25285],[-56.88825,-22.24531],[-56.89987,-22.25193],[-56.90445,-22.2666],[-56.91574,-22.2554],[-56.9297,-22.25395],[-56.94721,-22.25611],[-56.95382,-22.25006],[-56.95834,-22.23822],[-56.97136,-22.24413],[-56.98745,-22.24264],[-56.99224,-22.23711],[-56.98917,-22.22875],[-56.99671,-22.22252],[-57.00977,-22.23581],[-57.01878,-22.23127],[-57.02036,-22.23611],[-57.04066,-22.23642],[-57.04442,-22.24271],[-57.04888,-22.23213],[-57.05949,-22.22939],[-57.05901,-22.2418],[-57.07746,-22.24493],[-57.08412,-22.25087],[-57.08944,-22.24131],[-57.09263,-22.24827],[-57.10098,-22.24878],[-57.11181,-22.24159],[-57.10439,-22.22768],[-57.11112,-22.22553],[-57.11941,-22.23042],[-57.13361,-22.22599],[-57.14846,-22.23384],[-57.15861,-22.22693],[-57.16026,-22.2327],[-57.17878,-22.23296],[-57.19228,-22.22289],[-57.19479,-22.2123],[-57.21513,-22.22161],[-57.21797,-22.24108],[-57.23776,-22.25128],[-57.24846,-22.24678],[-57.25611,-22.23753],[-57.26922,-22.23781],[-57.26994,-22.23116],[-57.28689,-22.22096],[-57.29599,-22.2191],[-57.3095,-22.22781],[-57.32016,-22.2456],[-57.33554,-22.23499],[-57.335,-22.22919],[-57.34657,-22.23208],[-57.35872,-22.22678],[-57.38148,-22.22431],[-57.37751,-22.21423],[-57.38627,-22.20442],[-57.39472,-22.20891],[-57.39765,-22.20198],[-57.40771,-22.19769],[-57.42505,-22.19696],[-57.43184,-22.19977],[-57.44488,-22.19197],[-57.44484,-22.18777],[-57.46459,-22.19279],[-57.47301,-22.18682],[-57.48355,-22.19228],[-57.49097,-22.18943],[-57.49344,-22.1816],[-57.50587,-22.18524],[-57.51683,-22.17363]]]},"properties":{"CD_REG":"5004","NM_REG":"Sudoeste de Mato Grosso do Sul","SIGLA_UF":"MS"}}]}