{"type":"FeatureCollection","features":[{"type":"Feature","geometry":{"type":"Polygon","coordinates":[[[-48.75515,-5.34917],[-48.74092,-5.35282],[-48.73044,-5.34799],[-48.71213,-5.35301],[-48.70447,-5.34473],[-48.69921,-5.32012],[-48.69226,-5.31166],[-48.67944,-5.30582],[-48.65836,-5.3082],[-48.63866,-5.32001],[-48.6301,-5.33296],[-48.61235,-5.33843],[-48.60613,-5.3365],[-48.58413,-5.3113],[-48.56857,-5.28293],[-48.56855,-5.26279],[-48.56255,-5.24663],[-48.56107,-5.2302],[-48.54882,-5.21356],[-48.52977,-5.19662],[-48.51946,-5.19214],[-48.48632,-5.19382],[-48.4726,-5.18709],[-48.44238,-5.18332],[-48.4196,-5.17675],[-48.38755,-5.17367],[-48.36391,-5.16838],[-48.35315,-5.17389],[-48.32869,-5.19659],[-48.31402,-5.20309],[-48.2934,-5.20405],[-48.27302,-5.21597],[-48.23493,-5.22831],[-48.2065,-5.24898],[-48.1768,-5.25972],[-48.15202,-5.264],[-48.11229,-5.26563],[-48.07738,-5.27343],[-48.05235,-5.26756],[-48.04073,-5.26047],[-48.01896,-5.23983],[-48.00121,-5.23425],[-47.95323,-5.23999],[-47.9281,-5.24124],[-47.88557,-5.2607],[-47.87292,-5.27236],[-47.86701,-5.30119],[-47.86575,-5.31723],[-47.86762,-5.34282],[-47.86104,-5.35477],[-47.84376,-5.37621],[-47.82754,-5.38659],[-47.78618,-5.38354],[-47.77234,-5.37858],[-47.74431,-5.38013],[-47.72107,-5.39453],[-47.66677,-5.42179],[-47.61862,-5.45973],[-47.60578,-5.46509],[-47.58051,-5.47002],[-47.56026,-5.46321],[-47.54854,-5.47079],[-47.52835,-5.49267],[-47.51687,-5.51051],[-47.50012,-5.5256],[-47.48807,-5.54946],[-47.48326,-5.5649],[-47.4844,-5.5956],[-47.47723,-5.63504],[-47.4737,-5.66198],[-47.48431,-5.68412],[-47.49309,-5.71004],[-47.49337,-5.73053],[-47.48262,-5.75931],[-47.46651,-5.7783],[-47.45265,-5.81259],[-47.44228,-5.83079],[-47.43786,-5.85787],[-47.43106,-5.86921],[-47.43287,-5.8939],[-47.42887,-5.91948],[-47.43051,-5.9378],[-47.44773,-5.9899],[-47.44781,-5.99607],[-47.43045,-6.02987],[-47.42804,-6.03922],[-47.43023,-6.06835],[-47.43448,-6.09312],[-47.43023,-6.13097],[-47.4232,-6.16019],[-47.4166,-6.17782],[-47.40148,-6.20925],[-47.38537,-6.23039],[-47.37791,-6.26058],[-47.37864,-6.27276],[-47.39624,-6.3078],[-47.40862,-6.32807],[-47.41198,-6.3462],[-47.40995,-6.36966],[-47.41994,-6.40162],[-47.43421,-6.43119],[-47.43326,-6.44015],[-47.4212,-6.4651],[-47.41634,-6.48388],[-47.41941,-6.49197],[-47.43421,-6.50438],[-47.4565,-6.53827],[-47.45897,-6.55686],[-47.46513,-6.57729],[-47.46253,-6.60175],[-47.46879,-6.62125],[-47.49864,-6.67123],[-47.49329,-6.68974],[-47.49701,-6.70122],[-47.49723,-6.7262],[-47.49366,-6.75127],[-47.49826,-6.76399],[-47.5167,-6.79026],[-47.5289,-6.82812],[-47.52915,-6.8363],[-47.52049,-6.84047],[-47.50704,-6.87201],[-47.50498,-6.88481],[-47.50762,-6.90719],[-47.52251,-6.92953],[-47.52957,-6.94601],[-47.52829,-6.97086],[-47.53995,-7.00207],[-47.54829,-7.01889],[-47.57478,-7.05034],[-47.59723,-7.0634],[-47.60606,-7.07872],[-47.61843,-7.09116],[-47.62745,-7.12158],[-47.64446,-7.14361],[-47.66037,-7.15137],[-47.67519,-7.14771],[-47.69406,-7.13696],[-47.71066,-7.13765],[-47.72724,-7.14728],[-47.74513,-7.1625],[-47.74941,-7.17269],[-47.74983,-7.19526],[-47.73746,-7.21687],[-47.72626,-7.22333],[-47.70795,-7.22865],[-47.69101,-7.2383],[-47.67921,-7.25111],[-47.65974,-7.28895],[-47.65066,-7.30226],[-47.63412,-7.30481],[-47.62701,-7.30082],[-47.60737,-7.27212],[-47.5919,-7.264],[-47.56884,-7.26615],[-47.5429,-7.26538],[-47.53182,-7.2693],[-47.52434,-7.27759],[-47.49979,-7.29386],[-47.48292,-7.32235],[-47.4782,-7.33675],[-47.4835,-7.36512],[-47.493,-7.37587],[-47.51821,-7.39023],[-47.54155,-7.4009],[-47.55947,-7.40436],[-47.57986,-7.41868],[-47.59157,-7.44007],[-47.60346,-7.45506],[-47.62032,-7.48152],[-47.63004,-7.49116],[-47.63378,-7.5029],[-47.63089,-7.51365],[-47.62239,-7.52416],[-47.62358,-7.54204],[-47.63192,-7.57139],[-47.63206,-7.59109],[-47.62921,-7.61673],[-47.64311,-7.64462],[-47.65129,-7.65504],[-47.67623,-7.67619],[-47.69521,-7.68819],[-47.71813,-7.69687],[-47.73929,-7.71165],[-47.75358,-7.72422],[-47.77279,-7.73565],[-47.78246,-7.74801],[-47.7931,-7.75542],[-47.8083,-7.75673],[-47.8409,-7.77095],[-47.86026,-7.77707],[-47.8947,-7.79289],[-47.90589,-7.80368],[-47.90682,-7.82596],[-47.91852,-7.8586],[-47.93589,-7.86852],[-47.93999,-7.88003],[-47.93712,-7.89258],[-47.94049,-7.90753],[-47.95401,-7.92445],[-47.95882,-7.948],[-47.9507,-7.99519],[-47.95209,-8.01276],[-47.94586,-8.03202],[-47.9461,-8.04879],[-47.94975,-8.05473],[-47.96179,-8.0595],[-47.98311,-8.07221],[-48.0,-8.07806],[-48.04403,-8.08811],[-48.0691,-8.09045],[-48.10845,-8.08554],[-48.125,-8.10101],[-48.13467,-8.1151],[-48.15253,-8.1503],[-48.15964,-8.16868],[-48.16178,-8.19658],[-48.14482,-8.23111],[-48.1377,-8.26954],[-48.1325,-8.28841],[-48.13374,-8.30359],[-48.12816,-8.36716],[-48.12288,-8.37878],[-48.10499,-8.3955],[-48.09941,-8.40493],[-48.08561,-8.41449],[-48.08122,-8.42662],[-48.08438,-8.46899],[-48.08791,-8.48526],[-48.10009,-8.51649],[-48.11143,-8.52402],[-48.125,-8.52573],[-48.13346,-8.539],[-48.13171,-8.56769],[-48.13563,-8.58566],[-48.13536,-8.5998],[-48.12982,-8.63896],[-48.125,-8.65628],[-48.12332,-8.67442],[-48.12939,-8.71757],[-48.12752,-8.74145],[-48.11226,-8.76481],[-48.11237,-8.78772],[-48.12298,-8.81763],[-48.13914,-8.83487],[-48.15362,-8.86196],[-48.17054,-8.89714],[-48.17269,-8.92825],[-48.1812,-8.96501],[-48.18047,-8.99223],[-48.18574,-9.0169],[-48.19408,-9.03293],[-48.20836,-9.04673],[-48.22248,-9.05652],[-48.24466,-9.08256],[-48.25286,-9.09669],[-48.27757,-9.1219],[-48.28693,-9.14499],[-48.30492,-9.17065],[-48.31505,-9.19039],[-48.31714,-9.21678],[-48.31997,-9.22449],[-48.33691,-9.25],[-48.3445,-9.2769],[-48.3524,-9.29446],[-48.36143,-9.32813],[-48.36643,-9.33922],[-48.36793,-9.35754],[-48.36158,-9.37116],[-48.35819,-9.38781],[-48.36149,-9.40722],[-48.37649,-9.43411],[-48.37224,-9.45957],[-48.37067,-9.49162],[-48.37164,-9.5096],[-48.37634,-9.54338],[-48.38274,-9.56833],[-48.40023,-9.60174],[-48.40492,-9.61618],[-48.40152,-9.63921],[-48.38351,-9.66887],[-48.37193,-9.67596],[-48.36499,-9.69744],[-48.36461,-9.71453],[-48.36058,-9.723],[-48.3619,-9.74641],[-48.375,-9.75767],[-48.37917,-9.77655],[-48.375,-9.79199],[-48.35645,-9.80315],[-48.33816,-9.81941],[-48.33389,-9.82727],[-48.33151,-9.84506],[-48.33675,-9.88492],[-48.35634,-9.90084],[-48.36574,-9.91585],[-48.37092,-9.93155],[-48.36838,-9.94791],[-48.34975,-9.97024],[-48.33704,-10.0],[-48.33008,-10.02885],[-48.3324,-10.04138],[-48.35894,-10.05384],[-48.39116,-10.05241],[-48.39883,-10.04778],[-48.41388,-10.03119],[-48.43829,-10.01826],[-48.4519,-10.01867],[-48.46056,-10.0233],[-48.46633,-10.03307],[-48.48494,-10.02896],[-48.49664,-10.03449],[-48.49872,-10.04109],[-48.51188,-10.04323],[-48.5217,-10.03328],[-48.52751,-10.039],[-48.53934,-10.03592],[-48.54897,-10.04026],[-48.5606,-10.0398],[-48.57118,-10.02637],[-48.59009,-10.04689],[-48.59803,-10.04978],[-48.59844,-10.06366],[-48.62032,-10.06619],[-48.62382,-10.07742],[-48.6373,-10.07267],[-48.63998,-10.08387],[-48.6549,-10.08051],[-48.67336,-10.09513],[-48.66979,-10.10137],[-48.67664,-10.1219],[-48.68418,-10.12991],[-48.69132,-10.14591],[-48.69972,-10.19057],[-48.69113,-10.19768],[-48.6882,-10.21186],[-48.69177,-10.22374],[-48.68062,-10.22518],[-48.66996,-10.24159],[-48.65971,-10.24832],[-48.64294,-10.24423],[-48.63898,-10.25557],[-48.62621,-10.25827],[-48.61904,-10.27563],[-48.59806,-10.28654],[-48.59773,-10.29402],[-48.60497,-10.30546],[-48.60031,-10.3201],[-48.60486,-10.33027],[-48.61331,-10.33152],[-48.62182,-10.32607],[-48.62636,-10.34298],[-48.64499,-10.34865],[-48.66113,-10.36125],[-48.66062,-10.36864],[-48.68066,-10.37043],[-48.69532,-10.38213],[-48.69608,-10.39259],[-48.70757,-10.39252],[-48.70751,-10.40053],[-48.71547,-10.40624],[-48.73606,-10.40745],[-48.74758,-10.41417],[-48.75783,-10.41335],[-48.76485,-10.42228],[-48.75761,-10.43001],[-48.75814,-10.43682],[-48.76739,-10.45107],[-48.76762,-10.45831],[-48.78017,-10.45787],[-48.78803,-10.46739],[-48.79388,-10.46243],[-48.80968,-10.47249],[-48.80206,-10.48656],[-48.80584,-10.492],[-48.80586,-10.51193],[-48.81325,-10.53109],[-48.80702,-10.54215],[-48.80934,-10.54757],[-48.82613,-10.55804],[-48.82385,-10.58581],[-48.81301,-10.59264],[-48.82446,-10.61164],[-48.82636,-10.63515],[-48.81804,-10.64272],[-48.80899,-10.64493],[-48.80376,-10.66453],[-48.79204,-10.67293],[-48.79015,-10.6899],[-48.77866,-10.70062],[-48.77427,-10.71112],[-48.77345,-10.73719],[-48.76831,-10.7448],[-48.77369,-10.75638],[-48.77381,-10.76677],[-48.77932,-10.77292],[-48.78268,-10.78774],[-48.78902,-10.7944],[-48.77659,-10.8061],[-48.76071,-10.80228],[-48.75,-10.81041],[-48.72416,-10.8026],[-48.71866,-10.81231],[-48.70371,-10.82067],[-48.69022,-10.83685],[-48.66294,-10.83553],[-48.65041,-10.83796],[-48.64486,-10.8327],[-48.64436,-10.84189],[-48.63736,-10.85229],[-48.63555,-10.87019],[-48.61786,-10.86105],[-48.60691,-10.84579],[-48.58436,-10.84666],[-48.5824,-10.8545],[-48.59329,-10.86456],[-48.58622,-10.87058],[-48.57504,-10.85525],[-48.56775,-10.85367],[-48.54746,-10.85676],[-48.54383,-10.84834],[-48.54643,-10.83031],[-48.53477,-10.82794],[-48.5328,-10.81717],[-48.54624,-10.80849],[-48.54398,-10.79622],[-48.51789,-10.79393],[-48.5036,-10.78213],[-48.46909,-10.7805],[-48.46239,-10.76987],[-48.45136,-10.76194],[-48.44345,-10.76348],[-48.42624,-10.75899],[-48.41477,-10.7509],[-48.40134,-10.75886],[-48.39621,-10.76759],[-48.39663,-10.79694],[-48.39862,-10.81243],[-48.39672,-10.8294],[-48.41568,-10.87501],[-48.42488,-10.88951],[-48.44675,-10.91819],[-48.46449,-10.93134],[-48.51059,-10.95166],[-48.51743,-10.95895],[-48.53112,-10.9952],[-48.54998,-11.00984],[-48.55805,-11.02199],[-48.55946,-11.03131],[-48.55343,-11.05535],[-48.5419,-11.07302],[-48.53988,-11.09697],[-48.53077,-11.11436],[-48.52126,-11.125],[-48.5211,-11.14683],[-48.51766,-11.15887],[-48.4888,-11.22011],[-48.46209,-11.24817],[-48.45171,-11.27078],[-48.46529,-11.33526],[-48.47901,-11.3625],[-48.47428,-11.3704],[-48.48238,-11.39379],[-48.48125,-11.40946],[-48.47727,-11.42002],[-48.4666,-11.4258],[-48.46392,-11.43767],[-48.46762,-11.44367],[-48.46171,-11.45594],[-48.46987,-11.47376],[-48.47574,-11.47633],[-48.45884,-11.49742],[-48.45725,-11.50787],[-48.46378,-11.51727],[-48.46319,-11.52811],[-48.44921,-11.54954],[-48.44998,-11.55706],[-48.44219,-11.5667],[-48.42725,-11.57833],[-48.42641,-11.58946],[-48.41654,-11.5891],[-48.41135,-11.59578],[-48.40992,-11.61377],[-48.40432,-11.6194],[-48.40986,-11.63002],[-48.39891,-11.63316],[-48.39473,-11.64048],[-48.38268,-11.64368],[-48.38242,-11.66348],[-48.37567,-11.66776],[-48.37909,-11.6757],[-48.37912,-11.69291],[-48.38369,-11.70659],[-48.37807,-11.70966],[-48.3763,-11.74505],[-48.38042,-11.75571],[-48.37888,-11.76873],[-48.36377,-11.79921],[-48.36435,-11.81784],[-48.35848,-11.83075],[-48.36209,-11.83925],[-48.35588,-11.84598],[-48.34469,-11.84462],[-48.3363,-11.85599],[-48.34264,-11.85721],[-48.34876,-11.87085],[-48.3491,-11.88505],[-48.34274,-11.89265],[-48.33621,-11.92176],[-48.32863,-11.92459],[-48.31997,-11.93842],[-48.30912,-11.93809],[-48.3026,-11.94278],[-48.30156,-11.95158],[-48.29194,-11.95833],[-48.28285,-11.95461],[-48.25992,-11.97798],[-48.2387,-11.9892],[-48.2276,-11.99255],[-48.21287,-12.00522],[-48.21933,-12.01641],[-48.20993,-12.02301],[-48.20783,-12.03432],[-48.21453,-12.04204],[-48.2112,-12.0567],[-48.18368,-12.06583],[-48.17114,-12.04755],[-48.15659,-12.05797],[-48.15588,-12.06324],[-48.14294,-12.06627],[-48.1459,-12.07065],[-48.11516,-12.08723],[-48.11474,-12.10179],[-48.12043,-12.1115],[-48.09883,-12.13218],[-48.11233,-12.15294],[-48.11379,-12.13655],[-48.12315,-12.13521],[-48.1249,-12.14197],[-48.14307,-12.15195],[-48.15201,-12.16244],[-48.14878,-12.16994],[-48.15516,-12.18015],[-48.14998,-12.19778],[-48.15696,-12.20294],[-48.16547,-12.19912],[-48.16874,-12.18507],[-48.17403,-12.18255],[-48.19423,-12.18401],[-48.19816,-12.17511],[-48.21079,-12.16844],[-48.2189,-12.16839],[-48.21982,-12.15959],[-48.24146,-12.17304],[-48.2539,-12.17561],[-48.26023,-12.17213],[-48.26973,-12.20506],[-48.27521,-12.20878],[-48.28723,-12.20739],[-48.2887,-12.21604],[-48.28195,-12.22255],[-48.28777,-12.24388],[-48.31271,-12.26932],[-48.25581,-12.31234],[-48.25398,-12.31896],[-48.25675,-12.3448],[-48.2545,-12.35679],[-48.24872,-12.3651],[-48.23489,-12.37365],[-48.22816,-12.39095],[-48.23423,-12.40625],[-48.25,-12.42089],[-48.261,-12.43485],[-48.26485,-12.45235],[-48.2623,-12.46167],[-48.24774,-12.46106],[-48.21158,-12.46383],[-48.20716,-12.47932],[-48.21315,-12.48775],[-48.23101,-12.4951],[-48.23352,-12.50905],[-48.22831,-12.52111],[-48.23257,-12.54069],[-48.25,-12.55041],[-48.26135,-12.55145],[-48.29339,-12.56066],[-48.28811,-12.56732],[-48.25149,-12.59488],[-48.26916,-12.59719],[-48.27479,-12.60642],[-48.26988,-12.62581],[-48.27233,-12.636],[-48.28828,-12.65268],[-48.29093,-12.66143],[-48.28669,-12.67521],[-48.27633,-12.6825],[-48.24798,-12.68576],[-48.24609,-12.67856],[-48.23956,-12.68371],[-48.2441,-12.70488],[-48.25364,-12.71647],[-48.26604,-12.72298],[-48.26987,-12.72911],[-48.26647,-12.74437],[-48.25719,-12.74676],[-48.24737,-12.74058],[-48.22622,-12.7459],[-48.22372,-12.75842],[-48.23694,-12.77835],[-48.24148,-12.79131],[-48.24019,-12.80419],[-48.22951,-12.82861],[-48.20706,-12.84958],[-48.1889,-12.88348],[-48.18802,-12.9085],[-48.17949,-12.92332],[-48.16367,-12.95897],[-48.15253,-12.96581],[-48.13992,-12.98733],[-48.14899,-13.00574],[-48.14579,-13.03787],[-48.15179,-13.05882],[-48.14318,-13.07006],[-48.13819,-13.08879],[-48.12862,-13.09829],[-48.12868,-13.10579],[-48.13738,-13.11617],[-48.13946,-13.13684],[-48.14366,-13.15247],[-48.16484,-13.15822],[-48.17342,-13.14806],[-48.19569,-13.16158],[-48.19312,-13.17289],[-48.21287,-13.17471],[-48.21642,-13.16998],[-48.22841,-13.17386],[-48.23227,-13.1697],[-48.23836,-13.1805],[-48.24557,-13.18506],[-48.24995,-13.19663],[-48.2623,-13.19753],[-48.26291,-13.20385],[-48.27924,-13.20775],[-48.27622,-13.20027],[-48.28796,-13.20474],[-48.30016,-13.22395],[-48.30909,-13.22783],[-48.30964,-13.2353],[-48.31622,-13.23051],[-48.33084,-13.23286],[-48.34243,-13.22873],[-48.34572,-13.24941],[-48.35208,-13.24121],[-48.36211,-13.24295],[-48.3753,-13.25687],[-48.37865,-13.25494],[-48.38535,-13.2661],[-48.40252,-13.2714],[-48.40807,-13.26728],[-48.41757,-13.27219],[-48.43005,-13.27118],[-48.44198,-13.2923],[-48.44613,-13.28349],[-48.45889,-13.28043],[-48.46204,-13.26205],[-48.4569,-13.24796],[-48.47485,-13.23594],[-48.47572,-13.21719],[-48.47191,-13.21247],[-48.47822,-13.19393],[-48.47702,-13.178],[-48.46857,-13.15867],[-48.47248,-13.14056],[-48.47945,-13.15256],[-48.48623,-13.14125],[-48.49953,-13.13709],[-48.50308,-13.14226],[-48.51881,-13.14003],[-48.52135,-13.16328],[-48.53035,-13.19232],[-48.54569,-13.19557],[-48.55366,-13.20328],[-48.55032,-13.22985],[-48.55541,-13.24242],[-48.55417,-13.26384],[-48.55833,-13.27234],[-48.55435,-13.27995],[-48.55398,-13.30335],[-48.56368,-13.30601],[-48.57024,-13.30222],[-48.57809,-13.3087],[-48.5848,-13.32139],[-48.58766,-13.31001],[-48.59795,-13.30095],[-48.59986,-13.28799],[-48.59213,-13.27484],[-48.58739,-13.25437],[-48.59698,-13.24667],[-48.59995,-13.23866],[-48.58443,-13.22705],[-48.57935,-13.20675],[-48.57716,-13.18754],[-48.58277,-13.17868],[-48.57807,-13.17439],[-48.58611,-13.16741],[-48.58515,-13.15814],[-48.59248,-13.15767],[-48.59646,-13.14982],[-48.58852,-13.1481],[-48.58124,-13.14022],[-48.58116,-13.12711],[-48.57592,-13.12416],[-48.58436,-13.1045],[-48.59559,-13.10659],[-48.58816,-13.09798],[-48.59635,-13.08806],[-48.59652,-13.07641],[-48.60221,-13.05756],[-48.61576,-13.05742],[-48.62813,-13.05058],[-48.63853,-13.02551],[-48.63571,-13.0208],[-48.64467,-13.01098],[-48.65601,-13.0118],[-48.65757,-13.00398],[-48.66745,-13.00249],[-48.67653,-12.99294],[-48.7024,-12.99753],[-48.7071,-13.00442],[-48.71575,-13.00228],[-48.7325,-12.98392],[-48.73396,-12.97294],[-48.72998,-12.96177],[-48.7387,-12.94479],[-48.73333,-12.93556],[-48.73513,-12.92107],[-48.74653,-12.91798],[-48.76984,-12.89606],[-48.77508,-12.88708],[-48.78648,-12.88392],[-48.79384,-12.87563],[-48.81408,-12.86359],[-48.81134,-12.8569],[-48.82352,-12.84502],[-48.83933,-12.84354],[-48.8453,-12.83922],[-48.84228,-12.82848],[-48.84763,-12.81695],[-48.84636,-12.8094],[-48.85736,-12.8045],[-48.8591,-12.80895],[-48.87031,-12.80326],[-48.97623,-12.95789],[-48.9808,-12.94595],[-49.00299,-12.93379],[-49.00927,-12.91625],[-49.02119,-12.91143],[-49.0323,-12.90239],[-49.04902,-12.91342],[-49.05297,-12.90725],[-49.07928,-12.90389],[-49.07906,-12.89731],[-49.08747,-12.88718],[-49.08109,-12.88489],[-49.08497,-12.87824],[-49.07338,-12.8698],[-49.06789,-12.84637],[-49.08008,-12.84659],[-49.09744,-12.83518],[-49.10463,-12.83542],[-49.11768,-12.79008],[-49.12679,-12.79238],[-49.13815,-12.8013],[-49.14452,-12.81805],[-49.15178,-12.81925],[-49.16423,-12.83594],[-49.18595,-12.84751],[-49.19611,-12.86572],[-49.20851,-12.87248],[-49.21068,-12.87793],[-49.22886,-12.87729],[-49.23029,-12.88455],[-49.23766,-12.88379],[-49.23517,-12.89389],[-49.24662,-12.90206],[-49.24929,-12.92654],[-49.25779,-12.93475],[-49.25785,-12.9408],[-49.26734,-12.94414],[-49.28064,-12.97032],[-49.27592,-12.97999],[-49.27976,-12.98893],[-49.29738,-13.01076],[-49.30671,-13.03295],[-49.33848,-13.06754],[-49.34467,-13.0843],[-49.35098,-13.08903],[-49.3543,-13.11238],[-49.34604,-13.11638],[-49.34105,-13.1265],[-49.35357,-13.14328],[-49.35565,-13.15606],[-49.3471,-13.16754],[-49.34834,-13.1912],[-49.34418,-13.19712],[-49.3489,-13.21041],[-49.34542,-13.22524],[-49.34045,-13.23008],[-49.33726,-13.24728],[-49.33939,-13.25337],[-49.3553,-13.26098],[-49.36832,-13.2723],[-49.90923,-12.97487],[-49.9084,-12.96998],[-49.92174,-12.9608],[-49.94093,-12.956],[-49.94997,-12.95929],[-49.9649,-12.95227],[-49.97914,-12.93875],[-49.99099,-12.94479],[-50.00245,-12.93413],[-50.02314,-12.92847],[-50.03758,-12.93565],[-50.04457,-12.93338],[-50.04912,-12.92209],[-50.06443,-12.9208],[-50.07237,-12.91675],[-50.07989,-12.90538],[-50.08288,-12.90781],[-50.10403,-12.90726],[-50.10953,-12.91139],[-50.11672,-12.90637],[-50.14547,-12.90241],[-50.15787,-12.89313],[-50.18518,-12.89364],[-50.20565,-12.88528],[-50.21008,-12.87614],[-50.2245,-12.87304],[-50.22533,-12.86003],[-50.24949,-12.85373],[-50.24988,-12.8492],[-50.26371,-12.84218],[-50.27422,-12.84345],[-50.29291,-12.83399],[-50.30009,-12.82077],[-50.30769,-12.81742],[-50.30431,-12.81084],[-50.31005,-12.80202],[-50.31078,-12.79161],[-50.3025,-12.78043],[-50.30585,-12.77525],[-50.30322,-12.76024],[-50.29444,-12.75395],[-50.30261,-12.74715],[-50.28825,-12.73284],[-50.28328,-12.71778],[-50.29916,-12.7044],[-50.29613,-12.69421],[-50.29907,-12.68018],[-50.29193,-12.6771],[-50.29535,-12.6857],[-50.27614,-12.67801],[-50.27146,-12.68324],[-50.26298,-12.66238],[-50.26843,-12.65175],[-50.25844,-12.64418],[-50.25382,-12.62336],[-50.24757,-12.63006],[-50.23681,-12.62409],[-50.24476,-12.59747],[-50.23782,-12.57925],[-50.22323,-12.58491],[-50.20735,-12.57189],[-50.20416,-12.56356],[-50.1921,-12.56149],[-50.19784,-12.55353],[-50.20557,-12.5539],[-50.20831,-12.56206],[-50.21835,-12.54293],[-50.22935,-12.53163],[-50.21808,-12.51332],[-50.21826,-12.49119],[-50.21515,-12.48199],[-50.2044,-12.47622],[-50.20073,-12.45957],[-50.18376,-12.45529],[-50.17912,-12.43836],[-50.16573,-12.43694],[-50.1586,-12.43062],[-50.15873,-12.41428],[-50.14877,-12.39613],[-50.15967,-12.40472],[-50.17168,-12.40585],[-50.17167,-12.42135],[-50.18315,-12.42368],[-50.1933,-12.41153],[-50.19719,-12.41889],[-50.18622,-12.42344],[-50.1862,-12.43307],[-50.19458,-12.43067],[-50.21122,-12.43542],[-50.21568,-12.44026],[-50.20579,-12.44521],[-50.21571,-12.4491],[-50.22453,-12.44605],[-50.2271,-12.45262],[-50.25373,-12.46225],[-50.26169,-12.47722],[-50.2776,-12.48099],[-50.30546,-12.49237],[-50.32428,-12.50675],[-50.31209,-12.51601],[-50.31594,-12.52162],[-50.32493,-12.5144],[-50.33363,-12.52011],[-50.3315,-12.53548],[-50.34656,-12.5329],[-50.34559,-12.5417],[-50.3594,-12.54038],[-50.36599,-12.54701],[-50.35858,-12.55016],[-50.36963,-12.55809],[-50.36479,-12.56731],[-50.36669,-12.57406],[-50.37942,-12.5756],[-50.38648,-12.58985],[-50.39769,-12.60038],[-50.39146,-12.6123],[-50.4064,-12.61313],[-50.41744,-12.62323],[-50.41715,-12.63498],[-50.41191,-12.64375],[-50.41721,-12.65163],[-50.42754,-12.64206],[-50.43419,-12.64942],[-50.42693,-12.65349],[-50.43476,-12.65774],[-50.43183,-12.67004],[-50.43596,-12.67636],[-50.43165,-12.68767],[-50.43665,-12.69636],[-50.44676,-12.69782],[-50.46017,-12.69268],[-50.46325,-12.70204],[-50.47503,-12.70632],[-50.47791,-12.71597],[-50.46689,-12.72234],[-50.46528,-12.73133],[-50.48741,-12.74448],[-50.48378,-12.75116],[-50.46871,-12.75232],[-50.47781,-12.76255],[-50.47547,-12.7713],[-50.48706,-12.77636],[-50.49329,-12.78369],[-50.49267,-12.79682],[-50.48417,-12.80888],[-50.49386,-12.81896],[-50.48978,-12.82749],[-50.49681,-12.84586],[-50.5072,-12.85071],[-50.51098,-12.8609],[-50.51309,-12.84464],[-50.52034,-12.83639],[-50.53004,-12.84316],[-50.56695,-12.84342],[-50.59162,-12.83074],[-50.60148,-12.82098],[-50.57999,-12.80481],[-50.58192,-12.79938],[-50.60331,-12.80046],[-50.61204,-12.81666],[-50.62273,-12.81974],[-50.62657,-12.81188],[-50.62536,-12.80002],[-50.61177,-12.7759],[-50.61679,-12.77165],[-50.63026,-12.77607],[-50.63612,-12.77114],[-50.62721,-12.76089],[-50.62296,-12.73464],[-50.63471,-12.72536],[-50.63665,-12.71519],[-50.63004,-12.70653],[-50.63432,-12.70146],[-50.64512,-12.70224],[-50.65477,-12.67918],[-50.64635,-12.66379],[-50.64693,-12.65112],[-50.6562,-12.64599],[-50.69639,-12.64969],[-50.70135,-12.64346],[-50.70115,-12.6242],[-50.70649,-12.6097],[-50.70007,-12.59514],[-50.6899,-12.59339],[-50.67387,-12.60012],[-50.66798,-12.59601],[-50.66748,-12.58421],[-50.68648,-12.5692],[-50.67512,-12.54892],[-50.66226,-12.53225],[-50.6596,-12.50609],[-50.64709,-12.48552],[-50.64659,-12.47366],[-50.65304,-12.46007],[-50.64226,-12.4525],[-50.62719,-12.45841],[-50.62357,-12.45528],[-50.61826,-12.42899],[-50.63366,-12.41388],[-50.62687,-12.38403],[-50.63229,-12.36681],[-50.63971,-12.35859],[-50.64457,-12.34591],[-50.63782,-12.32529],[-50.64357,-12.31895],[-50.64892,-12.29909],[-50.64204,-12.29028],[-50.63126,-12.28488],[-50.63234,-12.26864],[-50.64642,-12.2561],[-50.65081,-12.24495],[-50.64371,-12.22296],[-50.65543,-12.21821],[-50.6664,-12.21979],[-50.68138,-12.21695],[-50.6868,-12.20068],[-50.67918,-12.18808],[-50.67904,-12.15533],[-50.67036,-12.1376],[-50.67603,-12.1239],[-50.66739,-12.0817],[-50.66762,-12.06456],[-50.68151,-12.05278],[-50.68708,-12.03563],[-50.67785,-12.01951],[-50.68407,-12.01083],[-50.68224,-11.99089],[-50.6631,-11.97563],[-50.65683,-11.96685],[-50.65474,-11.94799],[-50.66802,-11.93012],[-50.65911,-11.91432],[-50.64057,-11.90269],[-50.63929,-11.88457],[-50.64512,-11.8777],[-50.66537,-11.86446],[-50.68265,-11.8629],[-50.6863,-11.859],[-50.68588,-11.83876],[-50.69101,-11.81721],[-50.70059,-11.80347],[-50.70786,-11.76823],[-50.71781,-11.75244],[-50.72159,-11.73171],[-50.70243,-11.71066],[-50.68673,-11.6971],[-50.67407,-11.69268],[-50.6637,-11.67753],[-50.66221,-11.63646],[-50.66462,-11.62661],[-50.65912,-11.62011],[-50.65693,-11.60086],[-50.65965,-11.58845],[-50.6729,-11.58098],[-50.70929,-11.58174],[-50.71599,-11.57895],[-50.72782,-11.55749],[-50.73894,-11.54451],[-50.74037,-11.53171],[-50.7348,-11.51182],[-50.73934,-11.49915],[-50.73881,-11.47286],[-50.74206,-11.46035],[-50.73926,-11.43539],[-50.72814,-11.41691],[-50.72851,-11.38257],[-50.71226,-11.35985],[-50.70576,-11.3415],[-50.7071,-11.32817],[-50.69681,-11.30466],[-50.679,-11.29492],[-50.67133,-11.28674],[-50.66631,-11.26611],[-50.65941,-11.25486],[-50.65604,-11.24024],[-50.65473,-11.21503],[-50.66201,-11.1995],[-50.65989,-11.18737],[-50.66474,-11.16594],[-50.66448,-11.1516],[-50.65763,-11.12781],[-50.64389,-11.12318],[-50.63484,-11.097],[-50.61987,-11.08763],[-50.60946,-11.06745],[-50.61146,-11.04298],[-50.61743,-11.032],[-50.61759,-11.00243],[-50.62484,-10.98384],[-50.62024,-10.96891],[-50.6286,-10.95191],[-50.63262,-10.93186],[-50.61829,-10.9141],[-50.60079,-10.90068],[-50.59996,-10.8817],[-50.60495,-10.87247],[-50.61904,-10.86409],[-50.62201,-10.83942],[-50.61172,-10.82151],[-50.6122,-10.81032],[-50.60718,-10.80468],[-50.5969,-10.80472],[-50.59087,-10.79785],[-50.59101,-10.78881],[-50.58026,-10.77224],[-50.57059,-10.7525],[-50.57776,-10.73338],[-50.57595,-10.72538],[-50.58393,-10.70926],[-50.58622,-10.69199],[-50.59095,-10.68061],[-50.60282,-10.67376],[-50.6029,-10.65823],[-50.58257,-10.64408],[-50.57168,-10.62035],[-50.56317,-10.61132],[-50.54143,-10.60932],[-50.53496,-10.60175],[-50.53565,-10.58887],[-50.51973,-10.56248],[-50.52259,-10.53889],[-50.51468,-10.52269],[-50.51679,-10.50555],[-50.50376,-10.49591],[-50.48779,-10.49463],[-50.48262,-10.49004],[-50.4867,-10.47721],[-50.48678,-10.46196],[-50.47862,-10.43503],[-50.47373,-10.40491],[-50.44829,-10.39157],[-50.44106,-10.37557],[-50.42909,-10.36799],[-50.41811,-10.35455],[-50.42367,-10.34194],[-50.42307,-10.32744],[-50.4147,-10.31179],[-50.40323,-10.27903],[-50.39809,-10.25443],[-50.3857,-10.23323],[-50.38195,-10.21211],[-50.3894,-10.17493],[-50.3969,-10.17088],[-50.39826,-10.15547],[-50.39215,-10.13403],[-50.37781,-10.11072],[-50.36659,-10.10289],[-50.35728,-10.0903],[-50.35467,-10.07717],[-50.33984,-10.06094],[-50.31444,-10.04684],[-50.30265,-10.03541],[-50.29428,-10.01611],[-50.29201,-9.99536],[-50.27793,-9.97077],[-50.27894,-9.95525],[-50.26721,-9.93465],[-50.26553,-9.91268],[-50.25565,-9.88911],[-50.24379,-9.87124],[-50.22545,-9.85396],[-50.22481,-9.84115],[-50.21762,-9.83457],[-50.21439,-9.81322],[-50.20378,-9.79091],[-50.19907,-9.76174],[-50.18178,-9.73586],[-50.16128,-9.71283],[-50.15912,-9.69939],[-50.15004,-9.69278],[-50.15017,-9.67473],[-50.14283,-9.66324],[-50.13948,-9.6486],[-50.13775,-9.62482],[-50.12745,-9.62093],[-50.12259,-9.61036],[-50.10737,-9.59428],[-50.10733,-9.57251],[-50.10347,-9.56276],[-50.09107,-9.54951],[-50.09092,-9.53282],[-50.10795,-9.50863],[-50.10143,-9.50028],[-50.10531,-9.48955],[-50.10534,-9.47541],[-50.0969,-9.45527],[-50.09012,-9.4316],[-50.08183,-9.41825],[-50.06553,-9.4008],[-50.05856,-9.37985],[-50.05283,-9.37267],[-50.05547,-9.3347],[-50.05075,-9.31307],[-50.03778,-9.28941],[-50.01337,-9.27713],[-50.00272,-9.26531],[-49.99693,-9.23765],[-49.98656,-9.23139],[-49.96615,-9.23086],[-49.9539,-9.21737],[-49.94622,-9.20397],[-49.92487,-9.18623],[-49.91237,-9.17871],[-49.90542,-9.16974],[-49.91005,-9.15352],[-49.89688,-9.14367],[-49.88614,-9.12435],[-49.87128,-9.10397],[-49.86194,-9.08623],[-49.86264,-9.0815],[-49.85161,-9.06543],[-49.85034,-9.04672],[-49.84259,-9.02733],[-49.80917,-8.99243],[-49.79366,-8.97943],[-49.78153,-8.9621],[-49.76768,-8.93369],[-49.75455,-8.92196],[-49.74509,-8.90616],[-49.7335,-8.9027],[-49.69966,-8.87237],[-49.68436,-8.85647],[-49.6415,-8.84672],[-49.61267,-8.84623],[-49.59241,-8.83949],[-49.58078,-8.8187],[-49.56501,-8.80104],[-49.55,-8.77719],[-49.54345,-8.76139],[-49.51422,-8.72442],[-49.49994,-8.70263],[-49.4898,-8.69204],[-49.47136,-8.6481],[-49.45969,-8.63224],[-49.45147,-8.6125],[-49.43533,-8.59819],[-49.40989,-8.58],[-49.40058,-8.5588],[-49.39911,-8.53342],[-49.3915,-8.48978],[-49.38513,-8.47861],[-49.37701,-8.45529],[-49.34941,-8.41838],[-49.33808,-8.41074],[-49.3133,-8.4029],[-49.29913,-8.39537],[-49.28332,-8.37956],[-49.27624,-8.36368],[-49.26744,-8.33419],[-49.26175,-8.30387],[-49.25527,-8.28524],[-49.24866,-8.25538],[-49.23064,-8.21778],[-49.21585,-8.19421],[-49.20958,-8.17549],[-49.20386,-8.14001],[-49.20724,-8.12712],[-49.20002,-8.10171],[-49.19936,-8.08757],[-49.19316,-8.07647],[-49.18305,-8.07063],[-49.17672,-8.06151],[-49.17328,-8.02097],[-49.18185,-7.98487],[-49.18203,-7.97696],[-49.16964,-7.95479],[-49.16324,-7.92128],[-49.16278,-7.90053],[-49.16639,-7.88033],[-49.16778,-7.85435],[-49.16491,-7.83287],[-49.15006,-7.81211],[-49.15058,-7.8022],[-49.16074,-7.79137],[-49.18564,-7.78365],[-49.20314,-7.7745],[-49.22116,-7.7616],[-49.24,-7.74072],[-49.2682,-7.7205],[-49.29653,-7.69644],[-49.32323,-7.68175],[-49.33515,-7.66868],[-49.34366,-7.65297],[-49.35075,-7.63214],[-49.36364,-7.61082],[-49.38158,-7.5691],[-49.38405,-7.54349],[-49.378,-7.49645],[-49.34725,-7.46162],[-49.30079,-7.41086],[-49.28732,-7.39082],[-49.27385,-7.37842],[-49.25433,-7.34943],[-49.23394,-7.32891],[-49.21286,-7.29078],[-49.20679,-7.27073],[-49.19023,-7.2458],[-49.18528,-7.23517],[-49.1832,-7.2146],[-49.18719,-7.19248],[-49.1938,-7.12981],[-49.1914,-7.05545],[-49.19528,-7.02626],[-49.20927,-6.98299],[-49.21538,-6.97573],[-49.21745,-6.96147],[-49.21458,-6.93827],[-49.20953,-6.92542],[-49.18392,-6.90789],[-49.17949,-6.89806],[-49.17194,-6.89294],[-49.15047,-6.88885],[-49.11527,-6.86995],[-49.10305,-6.85717],[-49.06702,-6.83297],[-49.04377,-6.81577],[-49.01888,-6.78421],[-48.97738,-6.78209],[-48.96371,-6.77946],[-48.93951,-6.76669],[-48.92419,-6.76326],[-48.91385,-6.75737],[-48.901,-6.75692],[-48.85113,-6.74868],[-48.82586,-6.75465],[-48.79268,-6.74369],[-48.7691,-6.7307],[-48.75483,-6.71516],[-48.74785,-6.70265],[-48.72913,-6.68926],[-48.69766,-6.68372],[-48.68271,-6.67791],[-48.67091,-6.669],[-48.65528,-6.65054],[-48.65196,-6.63995],[-48.65393,-6.60154],[-48.66127,-6.58298],[-48.66455,-6.56767],[-48.6581,-6.53941],[-48.64671,-6.52383],[-48.64627,-6.50889],[-48.63471,-6.49346],[-48.61957,-6.46244],[-48.60719,-6.44801],[-48.57256,-6.42337],[-48.56507,-6.41512],[-48.54058,-6.40084],[-48.5308,-6.38967],[-48.52396,-6.37354],[-48.51124,-6.35693],[-48.50022,-6.35093],[-48.44771,-6.35118],[-48.42163,-6.35848],[-48.39944,-6.37407],[-48.38268,-6.37961],[-48.3753,-6.34675],[-48.37822,-6.33369],[-48.38872,-6.32159],[-48.41205,-6.30607],[-48.41712,-6.29859],[-48.41271,-6.28133],[-48.41899,-6.26824],[-48.42189,-6.24811],[-48.4303,-6.21573],[-48.43613,-6.20137],[-48.43616,-6.18796],[-48.43194,-6.17729],[-48.40827,-6.1534],[-48.39129,-6.1467],[-48.37826,-6.14912],[-48.36549,-6.14737],[-48.32452,-6.13272],[-48.30551,-6.1185],[-48.28805,-6.09756],[-48.28316,-6.08156],[-48.28688,-6.06577],[-48.29848,-6.05013],[-48.31038,-6.04363],[-48.32974,-6.03982],[-48.33838,-6.02836],[-48.33472,-6.00427],[-48.32146,-5.9855],[-48.29683,-5.96986],[-48.25196,-5.96037],[-48.23163,-5.94614],[-48.23013,-5.92252],[-48.2456,-5.89623],[-48.2704,-5.87144],[-48.28495,-5.85205],[-48.29197,-5.83684],[-48.29979,-5.79597],[-48.29764,-5.76512],[-48.29024,-5.74354],[-48.27571,-5.72651],[-48.26377,-5.72523],[-48.23065,-5.72926],[-48.2009,-5.72295],[-48.17598,-5.7123],[-48.16319,-5.69493],[-48.14123,-5.65435],[-48.13457,-5.63545],[-48.13225,-5.61813],[-48.13815,-5.60269],[-48.17702,-5.57487],[-48.18973,-5.5708],[-48.19474,-5.56309],[-48.2126,-5.55424],[-48.22619,-5.55065],[-48.23801,-5.55277],[-48.26151,-5.54807],[-48.27869,-5.54042],[-48.30071,-5.52301],[-48.31175,-5.50777],[-48.32552,-5.49375],[-48.32735,-5.48692],[-48.34108,-5.46706],[-48.34223,-5.44957],[-48.34724,-5.43536],[-48.35805,-5.42141],[-48.36835,-5.41454],[-48.37349,-5.40274],[-48.38474,-5.39421],[-48.39351,-5.39421],[-48.40144,-5.40341],[-48.41697,-5.40163],[-48.46459,-5.41229],[-48.49155,-5.42594],[-48.5139,-5.42982],[-48.55754,-5.41671],[-48.57605,-5.42146],[-48.59673,-5.42254],[-48.61169,-5.41864],[-48.62912,-5.41006],[-48.64369,-5.3897],[-48.65049,-5.38492],[-48.68055,-5.37876],[-48.71677,-5.37717],[-48.73688,-5.37396],[-48.7493,-5.36739],[-48.75676,-5.35288],[-48.75515,-5.34917]]]},"properties":{"CD_REG":"1701","NM_REG":"Ocidental do Tocantins","SIGLA_UF":"TO"}},{"type":"Feature","geometry":{"type":"Polygon","coordinates":[[[-46.01242,-10.2507],[-46.01987,-10.25565],[-46.02192,-10.26808],[-46.02821,-10.2771],[-46.02258,-10.28639],[-45.99987,-10.29668],[-45.99733,-10.31676],[-45.98206,-10.32608],[-45.97766,-10.33545],[-45.98199,-10.34503],[-45.97111,-10.35894],[-45.96026,-10.36413],[-45.9451,-10.3634],[-45.9332,-10.37004],[-45.91094,-10.37109],[-45.90727,-10.35971],[-45.88717,-10.34046],[-45.91018,-10.32127],[-45.91563,-10.31266],[-45.9146,-10.30191],[-45.90891,-10.29308],[-45.89673,-10.26429],[-45.87076,-10.25003],[-45.86707,-10.25411],[-45.82447,-10.26324],[-45.79374,-10.26767],[-45.76069,-10.25062],[-45.74403,-10.23996],[-45.73385,-10.2286],[-45.72726,-10.20338],[-45.73519,-10.1801],[-45.73047,-10.16161],[-45.72348,-10.15541],[-45.70198,-10.17935],[-45.69926,-10.25857],[-45.72689,-10.31254],[-45.79818,-10.32325],[-45.82021,-10.45605],[-45.82125,-10.45807],[-45.8709,-10.50328],[-45.92922,-10.5216],[-45.97463,-10.55187],[-46.06077,-10.60018],[-46.10719,-10.6139],[-46.11543,-10.61976],[-46.12761,-10.6206],[-46.1497,-10.63591],[-46.16076,-10.65944],[-46.15189,-10.67165],[-46.15035,-10.69155],[-46.16515,-10.72248],[-46.19261,-10.74277],[-46.2062,-10.80047],[-46.22645,-10.78294],[-46.24781,-10.79679],[-46.26054,-10.81204],[-46.26727,-10.9348],[-46.34156,-10.93901],[-46.46609,-11.1336],[-46.51004,-11.20033],[-46.5522,-11.2628],[-46.57646,-11.34202],[-46.57679,-11.36149],[-46.56856,-11.37135],[-46.53698,-11.37182],[-46.53145,-11.37661],[-46.52748,-11.40437],[-46.52407,-11.46354],[-46.43932,-11.52105],[-46.35037,-11.50623],[-46.25048,-11.53669],[-46.20951,-11.58527],[-46.10415,-11.60802],[-46.08615,-11.61698],[-46.08089,-11.62401],[-46.10735,-11.62573],[-46.12535,-11.62079],[-46.14449,-11.62435],[-46.14675,-11.64522],[-46.15751,-11.65137],[-46.17222,-11.64491],[-46.18492,-11.64845],[-46.20015,-11.64293],[-46.2143,-11.64275],[-46.23855,-11.62312],[-46.23608,-11.61053],[-46.24398,-11.60537],[-46.27462,-11.60705],[-46.28695,-11.61581],[-46.30443,-11.60617],[-46.31569,-11.60937],[-46.32569,-11.59978],[-46.32893,-11.61194],[-46.33982,-11.61013],[-46.35067,-11.62048],[-46.35971,-11.61276],[-46.36554,-11.62026],[-46.37782,-11.62161],[-46.37408,-11.62674],[-46.38495,-11.62544],[-46.38723,-11.64635],[-46.37969,-11.64532],[-46.36172,-11.63102],[-46.33832,-11.64208],[-46.3438,-11.65505],[-46.33971,-11.66422],[-46.32892,-11.67312],[-46.31291,-11.67811],[-46.30775,-11.68657],[-46.32154,-11.7003],[-46.32516,-11.70979],[-46.33354,-11.71021],[-46.32264,-11.71675],[-46.3363,-11.72753],[-46.33209,-11.734],[-46.35743,-11.74521],[-46.3647,-11.7418],[-46.37857,-11.74862],[-46.37999,-11.75864],[-46.36755,-11.76847],[-46.35393,-11.75812],[-46.34321,-11.76156],[-46.36094,-11.77895],[-46.3453,-11.77512],[-46.33632,-11.76887],[-46.32874,-11.77065],[-46.33542,-11.78065],[-46.34607,-11.78433],[-46.33755,-11.79402],[-46.3344,-11.80426],[-46.3446,-11.81639],[-46.34712,-11.81064],[-46.35778,-11.81367],[-46.34957,-11.83554],[-46.35752,-11.84082],[-46.37262,-11.83026],[-46.38094,-11.84037],[-46.37619,-11.84661],[-46.38099,-11.86307],[-46.37052,-11.88789],[-46.36645,-11.89087],[-46.35939,-11.88337],[-46.34938,-11.88672],[-46.33746,-11.89828],[-46.32563,-11.90244],[-46.32005,-11.91155],[-46.2937,-11.91345],[-46.28903,-11.90973],[-46.28142,-11.91796],[-46.26141,-11.91096],[-46.25816,-11.91749],[-46.24771,-11.9193],[-46.23035,-11.9161],[-46.21425,-11.9083],[-46.18991,-11.90323],[-46.18161,-11.90992],[-46.19077,-11.91901],[-46.20787,-11.92246],[-46.23277,-11.9364],[-46.24433,-11.93845],[-46.26137,-11.9354],[-46.29665,-11.93771],[-46.31284,-11.9411],[-46.32118,-11.94905],[-46.33632,-11.95438],[-46.34154,-11.966],[-46.35321,-11.97091],[-46.3531,-11.97764],[-46.36483,-11.98077],[-46.36393,-11.99086],[-46.37422,-11.99242],[-46.37342,-11.99832],[-46.38723,-11.99741],[-46.38419,-12.00199],[-46.39383,-12.0049],[-46.40024,-12.02481],[-46.40826,-12.00957],[-46.42275,-12.01905],[-46.42193,-12.0286],[-46.43406,-12.02651],[-46.43831,-12.03152],[-46.4449,-12.02618],[-46.46139,-12.03597],[-46.47849,-12.04283],[-46.47847,-12.04887],[-46.46492,-12.04552],[-46.44857,-12.05506],[-46.44329,-12.05014],[-46.42161,-12.05052],[-46.39438,-12.0464],[-46.38447,-12.05169],[-46.39598,-12.06177],[-46.38555,-12.0615],[-46.38825,-12.07747],[-46.38264,-12.08395],[-46.39587,-12.08814],[-46.3716,-12.09943],[-46.36997,-12.11116],[-46.37526,-12.1109],[-46.37157,-12.12334],[-46.37546,-12.13171],[-46.38306,-12.13417],[-46.38161,-12.14471],[-46.38865,-12.15634],[-46.40292,-12.1587],[-46.40037,-12.1673],[-46.38364,-12.17498],[-46.38114,-12.18117],[-46.41007,-12.19868],[-46.38922,-12.1937],[-46.37741,-12.19655],[-46.37459,-12.20658],[-46.38273,-12.21204],[-46.36652,-12.21508],[-46.37276,-12.22952],[-46.36958,-12.23167],[-46.38071,-12.24274],[-46.38806,-12.24478],[-46.38085,-12.25791],[-46.36997,-12.26544],[-46.37253,-12.27367],[-46.38531,-12.28054],[-46.38415,-12.29673],[-46.37555,-12.29901],[-46.36676,-12.29474],[-46.36237,-12.30027],[-46.34915,-12.29912],[-46.35352,-12.3061],[-46.35254,-12.31981],[-46.35889,-12.32416],[-46.35642,-12.33228],[-46.36838,-12.33903],[-46.37161,-12.34981],[-46.35896,-12.35258],[-46.35295,-12.3472],[-46.33979,-12.35174],[-46.36545,-12.36613],[-46.34522,-12.36615],[-46.32787,-12.35674],[-46.30002,-12.36373],[-46.29823,-12.37215],[-46.29003,-12.37697],[-46.29668,-12.38104],[-46.29583,-12.38851],[-46.31358,-12.4055],[-46.32264,-12.4062],[-46.32629,-12.41751],[-46.33605,-12.41432],[-46.33019,-12.42602],[-46.33061,-12.44125],[-46.34055,-12.45199],[-46.32407,-12.46509],[-46.31555,-12.46343],[-46.31017,-12.45622],[-46.31271,-12.44834],[-46.3013,-12.43757],[-46.30988,-12.42898],[-46.30441,-12.41682],[-46.29652,-12.42273],[-46.29048,-12.41697],[-46.28546,-12.43207],[-46.28201,-12.41605],[-46.2769,-12.4209],[-46.27908,-12.43442],[-46.27192,-12.43807],[-46.28114,-12.44089],[-46.28023,-12.45983],[-46.27287,-12.45616],[-46.26298,-12.46589],[-46.27091,-12.47022],[-46.261,-12.47385],[-46.26595,-12.48272],[-46.26663,-12.50667],[-46.27262,-12.5146],[-46.25261,-12.50923],[-46.25086,-12.50222],[-46.2329,-12.50428],[-46.21433,-12.49838],[-46.19825,-12.50381],[-46.21041,-12.51289],[-46.21104,-12.51935],[-46.2245,-12.52864],[-46.24539,-12.535],[-46.26983,-12.55033],[-46.2739,-12.55768],[-46.27161,-12.57005],[-46.28248,-12.57004],[-46.28578,-12.57595],[-46.29666,-12.57573],[-46.29676,-12.56368],[-46.30316,-12.58158],[-46.29265,-12.58166],[-46.29001,-12.58762],[-46.27687,-12.59617],[-46.28487,-12.60303],[-46.28646,-12.61592],[-46.29126,-12.61467],[-46.29472,-12.62826],[-46.30275,-12.62661],[-46.31023,-12.64268],[-46.28996,-12.63815],[-46.27441,-12.64369],[-46.27873,-12.64847],[-46.26693,-12.65095],[-46.26806,-12.66627],[-46.29224,-12.67716],[-46.29636,-12.6861],[-46.30574,-12.68864],[-46.30388,-12.69644],[-46.2918,-12.69935],[-46.29481,-12.70768],[-46.28832,-12.71234],[-46.27962,-12.70853],[-46.26857,-12.71438],[-46.27084,-12.73171],[-46.27694,-12.74138],[-46.28732,-12.73891],[-46.28501,-12.74953],[-46.29594,-12.74496],[-46.29244,-12.75798],[-46.28226,-12.76336],[-46.28189,-12.77085],[-46.29476,-12.7731],[-46.29644,-12.77911],[-46.30695,-12.7867],[-46.31051,-12.79554],[-46.29315,-12.79591],[-46.29409,-12.80805],[-46.27936,-12.81126],[-46.27358,-12.81597],[-46.27855,-12.82868],[-46.27354,-12.8313],[-46.27572,-12.84056],[-46.28848,-12.85408],[-46.30047,-12.8572],[-46.30292,-12.86763],[-46.29598,-12.86928],[-46.28854,-12.88054],[-46.29531,-12.8911],[-46.28725,-12.89239],[-46.29008,-12.90004],[-46.312,-12.90972],[-46.31194,-12.91804],[-46.30575,-12.92667],[-46.31608,-12.93602],[-46.3075,-12.93879],[-46.31564,-12.94938],[-46.32796,-12.9547],[-46.30178,-12.95528],[-46.28253,-12.94677],[-46.24688,-12.94036],[-46.24379,-12.94652],[-46.23305,-12.94996],[-46.20572,-12.95061],[-46.16306,-12.92416],[-46.16017,-12.93009],[-46.14415,-12.93115],[-46.12665,-12.91239],[-46.11296,-12.91801],[-46.12254,-12.92689],[-46.1348,-12.92958],[-46.15113,-12.93777],[-46.16349,-12.93448],[-46.17844,-12.93995],[-46.18137,-12.94891],[-46.19819,-12.95735],[-46.22935,-12.95759],[-46.2651,-12.96563],[-46.27678,-12.97118],[-46.28266,-12.9692],[-46.30481,-12.97846],[-46.33373,-12.98094],[-46.3644,-12.99074],[-46.37307,-12.98334],[-46.36809,-12.97186],[-46.37423,-12.96283],[-46.36962,-12.95052],[-46.37233,-12.94432],[-46.3652,-12.9347],[-46.36664,-12.92382],[-46.36024,-12.90899],[-46.36498,-12.9009],[-46.36086,-12.89031],[-46.3678,-12.88797],[-46.36425,-12.88114],[-46.36923,-12.8758],[-46.36573,-12.86352],[-46.37419,-12.85952],[-46.37392,-12.85145],[-46.39275,-12.84823],[-46.39758,-12.85132],[-46.40912,-12.84559],[-46.41798,-12.82244],[-46.4328,-12.92942],[-46.44593,-12.93577],[-46.45465,-12.97115],[-46.75061,-12.96916],[-46.81382,-13.00057],[-46.82282,-13.00679],[-46.81861,-13.01387],[-46.82881,-13.01721],[-46.83442,-13.03431],[-46.84239,-13.03618],[-46.84774,-13.04532],[-46.84443,-13.04952],[-46.85432,-13.05472],[-46.8543,-13.06738],[-46.86611,-13.06892],[-46.87182,-13.05969],[-46.88062,-13.05882],[-46.87823,-13.05166],[-46.89413,-13.05405],[-46.90225,-13.06738],[-46.91056,-13.06927],[-46.92862,-13.08235],[-46.92874,-13.09346],[-46.94638,-13.09909],[-46.95404,-13.10883],[-46.97961,-13.12236],[-46.97902,-13.13177],[-47.0021,-13.12168],[-47.00754,-13.13785],[-47.01975,-13.14594],[-47.02318,-13.14159],[-47.03013,-13.14851],[-47.04276,-13.14899],[-47.04843,-13.1571],[-47.06442,-13.16137],[-47.0686,-13.15568],[-47.08029,-13.16188],[-47.08518,-13.17095],[-47.07995,-13.17722],[-47.09004,-13.18117],[-47.0899,-13.17504],[-47.0991,-13.17147],[-47.10891,-13.17785],[-47.13247,-13.17805],[-47.14078,-13.18705],[-47.1342,-13.18785],[-47.13389,-13.20076],[-47.15483,-13.21006],[-47.1619,-13.20501],[-47.16794,-13.21112],[-47.18379,-13.20472],[-47.17545,-13.19473],[-47.18374,-13.18745],[-47.19692,-13.19368],[-47.21271,-13.19241],[-47.21599,-13.19586],[-47.22961,-13.19474],[-47.23378,-13.20516],[-47.25238,-13.21261],[-47.24859,-13.22952],[-47.2684,-13.23745],[-47.26703,-13.24602],[-47.2757,-13.25073],[-47.28143,-13.2647],[-47.28836,-13.26399],[-47.29559,-13.24857],[-47.31539,-13.25154],[-47.32381,-13.25826],[-47.32733,-13.2521],[-47.33928,-13.24613],[-47.35395,-13.24867],[-47.35551,-13.2429],[-47.36951,-13.23585],[-47.37059,-13.22943],[-47.37972,-13.2306],[-47.38177,-13.2399],[-47.3945,-13.24627],[-47.39294,-13.2624],[-47.39947,-13.26178],[-47.4172,-13.27083],[-47.42145,-13.28644],[-47.43259,-13.28863],[-47.43776,-13.2791],[-47.43645,-13.26678],[-47.4539,-13.25174],[-47.45108,-13.24239],[-47.43127,-13.23633],[-47.4401,-13.22295],[-47.4505,-13.22252],[-47.46519,-13.22716],[-47.48349,-13.22261],[-47.48802,-13.21207],[-47.47745,-13.18719],[-47.49227,-13.18372],[-47.50884,-13.19003],[-47.52139,-13.18243],[-47.53442,-13.18536],[-47.54062,-13.19171],[-47.5578,-13.18685],[-47.56497,-13.18033],[-47.56567,-13.15778],[-47.56871,-13.14391],[-47.56097,-13.12482],[-47.57409,-13.11503],[-47.59312,-13.11548],[-47.61712,-13.10362],[-47.64632,-13.12045],[-47.64939,-13.13161],[-47.64283,-13.145],[-47.65232,-13.15048],[-47.66899,-13.16684],[-47.65488,-13.17551],[-47.65433,-13.18584],[-47.66422,-13.19668],[-47.6602,-13.20731],[-47.66685,-13.20835],[-47.66509,-13.21843],[-47.6543,-13.21927],[-47.6561,-13.23247],[-47.64617,-13.24238],[-47.64764,-13.25005],[-47.63966,-13.26429],[-47.64843,-13.27478],[-47.65508,-13.2758],[-47.65502,-13.28602],[-47.66112,-13.30251],[-47.65415,-13.31185],[-47.65611,-13.32325],[-47.64887,-13.34414],[-47.65014,-13.34878],[-47.63643,-13.36554],[-47.62235,-13.36872],[-47.62675,-13.38555],[-47.6377,-13.38982],[-47.64281,-13.40537],[-47.64855,-13.40715],[-47.65529,-13.41853],[-47.65564,-13.42868],[-47.67099,-13.44127],[-47.67638,-13.45192],[-47.67975,-13.46817],[-47.79823,-13.32898],[-47.8236,-13.31171],[-47.84409,-13.31834],[-47.86057,-13.31389],[-47.87406,-13.32049],[-47.88698,-13.31947],[-47.89434,-13.30653],[-47.9024,-13.31154],[-47.90386,-13.30191],[-47.92339,-13.29167],[-47.93611,-13.28989],[-47.94405,-13.30472],[-47.96685,-13.31501],[-47.97123,-13.30093],[-47.97786,-13.29583],[-47.98103,-13.28426],[-47.98796,-13.27651],[-48.02549,-13.27956],[-48.03415,-13.26664],[-48.02846,-13.26548],[-48.03406,-13.25373],[-48.05173,-13.25683],[-48.05318,-13.24548],[-48.06246,-13.23572],[-48.0745,-13.23901],[-48.07625,-13.24628],[-48.07203,-13.26745],[-48.07681,-13.26742],[-48.07911,-13.28527],[-48.09938,-13.29306],[-48.10498,-13.28809],[-48.11983,-13.29744],[-48.14047,-13.30283],[-48.1431,-13.30616],[-48.16515,-13.30633],[-48.16988,-13.30035],[-48.15332,-13.27969],[-48.1572,-13.25001],[-48.16746,-13.24431],[-48.16677,-13.23259],[-48.15302,-13.21924],[-48.16146,-13.20868],[-48.16592,-13.1893],[-48.15598,-13.17803],[-48.15341,-13.16199],[-48.14366,-13.15247],[-48.13946,-13.13684],[-48.13738,-13.11617],[-48.12868,-13.10579],[-48.12862,-13.09829],[-48.13819,-13.08879],[-48.14318,-13.07006],[-48.15179,-13.05882],[-48.14579,-13.03787],[-48.14899,-13.00574],[-48.13992,-12.98733],[-48.15253,-12.96581],[-48.16367,-12.95897],[-48.17949,-12.92332],[-48.18802,-12.9085],[-48.1889,-12.88348],[-48.20706,-12.84958],[-48.22951,-12.82861],[-48.24019,-12.80419],[-48.24148,-12.79131],[-48.23694,-12.77835],[-48.22372,-12.75842],[-48.22622,-12.7459],[-48.24737,-12.74058],[-48.25719,-12.74676],[-48.26647,-12.74437],[-48.26987,-12.72911],[-48.26604,-12.72298],[-48.25364,-12.71647],[-48.2441,-12.70488],[-48.23956,-12.68371],[-48.24609,-12.67856],[-48.24798,-12.68576],[-48.27633,-12.6825],[-48.28669,-12.67521],[-48.29093,-12.66143],[-48.28828,-12.65268],[-48.27233,-12.636],[-48.26988,-12.62581],[-48.27479,-12.60642],[-48.26916,-12.59719],[-48.25149,-12.59488],[-48.28811,-12.56732],[-48.29339,-12.56066],[-48.26135,-12.55145],[-48.25,-12.55041],[-48.23257,-12.54069],[-48.22831,-12.52111],[-48.23352,-12.50905],[-48.23101,-12.4951],[-48.21315,-12.48775],[-48.20716,-12.47932],[-48.21158,-12.46383],[-48.24774,-12.46106],[-48.2623,-12.46167],[-48.26485,-12.45235],[-48.261,-12.43485],[-48.25,-12.42089],[-48.23423,-12.40625],[-48.22816,-12.39095],[-48.23489,-12.37365],[-48.24872,-12.3651],[-48.2545,-12.35679],[-48.25675,-12.3448],[-48.25398,-12.31896],[-48.25581,-12.31234],[-48.31271,-12.26932],[-48.28777,-12.24388],[-48.28195,-12.22255],[-48.2887,-12.21604],[-48.28723,-12.20739],[-48.27521,-12.20878],[-48.26973,-12.20506],[-48.26023,-12.17213],[-48.2539,-12.17561],[-48.24146,-12.17304],[-48.21982,-12.15959],[-48.2189,-12.16839],[-48.21079,-12.16844],[-48.19816,-12.17511],[-48.19423,-12.18401],[-48.17403,-12.18255],[-48.16874,-12.18507],[-48.16547,-12.19912],[-48.15696,-12.20294],[-48.14998,-12.19778],[-48.15516,-12.18015],[-48.14878,-12.16994],[-48.15201,-12.16244],[-48.14307,-12.15195],[-48.1249,-12.14197],[-48.12315,-12.13521],[-48.11379,-12.13655],[-48.11233,-12.15294],[-48.09883,-12.13218],[-48.12043,-12.1115],[-48.11474,-12.10179],[-48.11516,-12.08723],[-48.1459,-12.07065],[-48.14294,-12.06627],[-48.15588,-12.06324],[-48.15659,-12.05797],[-48.17114,-12.04755],[-48.18368,-12.06583],[-48.2112,-12.0567],[-48.21453,-12.04204],[-48.20783,-12.03432],[-48.20993,-12.02301],[-48.21933,-12.01641],[-48.21287,-12.00522],[-48.2276,-11.99255],[-48.2387,-11.9892],[-48.25992,-11.97798],[-48.28285,-11.95461],[-48.29194,-11.95833],[-48.30156,-11.95158],[-48.3026,-11.94278],[-48.30912,-11.93809],[-48.31997,-11.93842],[-48.32863,-11.92459],[-48.33621,-11.92176],[-48.34274,-11.89265],[-48.3491,-11.88505],[-48.34876,-11.87085],[-48.34264,-11.85721],[-48.3363,-11.85599],[-48.34469,-11.84462],[-48.35588,-11.84598],[-48.36209,-11.83925],[-48.35848,-11.83075],[-48.36435,-11.81784],[-48.36377,-11.79921],[-48.37888,-11.76873],[-48.38042,-11.75571],[-48.3763,-11.74505],[-48.37807,-11.70966],[-48.38369,-11.70659],[-48.37912,-11.69291],[-48.37909,-11.6757],[-48.37567,-11.66776],[-48.38242,-11.66348],[-48.38268,-11.64368],[-48.39473,-11.64048],[-48.39891,-11.63316],[-48.40986,-11.63002],[-48.40432,-11.6194],[-48.40992,-11.61377],[-48.41135,-11.59578],[-48.41654,-11.5891],[-48.42641,-11.58946],[-48.42725,-11.57833],[-48.44219,-11.5667],[-48.44998,-11.55706],[-48.44921,-11.54954],[-48.46319,-11.52811],[-48.46378,-11.51727],[-48.45725,-11.50787],[-48.45884,-11.49742],[-48.47574,-11.47633],[-48.46987,-11.47376],[-48.46171,-11.45594],[-48.46762,-11.44367],[-48.46392,-11.43767],[-48.4666,-11.4258],[-48.47727,-11.42002],[-48.48125,-11.40946],[-48.48238,-11.39379],[-48.47428,-11.3704],[-48.47901,-11.3625],[-48.46529,-11.33526],[-48.45171,-11.27078],[-48.46209,-11.24817],[-48.4888,-11.22011],[-48.51766,-11.15887],[-48.5211,-11.14683],[-48.52126,-11.125],[-48.53077,-11.11436],[-48.53988,-11.09697],[-48.5419,-11.07302],[-48.55343,-11.05535],[-48.55946,-11.03131],[-48.55805,-11.02199],[-48.54998,-11.00984],[-48.53112,-10.9952],[-48.51743,-10.95895],[-48.51059,-10.95166],[-48.46449,-10.93134],[-48.44675,-10.91819],[-48.42488,-10.88951],[-48.41568,-10.87501],[-48.39672,-10.8294],[-48.39862,-10.81243],[-48.39663,-10.79694],[-48.39621,-10.76759],[-48.40134,-10.75886],[-48.41477,-10.7509],[-48.42624,-10.75899],[-48.44345,-10.76348],[-48.45136,-10.76194],[-48.46239,-10.76987],[-48.46909,-10.7805],[-48.5036,-10.78213],[-48.51789,-10.79393],[-48.54398,-10.79622],[-48.54624,-10.80849],[-48.5328,-10.81717],[-48.53477,-10.82794],[-48.54643,-10.83031],[-48.54383,-10.84834],[-48.54746,-10.85676],[-48.56775,-10.85367],[-48.57504,-10.85525],[-48.58622,-10.87058],[-48.59329,-10.86456],[-48.5824,-10.8545],[-48.58436,-10.84666],[-48.60691,-10.84579],[-48.61786,-10.86105],[-48.63555,-10.87019],[-48.63736,-10.85229],[-48.64436,-10.84189],[-48.64486,-10.8327],[-48.65041,-10.83796],[-48.66294,-10.83553],[-48.69022,-10.83685],[-48.70371,-10.82067],[-48.71866,-10.81231],[-48.72416,-10.8026],[-48.75,-10.81041],[-48.76071,-10.80228],[-48.77659,-10.8061],[-48.78902,-10.7944],[-48.78268,-10.78774],[-48.77932,-10.77292],[-48.77381,-10.76677],[-48.77369,-10.75638],[-48.76831,-10.7448],[-48.77345,-10.73719],[-48.77427,-10.71112],[-48.77866,-10.70062],[-48.79015,-10.6899],[-48.79204,-10.67293],[-48.80376,-10.66453],[-48.80899,-10.64493],[-48.81804,-10.64272],[-48.82636,-10.63515],[-48.82446,-10.61164],[-48.81301,-10.59264],[-48.82385,-10.58581],[-48.82613,-10.55804],[-48.80934,-10.54757],[-48.80702,-10.54215],[-48.81325,-10.53109],[-48.80586,-10.51193],[-48.80584,-10.492],[-48.80206,-10.48656],[-48.80968,-10.47249],[-48.79388,-10.46243],[-48.78803,-10.46739],[-48.78017,-10.45787],[-48.76762,-10.45831],[-48.76739,-10.45107],[-48.75814,-10.43682],[-48.75761,-10.43001],[-48.76485,-10.42228],[-48.75783,-10.41335],[-48.74758,-10.41417],[-48.73606,-10.40745],[-48.71547,-10.40624],[-48.70751,-10.40053],[-48.70757,-10.39252],[-48.69608,-10.39259],[-48.69532,-10.38213],[-48.68066,-10.37043],[-48.66062,-10.36864],[-48.66113,-10.36125],[-48.64499,-10.34865],[-48.62636,-10.34298],[-48.62182,-10.32607],[-48.61331,-10.33152],[-48.60486,-10.33027],[-48.60031,-10.3201],[-48.60497,-10.30546],[-48.59773,-10.29402],[-48.59806,-10.28654],[-48.61904,-10.27563],[-48.62621,-10.25827],[-48.63898,-10.25557],[-48.64294,-10.24423],[-48.65971,-10.24832],[-48.66996,-10.24159],[-48.68062,-10.22518],[-48.69177,-10.22374],[-48.6882,-10.21186],[-48.69113,-10.19768],[-48.69972,-10.19057],[-48.69132,-10.14591],[-48.68418,-10.12991],[-48.67664,-10.1219],[-48.66979,-10.10137],[-48.67336,-10.09513],[-48.6549,-10.08051],[-48.63998,-10.08387],[-48.6373,-10.07267],[-48.62382,-10.07742],[-48.62032,-10.06619],[-48.59844,-10.06366],[-48.59803,-10.04978],[-48.59009,-10.04689],[-48.57118,-10.02637],[-48.5606,-10.0398],[-48.54897,-10.04026],[-48.53934,-10.03592],[-48.52751,-10.039],[-48.5217,-10.03328],[-48.51188,-10.04323],[-48.49872,-10.04109],[-48.49664,-10.03449],[-48.48494,-10.02896],[-48.46633,-10.03307],[-48.46056,-10.0233],[-48.4519,-10.01867],[-48.43829,-10.01826],[-48.41388,-10.03119],[-48.39883,-10.04778],[-48.39116,-10.05241],[-48.35894,-10.05384],[-48.3324,-10.04138],[-48.33008,-10.02885],[-48.33704,-10.0],[-48.34975,-9.97024],[-48.36838,-9.94791],[-48.37092,-9.93155],[-48.36574,-9.91585],[-48.35634,-9.90084],[-48.33675,-9.88492],[-48.33151,-9.84506],[-48.33389,-9.82727],[-48.33816,-9.81941],[-48.35645,-9.80315],[-48.375,-9.79199],[-48.37917,-9.77655],[-48.375,-9.75767],[-48.3619,-9.74641],[-48.36058,-9.723],[-48.36461,-9.71453],[-48.36499,-9.69744],[-48.37193,-9.67596],[-48.38351,-9.66887],[-48.40152,-9.63921],[-48.40492,-9.61618],[-48.40023,-9.60174],[-48.38274,-9.56833],[-48.37634,-9.54338],[-48.37164,-9.5096],[-48.37067,-9.49162],[-48.37224,-9.45957],[-48.37649,-9.43411],[-48.36149,-9.40722],[-48.35819,-9.38781],[-48.36158,-9.37116],[-48.36793,-9.35754],[-48.36643,-9.33922],[-48.36143,-9.32813],[-48.3524,-9.29446],[-48.3445,-9.2769],[-48.33691,-9.25],[-48.31997,-9.22449],[-48.31714,-9.21678],[-48.31505,-9.19039],[-48.30492,-9.17065],[-48.28693,-9.14499],[-48.27757,-9.1219],[-48.25286,-9.09669],[-48.24466,-9.08256],[-48.22248,-9.05652],[-48.20836,-9.04673],[-48.19408,-9.03293],[-48.18574,-9.0169],[-48.18047,-8.99223],[-48.1812,-8.96501],[-48.17269,-8.92825],[-48.17054,-8.89714],[-48.15362,-8.86196],[-48.13914,-8.83487],[-48.12298,-8.81763],[-48.11237,-8.78772],[-48.11226,-8.76481],[-48.12752,-8.74145],[-48.12939,-8.71757],[-48.12332,-8.67442],[-48.125,-8.65628],[-48.12982,-8.63896],[-48.13536,-8.5998],[-48.13563,-8.58566],[-48.13171,-8.56769],[-48.13346,-8.539],[-48.125,-8.52573],[-48.11143,-8.52402],[-48.10009,-8.51649],[-48.08791,-8.48526],[-48.08438,-8.46899],[-48.08122,-8.42662],[-48.08561,-8.41449],[-48.09941,-8.40493],[-48.10499,-8.3955],[-48.12288,-8.37878],[-48.12816,-8.36716],[-48.13374,-8.30359],[-48.1325,-8.28841],[-48.1377,-8.26954],[-48.14482,-8.23111],[-48.16178,-8.19658],[-48.15964,-8.16868],[-48.15253,-8.1503],[-48.13467,-8.1151],[-48.125,-8.10101],[-48.10845,-8.08554],[-48.0691,-8.09045],[-48.04403,-8.08811],[-48.0,-8.07806],[-47.98311,-8.07221],[-47.96179,-8.0595],[-47.94975,-8.05473],[-47.9461,-8.04879],[-47.94586,-8.03202],[-47.95209,-8.01276],[-47.9507,-7.99519],[-47.95882,-7.948],[-47.95401,-7.92445],[-47.94049,-7.90753],[-47.93712,-7.89258],[-47.93999,-7.88003],[-47.93589,-7.86852],[-47.91852,-7.8586],[-47.90682,-7.82596],[-47.90589,-7.80368],[-47.8947,-7.79289],[-47.86026,-7.77707],[-47.8409,-7.77095],[-47.8083,-7.75673],[-47.7931,-7.75542],[-47.78246,-7.74801],[-47.77279,-7.73565],[-47.75358,-7.72422],[-47.73929,-7.71165],[-47.71813,-7.69687],[-47.69521,-7.68819],[-47.67623,-7.67619],[-47.65129,-7.65504],[-47.64311,-7.64462],[-47.62921,-7.61673],[-47.63206,-7.59109],[-47.63192,-7.57139],[-47.62358,-7.54204],[-47.62239,-7.52416],[-47.63089,-7.51365],[-47.63378,-7.5029],[-47.63004,-7.49116],[-47.62032,-7.48152],[-47.60346,-7.45506],[-47.59157,-7.44007],[-47.58467,-7.44532],[-47.56084,-7.44983],[-47.55324,-7.44202],[-47.52761,-7.43341],[-47.5028,-7.43906],[-47.49911,-7.45342],[-47.49636,-7.4814],[-47.47978,-7.494],[-47.48025,-7.526],[-47.47467,-7.53412],[-47.46613,-7.52819],[-47.46212,-7.51852],[-47.43918,-7.52085],[-47.42433,-7.53036],[-47.42745,-7.54488],[-47.43983,-7.55502],[-47.42031,-7.56315],[-47.40986,-7.56252],[-47.40018,-7.56788],[-47.40339,-7.58845],[-47.3832,-7.59982],[-47.3833,-7.61975],[-47.38842,-7.63103],[-47.38729,-7.64483],[-47.38228,-7.6546],[-47.366,-7.65541],[-47.3544,-7.64891],[-47.35256,-7.64179],[-47.36563,-7.63588],[-47.37383,-7.62174],[-47.35696,-7.61651],[-47.34864,-7.63227],[-47.33699,-7.63622],[-47.323,-7.65592],[-47.31566,-7.65929],[-47.3203,-7.66425],[-47.33685,-7.66402],[-47.33206,-7.67274],[-47.33167,-7.68544],[-47.31793,-7.68892],[-47.30454,-7.6886],[-47.30261,-7.70164],[-47.31077,-7.69842],[-47.31716,-7.70435],[-47.30704,-7.71476],[-47.31617,-7.71751],[-47.31344,-7.7312],[-47.30581,-7.73481],[-47.28894,-7.72954],[-47.28295,-7.73504],[-47.27548,-7.7303],[-47.27399,-7.74571],[-47.26478,-7.73992],[-47.26064,-7.74347],[-47.2658,-7.76036],[-47.26112,-7.75505],[-47.24659,-7.75817],[-47.25476,-7.76798],[-47.246,-7.78097],[-47.24849,-7.78561],[-47.2408,-7.79467],[-47.24749,-7.80104],[-47.23656,-7.80283],[-47.24668,-7.80862],[-47.23359,-7.81898],[-47.23548,-7.82375],[-47.22493,-7.82625],[-47.215,-7.8361],[-47.20791,-7.83349],[-47.19904,-7.8429],[-47.199,-7.84916],[-47.19016,-7.84212],[-47.18771,-7.85866],[-47.1811,-7.85522],[-47.17661,-7.87131],[-47.1652,-7.87935],[-47.15307,-7.89605],[-47.1432,-7.89518],[-47.14579,-7.91389],[-47.13962,-7.92548],[-47.12204,-7.92191],[-47.11767,-7.93908],[-47.10837,-7.93766],[-47.11752,-7.95223],[-47.11309,-7.95857],[-47.10586,-7.95207],[-47.10327,-7.96706],[-47.10711,-7.97082],[-47.09881,-7.9791],[-47.10747,-7.99032],[-47.0847,-7.9877],[-47.07533,-8.0],[-47.06754,-7.99805],[-47.063,-8.00389],[-47.05415,-8.04239],[-47.04555,-8.04626],[-47.0458,-8.05276],[-47.01756,-8.05729],[-47.00919,-8.06246],[-47.0026,-8.05777],[-46.99681,-8.06598],[-46.99397,-8.05345],[-46.9818,-8.05029],[-46.96348,-8.03909],[-46.96619,-8.03341],[-46.95364,-8.02512],[-46.95687,-8.01688],[-46.94129,-7.99772],[-46.92378,-7.99191],[-46.92178,-7.98474],[-46.90893,-7.98061],[-46.90487,-7.9871],[-46.89528,-7.98535],[-46.88326,-7.96425],[-46.87212,-7.9551],[-46.8667,-7.96951],[-46.8598,-7.96008],[-46.8475,-7.95879],[-46.84044,-7.96589],[-46.83781,-7.95939],[-46.83007,-7.96414],[-46.81365,-7.95115],[-46.80016,-7.95075],[-46.80091,-7.95533],[-46.78601,-7.95293],[-46.77076,-7.93744],[-46.76385,-7.93923],[-46.75611,-7.92291],[-46.74597,-7.92739],[-46.73235,-7.91953],[-46.72308,-7.92182],[-46.7207,-7.91508],[-46.70754,-7.9098],[-46.69424,-7.91683],[-46.68424,-7.91275],[-46.66831,-7.91294],[-46.66743,-7.90404],[-46.66008,-7.90133],[-46.65056,-7.90965],[-46.6393,-7.90311],[-46.60855,-7.89302],[-46.59046,-7.9067],[-46.57754,-7.91155],[-46.57735,-7.91635],[-46.56125,-7.93764],[-46.547,-7.95105],[-46.53368,-7.95256],[-46.51871,-7.95931],[-46.50815,-7.97081],[-46.50121,-7.97321],[-46.4851,-7.99764],[-46.48548,-8.00452],[-46.47637,-8.01472],[-46.48003,-8.04216],[-46.46575,-8.07273],[-46.46851,-8.08369],[-46.48036,-8.08811],[-46.48789,-8.09982],[-46.4909,-8.11824],[-46.50672,-8.14765],[-46.50627,-8.15514],[-46.51307,-8.16299],[-46.51522,-8.17286],[-46.51081,-8.18149],[-46.49168,-8.19256],[-46.48858,-8.20681],[-46.5007,-8.21738],[-46.50956,-8.23904],[-46.50736,-8.24665],[-46.50772,-8.26964],[-46.51889,-8.29153],[-46.53159,-8.29842],[-46.544,-8.31744],[-46.55837,-8.32237],[-46.57996,-8.32202],[-46.59398,-8.3272],[-46.617,-8.3264],[-46.63319,-8.31831],[-46.64481,-8.32276],[-46.66217,-8.33502],[-46.68086,-8.33702],[-46.68751,-8.34479],[-46.70283,-8.34827],[-46.71164,-8.35484],[-46.71274,-8.36138],[-46.72372,-8.37008],[-46.7281,-8.38638],[-46.73653,-8.37921],[-46.75003,-8.374],[-46.75947,-8.37829],[-46.78243,-8.36808],[-46.78665,-8.38224],[-46.79193,-8.38805],[-46.78573,-8.39537],[-46.795,-8.40486],[-46.80675,-8.40238],[-46.79777,-8.41766],[-46.79572,-8.42869],[-46.80198,-8.44401],[-46.79656,-8.44663],[-46.81553,-8.47036],[-46.82079,-8.46548],[-46.82348,-8.4745],[-46.83233,-8.46495],[-46.85225,-8.48105],[-46.84634,-8.50142],[-46.85216,-8.51591],[-46.84335,-8.52285],[-46.85084,-8.52582],[-46.84603,-8.53358],[-46.8517,-8.54275],[-46.86012,-8.54526],[-46.86284,-8.55909],[-46.87545,-8.5553],[-46.87876,-8.57252],[-46.89048,-8.57068],[-46.90318,-8.59324],[-46.91251,-8.59022],[-46.9164,-8.59578],[-46.90626,-8.59574],[-46.89773,-8.60102],[-46.9019,-8.61319],[-46.91273,-8.62074],[-46.91709,-8.63291],[-46.9117,-8.63969],[-46.91639,-8.64841],[-46.90209,-8.6544],[-46.90389,-8.66171],[-46.88917,-8.66979],[-46.88695,-8.68649],[-46.90245,-8.69598],[-46.91437,-8.70858],[-46.91404,-8.72244],[-46.92256,-8.72768],[-46.93128,-8.72675],[-46.92487,-8.74422],[-46.91795,-8.75129],[-46.91731,-8.76244],[-46.90959,-8.76453],[-46.90423,-8.77856],[-46.9061,-8.79465],[-46.90281,-8.81454],[-46.91368,-8.82282],[-46.90729,-8.82843],[-46.91809,-8.8397],[-46.91345,-8.84783],[-46.91815,-8.857],[-46.94156,-8.85948],[-46.94973,-8.87015],[-46.96118,-8.87444],[-46.96556,-8.86767],[-46.97811,-8.86777],[-46.99292,-8.87889],[-46.98607,-8.88839],[-46.98895,-8.89262],[-46.98279,-8.90294],[-46.97562,-8.90304],[-46.97029,-8.91449],[-46.98239,-8.91997],[-46.98392,-8.9319],[-46.99528,-8.93057],[-46.99356,-8.94364],[-47.01126,-8.9466],[-47.01828,-8.95294],[-47.01318,-8.9668],[-47.02156,-8.98048],[-47.02093,-8.98773],[-47.03586,-8.98981],[-47.03662,-8.9995],[-47.04403,-9.00687],[-47.06209,-9.00769],[-47.0685,-9.01202],[-47.05648,-9.01887],[-47.05128,-9.01555],[-47.04348,-9.02655],[-47.05409,-9.03375],[-47.05425,-9.04816],[-47.06799,-9.05601],[-47.06873,-9.06387],[-47.04842,-9.07131],[-47.03438,-9.06946],[-47.02356,-9.07605],[-47.01021,-9.0703],[-47.01362,-9.07808],[-47.00042,-9.08148],[-46.9987,-9.07639],[-46.98714,-9.07554],[-46.97593,-9.08173],[-46.96564,-9.07861],[-46.9542,-9.0695],[-46.94029,-9.06374],[-46.92162,-9.06681],[-46.91215,-9.08272],[-46.91897,-9.08719],[-46.9291,-9.08334],[-46.93059,-9.09566],[-46.92356,-9.09789],[-46.93026,-9.10598],[-46.92648,-9.11457],[-46.9318,-9.12807],[-46.92631,-9.13494],[-46.91768,-9.13209],[-46.90673,-9.13549],[-46.89597,-9.12254],[-46.88878,-9.12871],[-46.88928,-9.1423],[-46.87095,-9.14701],[-46.86112,-9.14642],[-46.85242,-9.15445],[-46.84781,-9.16801],[-46.85237,-9.18614],[-46.85071,-9.19184],[-46.83929,-9.19759],[-46.82781,-9.19427],[-46.81961,-9.21162],[-46.82687,-9.22333],[-46.82889,-9.24009],[-46.81915,-9.25743],[-46.82276,-9.26632],[-46.83175,-9.26872],[-46.83433,-9.28086],[-46.84464,-9.28417],[-46.84706,-9.29242],[-46.84226,-9.30445],[-46.83531,-9.30822],[-46.81875,-9.30344],[-46.81095,-9.31354],[-46.79917,-9.33884],[-46.78398,-9.351],[-46.77967,-9.3585],[-46.76831,-9.3655],[-46.75867,-9.38122],[-46.76595,-9.4019],[-46.76337,-9.40895],[-46.75431,-9.4138],[-46.74104,-9.41202],[-46.73795,-9.40485],[-46.72331,-9.39636],[-46.69403,-9.39803],[-46.67492,-9.39078],[-46.66598,-9.39192],[-46.65158,-9.40607],[-46.63278,-9.41159],[-46.64792,-9.42715],[-46.64809,-9.44698],[-46.64001,-9.45772],[-46.62536,-9.46643],[-46.61345,-9.46528],[-46.60048,-9.47046],[-46.59266,-9.48346],[-46.57326,-9.47776],[-46.56098,-9.48403],[-46.55992,-9.494],[-46.57578,-9.50825],[-46.57453,-9.52068],[-46.55804,-9.53418],[-46.55702,-9.54077],[-46.54048,-9.55016],[-46.53917,-9.56014],[-46.58315,-9.58556],[-46.59239,-9.5872],[-46.59031,-9.59757],[-46.59553,-9.61423],[-46.60612,-9.63016],[-46.60595,-9.64583],[-46.61306,-9.66581],[-46.65334,-9.69344],[-46.64531,-9.71967],[-46.64742,-9.73035],[-46.64439,-9.74033],[-46.63223,-9.74888],[-46.62367,-9.75021],[-46.59614,-9.74725],[-46.57678,-9.75691],[-46.56934,-9.76972],[-46.57081,-9.7811],[-46.57966,-9.79635],[-46.57701,-9.80518],[-46.56248,-9.81069],[-46.53578,-9.80862],[-46.51287,-9.7975],[-46.50195,-9.82015],[-46.49451,-9.82622],[-46.49714,-9.84368],[-46.48033,-9.85526],[-46.49014,-9.86115],[-46.49165,-9.87007],[-46.4729,-9.87744],[-46.47084,-9.89805],[-46.47875,-9.92005],[-46.46572,-9.93706],[-46.47517,-9.94865],[-46.47663,-9.95703],[-46.47225,-9.97546],[-46.47731,-9.98985],[-46.45708,-10.01802],[-46.45739,-10.04574],[-46.4452,-10.07739],[-46.4207,-10.08088],[-46.39973,-10.10577],[-46.38397,-10.12014],[-46.379,-10.13012],[-46.36789,-10.16881],[-46.34821,-10.17309],[-46.33473,-10.18106],[-46.32478,-10.18319],[-46.31308,-10.17282],[-46.30564,-10.1771],[-46.26829,-10.18121],[-46.24083,-10.17189],[-46.21087,-10.16973],[-46.20201,-10.17401],[-46.1832,-10.19313],[-46.16898,-10.21138],[-46.1633,-10.21363],[-46.14041,-10.20676],[-46.13033,-10.20652],[-46.10713,-10.21288],[-46.09283,-10.2099],[-46.05841,-10.18556],[-46.03901,-10.17673],[-46.02828,-10.17687],[-46.02322,-10.18338],[-46.01808,-10.21874],[-46.01772,-10.24039],[-46.01242,-10.2507]]]},"properties":{"CD_REG":"1702","NM_REG":"Oriental do Tocantins","SIGLA_UF":"TO"}}]}