{"type":"FeatureCollection","features":[{"type":"Feature","geometry":{"type":"Polygon","coordinates":[[[-37.05318,-7.3795],[-37.04999,-7.37759],[-37.02562,-7.38604],[-37.01297,-7.40429],[-37.02598,-7.42246],[-37.01451,-7.43037],[-37.02362,-7.43387],[-37.01318,-7.44498],[-37.01073,-7.45364],[-37.00334,-7.45489],[-36.99406,-7.46471],[-36.99545,-7.47259],[-36.98542,-7.4756],[-36.98423,-7.48226],[-37.00325,-7.49639],[-37.01056,-7.48956],[-37.02167,-7.49669],[-37.04316,-7.50391],[-37.05382,-7.50457],[-37.06989,-7.51744],[-37.08506,-7.5173],[-37.1061,-7.53113],[-37.11834,-7.53443],[-37.12878,-7.54273],[-37.1371,-7.5552],[-37.16357,-7.57471],[-37.17898,-7.59709],[-37.18316,-7.61305],[-37.19275,-7.62382],[-37.19795,-7.6353],[-37.19513,-7.65206],[-37.18777,-7.65763],[-37.17681,-7.67278],[-37.17406,-7.68429],[-37.15454,-7.7064],[-37.15019,-7.71687],[-37.1506,-7.72903],[-37.13894,-7.74552],[-37.15703,-7.773],[-37.15195,-7.77984],[-37.15848,-7.79233],[-37.17137,-7.79517],[-37.17438,-7.79972],[-37.18304,-7.79072],[-37.19154,-7.79117],[-37.19796,-7.79892],[-37.21742,-7.80669],[-37.23056,-7.80674],[-37.23018,-7.81311],[-37.24366,-7.819],[-37.24046,-7.82309],[-37.22811,-7.82115],[-37.22209,-7.84225],[-37.24715,-7.8468],[-37.24409,-7.87385],[-37.26179,-7.88395],[-37.27712,-7.89785],[-37.28739,-7.90388],[-37.30365,-7.90418],[-37.3157,-7.90756],[-37.30809,-7.91627],[-37.3114,-7.92165],[-37.30898,-7.93418],[-37.31898,-7.9431],[-37.33473,-7.94305],[-37.3499,-7.94664],[-37.34767,-7.95436],[-37.35737,-7.97496],[-37.3406,-7.97514],[-37.34029,-7.97968],[-37.31243,-7.96776],[-37.30334,-7.97021],[-37.29178,-7.96531],[-37.2774,-7.97198],[-37.26354,-7.96818],[-37.24111,-7.97278],[-37.21959,-7.97279],[-37.22152,-7.96345],[-37.20792,-7.95187],[-37.19268,-7.9606],[-37.19276,-7.98357],[-37.17531,-7.99686],[-37.16042,-7.99715],[-37.15179,-8.00941],[-37.1484,-8.03512],[-37.15809,-8.05122],[-37.15685,-8.06453],[-37.14664,-8.07858],[-37.14371,-8.08797],[-37.14782,-8.10009],[-37.14256,-8.11794],[-37.14417,-8.125],[-37.15323,-8.12747],[-37.15861,-8.13887],[-37.151,-8.15004],[-37.16342,-8.15869],[-37.16023,-8.1704],[-37.14119,-8.17723],[-37.12645,-8.17368],[-37.11826,-8.17535],[-37.11895,-8.18399],[-37.1261,-8.1915],[-37.12291,-8.20907],[-37.11039,-8.22555],[-37.10043,-8.23371],[-37.08989,-8.23117],[-37.0809,-8.22189],[-37.06653,-8.233],[-37.08062,-8.24108],[-37.08223,-8.26189],[-37.07572,-8.268],[-37.05823,-8.26398],[-37.04028,-8.26618],[-37.02304,-8.28859],[-36.99116,-8.30296],[-36.97802,-8.29742],[-36.9602,-8.30047],[-36.94731,-8.29106],[-36.94703,-8.27737],[-36.923,-8.26983],[-36.90826,-8.25309],[-36.90959,-8.25495],[-36.90964,-8.29568],[-36.91833,-8.36031],[-36.92836,-8.39254],[-36.9278,-8.42382],[-36.91729,-8.43315],[-36.90285,-8.43795],[-36.91755,-8.45854],[-36.9244,-8.46421],[-36.9327,-8.45696],[-36.93552,-8.44808],[-36.94504,-8.4445],[-36.96931,-8.44435],[-36.9829,-8.45053],[-36.99138,-8.43605],[-37.00711,-8.44664],[-37.00283,-8.45238],[-37.00744,-8.47416],[-37.01963,-8.48798],[-37.02291,-8.4987],[-37.09022,-8.44079],[-37.13886,-8.42655],[-37.14904,-8.40346],[-37.16026,-8.4042],[-37.17299,-8.41503],[-37.20191,-8.41861],[-37.20876,-8.40744],[-37.23286,-8.40282],[-37.24943,-8.39064],[-37.25507,-8.3905],[-37.26171,-8.3995],[-37.28079,-8.38806],[-37.2949,-8.39475],[-37.32137,-8.4021],[-37.34008,-8.40458],[-37.34841,-8.40251],[-37.3631,-8.40567],[-37.36854,-8.41841],[-37.39051,-8.51089],[-37.41169,-8.81491],[-37.42102,-8.83102],[-37.41553,-8.84051],[-37.42456,-8.85856],[-37.41945,-8.86413],[-37.42394,-8.87291],[-37.43858,-8.86801],[-37.44865,-8.88024],[-37.48123,-8.84341],[-37.47758,-8.87341],[-37.49059,-8.88636],[-37.48987,-8.90385],[-37.50066,-8.9289],[-37.50762,-8.93656],[-37.51846,-8.93833],[-37.52529,-8.95438],[-37.52531,-8.96336],[-37.52803,-8.96042],[-37.54597,-8.96094],[-37.55594,-8.97047],[-37.57244,-8.97203],[-37.59575,-8.96881],[-37.61017,-8.98786],[-37.63836,-9.0038],[-37.6399,-8.99513],[-37.65778,-8.99267],[-37.65809,-8.9858],[-37.68215,-8.99733],[-37.68707,-8.98774],[-37.69774,-8.99121],[-37.69983,-8.98406],[-37.684,-8.97637],[-37.67192,-8.9745],[-37.68942,-8.95561],[-37.69049,-8.9488],[-37.69861,-8.94488],[-37.70371,-8.92231],[-37.71939,-8.9081],[-37.73222,-8.8795],[-37.74143,-8.87624],[-37.74649,-8.85908],[-37.75536,-8.84636],[-37.7659,-8.85446],[-37.77365,-8.85303],[-37.78483,-8.85945],[-37.79293,-8.87391],[-37.80975,-8.87711],[-37.82564,-8.88857],[-37.82036,-8.9087],[-37.83364,-8.92641],[-37.82623,-8.93272],[-37.84467,-8.93863],[-37.8584,-8.95415],[-37.86792,-8.95924],[-37.88173,-8.95058],[-37.89197,-8.96379],[-37.92231,-8.98664],[-37.93306,-8.99824],[-37.96148,-8.99968],[-37.97809,-9.01971],[-37.98849,-9.00057],[-37.99371,-8.99663],[-37.99912,-8.97526],[-38.00549,-8.96284],[-38.00648,-8.68005],[-38.00987,-8.66789],[-38.02473,-8.65231],[-38.01366,-8.64726],[-37.9933,-8.64718],[-37.97509,-8.65754],[-37.95285,-8.65205],[-37.94832,-8.64661],[-37.95153,-8.63441],[-37.93204,-8.61763],[-37.90798,-8.61123],[-37.90164,-8.60497],[-37.89226,-8.60538],[-37.78771,-8.41351],[-37.79862,-8.42099],[-37.79234,-8.39701],[-37.78511,-8.38342],[-37.80137,-8.3729],[-37.81282,-8.3832],[-37.8344,-8.38843],[-37.84381,-8.39891],[-37.8632,-8.40676],[-37.87184,-8.40758],[-37.88874,-8.39997],[-37.89413,-8.39284],[-37.91526,-8.40937],[-37.92503,-8.42545],[-37.93121,-8.42967],[-37.93065,-8.43827],[-37.96665,-8.45858],[-37.97826,-8.45923],[-38.00158,-8.45284],[-38.00715,-8.45746],[-38.02239,-8.45023],[-38.0269,-8.45844],[-38.03754,-8.45969],[-38.04899,-8.45103],[-38.07215,-8.44504],[-38.07971,-8.43316],[-38.08211,-8.42113],[-38.09495,-8.41353],[-38.10627,-8.41258],[-38.12281,-8.40616],[-38.1323,-8.40846],[-38.15895,-8.40248],[-38.16776,-8.39787],[-38.16659,-8.38789],[-38.17692,-8.35903],[-38.18283,-8.35666],[-38.19014,-8.3263],[-38.19424,-8.31861],[-38.19,-8.30091],[-38.19307,-8.29144],[-38.17867,-8.27667],[-38.19779,-8.27909],[-38.20669,-8.28545],[-38.24437,-8.26106],[-38.25061,-8.26295],[-38.26481,-8.25391],[-38.27945,-8.26892],[-38.29075,-8.28507],[-38.30893,-8.28727],[-38.31432,-8.29169],[-38.33293,-8.29032],[-38.33773,-8.28303],[-38.34743,-8.28728],[-38.36768,-8.28079],[-38.37688,-8.29022],[-38.38663,-8.29332],[-38.40661,-8.3058],[-38.41925,-8.3292],[-38.41656,-8.34067],[-38.43122,-8.34988],[-38.42703,-8.35476],[-38.4363,-8.35616],[-38.44198,-8.37031],[-38.44993,-8.36712],[-38.46898,-8.402],[-38.48902,-8.42179],[-38.49411,-8.42119],[-38.4998,-8.43461],[-38.51847,-8.44159],[-38.51405,-8.42944],[-38.51378,-8.40485],[-38.51743,-8.40051],[-38.50444,-8.3579],[-38.50942,-8.35174],[-38.50059,-8.33614],[-38.49095,-8.33692],[-38.48563,-8.32809],[-38.48668,-8.31474],[-38.49952,-8.32019],[-38.50461,-8.31839],[-38.50681,-8.30667],[-38.51469,-8.30426],[-38.53993,-8.28738],[-38.55256,-8.28843],[-38.55495,-8.29309],[-38.5711,-8.29936],[-38.57677,-8.29699],[-38.58776,-8.3038],[-38.60705,-8.30516],[-38.61324,-8.31006],[-38.62856,-8.31083],[-38.64461,-8.30274],[-38.65011,-8.29085],[-38.66718,-8.28506],[-38.69767,-8.2681],[-38.70066,-8.26317],[-38.71996,-8.25803],[-38.73931,-8.24502],[-38.81253,-8.23521],[-38.81702,-8.24519],[-38.83738,-8.26755],[-38.85091,-8.28616],[-38.85794,-8.28667],[-38.87016,-8.29826],[-38.91514,-8.33389],[-38.91524,-8.33996],[-38.92834,-8.35653],[-38.93768,-8.35378],[-38.95244,-8.35685],[-38.96417,-8.35136],[-38.97912,-8.35655],[-38.99402,-8.35509],[-38.99686,-8.37429],[-39.01208,-8.3801],[-39.01512,-8.37517],[-39.03031,-8.3735],[-39.04652,-8.37966],[-39.20873,-8.22721],[-39.24949,-8.2138],[-39.25643,-8.21812],[-39.28443,-8.22175],[-39.3018,-8.22733],[-39.31736,-8.1826],[-39.31073,-8.17927],[-39.29722,-8.15311],[-39.2992,-8.12199],[-39.29133,-8.11086],[-39.29478,-8.1017],[-39.303,-8.09499],[-39.31547,-8.09241],[-39.29807,-8.04321],[-39.30243,-8.0487],[-39.32379,-8.05337],[-39.34402,-8.05385],[-39.34982,-8.0507],[-39.36705,-8.05157],[-39.37048,-8.05822],[-39.39746,-8.0737],[-39.39775,-8.08324],[-39.40349,-8.09799],[-39.40972,-8.10189],[-39.40702,-8.1091],[-39.41501,-8.11315],[-39.41492,-8.1195],[-39.43033,-8.11993],[-39.42451,-8.13597],[-39.42981,-8.14264],[-39.42474,-8.14958],[-39.43657,-8.15095],[-39.44673,-8.14119],[-39.46918,-8.14271],[-39.47872,-8.15534],[-39.5376,-8.18041],[-39.54775,-8.18906],[-39.54293,-8.20463],[-39.52474,-8.21653],[-39.51523,-8.21249],[-39.49976,-8.21872],[-39.49626,-8.21261],[-39.48137,-8.2237],[-39.46539,-8.22322],[-39.46183,-8.23554],[-39.49467,-8.24763],[-39.50864,-8.23908],[-39.52114,-8.24207],[-39.5396,-8.23786],[-39.54306,-8.24445],[-39.56011,-8.24539],[-39.56932,-8.24936],[-39.6827,-8.34969],[-39.68465,-8.37058],[-39.6789,-8.38111],[-39.67026,-8.38586],[-39.66792,-8.39651],[-39.6746,-8.40946],[-39.66545,-8.41713],[-39.67376,-8.42944],[-39.67017,-8.44285],[-39.67823,-8.45128],[-39.67977,-8.43923],[-39.70194,-8.4152],[-39.71368,-8.40955],[-39.71147,-8.3984],[-39.72199,-8.39341],[-39.72423,-8.38191],[-39.73229,-8.37551],[-39.74137,-8.37701],[-39.74439,-8.37161],[-39.7472,-8.34793],[-39.75638,-8.34505],[-39.76668,-8.35341],[-39.77151,-8.34132],[-39.78346,-8.3394],[-39.78778,-8.33266],[-39.797,-8.33623],[-39.80831,-8.32999],[-39.82025,-8.33206],[-39.83436,-8.3296],[-39.85109,-8.33562],[-39.86167,-8.34991],[-39.87325,-8.35929],[-39.88179,-8.36039],[-39.89805,-8.3737],[-39.91832,-8.3678],[-39.92149,-8.36967],[-39.94003,-8.36437],[-39.96369,-8.3777],[-39.9896,-8.36483],[-39.99278,-8.35851],[-40.01108,-8.3563],[-40.01873,-8.37058],[-40.02984,-8.3745],[-40.04348,-8.3643],[-40.05607,-8.36532],[-40.0596,-8.36963],[-40.08241,-8.37144],[-40.09074,-8.36654],[-40.09513,-8.34915],[-40.10872,-8.34809],[-40.13399,-8.36072],[-40.13954,-8.38256],[-40.15238,-8.40633],[-40.15938,-8.40555],[-40.16594,-8.41827],[-40.17799,-8.4195],[-40.19347,-8.44873],[-40.19735,-8.46142],[-40.19015,-8.48773],[-40.19063,-8.50423],[-40.19424,-8.51173],[-40.20737,-8.50301],[-40.22752,-8.50361],[-40.23761,-8.51102],[-40.25049,-8.50721],[-40.25593,-8.49684],[-40.26314,-8.49848],[-40.26359,-8.50633],[-40.27033,-8.5099],[-40.28244,-8.50823],[-40.28709,-8.50035],[-40.29589,-8.50104],[-40.29958,-8.51193],[-40.32956,-8.51716],[-40.3398,-8.51568],[-40.35043,-8.50778],[-40.35748,-8.49655],[-40.35394,-8.48969],[-40.35743,-8.48139],[-40.35353,-8.46763],[-40.35937,-8.46299],[-40.35833,-8.45334],[-40.36492,-8.43148],[-40.37305,-8.42984],[-40.38734,-8.41158],[-40.39575,-8.41601],[-40.3964,-8.40811],[-40.40497,-8.40848],[-40.40969,-8.40186],[-40.42134,-8.40427],[-40.43648,-8.38868],[-40.43901,-8.37836],[-40.4528,-8.36353],[-40.46246,-8.36091],[-40.46846,-8.36592],[-40.47711,-8.36164],[-40.49522,-8.37011],[-40.50252,-8.36572],[-40.51303,-8.37123],[-40.52371,-8.36637],[-40.53091,-8.36831],[-40.53977,-8.38423],[-40.54233,-8.37786],[-40.55833,-8.37186],[-40.57313,-8.36296],[-40.59737,-8.36396],[-40.61119,-8.37244],[-40.62234,-8.36844],[-40.63103,-8.37578],[-40.64083,-8.37536],[-40.64551,-8.38103],[-40.65925,-8.37908],[-40.65909,-8.37148],[-40.67151,-8.36989],[-40.67867,-8.37463],[-40.68612,-8.35807],[-40.70321,-8.34731],[-40.71692,-8.3512],[-40.72855,-8.3475],[-40.74266,-8.33711],[-40.74947,-8.34258],[-40.75798,-8.33693],[-40.75614,-8.32635],[-40.7622,-8.31825],[-40.76384,-8.30306],[-40.78009,-8.29627],[-40.77824,-8.28614],[-40.78398,-8.26185],[-40.78113,-8.25259],[-40.76684,-8.24798],[-40.76317,-8.24321],[-40.7445,-8.24007],[-40.73687,-8.22823],[-40.72273,-8.22325],[-40.71106,-8.22506],[-40.70342,-8.21713],[-40.70059,-8.20261],[-40.69437,-8.20088],[-40.68441,-8.18778],[-40.67526,-8.18486],[-40.66781,-8.17534],[-40.66648,-8.16159],[-40.65851,-8.15656],[-40.6452,-8.15808],[-40.64278,-8.15007],[-40.63284,-8.1393],[-40.60132,-8.15017],[-40.59756,-8.14117],[-40.5895,-8.1378],[-40.59124,-8.12352],[-40.59934,-8.11562],[-40.60387,-8.10369],[-40.59876,-8.08086],[-40.56232,-8.00068],[-40.54422,-7.9646],[-40.54591,-7.93692],[-40.53812,-7.85694],[-40.54206,-7.83848],[-40.55486,-7.81843],[-40.57845,-7.80521],[-40.62864,-7.79256],[-40.64517,-7.7868],[-40.66379,-7.77476],[-40.67357,-7.76167],[-40.67348,-7.73937],[-40.66655,-7.72636],[-40.6356,-7.69983],[-40.62775,-7.68499],[-40.62183,-7.65832],[-40.62656,-7.63168],[-40.63673,-7.60852],[-40.64558,-7.59477],[-40.66266,-7.5795],[-40.68134,-7.55774],[-40.69408,-7.53872],[-40.70429,-7.51871],[-40.71529,-7.48795],[-40.71323,-7.473],[-40.7012,-7.45636],[-40.67201,-7.45271],[-40.6634,-7.44941],[-40.65232,-7.43334],[-40.54846,-7.39269],[-40.54042,-7.3414],[-40.54151,-7.33227],[-40.52372,-7.31845],[-40.51029,-7.32283],[-40.44906,-7.36113],[-40.43359,-7.36718],[-40.39388,-7.36817],[-40.37277,-7.36244],[-40.36098,-7.3556],[-40.35079,-7.33417],[-40.32939,-7.31856],[-40.32143,-7.30589],[-40.31074,-7.3007],[-40.28388,-7.29917],[-40.263,-7.30102],[-40.24197,-7.318],[-40.22076,-7.34127],[-40.19568,-7.35815],[-40.12775,-7.38191],[-40.08745,-7.38309],[-40.04516,-7.38074],[-40.00071,-7.37448],[-39.95295,-7.35387],[-39.92634,-7.341],[-39.91039,-7.33721],[-39.89767,-7.33968],[-39.8835,-7.33806],[-39.8577,-7.32543],[-39.84814,-7.32509],[-39.8287,-7.33237],[-39.81537,-7.32869],[-39.78923,-7.332],[-39.76043,-7.32626],[-39.74132,-7.32682],[-39.70619,-7.33776],[-39.67135,-7.35854],[-39.65309,-7.37226],[-39.64572,-7.38088],[-39.62662,-7.42704],[-39.60552,-7.42408],[-39.59308,-7.43235],[-39.57653,-7.4279],[-39.57159,-7.42983],[-39.56254,-7.46038],[-39.55283,-7.48066],[-39.53644,-7.48253],[-39.5121,-7.46715],[-39.50236,-7.46415],[-39.49244,-7.47126],[-39.46075,-7.47122],[-39.45674,-7.48044],[-39.45568,-7.50186],[-39.46969,-7.52057],[-39.4847,-7.53283],[-39.48424,-7.54109],[-39.47653,-7.55333],[-39.47346,-7.57286],[-39.46016,-7.57601],[-39.44763,-7.57224],[-39.43493,-7.57372],[-39.42327,-7.58681],[-39.42066,-7.60302],[-39.37609,-7.61177],[-39.3681,-7.62387],[-39.34153,-7.63693],[-39.33844,-7.64465],[-39.32144,-7.65423],[-39.31139,-7.65524],[-39.30689,-7.66509],[-39.28885,-7.6649],[-39.27032,-7.6599],[-39.26534,-7.66983],[-39.25282,-7.67729],[-39.24746,-7.69065],[-39.25256,-7.70493],[-39.24272,-7.70479],[-39.23805,-7.69855],[-39.22274,-7.6968],[-39.20834,-7.68948],[-39.19202,-7.69734],[-39.171,-7.71524],[-39.1423,-7.71903],[-39.13276,-7.72663],[-39.12385,-7.74325],[-39.10635,-7.76023],[-39.10033,-7.77571],[-39.10211,-7.78481],[-39.09056,-7.8096],[-39.09256,-7.82307],[-39.08797,-7.83262],[-39.09655,-7.85016],[-39.09299,-7.85756],[-39.06763,-7.84187],[-39.05376,-7.8193],[-39.02521,-7.82338],[-39.02159,-7.81485],[-39.01183,-7.81421],[-39.00141,-7.84013],[-38.98224,-7.84613],[-38.97464,-7.84297],[-38.96286,-7.84482],[-38.95936,-7.83826],[-38.96494,-7.82983],[-38.95325,-7.81938],[-38.95286,-7.81055],[-38.94477,-7.80391],[-38.9398,-7.79156],[-38.94638,-7.7814],[-38.94102,-7.77141],[-38.93958,-7.75877],[-38.92763,-7.75381],[-38.91611,-7.75854],[-38.91558,-7.74449],[-38.90035,-7.74488],[-38.89481,-7.75045],[-38.8814,-7.74743],[-38.8798,-7.7233],[-38.86974,-7.71154],[-38.8461,-7.72042],[-38.82811,-7.71961],[-38.82196,-7.71479],[-38.81502,-7.69739],[-38.81583,-7.68666],[-38.82424,-7.67834],[-38.81969,-7.66483],[-38.81219,-7.6688],[-38.79249,-7.6681],[-38.76061,-7.656],[-38.7428,-7.66032],[-38.74182,-7.64837],[-38.73219,-7.63387],[-38.71511,-7.62192],[-38.70541,-7.62204],[-38.69505,-7.6333],[-38.68674,-7.63504],[-38.66994,-7.66048],[-38.6636,-7.65752],[-38.65071,-7.66856],[-38.65141,-7.67708],[-38.64208,-7.67764],[-38.64199,-7.68615],[-38.62593,-7.6956],[-38.62619,-7.70635],[-38.61407,-7.71566],[-38.60783,-7.72705],[-38.60758,-7.73948],[-38.59774,-7.74204],[-38.59602,-7.75205],[-38.58996,-7.75568],[-38.57802,-7.74661],[-38.56393,-7.75669],[-38.54313,-7.749],[-38.53853,-7.75326],[-38.52496,-7.75464],[-38.5166,-7.74933],[-38.49658,-7.75003],[-38.4958,-7.73881],[-38.4807,-7.73218],[-38.46398,-7.73089],[-38.45708,-7.71811],[-38.43422,-7.72045],[-38.42763,-7.73004],[-38.40951,-7.73049],[-38.40082,-7.72006],[-38.40393,-7.71444],[-38.38225,-7.70748],[-38.37017,-7.69692],[-38.37007,-7.69265],[-38.35498,-7.67843],[-38.34469,-7.695],[-38.32669,-7.6937],[-38.32077,-7.69796],[-38.31203,-7.71631],[-38.31588,-7.72847],[-38.30896,-7.74217],[-38.30216,-7.7452],[-38.31676,-7.76461],[-38.30334,-7.76208],[-38.2946,-7.77797],[-38.30252,-7.7915],[-38.29899,-7.79744],[-38.29775,-7.81395],[-38.28679,-7.83022],[-38.27545,-7.83424],[-38.26309,-7.8281],[-38.25704,-7.83106],[-38.23857,-7.83073],[-38.23546,-7.82596],[-38.21861,-7.81847],[-38.21267,-7.81071],[-38.2036,-7.80759],[-38.17467,-7.78989],[-38.16422,-7.77991],[-38.14376,-7.78341],[-38.13143,-7.79576],[-38.12944,-7.8059],[-38.11618,-7.82256],[-38.07707,-7.83058],[-38.06535,-7.81975],[-38.07574,-7.80538],[-38.07526,-7.78242],[-38.0714,-7.77423],[-38.03958,-7.74812],[-38.02992,-7.74984],[-38.01246,-7.7658],[-38.00397,-7.77899],[-37.99027,-7.77888],[-37.98479,-7.77294],[-37.9706,-7.77758],[-37.95909,-7.76871],[-37.95257,-7.75663],[-37.94755,-7.75622],[-37.9431,-7.74104],[-37.92685,-7.72993],[-37.92393,-7.71511],[-37.91307,-7.70947],[-37.89433,-7.71363],[-37.90275,-7.69474],[-37.8806,-7.68365],[-37.86844,-7.66461],[-37.85716,-7.65197],[-37.83787,-7.6445],[-37.83113,-7.64735],[-37.80984,-7.64375],[-37.80106,-7.62605],[-37.78583,-7.6258],[-37.77817,-7.63477],[-37.77802,-7.64327],[-37.77106,-7.64739],[-37.76097,-7.66681],[-37.75065,-7.66289],[-37.74418,-7.6545],[-37.74037,-7.63609],[-37.75585,-7.61952],[-37.74571,-7.60933],[-37.74145,-7.59753],[-37.73495,-7.59721],[-37.72873,-7.57973],[-37.71726,-7.58036],[-37.70657,-7.56947],[-37.71009,-7.55953],[-37.70651,-7.55058],[-37.68215,-7.54838],[-37.67663,-7.53561],[-37.65582,-7.52342],[-37.64943,-7.53071],[-37.63038,-7.53251],[-37.61591,-7.52494],[-37.60977,-7.50803],[-37.58673,-7.49911],[-37.55693,-7.47975],[-37.54259,-7.47829],[-37.52796,-7.46531],[-37.5274,-7.44838],[-37.51564,-7.42756],[-37.50569,-7.41916],[-37.48763,-7.38942],[-37.49809,-7.37113],[-37.49604,-7.36482],[-37.46592,-7.35804],[-37.44755,-7.36104],[-37.4337,-7.3587],[-37.42551,-7.35292],[-37.41547,-7.36172],[-37.40814,-7.3581],[-37.38571,-7.35669],[-37.37242,-7.35056],[-37.34938,-7.33512],[-37.35728,-7.32311],[-37.32822,-7.28806],[-37.32048,-7.29049],[-37.28833,-7.28829],[-37.27527,-7.27429],[-37.23418,-7.27389],[-37.21418,-7.2913],[-37.19667,-7.29467],[-37.17692,-7.30955],[-37.16853,-7.31995],[-37.16534,-7.3366],[-37.14494,-7.33505],[-37.13531,-7.34666],[-37.12798,-7.344],[-37.12156,-7.35091],[-37.10186,-7.35663],[-37.09735,-7.35397],[-37.08562,-7.35826],[-37.07295,-7.36828],[-37.06741,-7.38338],[-37.05318,-7.3795]]]},"properties":{"CD_REG":"2601","NM_REG":"Sertão Pernambucano","SIGLA_UF":"PE"}},{"type":"Feature","geometry":{"type":"Polygon","coordinates":[[[-37.82623,-8.93272],[-37.8391,-8.97838],[-37.84601,-8.98477],[-37.85309,-9.00014],[-37.86715,-9.01163],[-37.8796,-9.01541],[-37.87523,-9.02462],[-37.88098,-9.04035],[-37.88771,-9.03507],[-37.90654,-9.04295],[-37.90709,-9.05116],[-37.93768,-9.08012],[-37.94268,-9.09222],[-37.95064,-9.09654],[-37.95485,-9.11131],[-37.96158,-9.12013],[-37.9712,-9.12434],[-37.97856,-9.14766],[-37.99366,-9.15533],[-37.99948,-9.15224],[-38.01101,-9.15603],[-38.02579,-9.15551],[-38.02951,-9.16451],[-38.04454,-9.16882],[-38.05698,-9.16763],[-38.0661,-9.17422],[-38.08257,-9.17059],[-38.09229,-9.17272],[-38.11405,-9.194],[-38.11537,-9.19836],[-38.13524,-9.21396],[-38.14391,-9.2182],[-38.15631,-9.24236],[-38.15738,-9.26262],[-38.17955,-9.29125],[-38.20308,-9.2969],[-38.23759,-9.32979],[-38.24135,-9.32275],[-38.25055,-9.29048],[-38.28751,-9.21713],[-38.28009,-9.20113],[-38.28871,-9.17213],[-38.29866,-9.16389],[-38.31866,-9.141],[-38.3214,-9.11688],[-38.30459,-9.09679],[-38.32026,-9.09129],[-38.32619,-9.08096],[-38.32104,-9.07003],[-38.30374,-9.06164],[-38.28996,-9.04716],[-38.28968,-9.03633],[-38.30279,-9.01387],[-38.31694,-9.00129],[-38.32354,-8.99001],[-38.34024,-8.99041],[-38.36244,-9.00094],[-38.3859,-9.02483],[-38.40352,-9.03723],[-38.4184,-9.03805],[-38.4491,-9.02636],[-38.48404,-9.00102],[-38.48821,-8.99396],[-38.50351,-8.98141],[-38.51981,-8.94758],[-38.51937,-8.93935],[-38.51096,-8.92511],[-38.47932,-8.90174],[-38.47329,-8.88955],[-38.4698,-8.86424],[-38.48081,-8.84933],[-38.51241,-8.83059],[-38.54114,-8.82349],[-38.55184,-8.82263],[-38.57043,-8.83037],[-38.58995,-8.85654],[-38.60382,-8.88059],[-38.60759,-8.89326],[-38.60701,-8.91751],[-38.61028,-8.95733],[-38.6241,-8.98005],[-38.63538,-8.98673],[-38.6576,-8.98248],[-38.67438,-8.97176],[-38.68923,-8.9474],[-38.69417,-8.92467],[-38.69366,-8.90297],[-38.69838,-8.88176],[-38.70654,-8.86226],[-38.7171,-8.85315],[-38.73968,-8.84485],[-38.77147,-8.81729],[-38.77469,-8.81207],[-38.79699,-8.79346],[-38.8163,-8.78618],[-38.8681,-8.78387],[-38.88477,-8.7896],[-38.92797,-8.79577],[-38.94369,-8.80424],[-38.95193,-8.80467],[-38.96704,-8.79366],[-38.97743,-8.79309],[-38.98887,-8.77169],[-38.99938,-8.76109],[-39.02363,-8.74704],[-39.03355,-8.73631],[-39.0428,-8.73335],[-39.0702,-8.73031],[-39.10218,-8.72005],[-39.14395,-8.71252],[-39.15669,-8.70681],[-39.16748,-8.69254],[-39.181,-8.7063],[-39.20078,-8.71099],[-39.21763,-8.70846],[-39.22852,-8.71032],[-39.23427,-8.70534],[-39.24549,-8.68411],[-39.24802,-8.66877],[-39.24666,-8.64759],[-39.24188,-8.63631],[-39.24788,-8.625],[-39.26341,-8.61522],[-39.2727,-8.59649],[-39.27516,-8.57683],[-39.28642,-8.56376],[-39.31246,-8.55831],[-39.3204,-8.56004],[-39.34514,-8.5585],[-39.36446,-8.53785],[-39.37979,-8.53282],[-39.41604,-8.54213],[-39.42784,-8.55866],[-39.43549,-8.5633],[-39.45211,-8.5632],[-39.46125,-8.58204],[-39.47611,-8.59279],[-39.51861,-8.60391],[-39.52621,-8.61253],[-39.55666,-8.62309],[-39.55752,-8.62883],[-39.56857,-8.63665],[-39.5809,-8.64047],[-39.59523,-8.65121],[-39.6145,-8.65754],[-39.62258,-8.6555],[-39.65236,-8.66035],[-39.66087,-8.65735],[-39.68884,-8.66085],[-39.69304,-8.68051],[-39.68228,-8.71147],[-39.67382,-8.74546],[-39.67812,-8.75696],[-39.6733,-8.7849],[-39.69513,-8.79957],[-39.72177,-8.79902],[-39.74779,-8.79404],[-39.77548,-8.80911],[-39.7888,-8.81911],[-39.80359,-8.81869],[-39.81997,-8.81349],[-39.84479,-8.81825],[-39.8629,-8.8195],[-39.88682,-8.82499],[-39.89296,-8.82879],[-39.90274,-8.85058],[-39.90126,-8.86416],[-39.87942,-8.90191],[-39.87443,-8.93674],[-39.88882,-8.96584],[-39.90692,-8.98163],[-39.91701,-9.00121],[-39.92724,-9.00913],[-39.95803,-9.04859],[-39.96809,-9.0532],[-39.99798,-9.06112],[-40.04247,-9.05982],[-40.06556,-9.06307],[-40.0774,-9.07823],[-40.09247,-9.08592],[-40.10173,-9.09413],[-40.11987,-9.1021],[-40.12989,-9.1103],[-40.14433,-9.10655],[-40.15972,-9.10787],[-40.16765,-9.10316],[-40.17108,-9.09345],[-40.18409,-9.0853],[-40.1965,-9.07189],[-40.2236,-9.05667],[-40.23898,-9.05437],[-40.24786,-9.05774],[-40.26421,-9.07096],[-40.27319,-9.08242],[-40.28671,-9.11735],[-40.29333,-9.14674],[-40.29283,-9.15794],[-40.28732,-9.17108],[-40.28617,-9.18561],[-40.30051,-9.23121],[-40.30221,-9.2517],[-40.30954,-9.27551],[-40.31903,-9.28727],[-40.32561,-9.30586],[-40.33253,-9.31757],[-40.33734,-9.33507],[-40.33375,-9.35054],[-40.33887,-9.35989],[-40.3564,-9.37699],[-40.37142,-9.37872],[-40.39128,-9.37217],[-40.41815,-9.35205],[-40.43079,-9.35669],[-40.43931,-9.36828],[-40.45273,-9.39723],[-40.45382,-9.40352],[-40.46776,-9.42057],[-40.47417,-9.42079],[-40.4972,-9.40857],[-40.51073,-9.40718],[-40.5317,-9.41496],[-40.54179,-9.42603],[-40.54519,-9.4423],[-40.55576,-9.45794],[-40.57271,-9.46686],[-40.58745,-9.46574],[-40.59962,-9.46961],[-40.60856,-9.47679],[-40.62317,-9.4829],[-40.63586,-9.48102],[-40.65215,-9.47379],[-40.68132,-9.46722],[-40.72218,-9.44595],[-40.74984,-9.44385],[-40.76746,-9.45265],[-40.77675,-9.45445],[-40.76729,-9.4457],[-40.76008,-9.42577],[-40.76498,-9.41322],[-40.74309,-9.40295],[-40.74254,-9.38332],[-40.74648,-9.37105],[-40.73821,-9.3532],[-40.7414,-9.34678],[-40.73729,-9.33687],[-40.74231,-9.32721],[-40.75642,-9.31503],[-40.74398,-9.30623],[-40.73944,-9.29659],[-40.72009,-9.3059],[-40.70829,-9.29608],[-40.70869,-9.28688],[-40.68723,-9.27833],[-40.68048,-9.25769],[-40.68924,-9.25699],[-40.68646,-9.24355],[-40.6945,-9.23346],[-40.6807,-9.2122],[-40.67706,-9.19331],[-40.66987,-9.18613],[-40.67209,-9.17239],[-40.6674,-9.15906],[-40.67773,-9.15125],[-40.68509,-9.13761],[-40.70016,-9.14223],[-40.70989,-9.14088],[-40.73254,-9.12401],[-40.75039,-9.11789],[-40.7577,-9.11863],[-40.75678,-9.10498],[-40.76317,-9.10694],[-40.77509,-9.10088],[-40.78745,-9.10407],[-40.78946,-9.09895],[-40.8041,-9.09834],[-40.81319,-9.08317],[-40.82101,-9.07989],[-40.81915,-9.06909],[-40.82359,-9.06211],[-40.82637,-9.03681],[-40.83221,-9.03116],[-40.83437,-9.01052],[-40.84684,-8.99554],[-40.85211,-8.98047],[-40.85101,-8.95424],[-40.86132,-8.94802],[-40.86628,-8.92339],[-40.88123,-8.91563],[-40.88344,-8.90486],[-40.89504,-8.88909],[-40.8964,-8.87103],[-40.90304,-8.85862],[-40.91498,-8.84952],[-40.92134,-8.83543],[-40.94638,-8.845],[-40.95937,-8.84137],[-40.96091,-8.83076],[-40.97909,-8.82342],[-40.98976,-8.82944],[-41.00035,-8.8288],[-41.00993,-8.8336],[-41.01987,-8.84403],[-41.03132,-8.83496],[-41.02487,-8.80872],[-41.03623,-8.78588],[-41.05857,-8.7858],[-41.06959,-8.78173],[-41.07854,-8.78877],[-41.08207,-8.78434],[-41.10335,-8.78044],[-41.10596,-8.77055],[-41.11589,-8.76366],[-41.11302,-8.75973],[-41.12457,-8.75267],[-41.12899,-8.74339],[-41.1232,-8.71871],[-41.11192,-8.70872],[-41.11371,-8.7038],[-41.1764,-8.71119],[-41.19121,-8.707],[-41.20493,-8.70949],[-41.22527,-8.70467],[-41.23984,-8.71086],[-41.23768,-8.71876],[-41.26299,-8.72188],[-41.27826,-8.73531],[-41.29498,-8.73555],[-41.3051,-8.72738],[-41.33435,-8.72766],[-41.35834,-8.70762],[-41.33692,-8.70836],[-41.31766,-8.69815],[-41.30018,-8.68214],[-41.29546,-8.67018],[-41.28743,-8.66084],[-41.26873,-8.66322],[-41.25132,-8.66161],[-41.23949,-8.65583],[-41.23379,-8.64761],[-41.21354,-8.64416],[-41.20654,-8.6333],[-41.20775,-8.61027],[-41.21229,-8.60182],[-41.20288,-8.59928],[-41.19857,-8.59248],[-41.17921,-8.59259],[-41.16674,-8.58068],[-41.15701,-8.56044],[-41.14949,-8.53392],[-41.13463,-8.53354],[-41.12673,-8.54196],[-41.10838,-8.53073],[-41.10407,-8.52237],[-41.09049,-8.51263],[-41.08468,-8.50096],[-41.08219,-8.48008],[-41.07655,-8.47249],[-41.0576,-8.47766],[-41.04997,-8.4755],[-41.0516,-8.46512],[-41.04751,-8.44611],[-41.03899,-8.43183],[-41.02365,-8.42848],[-41.00738,-8.42093],[-40.99995,-8.4003],[-40.97855,-8.39865],[-40.96551,-8.41646],[-40.94959,-8.42956],[-40.94052,-8.43323],[-40.92685,-8.44634],[-40.90901,-8.42733],[-40.90229,-8.4231],[-40.90151,-8.41013],[-40.90779,-8.40137],[-40.88987,-8.38675],[-40.89267,-8.37179],[-40.89766,-8.36653],[-40.89163,-8.35609],[-40.87252,-8.35741],[-40.8625,-8.36499],[-40.85859,-8.37961],[-40.8374,-8.38113],[-40.81921,-8.36091],[-40.8222,-8.33614],[-40.8179,-8.32049],[-40.79279,-8.32003],[-40.78009,-8.29627],[-40.76384,-8.30306],[-40.7622,-8.31825],[-40.75614,-8.32635],[-40.75798,-8.33693],[-40.74947,-8.34258],[-40.74266,-8.33711],[-40.72855,-8.3475],[-40.71692,-8.3512],[-40.70321,-8.34731],[-40.68612,-8.35807],[-40.67867,-8.37463],[-40.67151,-8.36989],[-40.65909,-8.37148],[-40.65925,-8.37908],[-40.64551,-8.38103],[-40.64083,-8.37536],[-40.63103,-8.37578],[-40.62234,-8.36844],[-40.61119,-8.37244],[-40.59737,-8.36396],[-40.57313,-8.36296],[-40.55833,-8.37186],[-40.54233,-8.37786],[-40.53977,-8.38423],[-40.53091,-8.36831],[-40.52371,-8.36637],[-40.51303,-8.37123],[-40.50252,-8.36572],[-40.49522,-8.37011],[-40.47711,-8.36164],[-40.46846,-8.36592],[-40.46246,-8.36091],[-40.4528,-8.36353],[-40.43901,-8.37836],[-40.43648,-8.38868],[-40.42134,-8.40427],[-40.40969,-8.40186],[-40.40497,-8.40848],[-40.3964,-8.40811],[-40.39575,-8.41601],[-40.38734,-8.41158],[-40.37305,-8.42984],[-40.36492,-8.43148],[-40.35833,-8.45334],[-40.35937,-8.46299],[-40.35353,-8.46763],[-40.35743,-8.48139],[-40.35394,-8.48969],[-40.35748,-8.49655],[-40.35043,-8.50778],[-40.3398,-8.51568],[-40.32956,-8.51716],[-40.29958,-8.51193],[-40.29589,-8.50104],[-40.28709,-8.50035],[-40.28244,-8.50823],[-40.27033,-8.5099],[-40.26359,-8.50633],[-40.26314,-8.49848],[-40.25593,-8.49684],[-40.25049,-8.50721],[-40.23761,-8.51102],[-40.22752,-8.50361],[-40.20737,-8.50301],[-40.19424,-8.51173],[-40.19063,-8.50423],[-40.19015,-8.48773],[-40.19735,-8.46142],[-40.19347,-8.44873],[-40.17799,-8.4195],[-40.16594,-8.41827],[-40.15938,-8.40555],[-40.15238,-8.40633],[-40.13954,-8.38256],[-40.13399,-8.36072],[-40.10872,-8.34809],[-40.09513,-8.34915],[-40.09074,-8.36654],[-40.08241,-8.37144],[-40.0596,-8.36963],[-40.05607,-8.36532],[-40.04348,-8.3643],[-40.02984,-8.3745],[-40.01873,-8.37058],[-40.01108,-8.3563],[-39.99278,-8.35851],[-39.9896,-8.36483],[-39.96369,-8.3777],[-39.94003,-8.36437],[-39.92149,-8.36967],[-39.91832,-8.3678],[-39.89805,-8.3737],[-39.88179,-8.36039],[-39.87325,-8.35929],[-39.86167,-8.34991],[-39.85109,-8.33562],[-39.83436,-8.3296],[-39.82025,-8.33206],[-39.80831,-8.32999],[-39.797,-8.33623],[-39.78778,-8.33266],[-39.78346,-8.3394],[-39.77151,-8.34132],[-39.76668,-8.35341],[-39.75638,-8.34505],[-39.7472,-8.34793],[-39.74439,-8.37161],[-39.74137,-8.37701],[-39.73229,-8.37551],[-39.72423,-8.38191],[-39.72199,-8.39341],[-39.71147,-8.3984],[-39.71368,-8.40955],[-39.70194,-8.4152],[-39.67977,-8.43923],[-39.67823,-8.45128],[-39.67017,-8.44285],[-39.67376,-8.42944],[-39.66545,-8.41713],[-39.6746,-8.40946],[-39.66792,-8.39651],[-39.67026,-8.38586],[-39.6789,-8.38111],[-39.68465,-8.37058],[-39.6827,-8.34969],[-39.56932,-8.24936],[-39.56011,-8.24539],[-39.54306,-8.24445],[-39.5396,-8.23786],[-39.52114,-8.24207],[-39.50864,-8.23908],[-39.49467,-8.24763],[-39.46183,-8.23554],[-39.46539,-8.22322],[-39.48137,-8.2237],[-39.49626,-8.21261],[-39.49976,-8.21872],[-39.51523,-8.21249],[-39.52474,-8.21653],[-39.54293,-8.20463],[-39.54775,-8.18906],[-39.5376,-8.18041],[-39.47872,-8.15534],[-39.46918,-8.14271],[-39.44673,-8.14119],[-39.43657,-8.15095],[-39.42474,-8.14958],[-39.42981,-8.14264],[-39.42451,-8.13597],[-39.43033,-8.11993],[-39.41492,-8.1195],[-39.41501,-8.11315],[-39.40702,-8.1091],[-39.40972,-8.10189],[-39.40349,-8.09799],[-39.39775,-8.08324],[-39.39746,-8.0737],[-39.37048,-8.05822],[-39.36705,-8.05157],[-39.34982,-8.0507],[-39.34402,-8.05385],[-39.32379,-8.05337],[-39.30243,-8.0487],[-39.29807,-8.04321],[-39.31547,-8.09241],[-39.303,-8.09499],[-39.29478,-8.1017],[-39.29133,-8.11086],[-39.2992,-8.12199],[-39.29722,-8.15311],[-39.31073,-8.17927],[-39.31736,-8.1826],[-39.3018,-8.22733],[-39.28443,-8.22175],[-39.25643,-8.21812],[-39.24949,-8.2138],[-39.20873,-8.22721],[-39.04652,-8.37966],[-39.03031,-8.3735],[-39.01512,-8.37517],[-39.01208,-8.3801],[-38.99686,-8.37429],[-38.99402,-8.35509],[-38.97912,-8.35655],[-38.96417,-8.35136],[-38.95244,-8.35685],[-38.93768,-8.35378],[-38.92834,-8.35653],[-38.91524,-8.33996],[-38.91514,-8.33389],[-38.87016,-8.29826],[-38.85794,-8.28667],[-38.85091,-8.28616],[-38.83738,-8.26755],[-38.81702,-8.24519],[-38.81253,-8.23521],[-38.73931,-8.24502],[-38.71996,-8.25803],[-38.70066,-8.26317],[-38.69767,-8.2681],[-38.66718,-8.28506],[-38.65011,-8.29085],[-38.64461,-8.30274],[-38.62856,-8.31083],[-38.61324,-8.31006],[-38.60705,-8.30516],[-38.58776,-8.3038],[-38.57677,-8.29699],[-38.5711,-8.29936],[-38.55495,-8.29309],[-38.55256,-8.28843],[-38.53993,-8.28738],[-38.51469,-8.30426],[-38.50681,-8.30667],[-38.50461,-8.31839],[-38.49952,-8.32019],[-38.48668,-8.31474],[-38.48563,-8.32809],[-38.49095,-8.33692],[-38.50059,-8.33614],[-38.50942,-8.35174],[-38.50444,-8.3579],[-38.51743,-8.40051],[-38.51378,-8.40485],[-38.51405,-8.42944],[-38.51847,-8.44159],[-38.4998,-8.43461],[-38.49411,-8.42119],[-38.48902,-8.42179],[-38.46898,-8.402],[-38.44993,-8.36712],[-38.44198,-8.37031],[-38.4363,-8.35616],[-38.42703,-8.35476],[-38.43122,-8.34988],[-38.41656,-8.34067],[-38.41925,-8.3292],[-38.40661,-8.3058],[-38.38663,-8.29332],[-38.37688,-8.29022],[-38.36768,-8.28079],[-38.34743,-8.28728],[-38.33773,-8.28303],[-38.33293,-8.29032],[-38.31432,-8.29169],[-38.30893,-8.28727],[-38.29075,-8.28507],[-38.27945,-8.26892],[-38.26481,-8.25391],[-38.25061,-8.26295],[-38.24437,-8.26106],[-38.20669,-8.28545],[-38.19779,-8.27909],[-38.17867,-8.27667],[-38.19307,-8.29144],[-38.19,-8.30091],[-38.19424,-8.31861],[-38.19014,-8.3263],[-38.18283,-8.35666],[-38.17692,-8.35903],[-38.16659,-8.38789],[-38.16776,-8.39787],[-38.15895,-8.40248],[-38.1323,-8.40846],[-38.12281,-8.40616],[-38.10627,-8.41258],[-38.09495,-8.41353],[-38.08211,-8.42113],[-38.07971,-8.43316],[-38.07215,-8.44504],[-38.04899,-8.45103],[-38.03754,-8.45969],[-38.0269,-8.45844],[-38.02239,-8.45023],[-38.00715,-8.45746],[-38.00158,-8.45284],[-37.97826,-8.45923],[-37.96665,-8.45858],[-37.93065,-8.43827],[-37.93121,-8.42967],[-37.92503,-8.42545],[-37.91526,-8.40937],[-37.89413,-8.39284],[-37.88874,-8.39997],[-37.87184,-8.40758],[-37.8632,-8.40676],[-37.84381,-8.39891],[-37.8344,-8.38843],[-37.81282,-8.3832],[-37.80137,-8.3729],[-37.78511,-8.38342],[-37.79234,-8.39701],[-37.79862,-8.42099],[-37.78771,-8.41351],[-37.89226,-8.60538],[-37.90164,-8.60497],[-37.90798,-8.61123],[-37.93204,-8.61763],[-37.95153,-8.63441],[-37.94832,-8.64661],[-37.95285,-8.65205],[-37.97509,-8.65754],[-37.9933,-8.64718],[-38.01366,-8.64726],[-38.02473,-8.65231],[-38.00987,-8.66789],[-38.00648,-8.68005],[-38.00549,-8.96284],[-37.99912,-8.97526],[-37.99371,-8.99663],[-37.98849,-9.00057],[-37.97809,-9.01971],[-37.96148,-8.99968],[-37.93306,-8.99824],[-37.92231,-8.98664],[-37.89197,-8.96379],[-37.88173,-8.95058],[-37.86792,-8.95924],[-37.8584,-8.95415],[-37.84467,-8.93863],[-37.82623,-8.93272]]]},"properties":{"CD_REG":"2602","NM_REG":"São Francisco Pernambucano","SIGLA_UF":"PE"}},{"type":"Feature","geometry":{"type":"Polygon","coordinates":[[[-36.03326,-8.90842],[-36.06394,-8.91534],[-36.07345,-8.92564],[-36.08228,-8.94094],[-36.10095,-8.94928],[-36.12245,-8.95273],[-36.12825,-8.95772],[-36.12849,-8.97714],[-36.12461,-8.9834],[-36.11219,-8.98779],[-36.10433,-8.99893],[-36.11377,-9.00921],[-36.1115,-9.01767],[-36.12728,-9.03367],[-36.15173,-9.04269],[-36.17946,-9.04102],[-36.19851,-9.04668],[-36.2028,-9.06684],[-36.21034,-9.07314],[-36.22191,-9.0733],[-36.22247,-9.08643],[-36.23646,-9.10349],[-36.24096,-9.09939],[-36.26684,-9.10238],[-36.267,-9.11109],[-36.26069,-9.11852],[-36.26354,-9.126],[-36.25725,-9.14015],[-36.26707,-9.17158],[-36.27417,-9.1662],[-36.29498,-9.17244],[-36.32152,-9.18538],[-36.32764,-9.20077],[-36.33889,-9.20701],[-36.35141,-9.20136],[-36.34923,-9.21299],[-36.35593,-9.21839],[-36.3657,-9.22263],[-36.37587,-9.2167],[-36.39174,-9.22512],[-36.40693,-9.22067],[-36.4153,-9.22967],[-36.42437,-9.22602],[-36.4233,-9.21565],[-36.43183,-9.21213],[-36.45426,-9.22566],[-36.45366,-9.23239],[-36.46252,-9.23925],[-36.47612,-9.24377],[-36.48717,-9.2402],[-36.49134,-9.26241],[-36.55322,-9.28259],[-36.57184,-9.29258],[-36.57445,-9.30949],[-36.56405,-9.32351],[-36.56658,-9.33144],[-36.60655,-9.34072],[-36.615,-9.32367],[-36.63462,-9.3269],[-36.63545,-9.32078],[-36.64469,-9.31437],[-36.65893,-9.31606],[-36.67042,-9.31324],[-36.68745,-9.30082],[-36.68922,-9.29644],[-36.76177,-9.27146],[-36.79683,-9.28042],[-36.83604,-9.28863],[-36.84678,-9.27771],[-36.86747,-9.26853],[-36.87477,-9.27696],[-36.88979,-9.28364],[-36.89795,-9.2812],[-36.91369,-9.29606],[-36.92141,-9.30956],[-36.92679,-9.32721],[-36.92227,-9.33976],[-36.93655,-9.34989],[-36.93677,-9.36121],[-36.93044,-9.37004],[-36.94027,-9.38028],[-36.95546,-9.38125],[-36.97964,-9.35933],[-37.00336,-9.35261],[-37.01284,-9.33933],[-37.02429,-9.31572],[-37.04752,-9.31489],[-37.05534,-9.30745],[-37.05758,-9.31754],[-37.06193,-9.29737],[-37.0572,-9.28179],[-37.0673,-9.26724],[-37.09067,-9.24636],[-37.10817,-9.23872],[-37.11648,-9.24093],[-37.12992,-9.26006],[-37.14239,-9.26808],[-37.16434,-9.27571],[-37.16939,-9.27243],[-37.16828,-9.25183],[-37.15986,-9.23825],[-37.19832,-9.21548],[-37.21217,-9.22112],[-37.23434,-9.24018],[-37.22878,-9.22554],[-37.23236,-9.22232],[-37.23481,-9.20453],[-37.24679,-9.19038],[-37.24708,-9.17902],[-37.26656,-9.15905],[-37.28229,-9.14884],[-37.29657,-9.12092],[-37.31106,-9.10754],[-37.3107,-9.10042],[-37.31745,-9.0924],[-37.3277,-9.09323],[-37.33444,-9.08186],[-37.35864,-9.05389],[-37.39141,-9.02698],[-37.39614,-9.02011],[-37.4165,-9.00656],[-37.4312,-9.00768],[-37.4682,-8.99858],[-37.48398,-8.98898],[-37.49321,-8.99336],[-37.49709,-8.97204],[-37.50439,-8.96539],[-37.51911,-8.96833],[-37.52531,-8.96336],[-37.52529,-8.95438],[-37.51846,-8.93833],[-37.50762,-8.93656],[-37.50066,-8.9289],[-37.48987,-8.90385],[-37.49059,-8.88636],[-37.47758,-8.87341],[-37.48123,-8.84341],[-37.44865,-8.88024],[-37.43858,-8.86801],[-37.42394,-8.87291],[-37.41945,-8.86413],[-37.42456,-8.85856],[-37.41553,-8.84051],[-37.42102,-8.83102],[-37.41169,-8.81491],[-37.39051,-8.51089],[-37.36854,-8.41841],[-37.3631,-8.40567],[-37.34841,-8.40251],[-37.34008,-8.40458],[-37.32137,-8.4021],[-37.2949,-8.39475],[-37.28079,-8.38806],[-37.26171,-8.3995],[-37.25507,-8.3905],[-37.24943,-8.39064],[-37.23286,-8.40282],[-37.20876,-8.40744],[-37.20191,-8.41861],[-37.17299,-8.41503],[-37.16026,-8.4042],[-37.14904,-8.40346],[-37.13886,-8.42655],[-37.09022,-8.44079],[-37.02291,-8.4987],[-37.01963,-8.48798],[-37.00744,-8.47416],[-37.00283,-8.45238],[-37.00711,-8.44664],[-36.99138,-8.43605],[-36.9829,-8.45053],[-36.96931,-8.44435],[-36.94504,-8.4445],[-36.93552,-8.44808],[-36.9327,-8.45696],[-36.9244,-8.46421],[-36.91755,-8.45854],[-36.90285,-8.43795],[-36.91729,-8.43315],[-36.9278,-8.42382],[-36.92836,-8.39254],[-36.91833,-8.36031],[-36.90964,-8.29568],[-36.90959,-8.25495],[-36.90826,-8.25309],[-36.89595,-8.24082],[-36.87923,-8.23564],[-36.8617,-8.22243],[-36.81251,-8.20529],[-36.80578,-8.19544],[-36.7932,-8.18945],[-36.77537,-8.19072],[-36.76157,-8.19629],[-36.75351,-8.19148],[-36.75014,-8.1757],[-36.74089,-8.17237],[-36.72397,-8.17247],[-36.71578,-8.16732],[-36.72578,-8.15645],[-36.72281,-8.15096],[-36.70369,-8.15805],[-36.68704,-8.15568],[-36.69386,-8.14077],[-36.66523,-8.12326],[-36.64032,-8.11991],[-36.62861,-8.11105],[-36.62785,-8.10286],[-36.63698,-8.09325],[-36.64766,-8.09126],[-36.65036,-8.08133],[-36.65727,-8.08208],[-36.65647,-8.07307],[-36.64121,-8.06224],[-36.62882,-8.05706],[-36.62927,-8.02545],[-36.62655,-8.0027],[-36.62785,-7.98641],[-36.62317,-7.98208],[-36.62265,-7.96951],[-36.61346,-7.95652],[-36.61188,-7.9479],[-36.58686,-7.95866],[-36.57678,-7.95965],[-36.57419,-7.95167],[-36.57999,-7.94668],[-36.57253,-7.93057],[-36.5782,-7.91525],[-36.57171,-7.9045],[-36.55202,-7.89871],[-36.53147,-7.9028],[-36.51285,-7.91487],[-36.49939,-7.92031],[-36.48666,-7.91635],[-36.48014,-7.92476],[-36.46125,-7.91466],[-36.44411,-7.91528],[-36.44576,-7.90817],[-36.43692,-7.90027],[-36.4297,-7.88656],[-36.43992,-7.8762],[-36.42906,-7.86704],[-36.43094,-7.84985],[-36.42996,-7.82711],[-36.42405,-7.81578],[-36.40742,-7.81408],[-36.39454,-7.80761],[-36.37345,-7.81262],[-36.36317,-7.80608],[-36.33688,-7.80942],[-36.3134,-7.80643],[-36.30201,-7.80834],[-36.28524,-7.81789],[-36.27111,-7.83057],[-36.26133,-7.83208],[-36.2475,-7.8261],[-36.24001,-7.81768],[-36.24231,-7.80733],[-36.25123,-7.80457],[-36.2542,-7.79639],[-36.24631,-7.78531],[-36.22722,-7.76997],[-36.21663,-7.7641],[-36.20648,-7.77038],[-36.20435,-7.78296],[-36.19787,-7.79038],[-36.18353,-7.7839],[-36.14337,-7.78156],[-36.11851,-7.7858],[-36.09411,-7.77847],[-36.06899,-7.78097],[-36.05618,-7.79916],[-36.0505,-7.80112],[-36.04199,-7.79369],[-36.03364,-7.7966],[-36.02159,-7.81024],[-35.99822,-7.81376],[-35.99104,-7.79987],[-35.98137,-7.80319],[-35.97402,-7.792],[-35.95903,-7.78726],[-35.93866,-7.7889],[-35.92847,-7.78518],[-35.90936,-7.79251],[-35.89825,-7.78892],[-35.88383,-7.77478],[-35.88183,-7.75445],[-35.87212,-7.74954],[-35.86229,-7.75103],[-35.85066,-7.74751],[-35.83581,-7.74761],[-35.8285,-7.75165],[-35.80032,-7.74182],[-35.78058,-7.73835],[-35.759,-7.72241],[-35.74725,-7.7232],[-35.73655,-7.7096],[-35.71362,-7.70737],[-35.70677,-7.69577],[-35.69535,-7.69397],[-35.68411,-7.7078],[-35.66747,-7.69743],[-35.6568,-7.69768],[-35.64527,-7.69241],[-35.63152,-7.68124],[-35.62131,-7.66861],[-35.62477,-7.66588],[-35.60787,-7.65341],[-35.59749,-7.65434],[-35.58769,-7.65022],[-35.57192,-7.65797],[-35.5503,-7.66119],[-35.53461,-7.65548],[-35.52972,-7.64648],[-35.51506,-7.64224],[-35.51963,-7.64002],[-35.53169,-7.62167],[-35.52581,-7.60756],[-35.5181,-7.60643],[-35.52115,-7.59641],[-35.51519,-7.58502],[-35.52785,-7.59021],[-35.53784,-7.58664],[-35.53291,-7.57364],[-35.52721,-7.56996],[-35.51992,-7.55038],[-35.52138,-7.54118],[-35.51244,-7.53147],[-35.50918,-7.51749],[-35.50193,-7.51251],[-35.49046,-7.53154],[-35.48969,-7.55594],[-35.4772,-7.55728],[-35.46596,-7.55091],[-35.45653,-7.56201],[-35.45178,-7.5783],[-35.4584,-7.5978],[-35.45015,-7.60273],[-35.46287,-7.6171],[-35.45801,-7.63812],[-35.44865,-7.63979],[-35.44494,-7.64974],[-35.44567,-7.69272],[-35.41912,-7.72128],[-35.41284,-7.74048],[-35.43783,-7.75035],[-35.40564,-7.77574],[-35.40563,-7.82504],[-35.38825,-7.85044],[-35.36971,-7.86029],[-35.37,-7.87068],[-35.36237,-7.87767],[-35.35543,-7.89063],[-35.32389,-7.93173],[-35.30472,-7.94196],[-35.38762,-8.00345],[-35.45724,-7.98896],[-35.46156,-8.00062],[-35.46006,-8.01326],[-35.46561,-8.03114],[-35.43906,-8.03975],[-35.4275,-8.0814],[-35.44304,-8.07962],[-35.47927,-8.10446],[-35.43886,-8.12696],[-35.44861,-8.17126],[-35.47286,-8.17535],[-35.49272,-8.18563],[-35.48311,-8.19762],[-35.48669,-8.20522],[-35.49741,-8.20503],[-35.51301,-8.22229],[-35.50975,-8.30053],[-35.52772,-8.29722],[-35.52875,-8.31529],[-35.55787,-8.32956],[-35.56295,-8.34263],[-35.54838,-8.33955],[-35.55016,-8.35951],[-35.5606,-8.36944],[-35.56203,-8.37628],[-35.58133,-8.3918],[-35.59661,-8.4084],[-35.59688,-8.41267],[-35.57736,-8.43106],[-35.5658,-8.41483],[-35.5546,-8.42477],[-35.55133,-8.43321],[-35.56389,-8.43942],[-35.56198,-8.4495],[-35.54655,-8.4527],[-35.54738,-8.4697],[-35.55662,-8.47766],[-35.54384,-8.47985],[-35.54295,-8.48746],[-35.55093,-8.48932],[-35.60181,-8.52262],[-35.63269,-8.55037],[-35.64011,-8.55198],[-35.64591,-8.53443],[-35.71063,-8.54721],[-35.69804,-8.54823],[-35.7008,-8.57097],[-35.69156,-8.58841],[-35.6915,-8.5983],[-35.6997,-8.59946],[-35.7061,-8.58713],[-35.71414,-8.58041],[-35.7243,-8.58038],[-35.71976,-8.58786],[-35.73019,-8.59321],[-35.74325,-8.59055],[-35.75393,-8.58284],[-35.76152,-8.59413],[-35.77257,-8.59971],[-35.77704,-8.59088],[-35.7918,-8.5999],[-35.80274,-8.59503],[-35.80875,-8.58426],[-35.81383,-8.5845],[-35.80173,-8.54637],[-35.81351,-8.5519],[-35.81906,-8.54658],[-35.82541,-8.52298],[-35.82716,-8.5283],[-35.83819,-8.52562],[-35.84539,-8.53308],[-35.84207,-8.541],[-35.85562,-8.53894],[-35.83871,-8.57883],[-35.847,-8.58298],[-35.85499,-8.61365],[-35.83409,-8.63145],[-35.82889,-8.62622],[-35.81762,-8.63741],[-35.81697,-8.64694],[-35.80727,-8.64986],[-35.81016,-8.67294],[-35.82169,-8.68101],[-35.81797,-8.68887],[-35.82103,-8.70899],[-35.84515,-8.71609],[-35.84574,-8.73506],[-35.86106,-8.75128],[-35.91895,-8.74941],[-35.92929,-8.74203],[-35.94229,-8.74671],[-35.96693,-8.74314],[-35.96627,-8.76214],[-35.97769,-8.77018],[-35.98595,-8.78096],[-36.02735,-8.77656],[-36.02498,-8.79034],[-36.04047,-8.76309],[-36.05579,-8.75508],[-36.07546,-8.77053],[-36.09071,-8.77687],[-36.12121,-8.83724],[-36.12549,-8.84235],[-36.06112,-8.89508],[-36.03326,-8.90842]]]},"properties":{"CD_REG":"2603","NM_REG":"Agreste Pernambucano","SIGLA_UF":"PE"}},{"type":"Feature","geometry":{"type":"MultiPolygon","coordinates":[[[[-35.50193,-7.51251],[-35.50401,-7.50797],[-35.49431,-7.48221],[-35.47608,-7.47623],[-35.46352,-7.46235],[-35.45381,-7.4626],[-35.45037,-7.45341],[-35.43766,-7.46055],[-35.4326,-7.47234],[-35.42471,-7.47442],[-35.41288,-7.47058],[-35.40983,-7.4628],[-35.39222,-7.456],[-35.3855,-7.44958],[-35.37596,-7.44889],[-35.36835,-7.44063],[-35.35299,-7.44127],[-35.3486,-7.43494],[-35.35263,-7.42416],[-35.33191,-7.41915],[-35.33502,-7.4068],[-35.3241,-7.41132],[-35.31404,-7.40575],[-35.30905,-7.40904],[-35.29588,-7.40137],[-35.28018,-7.38766],[-35.24859,-7.37478],[-35.21674,-7.38094],[-35.19955,-7.38773],[-35.19074,-7.39789],[-35.18081,-7.3959],[-35.17207,-7.38804],[-35.1276,-7.40168],[-35.10796,-7.40553],[-35.07052,-7.39876],[-35.0481,-7.41781],[-35.02956,-7.42582],[-35.0146,-7.44345],[-35.00274,-7.45353],[-34.98435,-7.46353],[-34.99018,-7.48888],[-34.98423,-7.50789],[-34.96944,-7.52107],[-34.96079,-7.53877],[-34.95062,-7.53762],[-34.93268,-7.52852],[-34.91732,-7.54177],[-34.8999,-7.53743],[-34.89554,-7.54507],[-34.88874,-7.5359],[-34.86739,-7.54796],[-34.85802,-7.53795],[-34.83859,-7.5443],[-34.83388,-7.54863],[-34.83905,-7.55394],[-34.8315,-7.57565],[-34.81291,-7.61304],[-34.80675,-7.62099],[-34.80883,-7.63023],[-34.82279,-7.65071],[-34.83465,-7.6841],[-34.84231,-7.68195],[-34.84821,-7.68779],[-34.85282,-7.69085],[-34.86088,-7.70938],[-34.87772,-7.70969],[-34.88372,-7.71437],[-34.89676,-7.70265],[-34.89048,-7.69293],[-34.90477,-7.6833],[-34.92326,-7.6909],[-34.92798,-7.69976],[-34.93799,-7.70513],[-34.96197,-7.70832],[-34.97175,-7.72909],[-34.98289,-7.73541],[-34.99914,-7.73125],[-35.01861,-7.73537],[-35.03559,-7.74317],[-35.0452,-7.74448],[-35.09813,-7.71518],[-35.11167,-7.74099],[-35.11021,-7.74923],[-35.12019,-7.76625],[-35.12624,-7.76999],[-35.13996,-7.79226],[-35.12203,-7.84948],[-35.1127,-7.85718],[-35.09996,-7.88213],[-35.07739,-7.89826],[-35.0657,-7.89954],[-35.06267,-7.90552],[-35.04878,-7.90919],[-35.02893,-7.93384],[-35.04634,-7.94823],[-35.05156,-7.9438],[-35.07357,-7.95078],[-35.07815,-7.96095],[-35.09249,-7.96595],[-35.09898,-7.97246],[-35.11079,-7.96814],[-35.12957,-7.97447],[-35.14307,-7.96914],[-35.16716,-7.9732],[-35.16524,-7.98178],[-35.17916,-7.99549],[-35.1854,-7.99126],[-35.20177,-8.00294],[-35.20454,-8.0116],[-35.22225,-8.01889],[-35.2041,-8.0376],[-35.19813,-8.0584],[-35.19758,-8.08143],[-35.20931,-8.11991],[-35.22724,-8.13308],[-35.21848,-8.14916],[-35.22698,-8.15532],[-35.21899,-8.18758],[-35.22848,-8.19802],[-35.22726,-8.20681],[-35.24233,-8.21125],[-35.24214,-8.19504],[-35.25036,-8.18771],[-35.25049,-8.19835],[-35.25948,-8.21768],[-35.26597,-8.25025],[-35.25943,-8.26433],[-35.25268,-8.26399],[-35.25001,-8.27821],[-35.23701,-8.27387],[-35.23821,-8.29166],[-35.22969,-8.29461],[-35.21047,-8.28753],[-35.20432,-8.29606],[-35.19075,-8.29377],[-35.15174,-8.27919],[-35.14584,-8.28919],[-35.14895,-8.29951],[-35.14015,-8.30993],[-35.15405,-8.32085],[-35.17072,-8.35512],[-35.17687,-8.35137],[-35.19305,-8.3575],[-35.19289,-8.3764],[-35.22436,-8.40388],[-35.23805,-8.41745],[-35.23028,-8.43527],[-35.203,-8.47902],[-35.16795,-8.47856],[-35.16325,-8.48584],[-35.14293,-8.49223],[-35.1424,-8.50055],[-35.1261,-8.51931],[-35.0775,-8.52932],[-35.07582,-8.53635],[-35.08216,-8.54264],[-35.08084,-8.55643],[-35.07098,-8.56432],[-35.06921,-8.57191],[-35.07339,-8.58261],[-35.06345,-8.59385],[-35.06532,-8.59721],[-35.04823,-8.60936],[-35.07077,-8.65031],[-35.07181,-8.67265],[-35.08397,-8.68163],[-35.09033,-8.69498],[-35.07902,-8.70363],[-35.07867,-8.71041],[-35.08951,-8.72892],[-35.08606,-8.74671],[-35.09414,-8.75838],[-35.10371,-8.76545],[-35.10612,-8.77316],[-35.10244,-8.7856],[-35.10657,-8.79414],[-35.11771,-8.80187],[-35.13022,-8.8249],[-35.13431,-8.84269],[-35.12921,-8.86656],[-35.14183,-8.88574],[-35.14429,-8.8995],[-35.15265,-8.91386],[-35.15598,-8.90277],[-35.17123,-8.89056],[-35.1981,-8.88736],[-35.21145,-8.88885],[-35.23784,-8.88272],[-35.25278,-8.88723],[-35.27758,-8.87516],[-35.28765,-8.87656],[-35.39457,-8.84984],[-35.39999,-8.85031],[-35.41123,-8.83623],[-35.44948,-8.842],[-35.45909,-8.83887],[-35.46676,-8.82826],[-35.46429,-8.81636],[-35.48058,-8.81993],[-35.48212,-8.82615],[-35.49575,-8.8283],[-35.50714,-8.81862],[-35.51777,-8.81676],[-35.5328,-8.82708],[-35.53462,-8.81992],[-35.56748,-8.83544],[-35.56838,-8.84162],[-35.58065,-8.84459],[-35.59411,-8.85485],[-35.59543,-8.85985],[-35.61378,-8.86439],[-35.63213,-8.88128],[-35.64427,-8.88298],[-35.65635,-8.8804],[-35.6712,-8.89663],[-35.69212,-8.90077],[-35.70028,-8.90659],[-35.7137,-8.9048],[-35.7484,-8.91715],[-35.76092,-8.90808],[-35.77324,-8.90614],[-35.78298,-8.89754],[-35.77914,-8.88864],[-35.78368,-8.882],[-35.77692,-8.86927],[-35.77598,-8.85846],[-35.78132,-8.86097],[-35.7876,-8.85113],[-35.79508,-8.84769],[-35.8079,-8.86039],[-35.82298,-8.85742],[-35.82575,-8.87034],[-35.83058,-8.86849],[-35.84914,-8.87181],[-35.86089,-8.8589],[-35.87552,-8.85889],[-35.88881,-8.86263],[-35.8962,-8.85427],[-35.90099,-8.86241],[-35.91142,-8.86129],[-35.92428,-8.88463],[-35.94254,-8.8856],[-35.96196,-8.89541],[-35.96355,-8.90241],[-35.97066,-8.9004],[-35.99191,-8.90472],[-36.00538,-8.913],[-36.03326,-8.90842],[-36.06112,-8.89508],[-36.12549,-8.84235],[-36.12121,-8.83724],[-36.09071,-8.77687],[-36.07546,-8.77053],[-36.05579,-8.75508],[-36.04047,-8.76309],[-36.02498,-8.79034],[-36.02735,-8.77656],[-35.98595,-8.78096],[-35.97769,-8.77018],[-35.96627,-8.76214],[-35.96693,-8.74314],[-35.94229,-8.74671],[-35.92929,-8.74203],[-35.91895,-8.74941],[-35.86106,-8.75128],[-35.84574,-8.73506],[-35.84515,-8.71609],[-35.82103,-8.70899],[-35.81797,-8.68887],[-35.82169,-8.68101],[-35.81016,-8.67294],[-35.80727,-8.64986],[-35.81697,-8.64694],[-35.81762,-8.63741],[-35.82889,-8.62622],[-35.83409,-8.63145],[-35.85499,-8.61365],[-35.847,-8.58298],[-35.83871,-8.57883],[-35.85562,-8.53894],[-35.84207,-8.541],[-35.84539,-8.53308],[-35.83819,-8.52562],[-35.82716,-8.5283],[-35.82541,-8.52298],[-35.81906,-8.54658],[-35.81351,-8.5519],[-35.80173,-8.54637],[-35.81383,-8.5845],[-35.80875,-8.58426],[-35.80274,-8.59503],[-35.7918,-8.5999],[-35.77704,-8.59088],[-35.77257,-8.59971],[-35.76152,-8.59413],[-35.75393,-8.58284],[-35.74325,-8.59055],[-35.73019,-8.59321],[-35.71976,-8.58786],[-35.7243,-8.58038],[-35.71414,-8.58041],[-35.7061,-8.58713],[-35.6997,-8.59946],[-35.6915,-8.5983],[-35.69156,-8.58841],[-35.7008,-8.57097],[-35.69804,-8.54823],[-35.71063,-8.54721],[-35.64591,-8.53443],[-35.64011,-8.55198],[-35.63269,-8.55037],[-35.60181,-8.52262],[-35.55093,-8.48932],[-35.54295,-8.48746],[-35.54384,-8.47985],[-35.55662,-8.47766],[-35.54738,-8.4697],[-35.54655,-8.4527],[-35.56198,-8.4495],[-35.56389,-8.43942],[-35.55133,-8.43321],[-35.5546,-8.42477],[-35.5658,-8.41483],[-35.57736,-8.43106],[-35.59688,-8.41267],[-35.59661,-8.4084],[-35.58133,-8.3918],[-35.56203,-8.37628],[-35.5606,-8.36944],[-35.55016,-8.35951],[-35.54838,-8.33955],[-35.56295,-8.34263],[-35.55787,-8.32956],[-35.52875,-8.31529],[-35.52772,-8.29722],[-35.50975,-8.30053],[-35.51301,-8.22229],[-35.49741,-8.20503],[-35.48669,-8.20522],[-35.48311,-8.19762],[-35.49272,-8.18563],[-35.47286,-8.17535],[-35.44861,-8.17126],[-35.43886,-8.12696],[-35.47927,-8.10446],[-35.44304,-8.07962],[-35.4275,-8.0814],[-35.43906,-8.03975],[-35.46561,-8.03114],[-35.46006,-8.01326],[-35.46156,-8.00062],[-35.45724,-7.98896],[-35.38762,-8.00345],[-35.30472,-7.94196],[-35.32389,-7.93173],[-35.35543,-7.89063],[-35.36237,-7.87767],[-35.37,-7.87068],[-35.36971,-7.86029],[-35.38825,-7.85044],[-35.40563,-7.82504],[-35.40564,-7.77574],[-35.43783,-7.75035],[-35.41284,-7.74048],[-35.41912,-7.72128],[-35.44567,-7.69272],[-35.44494,-7.64974],[-35.44865,-7.63979],[-35.45801,-7.63812],[-35.46287,-7.6171],[-35.45015,-7.60273],[-35.4584,-7.5978],[-35.45178,-7.5783],[-35.45653,-7.56201],[-35.46596,-7.55091],[-35.4772,-7.55728],[-35.48969,-7.55594],[-35.49046,-7.53154],[-35.50193,-7.51251]]],[[[-35.02033,-8.61183],[-35.02569,-8.61348],[-35.02354,-8.60855],[-35.02033,-8.61183]]]]},"properties":{"CD_REG":"2604","NM_REG":"Mata Pernambucana","SIGLA_UF":"PE"}},{"type":"Feature","geometry":{"type":"MultiPolygon","coordinates":[[[[-34.84821,-7.68779],[-34.83161,-7.70047],[-34.83297,-7.7135],[-34.82991,-7.72606],[-34.82574,-7.72553],[-34.82318,-7.7517],[-34.83543,-7.78481],[-34.83642,-7.80644],[-34.84504,-7.81307],[-34.84229,-7.84535],[-34.8379,-7.83996],[-34.83394,-7.86915],[-34.8245,-7.8845],[-34.82488,-7.904],[-34.82018,-7.91745],[-34.82276,-7.94246],[-34.83845,-7.99072],[-34.83694,-7.99553],[-34.84235,-8.01253],[-34.85923,-8.02831],[-34.86409,-8.04068],[-34.86224,-8.04847],[-34.87703,-8.08301],[-34.88186,-8.09845],[-34.89565,-8.12428],[-34.90881,-8.15518],[-34.91772,-8.18572],[-34.91782,-8.21198],[-34.92854,-8.22425],[-34.92544,-8.23297],[-34.9396,-8.24981],[-34.94525,-8.26382],[-34.94676,-8.27887],[-34.95211,-8.2977],[-34.94317,-8.30525],[-34.94991,-8.32167],[-34.94839,-8.34226],[-34.94061,-8.34526],[-34.94386,-8.35856],[-34.95561,-8.35622],[-34.95855,-8.36491],[-34.97275,-8.38154],[-34.98009,-8.38088],[-34.96055,-8.39567],[-34.98029,-8.43928],[-34.98371,-8.4581],[-34.99462,-8.47474],[-35.00244,-8.49718],[-34.99998,-8.50845],[-35.00655,-8.52382],[-35.00311,-8.54832],[-35.00874,-8.5544],[-35.00842,-8.5646],[-35.02264,-8.56104],[-35.03378,-8.57161],[-35.04622,-8.59762],[-35.04823,-8.60936],[-35.06532,-8.59721],[-35.06345,-8.59385],[-35.07339,-8.58261],[-35.06921,-8.57191],[-35.07098,-8.56432],[-35.08084,-8.55643],[-35.08216,-8.54264],[-35.07582,-8.53635],[-35.0775,-8.52932],[-35.1261,-8.51931],[-35.1424,-8.50055],[-35.14293,-8.49223],[-35.16325,-8.48584],[-35.16795,-8.47856],[-35.203,-8.47902],[-35.23028,-8.43527],[-35.23805,-8.41745],[-35.22436,-8.40388],[-35.19289,-8.3764],[-35.19305,-8.3575],[-35.17687,-8.35137],[-35.17072,-8.35512],[-35.15405,-8.32085],[-35.14015,-8.30993],[-35.14895,-8.29951],[-35.14584,-8.28919],[-35.15174,-8.27919],[-35.19075,-8.29377],[-35.20432,-8.29606],[-35.21047,-8.28753],[-35.22969,-8.29461],[-35.23821,-8.29166],[-35.23701,-8.27387],[-35.25001,-8.27821],[-35.25268,-8.26399],[-35.25943,-8.26433],[-35.26597,-8.25025],[-35.25948,-8.21768],[-35.25049,-8.19835],[-35.25036,-8.18771],[-35.24214,-8.19504],[-35.24233,-8.21125],[-35.22726,-8.20681],[-35.22848,-8.19802],[-35.21899,-8.18758],[-35.22698,-8.15532],[-35.21848,-8.14916],[-35.22724,-8.13308],[-35.20931,-8.11991],[-35.19758,-8.08143],[-35.19813,-8.0584],[-35.2041,-8.0376],[-35.22225,-8.01889],[-35.20454,-8.0116],[-35.20177,-8.00294],[-35.1854,-7.99126],[-35.17916,-7.99549],[-35.16524,-7.98178],[-35.16716,-7.9732],[-35.14307,-7.96914],[-35.12957,-7.97447],[-35.11079,-7.96814],[-35.09898,-7.97246],[-35.09249,-7.96595],[-35.07815,-7.96095],[-35.07357,-7.95078],[-35.05156,-7.9438],[-35.04634,-7.94823],[-35.02893,-7.93384],[-35.04878,-7.90919],[-35.06267,-7.90552],[-35.0657,-7.89954],[-35.07739,-7.89826],[-35.09996,-7.88213],[-35.1127,-7.85718],[-35.12203,-7.84948],[-35.13996,-7.79226],[-35.12624,-7.76999],[-35.12019,-7.76625],[-35.11021,-7.74923],[-35.11167,-7.74099],[-35.09813,-7.71518],[-35.0452,-7.74448],[-35.03559,-7.74317],[-35.01861,-7.73537],[-34.99914,-7.73125],[-34.98289,-7.73541],[-34.97175,-7.72909],[-34.96197,-7.70832],[-34.93799,-7.70513],[-34.92798,-7.69976],[-34.92326,-7.6909],[-34.90477,-7.6833],[-34.89048,-7.69293],[-34.89676,-7.70265],[-34.88372,-7.71437],[-34.87772,-7.70969],[-34.86088,-7.70938],[-34.85282,-7.69085],[-34.84821,-7.68779]]],[[[-34.95779,-8.38562],[-34.96601,-8.38741],[-34.96455,-8.37226],[-34.95823,-8.37479],[-34.95779,-8.38562]]],[[[-32.42554,-3.84286],[-32.40059,-3.83397],[-32.39535,-3.84955],[-32.39692,-3.85662],[-32.40893,-3.85764],[-32.41772,-3.86801],[-32.4259,-3.867],[-32.42557,-3.87721],[-32.4355,-3.86997],[-32.45713,-3.87807],[-32.46756,-3.87703],[-32.45738,-3.86565],[-32.44803,-3.86243],[-32.44425,-3.85091],[-32.43593,-3.84859],[-32.42554,-3.84286]]],[[[-32.4428,-3.84885],[-32.44206,-3.84824],[-32.44175,-3.8491],[-32.4428,-3.84885]]],[[[-32.44114,-3.84891],[-32.44076,-3.84961],[-32.44172,-3.84911],[-32.44114,-3.84891]]],[[[-32.39046,-3.81768],[-32.39182,-3.82116],[-32.39519,-3.81926],[-32.39046,-3.81768]]],[[[-32.3816,-3.81419],[-32.39435,-3.81254],[-32.3885,-3.80689],[-32.3816,-3.81419]]],[[[-32.39231,-3.82474],[-32.39481,-3.82526],[-32.39248,-3.82315],[-32.39231,-3.82474]]],[[[-32.40389,-3.82824],[-32.40439,-3.82839],[-32.40412,-3.82784],[-32.40389,-3.82824]]],[[[-32.40155,-3.86051],[-32.40065,-3.85994],[-32.40067,-3.86081],[-32.40155,-3.86051]]],[[[-32.4127,-3.86861],[-32.41214,-3.86852],[-32.4119,-3.86884],[-32.4127,-3.86861]]],[[[-32.41401,-3.86796],[-32.41452,-3.86768],[-32.41378,-3.86696],[-32.41401,-3.86796]]],[[[-32.42148,-3.87144],[-32.42209,-3.87036],[-32.42112,-3.87106],[-32.42148,-3.87144]]],[[[-32.43775,-3.87224],[-32.4393,-3.87361],[-32.43849,-3.8721],[-32.43775,-3.87224]]],[[[-34.83702,-7.81683],[-34.8403,-7.81653],[-34.83988,-7.816],[-34.83702,-7.81683]]],[[[-32.43411,-3.87446],[-32.43585,-3.87467],[-32.43522,-3.87348],[-32.43411,-3.87446]]],[[[-32.41721,-3.87202],[-32.41936,-3.87227],[-32.42003,-3.87073],[-32.41721,-3.87202]]]]},"properties":{"CD_REG":"2605","NM_REG":"Metropolitana de Recife","SIGLA_UF":"PE"}}]}