{"type":"FeatureCollection","features":[{"type":"Feature","geometry":{"type":"Polygon","coordinates":[[[-42.96435,-4.36072],[-42.96288,-4.33684],[-42.96533,-4.32213],[-42.97735,-4.30878],[-42.98477,-4.28354],[-42.98643,-4.22048],[-42.98301,-4.21298],[-42.95448,-4.18569],[-42.93826,-4.16132],[-42.9236,-4.15303],[-42.8901,-4.15508],[-42.88803,-4.14567],[-42.90174,-4.12314],[-42.90047,-4.11737],[-42.87757,-4.10995],[-42.86975,-4.1041],[-42.85841,-4.08587],[-42.84883,-4.05946],[-42.84493,-4.03742],[-42.83525,-4.01929],[-42.81658,-3.99317],[-42.79627,-3.99412],[-42.79144,-3.98637],[-42.78756,-3.96294],[-42.7813,-3.95456],[-42.76332,-3.94149],[-42.73928,-3.92726],[-42.72501,-3.90747],[-42.71983,-3.8751],[-42.69081,-3.81932],[-42.68407,-3.80343],[-42.67146,-3.79163],[-42.67947,-3.77905],[-42.68404,-3.76522],[-42.68161,-3.75728],[-42.67068,-3.74394],[-42.6697,-3.72844],[-42.68182,-3.70503],[-42.68348,-3.6945],[-42.67508,-3.67265],[-42.64028,-3.63554],[-42.62347,-3.62667],[-42.61883,-3.62066],[-42.61571,-3.59253],[-42.61004,-3.58595],[-42.58302,-3.57468],[-42.5683,-3.57048],[-42.56386,-3.56493],[-42.55402,-3.53807],[-42.53024,-3.51143],[-42.53202,-3.49568],[-42.52697,-3.48563],[-42.51504,-3.48235],[-42.50764,-3.47308],[-42.50332,-3.45061],[-42.49638,-3.44592],[-42.48613,-3.44624],[-42.48283,-3.45175],[-42.48857,-3.47316],[-42.48634,-3.47806],[-42.46126,-3.4846],[-42.44824,-3.47834],[-42.43423,-3.46022],[-42.42476,-3.45341],[-42.41204,-3.46134],[-42.4123,-3.47255],[-42.39992,-3.47475],[-42.3926,-3.46531],[-42.38899,-3.44908],[-42.38468,-3.44693],[-42.36967,-3.45311],[-42.35585,-3.45066],[-42.34368,-3.44404],[-42.3337,-3.43445],[-42.32379,-3.43251],[-42.31445,-3.43598],[-42.30176,-3.45202],[-42.29247,-3.4534],[-42.24708,-3.43256],[-42.22465,-3.42734],[-42.20173,-3.43134],[-42.19474,-3.39939],[-42.18531,-3.39373],[-42.16727,-3.39644],[-42.15067,-3.38661],[-42.14617,-3.37325],[-42.14622,-3.35627],[-42.1406,-3.34832],[-42.1258,-3.34642],[-42.12228,-3.33009],[-42.1268,-3.31527],[-42.12031,-3.31054],[-42.1036,-3.3182],[-42.09938,-3.31531],[-42.09599,-3.2998],[-42.10108,-3.29204],[-42.12321,-3.28959],[-42.12966,-3.28237],[-42.12365,-3.2668],[-42.11012,-3.26169],[-42.06897,-3.26436],[-42.05529,-3.2529],[-42.04099,-3.24712],[-42.01278,-3.24807],[-41.99792,-3.23861],[-41.97364,-3.20836],[-41.97255,-3.19328],[-41.94698,-3.17389],[-41.93901,-3.18349],[-41.93498,-3.18016],[-41.94075,-3.16264],[-41.93736,-3.15218],[-41.92476,-3.13805],[-41.92492,-3.11305],[-41.91461,-3.10053],[-41.8957,-3.09395],[-41.87639,-3.0723],[-41.86447,-3.05218],[-41.84928,-3.04242],[-41.83745,-3.02832],[-41.82285,-3.01794],[-41.81727,-3.00587],[-41.81004,-2.98021],[-41.79673,-2.96062],[-41.79826,-2.9501],[-41.80628,-2.93834],[-41.83442,-2.91564],[-41.84991,-2.89129],[-41.86345,-2.87812],[-41.86604,-2.86997],[-41.84513,-2.81394],[-41.84864,-2.78388],[-41.84752,-2.77558],[-41.82601,-2.75727],[-41.82171,-2.76125],[-41.80308,-2.75043],[-41.79444,-2.74994],[-41.78181,-2.75831],[-41.77121,-2.77965],[-41.75143,-2.80064],[-41.74084,-2.80755],[-41.72961,-2.80303],[-41.7018,-2.8295],[-41.68072,-2.84764],[-41.66896,-2.85537],[-41.65151,-2.86146],[-41.63563,-2.88146],[-41.61254,-2.8965],[-41.59439,-2.90417],[-41.5785,-2.90666],[-41.55578,-2.89865],[-41.53332,-2.90959],[-41.5103,-2.91154],[-41.49455,-2.90023],[-41.47836,-2.89602],[-41.45686,-2.90015],[-41.44663,-2.90669],[-41.43624,-2.90597],[-41.42096,-2.90979],[-41.39788,-2.90409],[-41.37005,-2.91855],[-41.34035,-2.92744],[-41.32268,-2.92132],[-41.32177,-2.95173],[-41.31551,-2.96159],[-41.30271,-2.96725],[-41.27994,-2.96781],[-41.27078,-2.97125],[-41.27049,-2.98063],[-41.25795,-3.00277],[-41.25678,-3.01541],[-41.24813,-3.02589],[-41.2616,-3.0523],[-41.2605,-3.06736],[-41.25595,-3.07138],[-41.25577,-3.08758],[-41.26782,-3.09317],[-41.27613,-3.10131],[-41.28506,-3.10151],[-41.28356,-3.10924],[-41.29998,-3.12878],[-41.31113,-3.13576],[-41.32718,-3.15921],[-41.32249,-3.17979],[-41.39586,-3.3041],[-41.4006,-3.32025],[-41.39797,-3.32755],[-41.41232,-3.3407],[-41.41521,-3.35264],[-41.42331,-3.36442],[-41.4216,-3.37054],[-41.4057,-3.36258],[-41.39909,-3.36359],[-41.3986,-3.38824],[-41.38702,-3.39001],[-41.38699,-3.4093],[-41.37542,-3.39907],[-41.36263,-3.39827],[-41.36226,-3.39322],[-41.34679,-3.38553],[-41.34431,-3.38816],[-41.32405,-3.38592],[-41.32468,-3.42642],[-41.32698,-3.4463],[-41.31974,-3.48409],[-41.30303,-3.49218],[-41.32059,-3.49786],[-41.32687,-3.51998],[-41.32558,-3.53436],[-41.33687,-3.55389],[-41.35018,-3.55388],[-41.36466,-3.558],[-41.37131,-3.57263],[-41.36802,-3.57854],[-41.34395,-3.59046],[-41.33132,-3.62468],[-41.33397,-3.64773],[-41.33735,-3.65466],[-41.34175,-3.68077],[-41.32248,-3.68775],[-41.30766,-3.6848],[-41.28608,-3.69224],[-41.27933,-3.70075],[-41.25543,-3.70326],[-41.24178,-3.71095],[-41.23943,-3.72075],[-41.25308,-3.72422],[-41.26126,-3.74622],[-41.26048,-3.76245],[-41.25412,-3.77504],[-41.2626,-3.78882],[-41.30081,-3.8263],[-41.29425,-3.82947],[-41.28794,-3.82249],[-41.27686,-3.82562],[-41.26807,-3.84832],[-41.26694,-3.86267],[-41.24761,-3.88229],[-41.24533,-3.89832],[-41.22891,-3.91173],[-41.22024,-3.94151],[-41.22893,-3.9681],[-41.23425,-3.9678],[-41.24419,-3.98639],[-41.24924,-3.98987],[-41.24573,-4.00658],[-41.23952,-4.01688],[-41.25673,-4.03485],[-41.25018,-4.03775],[-41.24031,-4.03085],[-41.21408,-4.0242],[-41.19947,-4.01836],[-41.18552,-4.01722],[-41.18381,-4.0244],[-41.16881,-4.03307],[-41.15995,-4.03171],[-41.1431,-4.03681],[-41.12034,-4.03634],[-41.11287,-4.04174],[-41.11317,-4.04979],[-41.12716,-4.06139],[-41.12198,-4.07222],[-41.12894,-4.09727],[-41.1344,-4.10491],[-41.14211,-4.12565],[-41.13427,-4.13165],[-41.12533,-4.14495],[-41.12676,-4.1507],[-41.11833,-4.16522],[-41.10576,-4.16962],[-41.09089,-4.17033],[-41.09811,-4.18046],[-41.12242,-4.17587],[-41.13504,-4.1768],[-41.14259,-4.18567],[-41.16512,-4.18761],[-41.17687,-4.17664],[-41.1833,-4.15843],[-41.19028,-4.15932],[-41.19624,-4.14757],[-41.20436,-4.14611],[-41.2135,-4.15596],[-41.2333,-4.15627],[-41.24766,-4.1387],[-41.25941,-4.14448],[-41.2631,-4.16175],[-41.2809,-4.17],[-41.29501,-4.16748],[-41.29705,-4.15647],[-41.30215,-4.15691],[-41.30236,-4.147],[-41.30962,-4.14414],[-41.31556,-4.14874],[-41.33182,-4.15133],[-41.34708,-4.13683],[-41.36199,-4.15025],[-41.37126,-4.14725],[-41.37652,-4.15813],[-41.3939,-4.1611],[-41.41004,-4.14846],[-41.41514,-4.15561],[-41.42597,-4.16012],[-41.43196,-4.18134],[-41.43964,-4.18165],[-41.44991,-4.19353],[-41.45626,-4.18627],[-41.4736,-4.18708],[-41.49733,-4.18043],[-41.52502,-4.25667],[-41.56081,-4.31033],[-41.56866,-4.30616],[-41.57859,-4.30934],[-41.58201,-4.30261],[-41.59369,-4.3022],[-41.59656,-4.29525],[-41.60723,-4.30006],[-41.60651,-4.31076],[-41.61773,-4.32136],[-41.61279,-4.32644],[-41.61692,-4.33859],[-41.62735,-4.33997],[-41.63653,-4.35001],[-41.66874,-4.34796],[-41.65767,-4.38392],[-41.66215,-4.40277],[-41.65404,-4.3981],[-41.6511,-4.40296],[-41.64401,-4.39589],[-41.64137,-4.40916],[-41.6268,-4.40914],[-41.61168,-4.40545],[-41.60531,-4.40946],[-41.62108,-4.43895],[-41.6387,-4.4632],[-41.73025,-4.54729],[-41.73926,-4.56994],[-41.75664,-4.54973],[-41.76105,-4.53636],[-41.77105,-4.53921],[-41.77989,-4.53215],[-41.78119,-4.52207],[-41.7932,-4.51129],[-41.80846,-4.50981],[-41.81262,-4.50138],[-41.81975,-4.50248],[-41.82667,-4.48492],[-41.8345,-4.48146],[-41.84216,-4.46412],[-41.85328,-4.45896],[-41.86219,-4.46538],[-41.87496,-4.4536],[-41.88862,-4.44727],[-41.8903,-4.43635],[-41.90259,-4.42779],[-41.91066,-4.42687],[-41.92526,-4.43271],[-41.94117,-4.42353],[-41.95869,-4.42529],[-41.96858,-4.41311],[-41.96785,-4.40473],[-41.98563,-4.39572],[-41.99051,-4.38887],[-42.00789,-4.38076],[-42.01929,-4.38112],[-42.02164,-4.37211],[-42.01642,-4.36699],[-42.02693,-4.35422],[-42.07928,-4.37422],[-42.05838,-4.40346],[-42.06099,-4.43401],[-42.15081,-4.48238],[-42.2785,-4.54946],[-42.29575,-4.55107],[-42.43539,-4.47759],[-42.42041,-4.46817],[-42.44475,-4.44055],[-42.47368,-4.43429],[-42.54588,-4.36281],[-42.56902,-4.37205],[-42.58023,-4.3853],[-42.58642,-4.40558],[-42.5816,-4.42705],[-42.7113,-4.39774],[-42.77265,-4.39565],[-42.81215,-4.39848],[-42.83669,-4.39223],[-42.88626,-4.36396],[-42.96346,-4.35398],[-42.96435,-4.36072]]]},"properties":{"CD_REG":"2201","NM_REG":"Norte Piauiense","SIGLA_UF":"PI"}},{"type":"Feature","geometry":{"type":"Polygon","coordinates":[[[-41.09811,-4.18046],[-41.1359,-4.23351],[-41.11912,-4.30653],[-41.12017,-4.33057],[-41.13342,-4.34015],[-41.14208,-4.35904],[-41.15802,-4.37868],[-41.15969,-4.41055],[-41.17713,-4.44127],[-41.17516,-4.44954],[-41.17811,-4.46977],[-41.18792,-4.48614],[-41.19078,-4.51553],[-41.20379,-4.52842],[-41.20844,-4.54882],[-41.21411,-4.55268],[-41.22153,-4.56749],[-41.24254,-4.57151],[-41.22203,-4.5778],[-41.22304,-4.58979],[-41.23344,-4.61019],[-41.22933,-4.62009],[-41.20282,-4.6382],[-41.1856,-4.66197],[-41.17501,-4.66534],[-41.20249,-4.70189],[-41.22383,-4.72091],[-41.23665,-4.73875],[-41.23523,-4.74653],[-41.25034,-4.75663],[-41.24779,-4.76178],[-41.23392,-4.76877],[-41.21277,-4.77202],[-41.20808,-4.78028],[-41.22395,-4.79067],[-41.23338,-4.80772],[-41.23283,-4.81574],[-41.24318,-4.82833],[-41.23945,-4.85454],[-41.24957,-4.86969],[-41.2281,-4.89099],[-41.23469,-4.90168],[-41.23407,-4.90839],[-41.22295,-4.92651],[-41.22044,-4.93897],[-41.21161,-4.9381],[-41.20961,-4.94596],[-41.20199,-4.94904],[-41.19855,-4.93745],[-41.18901,-4.94062],[-41.16718,-4.96617],[-41.15092,-4.99211],[-41.13723,-4.98553],[-41.13676,-4.99547],[-41.12433,-5.00608],[-41.12123,-5.02395],[-41.13202,-5.04857],[-41.09657,-5.05367],[-41.08735,-5.07331],[-41.08043,-5.07869],[-41.08013,-5.09109],[-41.0504,-5.10226],[-41.03776,-5.09044],[-41.03282,-5.09269],[-41.02641,-5.1097],[-41.01595,-5.10465],[-41.01184,-5.1236],[-40.9886,-5.13875],[-40.98445,-5.15132],[-40.96197,-5.15126],[-40.94932,-5.16688],[-40.93775,-5.16659],[-40.92899,-5.17167],[-40.92529,-5.1821],[-40.932,-5.20126],[-40.92545,-5.21248],[-40.92203,-5.22645],[-40.94223,-5.24047],[-40.93592,-5.24328],[-40.91171,-5.26665],[-40.92424,-5.27484],[-40.92194,-5.28436],[-40.92691,-5.29697],[-40.91321,-5.30805],[-40.91212,-5.3142],[-40.91845,-5.33826],[-40.93085,-5.34553],[-40.9361,-5.36597],[-40.91702,-5.38945],[-40.91155,-5.40738],[-40.9213,-5.41744],[-40.93819,-5.41635],[-40.9438,-5.42359],[-40.93607,-5.44009],[-40.92258,-5.44824],[-40.9161,-5.46833],[-40.92916,-5.48333],[-40.9328,-5.49871],[-40.92888,-5.51785],[-40.93645,-5.52639],[-40.93171,-5.53879],[-40.93238,-5.5489],[-40.91566,-5.56437],[-40.91194,-5.59485],[-40.90227,-5.60796],[-40.90325,-5.63255],[-40.91473,-5.65994],[-40.92912,-5.66313],[-40.93877,-5.67334],[-40.93038,-5.68621],[-40.92824,-5.70411],[-40.91395,-5.72497],[-40.91775,-5.74264],[-40.91148,-5.75719],[-40.90957,-5.78174],[-40.90582,-5.80145],[-40.90906,-5.82555],[-40.90565,-5.84928],[-40.89349,-5.88557],[-40.89752,-5.9013],[-40.88022,-5.91767],[-40.87953,-5.93559],[-40.87625,-5.94785],[-40.87359,-5.97305],[-40.88735,-5.98933],[-40.88982,-6.00398],[-40.90395,-6.02088],[-40.90755,-6.04466],[-40.9022,-6.0492],[-40.88646,-6.04731],[-40.87285,-6.05663],[-40.865,-6.08775],[-40.84905,-6.12343],[-40.84595,-6.13836],[-40.85325,-6.16045],[-40.85268,-6.17885],[-40.84723,-6.20301],[-40.85222,-6.22422],[-40.82711,-6.25354],[-40.81978,-6.26447],[-40.8105,-6.28706],[-40.78656,-6.30536],[-40.78286,-6.31337],[-40.77915,-6.34135],[-40.78109,-6.35166],[-40.79226,-6.37491],[-40.79887,-6.38002],[-40.80515,-6.39313],[-40.79609,-6.42818],[-40.79378,-6.46019],[-40.79659,-6.4707],[-40.78994,-6.50063],[-41.09536,-6.75669],[-41.14312,-6.75047],[-41.13035,-6.65519],[-41.19006,-6.66375],[-41.1969,-6.67948],[-41.23983,-6.67903],[-41.25431,-6.68146],[-41.29309,-6.6746],[-41.28191,-6.65113],[-41.3297,-6.61857],[-41.37107,-6.59392],[-41.42645,-6.56587],[-41.50846,-6.55688],[-41.5111,-6.60825],[-41.5079,-6.63513],[-41.4953,-6.66777],[-41.49322,-6.68321],[-41.47962,-6.74493],[-41.54271,-6.73831],[-41.6066,-6.83353],[-41.66067,-6.82997],[-41.66053,-6.79601],[-41.76012,-6.79205],[-41.76598,-6.79024],[-41.81637,-6.71498],[-41.8373,-6.70858],[-41.86542,-6.69065],[-41.87487,-6.68755],[-41.89824,-6.68626],[-41.91251,-6.66842],[-41.91263,-6.65037],[-41.99816,-6.617],[-42.04304,-6.62748],[-42.0648,-6.63803],[-42.12416,-6.64446],[-42.1461,-6.64254],[-42.18275,-6.64722],[-42.20556,-6.62485],[-42.27966,-6.59658],[-42.30548,-6.58985],[-42.30946,-6.51401],[-42.35648,-6.52851],[-42.37544,-6.6767],[-42.38895,-6.67122],[-42.39421,-6.66519],[-42.40862,-6.66209],[-42.41807,-6.67126],[-42.42668,-6.66263],[-42.43521,-6.66804],[-42.46133,-6.66878],[-42.4651,-6.66313],[-42.47818,-6.66788],[-42.47919,-6.67755],[-42.47174,-6.67796],[-42.47883,-6.69528],[-42.48914,-6.70816],[-42.506,-6.71345],[-42.51594,-6.72069],[-42.52598,-6.70759],[-42.53442,-6.70694],[-42.54266,-6.71741],[-42.55843,-6.72301],[-42.54935,-6.74138],[-42.5633,-6.7545],[-42.56321,-6.772],[-42.57001,-6.78813],[-42.59737,-6.799],[-42.60646,-6.80858],[-42.62339,-6.79793],[-42.66587,-6.85219],[-42.79328,-6.77457],[-42.84145,-6.70563],[-42.85694,-6.66228],[-42.86807,-6.65817],[-42.89611,-6.657],[-42.91509,-6.64795],[-42.91727,-6.64098],[-42.90772,-6.60592],[-42.90141,-6.59413],[-42.88714,-6.57777],[-42.88426,-6.56466],[-42.88895,-6.54447],[-42.8867,-6.53384],[-42.874,-6.51869],[-42.87307,-6.51005],[-42.88531,-6.50947],[-42.88426,-6.49694],[-42.86931,-6.49053],[-42.86555,-6.48218],[-42.86989,-6.46912],[-42.86867,-6.45659],[-42.87664,-6.4293],[-42.87727,-6.41692],[-42.85445,-6.38254],[-42.85656,-6.37259],[-42.85152,-6.3586],[-42.83339,-6.34622],[-42.82934,-6.3406],[-42.83554,-6.32498],[-42.84996,-6.33238],[-42.85978,-6.32995],[-42.84952,-6.30824],[-42.84731,-6.27818],[-42.85592,-6.26195],[-42.8545,-6.24986],[-42.86154,-6.23912],[-42.87576,-6.22581],[-42.89936,-6.22309],[-42.92218,-6.20784],[-42.93317,-6.19273],[-42.95546,-6.18632],[-42.96991,-6.17733],[-42.97661,-6.15853],[-42.97842,-6.13851],[-42.98213,-6.12807],[-42.9923,-6.11757],[-43.0114,-6.11179],[-43.03369,-6.11136],[-43.04913,-6.10159],[-43.05685,-6.07997],[-43.06389,-6.0679],[-43.07459,-6.05742],[-43.07618,-6.04274],[-43.06164,-6.03118],[-43.04922,-6.01393],[-43.04756,-5.99734],[-43.05094,-5.98956],[-43.07082,-5.97756],[-43.08421,-5.95734],[-43.08695,-5.91914],[-43.09643,-5.90971],[-43.09926,-5.90155],[-43.09135,-5.88794],[-43.08089,-5.8786],[-43.07512,-5.86499],[-43.09437,-5.83505],[-43.09604,-5.82504],[-43.09042,-5.80783],[-43.09828,-5.79028],[-43.10117,-5.75863],[-43.09416,-5.74224],[-43.07981,-5.74204],[-43.07581,-5.73549],[-43.08856,-5.6716],[-43.07996,-5.64899],[-43.08475,-5.6344],[-43.09765,-5.62671],[-43.09721,-5.62005],[-43.08807,-5.60415],[-43.082,-5.59951],[-43.06178,-5.59768],[-43.04664,-5.5918],[-43.03322,-5.59207],[-43.02547,-5.57738],[-43.0244,-5.56174],[-43.00422,-5.54268],[-43.00026,-5.51928],[-42.99533,-5.50829],[-42.97353,-5.48451],[-42.9697,-5.45756],[-42.9575,-5.4446],[-42.93068,-5.43917],[-42.92379,-5.43066],[-42.91075,-5.39588],[-42.89884,-5.39001],[-42.88664,-5.3919],[-42.87117,-5.38119],[-42.86457,-5.36873],[-42.8352,-5.3554],[-42.82372,-5.34329],[-42.81351,-5.30836],[-42.81224,-5.28238],[-42.82641,-5.25668],[-42.82948,-5.23926],[-42.82431,-5.22909],[-42.80891,-5.21308],[-42.80139,-5.20131],[-42.79899,-5.18968],[-42.80539,-5.1486],[-42.81546,-5.12578],[-42.81727,-5.10174],[-42.82247,-5.0898],[-42.8354,-5.07397],[-42.84131,-5.05574],[-42.84463,-5.0242],[-42.85743,-4.99227],[-42.8632,-4.96812],[-42.85392,-4.93726],[-42.86858,-4.92684],[-42.87346,-4.91525],[-42.88564,-4.9046],[-42.89486,-4.88312],[-42.8933,-4.86277],[-42.89741,-4.84261],[-42.90337,-4.83599],[-42.93034,-4.81788],[-42.93865,-4.80921],[-42.94793,-4.78857],[-42.94979,-4.76909],[-42.94187,-4.75857],[-42.92623,-4.75068],[-42.92086,-4.73208],[-42.92688,-4.71703],[-42.94422,-4.70637],[-42.95309,-4.68736],[-42.95238,-4.67982],[-42.94463,-4.6717],[-42.91617,-4.65143],[-42.90092,-4.62835],[-42.89369,-4.61276],[-42.87297,-4.58169],[-42.86652,-4.5663],[-42.87485,-4.53878],[-42.87278,-4.53064],[-42.85441,-4.5094],[-42.85011,-4.49804],[-42.8536,-4.47432],[-42.87555,-4.46295],[-42.87835,-4.45757],[-42.87157,-4.42814],[-42.88001,-4.41587],[-42.89662,-4.40223],[-42.92721,-4.38517],[-42.93638,-4.38217],[-42.95621,-4.38421],[-42.96288,-4.37611],[-42.96435,-4.36072],[-42.96346,-4.35398],[-42.88626,-4.36396],[-42.83669,-4.39223],[-42.81215,-4.39848],[-42.77265,-4.39565],[-42.7113,-4.39774],[-42.5816,-4.42705],[-42.58642,-4.40558],[-42.58023,-4.3853],[-42.56902,-4.37205],[-42.54588,-4.36281],[-42.47368,-4.43429],[-42.44475,-4.44055],[-42.42041,-4.46817],[-42.43539,-4.47759],[-42.29575,-4.55107],[-42.2785,-4.54946],[-42.15081,-4.48238],[-42.06099,-4.43401],[-42.05838,-4.40346],[-42.07928,-4.37422],[-42.02693,-4.35422],[-42.01642,-4.36699],[-42.02164,-4.37211],[-42.01929,-4.38112],[-42.00789,-4.38076],[-41.99051,-4.38887],[-41.98563,-4.39572],[-41.96785,-4.40473],[-41.96858,-4.41311],[-41.95869,-4.42529],[-41.94117,-4.42353],[-41.92526,-4.43271],[-41.91066,-4.42687],[-41.90259,-4.42779],[-41.8903,-4.43635],[-41.88862,-4.44727],[-41.87496,-4.4536],[-41.86219,-4.46538],[-41.85328,-4.45896],[-41.84216,-4.46412],[-41.8345,-4.48146],[-41.82667,-4.48492],[-41.81975,-4.50248],[-41.81262,-4.50138],[-41.80846,-4.50981],[-41.7932,-4.51129],[-41.78119,-4.52207],[-41.77989,-4.53215],[-41.77105,-4.53921],[-41.76105,-4.53636],[-41.75664,-4.54973],[-41.73926,-4.56994],[-41.73025,-4.54729],[-41.6387,-4.4632],[-41.62108,-4.43895],[-41.60531,-4.40946],[-41.61168,-4.40545],[-41.6268,-4.40914],[-41.64137,-4.40916],[-41.64401,-4.39589],[-41.6511,-4.40296],[-41.65404,-4.3981],[-41.66215,-4.40277],[-41.65767,-4.38392],[-41.66874,-4.34796],[-41.63653,-4.35001],[-41.62735,-4.33997],[-41.61692,-4.33859],[-41.61279,-4.32644],[-41.61773,-4.32136],[-41.60651,-4.31076],[-41.60723,-4.30006],[-41.59656,-4.29525],[-41.59369,-4.3022],[-41.58201,-4.30261],[-41.57859,-4.30934],[-41.56866,-4.30616],[-41.56081,-4.31033],[-41.52502,-4.25667],[-41.49733,-4.18043],[-41.4736,-4.18708],[-41.45626,-4.18627],[-41.44991,-4.19353],[-41.43964,-4.18165],[-41.43196,-4.18134],[-41.42597,-4.16012],[-41.41514,-4.15561],[-41.41004,-4.14846],[-41.3939,-4.1611],[-41.37652,-4.15813],[-41.37126,-4.14725],[-41.36199,-4.15025],[-41.34708,-4.13683],[-41.33182,-4.15133],[-41.31556,-4.14874],[-41.30962,-4.14414],[-41.30236,-4.147],[-41.30215,-4.15691],[-41.29705,-4.15647],[-41.29501,-4.16748],[-41.2809,-4.17],[-41.2631,-4.16175],[-41.25941,-4.14448],[-41.24766,-4.1387],[-41.2333,-4.15627],[-41.2135,-4.15596],[-41.20436,-4.14611],[-41.19624,-4.14757],[-41.19028,-4.15932],[-41.1833,-4.15843],[-41.17687,-4.17664],[-41.16512,-4.18761],[-41.14259,-4.18567],[-41.13504,-4.1768],[-41.12242,-4.17587],[-41.09811,-4.18046]]]},"properties":{"CD_REG":"2202","NM_REG":"Centro-Norte Piauiense","SIGLA_UF":"PI"}},{"type":"Feature","geometry":{"type":"Polygon","coordinates":[[[-42.91509,-6.64795],[-42.89611,-6.657],[-42.86807,-6.65817],[-42.85694,-6.66228],[-42.84145,-6.70563],[-42.79328,-6.77457],[-42.66587,-6.85219],[-42.62339,-6.79793],[-42.60646,-6.80858],[-42.60409,-6.83719],[-42.59814,-6.8375],[-42.59072,-6.84849],[-42.58708,-6.84477],[-42.5666,-6.86913],[-42.60111,-6.96805],[-42.62542,-6.99753],[-42.60508,-6.9938],[-42.59396,-6.99527],[-42.52515,-6.98368],[-42.51853,-6.98336],[-42.4208,-6.96715],[-42.4202,-7.00045],[-42.41679,-7.02257],[-42.41647,-7.05518],[-42.40668,-7.09633],[-42.41172,-7.1428],[-42.40384,-7.16982],[-42.31024,-7.22326],[-42.3607,-7.41775],[-42.31951,-7.4341],[-42.3149,-7.43135],[-42.21851,-7.43801],[-42.17038,-7.52149],[-42.21931,-7.62945],[-42.29919,-7.62745],[-42.18922,-7.72242],[-42.35538,-7.72397],[-42.36021,-7.73144],[-42.36909,-7.73366],[-42.3949,-7.75201],[-42.41581,-7.75715],[-42.4765,-7.70174],[-42.4824,-7.83604],[-42.50869,-7.84251],[-42.58414,-7.68016],[-42.58091,-7.58393],[-42.67854,-7.59146],[-42.67926,-7.62338],[-42.70298,-7.64343],[-42.72735,-7.63363],[-42.72885,-7.65463],[-42.75624,-7.70196],[-42.68631,-7.77898],[-42.71197,-7.97662],[-42.71189,-8.01989],[-42.67919,-8.03056],[-42.65924,-8.03135],[-42.64462,-8.05024],[-42.63939,-8.07131],[-42.60807,-8.11351],[-42.58337,-8.12416],[-42.58641,-8.13419],[-42.58655,-8.15347],[-42.5905,-8.16845],[-42.59074,-8.19332],[-42.58831,-8.22298],[-42.58417,-8.22787],[-42.59167,-8.23925],[-42.58915,-8.24797],[-42.59799,-8.26219],[-42.59617,-8.26901],[-42.60303,-8.29564],[-42.62468,-8.32963],[-42.62309,-8.3494],[-42.62747,-8.37572],[-42.6313,-8.38011],[-42.63744,-8.40148],[-42.64342,-8.41392],[-42.63769,-8.43452],[-42.64012,-8.44742],[-42.63803,-8.49339],[-42.65794,-8.51396],[-42.66698,-8.51802],[-42.67948,-8.53898],[-42.69455,-8.5505],[-42.7066,-8.57762],[-42.71014,-8.60467],[-42.71524,-8.61633],[-42.71695,-8.63663],[-42.72304,-8.65326],[-42.72782,-8.68202],[-42.72647,-8.68963],[-42.73349,-8.80064],[-42.47515,-8.65731],[-42.31075,-8.66258],[-42.29144,-8.63011],[-42.21006,-8.64919],[-42.18941,-8.58398],[-42.15804,-8.59042],[-42.12571,-8.56657],[-42.12388,-8.57523],[-42.11139,-8.58246],[-42.08019,-8.57289],[-42.07716,-8.58319],[-42.06429,-8.58191],[-42.06005,-8.59357],[-42.04949,-8.59712],[-42.03769,-8.58479],[-42.02446,-8.58588],[-42.00824,-8.60179],[-41.99702,-8.59841],[-41.98629,-8.61534],[-41.97713,-8.62481],[-41.96921,-8.62648],[-41.96791,-8.63586],[-41.9485,-8.63788],[-41.9469,-8.64478],[-41.93122,-8.64419],[-41.91637,-8.65776],[-41.90859,-8.65265],[-41.90699,-8.65981],[-41.89531,-8.67372],[-41.87975,-8.67182],[-41.85194,-8.69434],[-41.84961,-8.69993],[-41.83949,-8.70191],[-41.83047,-8.693],[-41.81686,-8.6959],[-41.80772,-8.68496],[-41.80001,-8.69637],[-41.77455,-8.71613],[-41.7615,-8.72103],[-41.75831,-8.73225],[-41.75078,-8.72965],[-41.73811,-8.73204],[-41.72837,-8.73855],[-41.71768,-8.73696],[-41.7126,-8.72869],[-41.70381,-8.72975],[-41.70389,-8.73919],[-41.6984,-8.75008],[-41.68157,-8.74745],[-41.67478,-8.75748],[-41.65838,-8.75141],[-41.65492,-8.75894],[-41.64583,-8.75808],[-41.63824,-8.76386],[-41.63112,-8.76143],[-41.62949,-8.77088],[-41.62277,-8.77732],[-41.61469,-8.77708],[-41.61309,-8.78646],[-41.59962,-8.79448],[-41.56309,-8.78812],[-41.55963,-8.77895],[-41.54129,-8.78187],[-41.53507,-8.78959],[-41.52308,-8.78664],[-41.51492,-8.79022],[-41.5147,-8.8039],[-41.49775,-8.80625],[-41.48865,-8.78379],[-41.47176,-8.77888],[-41.45483,-8.75592],[-41.44582,-8.7541],[-41.4298,-8.75658],[-41.42331,-8.76628],[-41.41139,-8.77437],[-41.42427,-8.80256],[-41.43468,-8.7991],[-41.45649,-8.82095],[-41.47218,-8.84311],[-41.48784,-8.8439],[-41.49562,-8.86221],[-41.50218,-8.86352],[-41.51057,-8.87623],[-41.50744,-8.89244],[-41.52287,-8.90369],[-41.52344,-8.91231],[-41.53135,-8.9277],[-41.54141,-8.93356],[-41.54557,-8.94168],[-41.54452,-8.96055],[-41.56527,-8.97032],[-41.57006,-8.95503],[-41.60579,-8.9574],[-41.60993,-8.96727],[-41.62121,-8.97086],[-41.6241,-8.98167],[-41.63341,-8.98601],[-41.6694,-8.99008],[-41.66862,-9.00046],[-41.67335,-9.00779],[-41.68877,-9.01395],[-41.70685,-9.01157],[-41.7236,-9.01354],[-41.73082,-9.02796],[-41.7333,-9.04976],[-41.73101,-9.06982],[-41.73266,-9.08773],[-41.74305,-9.10383],[-41.7622,-9.11877],[-41.78045,-9.12899],[-41.80007,-9.14803],[-41.80224,-9.16963],[-41.81743,-9.18406],[-41.8219,-9.19435],[-41.83124,-9.22894],[-41.83797,-9.24227],[-41.84782,-9.24396],[-41.85971,-9.23761],[-41.87052,-9.23743],[-41.88493,-9.25347],[-41.90468,-9.2596],[-41.90744,-9.27049],[-41.91386,-9.27708],[-41.92477,-9.2778],[-41.94506,-9.2637],[-41.95542,-9.26366],[-41.97227,-9.24864],[-41.97866,-9.2504],[-41.99991,-9.26597],[-42.01869,-9.25052],[-42.03294,-9.25546],[-42.05816,-9.25489],[-42.0728,-9.25983],[-42.09504,-9.27856],[-42.13453,-9.28721],[-42.15311,-9.28788],[-42.17949,-9.28527],[-42.19423,-9.29168],[-42.20644,-9.29278],[-42.22244,-9.28417],[-42.23846,-9.28577],[-42.26891,-9.31045],[-42.28649,-9.30946],[-42.31608,-9.31661],[-42.32588,-9.33341],[-42.34999,-9.34589],[-42.35705,-9.35256],[-42.35671,-9.37218],[-42.36467,-9.38209],[-42.37808,-9.38965],[-42.39889,-9.39709],[-42.41849,-9.40936],[-42.42641,-9.4212],[-42.42828,-9.43978],[-42.43535,-9.45096],[-42.45431,-9.46223],[-42.48154,-9.45886],[-42.49122,-9.46961],[-42.48602,-9.48379],[-42.49309,-9.4949],[-42.51475,-9.50176],[-42.53251,-9.50199],[-42.55483,-9.4963],[-42.57108,-9.50154],[-42.57975,-9.49742],[-42.59036,-9.49835],[-42.61959,-9.53931],[-42.62993,-9.53854],[-42.64022,-9.54383],[-42.6568,-9.54205],[-42.66725,-9.54812],[-42.67992,-9.54915],[-42.69463,-9.54365],[-42.70849,-9.53206],[-42.71988,-9.53069],[-42.72203,-9.53718],[-42.71619,-9.55437],[-42.73091,-9.5676],[-42.73956,-9.57935],[-42.75775,-9.58928],[-42.76089,-9.60942],[-42.76996,-9.61918],[-42.79979,-9.6225],[-42.82055,-9.61923],[-42.82097,-9.6026],[-42.83033,-9.57601],[-42.82819,-9.56052],[-42.83714,-9.55037],[-42.8511,-9.55117],[-42.86803,-9.56401],[-42.87672,-9.56162],[-42.8843,-9.54907],[-42.90402,-9.52675],[-42.9131,-9.52464],[-42.92844,-9.52725],[-42.9438,-9.52077],[-42.95136,-9.51038],[-42.95181,-9.49765],[-42.95948,-9.47967],[-42.96289,-9.45705],[-42.95637,-9.43864],[-42.95989,-9.42621],[-42.97189,-9.40806],[-42.98786,-9.40134],[-43.04009,-9.41466],[-43.05218,-9.41298],[-43.05779,-9.41853],[-43.05705,-9.40166],[-43.06189,-9.39458],[-43.07322,-9.39983],[-43.08289,-9.39733],[-43.08679,-9.38843],[-43.1055,-9.38561],[-43.10695,-9.37916],[-43.12188,-9.37295],[-43.132,-9.38692],[-43.14722,-9.37631],[-43.16152,-9.37925],[-43.16352,-9.39068],[-43.17315,-9.41011],[-43.19386,-9.42072],[-43.20226,-9.40642],[-43.20937,-9.40028],[-43.229,-9.40294],[-43.24234,-9.41188],[-43.26667,-9.41191],[-43.27395,-9.42355],[-43.28512,-9.42003],[-43.29316,-9.40095],[-43.29972,-9.39452],[-43.313,-9.39055],[-43.3242,-9.3767],[-43.33633,-9.36852],[-43.35356,-9.36896],[-43.36132,-9.36441],[-43.37642,-9.3489],[-43.38587,-9.33565],[-43.39518,-9.31429],[-43.42275,-9.27761],[-43.43813,-9.26614],[-43.46904,-9.26081],[-43.48546,-9.26529],[-43.49753,-9.27253],[-43.51816,-9.29359],[-43.53714,-9.30747],[-43.55207,-9.30936],[-43.57903,-9.32039],[-43.60254,-9.34664],[-43.62163,-9.37154],[-43.65617,-9.39521],[-43.67113,-9.40848],[-43.68914,-9.41968],[-43.75142,-9.43407],[-43.76973,-9.44205],[-43.78425,-9.45477],[-43.79945,-9.47965],[-43.81631,-9.49196],[-43.8295,-9.51539],[-43.83789,-9.52523],[-43.84969,-9.54805],[-43.85258,-9.56214],[-43.84155,-9.58605],[-43.84265,-9.61267],[-43.83398,-9.61793],[-43.84017,-9.62652],[-43.84195,-9.63743],[-43.8285,-9.64744],[-43.81412,-9.67184],[-43.79955,-9.69249],[-43.79448,-9.70504],[-43.79407,-9.71822],[-43.79766,-9.72768],[-43.78492,-9.76239],[-43.76718,-9.7707],[-43.76353,-9.7766],[-43.71988,-9.7944],[-43.71782,-9.80242],[-43.69726,-9.8043],[-43.68287,-9.81575],[-43.66485,-9.82365],[-43.65248,-9.84357],[-43.66526,-9.85588],[-43.6664,-9.86905],[-43.67745,-9.88653],[-43.69512,-9.89237],[-43.69811,-9.90285],[-43.70548,-9.90638],[-43.7082,-9.91983],[-43.69284,-9.92553],[-43.69047,-9.94165],[-43.70256,-9.96108],[-43.6969,-9.97409],[-43.68468,-9.98276],[-43.66517,-9.99103],[-43.66213,-10.00954],[-43.66948,-10.03076],[-43.68529,-10.03999],[-43.69253,-10.05089],[-43.69291,-10.0774],[-43.71994,-10.07243],[-43.75923,-10.07461],[-43.76603,-10.08006],[-43.77311,-10.09878],[-43.76597,-10.12069],[-43.77004,-10.15122],[-43.77909,-10.18047],[-43.78482,-10.19168],[-43.80909,-10.22144],[-43.82703,-10.23785],[-43.83727,-10.25007],[-43.83829,-10.26546],[-43.83431,-10.27425],[-43.83692,-10.3022],[-43.85038,-10.31838],[-43.87168,-10.33044],[-43.8951,-10.35449],[-43.89877,-10.36732],[-43.91479,-10.38415],[-43.91436,-10.41823],[-43.91623,-10.42672],[-43.93673,-10.43613],[-43.97693,-10.43138],[-43.99813,-10.41006],[-44.01807,-10.40515],[-44.02777,-10.41247],[-44.0348,-10.43017],[-44.03576,-10.44471],[-44.02584,-10.47547],[-44.02962,-10.48408],[-44.04155,-10.49324],[-44.05101,-10.50624],[-44.06249,-10.55134],[-44.07211,-10.57993],[-44.08343,-10.58909],[-44.10075,-10.59172],[-44.11062,-10.5972],[-44.11854,-10.60881],[-44.12593,-10.62742],[-44.13926,-10.63988],[-44.15295,-10.64408],[-44.16554,-10.6429],[-44.17609,-10.63283],[-44.19298,-10.62858],[-44.20865,-10.61532],[-44.21838,-10.61518],[-44.23135,-10.62404],[-44.24516,-10.62777],[-44.26666,-10.62315],[-44.2798,-10.61092],[-44.29018,-10.59671],[-44.30176,-10.57204],[-44.31455,-10.55736],[-44.3331,-10.54877],[-44.34461,-10.5497],[-44.35476,-10.55801],[-44.37252,-10.57992],[-44.39226,-10.6007],[-44.40517,-10.60963],[-44.42822,-10.6124],[-44.45175,-10.60664],[-44.46363,-10.61526],[-44.47296,-10.63511],[-44.48036,-10.64152],[-44.50051,-10.6497],[-44.5146,-10.65112],[-44.52747,-10.64695],[-44.54681,-10.63013],[-44.55673,-10.62733],[-44.57778,-10.62677],[-44.58951,-10.63242],[-44.60098,-10.65348],[-44.61276,-10.66676],[-44.627,-10.67558],[-44.65526,-10.6767],[-44.66421,-10.67985],[-44.6688,-10.68709],[-44.66954,-10.70178],[-44.66148,-10.7305],[-44.66278,-10.75056],[-44.66768,-10.76006],[-44.68069,-10.76792],[-44.69302,-10.76806],[-44.71457,-10.76173],[-44.7308,-10.77189],[-44.74609,-10.77758],[-44.75745,-10.78766],[-44.7585,-10.80347],[-44.77817,-10.80403],[-44.78806,-10.80852],[-44.80151,-10.82859],[-44.81032,-10.84658],[-44.80833,-10.86615],[-44.83111,-10.88298],[-44.84715,-10.90109],[-44.85502,-10.88449],[-44.85966,-10.88318],[-44.88443,-10.90231],[-44.89744,-10.90294],[-44.90269,-10.91089],[-44.93122,-10.92876],[-44.94798,-10.91384],[-44.96838,-10.90051],[-44.97299,-10.89229],[-44.99504,-10.88389],[-45.00213,-10.88702],[-45.0166,-10.8846],[-45.02197,-10.87509],[-45.03678,-10.86215],[-45.0441,-10.86058],[-45.0515,-10.85138],[-45.06328,-10.84826],[-45.07324,-10.84042],[-45.08211,-10.8395],[-45.10654,-10.84647],[-45.11652,-10.84077],[-45.13283,-10.83853],[-45.15787,-10.83923],[-45.17094,-10.83473],[-45.18053,-10.83626],[-45.20513,-10.83293],[-45.21797,-10.8289],[-45.21922,-10.81738],[-45.24597,-10.82248],[-45.25744,-10.81185],[-45.26847,-10.77623],[-45.29497,-10.7643],[-45.31358,-10.76301],[-45.32971,-10.75556],[-45.35822,-10.73221],[-45.36211,-10.72277],[-45.36219,-10.70729],[-45.36912,-10.67995],[-45.38522,-10.65163],[-45.39853,-10.64626],[-45.41883,-10.64382],[-45.43243,-10.63056],[-45.43733,-10.61557],[-45.43679,-10.57677],[-45.44616,-10.56232],[-45.4465,-10.552],[-45.44154,-10.54423],[-45.43905,-10.52229],[-45.44741,-10.50936],[-45.4311,-10.48838],[-45.40974,-10.47284],[-45.40027,-10.46307],[-45.39599,-10.44503],[-45.41849,-10.43233],[-45.4245,-10.42649],[-45.42881,-10.41386],[-45.42944,-10.3947],[-45.4258,-10.37546],[-45.43032,-10.35946],[-45.45682,-10.33857],[-45.47327,-10.31533],[-45.49069,-10.30102],[-45.51436,-10.28984],[-45.52235,-10.27665],[-45.52336,-10.24414],[-45.52619,-10.23693],[-45.55687,-10.21814],[-45.56731,-10.20148],[-45.57165,-10.18094],[-45.56543,-10.15998],[-45.56746,-10.13952],[-45.57935,-10.12193],[-45.59323,-10.1103],[-45.60318,-10.10798],[-45.61966,-10.11471],[-45.63924,-10.1262],[-45.64748,-10.12683],[-45.65985,-10.13488],[-45.66931,-10.14537],[-45.69018,-10.1554],[-45.70387,-10.15699],[-45.71625,-10.15261],[-45.72348,-10.15541],[-45.73047,-10.16161],[-45.73519,-10.1801],[-45.72726,-10.20338],[-45.73385,-10.2286],[-45.74403,-10.23996],[-45.76069,-10.25062],[-45.79374,-10.26767],[-45.82447,-10.26324],[-45.86707,-10.25411],[-45.87076,-10.25003],[-45.89673,-10.26429],[-45.90891,-10.29308],[-45.9146,-10.30191],[-45.91563,-10.31266],[-45.91018,-10.32127],[-45.88717,-10.34046],[-45.90727,-10.35971],[-45.91094,-10.37109],[-45.9332,-10.37004],[-45.9451,-10.3634],[-45.96026,-10.36413],[-45.97111,-10.35894],[-45.98199,-10.34503],[-45.97766,-10.33545],[-45.98206,-10.32608],[-45.99733,-10.31676],[-45.99987,-10.29668],[-46.02258,-10.28639],[-46.02821,-10.2771],[-46.02192,-10.26808],[-46.01987,-10.25565],[-46.01242,-10.2507],[-46.00297,-10.26176],[-45.99625,-10.25031],[-45.97395,-10.24837],[-45.94627,-10.25855],[-45.94993,-10.23415],[-45.95607,-10.22108],[-45.94573,-10.20682],[-45.94562,-10.19644],[-45.93119,-10.19083],[-45.92427,-10.17116],[-45.91351,-10.15839],[-45.90002,-10.15277],[-45.89774,-10.13657],[-45.88628,-10.11406],[-45.87854,-10.1103],[-45.86994,-10.06929],[-45.88011,-10.06101],[-45.87504,-10.05316],[-45.87547,-10.04028],[-45.86345,-10.0051],[-45.85406,-9.99008],[-45.84701,-9.96033],[-45.84901,-9.95629],[-45.84252,-9.93947],[-45.84748,-9.92348],[-45.85805,-9.90751],[-45.866,-9.87165],[-45.86443,-9.86147],[-45.85589,-9.84908],[-45.85061,-9.83294],[-45.84738,-9.81232],[-45.83874,-9.7969],[-45.82848,-9.7917],[-45.82142,-9.77313],[-45.82116,-9.75588],[-45.82755,-9.74605],[-45.82101,-9.73921],[-45.83256,-9.71184],[-45.82872,-9.7044],[-45.83857,-9.69632],[-45.83012,-9.68143],[-45.83351,-9.65228],[-45.82574,-9.6374],[-45.82546,-9.62545],[-45.81978,-9.62444],[-45.82476,-9.60895],[-45.83658,-9.60236],[-45.83388,-9.58682],[-45.84261,-9.57604],[-45.84193,-9.56289],[-45.83112,-9.55222],[-45.82829,-9.54299],[-45.83181,-9.53565],[-45.82139,-9.52573],[-45.82369,-9.52229],[-45.81154,-9.50401],[-45.79872,-9.49519],[-45.79762,-9.48726],[-45.78352,-9.48001],[-45.79581,-9.45869],[-45.78869,-9.45821],[-45.80162,-9.43601],[-45.80337,-9.42468],[-45.79913,-9.41816],[-45.80887,-9.40041],[-45.8286,-9.37361],[-45.84758,-9.35622],[-45.86409,-9.35899],[-45.87592,-9.3537],[-45.87974,-9.34618],[-45.88709,-9.34864],[-45.89368,-9.34262],[-45.89132,-9.33252],[-45.90764,-9.29779],[-45.90662,-9.29158],[-45.89732,-9.28959],[-45.89691,-9.27814],[-45.9043,-9.26719],[-45.89847,-9.25948],[-45.90221,-9.25099],[-45.89729,-9.23326],[-45.90395,-9.23055],[-45.89914,-9.20774],[-45.90585,-9.19287],[-45.89977,-9.19113],[-45.90062,-9.17862],[-45.9089,-9.17278],[-45.91767,-9.15954],[-45.92136,-9.147],[-45.92757,-9.13969],[-45.9295,-9.12763],[-45.92324,-9.09899],[-45.92322,-9.08999],[-45.93312,-9.08562],[-45.92814,-9.07937],[-45.93117,-9.0677],[-45.94097,-9.05511],[-45.93617,-9.03831],[-45.94616,-9.02406],[-45.94364,-9.01577],[-45.95816,-9.00241],[-45.96793,-8.97673],[-45.98088,-8.96669],[-45.99136,-8.94938],[-45.99509,-8.92699],[-45.98528,-8.91688],[-45.9865,-8.90997],[-45.97966,-8.90367],[-45.98374,-8.89027],[-45.97863,-8.88222],[-45.96734,-8.87636],[-45.97374,-8.86823],[-45.97202,-8.8624],[-45.96013,-8.85164],[-45.95789,-8.84004],[-45.94935,-8.8449],[-45.94702,-8.82978],[-45.95948,-8.82497],[-45.95978,-8.81552],[-45.95301,-8.80627],[-45.94026,-8.79718],[-45.93689,-8.78016],[-45.90574,-8.75842],[-45.89334,-8.76291],[-45.89032,-8.74055],[-45.88306,-8.73452],[-45.86441,-8.73047],[-45.86423,-8.71552],[-45.84831,-8.71034],[-45.84083,-8.71577],[-45.83253,-8.69744],[-45.82999,-8.68519],[-45.82031,-8.66376],[-45.81278,-8.6573],[-45.82202,-8.64784],[-45.81599,-8.63275],[-45.79809,-8.61982],[-45.79559,-8.61294],[-45.77638,-8.61715],[-45.76696,-8.61028],[-45.78279,-8.5974],[-45.7948,-8.5918],[-45.7939,-8.58266],[-45.77243,-8.57468],[-45.76148,-8.56006],[-45.7618,-8.55092],[-45.75384,-8.54206],[-45.75709,-8.52694],[-45.75328,-8.51821],[-45.73868,-8.50066],[-45.74682,-8.49687],[-45.74284,-8.47542],[-45.74536,-8.45268],[-45.73067,-8.42842],[-45.73492,-8.41857],[-45.73003,-8.40871],[-45.72259,-8.40531],[-45.72501,-8.39636],[-45.71946,-8.39028],[-45.70776,-8.38845],[-45.7031,-8.38071],[-45.70621,-8.3687],[-45.69304,-8.3609],[-45.68865,-8.34143],[-45.69018,-8.33557],[-45.68036,-8.32081],[-45.67871,-8.30503],[-45.66712,-8.28865],[-45.66363,-8.25053],[-45.64741,-8.24312],[-45.6349,-8.22452],[-45.62181,-8.21687],[-45.60953,-8.20508],[-45.61508,-8.19123],[-45.60202,-8.17515],[-45.59501,-8.17447],[-45.58373,-8.15694],[-45.5885,-8.13689],[-45.58756,-8.12934],[-45.57652,-8.1141],[-45.58572,-8.10279],[-45.56877,-8.06994],[-45.56876,-8.05243],[-45.56334,-8.04415],[-45.57732,-8.02988],[-45.56578,-8.01561],[-45.55158,-8.01543],[-45.55304,-8.00694],[-45.56833,-7.99508],[-45.55546,-7.97111],[-45.54754,-7.968],[-45.54639,-7.95731],[-45.55647,-7.95369],[-45.54763,-7.94665],[-45.54161,-7.92776],[-45.54448,-7.92008],[-45.53183,-7.92259],[-45.52442,-7.90726],[-45.54184,-7.89849],[-45.5381,-7.8914],[-45.52084,-7.88727],[-45.52312,-7.88155],[-45.53623,-7.8735],[-45.54076,-7.86461],[-45.52587,-7.85729],[-45.52617,-7.83846],[-45.51723,-7.83474],[-45.5112,-7.82347],[-45.50959,-7.80042],[-45.49855,-7.79727],[-45.50138,-7.78648],[-45.4904,-7.78736],[-45.49232,-7.77448],[-45.48445,-7.76282],[-45.49468,-7.75381],[-45.49568,-7.74707],[-45.48633,-7.75135],[-45.48169,-7.74765],[-45.48721,-7.72866],[-45.48286,-7.71654],[-45.46948,-7.71409],[-45.47008,-7.6899],[-45.4512,-7.68816],[-45.46025,-7.67373],[-45.45584,-7.67002],[-45.43751,-7.67805],[-45.43253,-7.66154],[-45.41564,-7.6569],[-45.41596,-7.6458],[-45.3983,-7.63932],[-45.39547,-7.61452],[-45.3826,-7.61221],[-45.37218,-7.61838],[-45.34954,-7.59749],[-45.34179,-7.5928],[-45.34069,-7.58175],[-45.33468,-7.57766],[-45.31579,-7.57432],[-45.29884,-7.57524],[-45.2854,-7.56642],[-45.26171,-7.57118],[-45.25161,-7.55928],[-45.23063,-7.54947],[-45.22129,-7.56836],[-45.21523,-7.56703],[-45.20385,-7.55167],[-45.18947,-7.54824],[-45.181,-7.54196],[-45.1748,-7.52964],[-45.15469,-7.5128],[-45.14751,-7.52118],[-45.13867,-7.52242],[-45.12672,-7.5142],[-45.0856,-7.50231],[-45.06797,-7.50411],[-45.0496,-7.51318],[-45.02078,-7.49811],[-45.00287,-7.49637],[-44.98701,-7.48114],[-44.9662,-7.4826],[-44.95579,-7.47503],[-44.93747,-7.46965],[-44.92836,-7.47198],[-44.92285,-7.46704],[-44.9178,-7.45045],[-44.90839,-7.44165],[-44.89936,-7.42485],[-44.88137,-7.42752],[-44.86797,-7.4216],[-44.86586,-7.41489],[-44.85245,-7.40297],[-44.85356,-7.39559],[-44.84704,-7.38577],[-44.83336,-7.38325],[-44.8206,-7.37562],[-44.81734,-7.36149],[-44.78604,-7.37195],[-44.78035,-7.37852],[-44.76173,-7.37196],[-44.74198,-7.3617],[-44.7357,-7.38163],[-44.73045,-7.39028],[-44.7111,-7.39818],[-44.70384,-7.39237],[-44.69037,-7.39577],[-44.68438,-7.38669],[-44.67843,-7.35926],[-44.67086,-7.35268],[-44.66532,-7.33508],[-44.66029,-7.32907],[-44.64333,-7.32485],[-44.64046,-7.31625],[-44.62834,-7.30944],[-44.61587,-7.30867],[-44.60883,-7.29437],[-44.59514,-7.27716],[-44.59408,-7.26718],[-44.5779,-7.25613],[-44.57179,-7.24843],[-44.56535,-7.22869],[-44.54678,-7.22554],[-44.53512,-7.22731],[-44.52161,-7.21865],[-44.51243,-7.19354],[-44.50524,-7.18676],[-44.49009,-7.18196],[-44.47343,-7.16644],[-44.4621,-7.16009],[-44.44991,-7.1596],[-44.43063,-7.15156],[-44.41729,-7.13866],[-44.38606,-7.12092],[-44.36457,-7.12175],[-44.3544,-7.11592],[-44.32738,-7.11015],[-44.31291,-7.11864],[-44.30275,-7.11437],[-44.29772,-7.10133],[-44.27578,-7.07451],[-44.27397,-7.06472],[-44.27979,-7.04527],[-44.27832,-7.03819],[-44.26366,-7.01898],[-44.26089,-6.99966],[-44.24928,-7.00054],[-44.23595,-6.99871],[-44.20817,-6.96995],[-44.20246,-6.95719],[-44.20082,-6.93294],[-44.18963,-6.92567],[-44.17865,-6.92716],[-44.1737,-6.92009],[-44.17644,-6.90423],[-44.17135,-6.88498],[-44.16348,-6.87452],[-44.15331,-6.86775],[-44.14063,-6.86522],[-44.12512,-6.83559],[-44.11518,-6.83835],[-44.11418,-6.85287],[-44.1044,-6.85655],[-44.09871,-6.83994],[-44.11304,-6.82316],[-44.11628,-6.80579],[-44.10715,-6.80237],[-44.08887,-6.8033],[-44.07699,-6.82113],[-44.0697,-6.82138],[-44.05906,-6.80844],[-44.06087,-6.79075],[-44.05337,-6.76831],[-44.0429,-6.76943],[-44.03339,-6.7604],[-44.01815,-6.75811],[-43.98773,-6.75728],[-43.97073,-6.74422],[-43.95676,-6.74315],[-43.94934,-6.75174],[-43.94631,-6.76308],[-43.93237,-6.772],[-43.92776,-6.77045],[-43.91379,-6.75266],[-43.88418,-6.75874],[-43.87822,-6.7568],[-43.85376,-6.73561],[-43.82013,-6.72728],[-43.80819,-6.72027],[-43.79982,-6.70531],[-43.79086,-6.70233],[-43.77484,-6.71494],[-43.76074,-6.70244],[-43.72871,-6.7048],[-43.71499,-6.69873],[-43.70421,-6.70103],[-43.69666,-6.70969],[-43.67272,-6.70627],[-43.65175,-6.71266],[-43.63751,-6.71956],[-43.62159,-6.73501],[-43.59892,-6.74369],[-43.58438,-6.75748],[-43.57283,-6.7546],[-43.57092,-6.74774],[-43.56166,-6.74812],[-43.54879,-6.7632],[-43.54597,-6.78238],[-43.54022,-6.79007],[-43.5084,-6.79883],[-43.49193,-6.81348],[-43.48118,-6.83541],[-43.46527,-6.83991],[-43.45753,-6.84607],[-43.446,-6.83866],[-43.41913,-6.84401],[-43.40876,-6.84133],[-43.40068,-6.83377],[-43.38849,-6.82964],[-43.38753,-6.81719],[-43.36646,-6.81996],[-43.35394,-6.80179],[-43.34387,-6.79766],[-43.31602,-6.8013],[-43.29599,-6.79985],[-43.27126,-6.79257],[-43.2479,-6.76768],[-43.21922,-6.76384],[-43.17827,-6.76734],[-43.14759,-6.78369],[-43.13493,-6.78252],[-43.10122,-6.76797],[-43.0872,-6.7508],[-43.06462,-6.75035],[-43.04791,-6.76195],[-43.0308,-6.76297],[-43.01106,-6.76001],[-42.9928,-6.74873],[-42.98389,-6.72624],[-42.97744,-6.71794],[-42.9471,-6.70178],[-42.92966,-6.67936],[-42.91871,-6.66885],[-42.91509,-6.64795]]]},"properties":{"CD_REG":"2203","NM_REG":"Sudoeste Piauiense","SIGLA_UF":"PI"}},{"type":"Feature","geometry":{"type":"Polygon","coordinates":[[[-40.78009,-8.29627],[-40.79279,-8.32003],[-40.8179,-8.32049],[-40.8222,-8.33614],[-40.81921,-8.36091],[-40.8374,-8.38113],[-40.85859,-8.37961],[-40.8625,-8.36499],[-40.87252,-8.35741],[-40.89163,-8.35609],[-40.89766,-8.36653],[-40.89267,-8.37179],[-40.88987,-8.38675],[-40.90779,-8.40137],[-40.90151,-8.41013],[-40.90229,-8.4231],[-40.90901,-8.42733],[-40.92685,-8.44634],[-40.94052,-8.43323],[-40.94959,-8.42956],[-40.96551,-8.41646],[-40.97855,-8.39865],[-40.99995,-8.4003],[-41.00738,-8.42093],[-41.02365,-8.42848],[-41.03899,-8.43183],[-41.04751,-8.44611],[-41.0516,-8.46512],[-41.04997,-8.4755],[-41.0576,-8.47766],[-41.07655,-8.47249],[-41.08219,-8.48008],[-41.08468,-8.50096],[-41.09049,-8.51263],[-41.10407,-8.52237],[-41.10838,-8.53073],[-41.12673,-8.54196],[-41.13463,-8.53354],[-41.14949,-8.53392],[-41.15701,-8.56044],[-41.16674,-8.58068],[-41.17921,-8.59259],[-41.19857,-8.59248],[-41.20288,-8.59928],[-41.21229,-8.60182],[-41.20775,-8.61027],[-41.20654,-8.6333],[-41.21354,-8.64416],[-41.23379,-8.64761],[-41.23949,-8.65583],[-41.25132,-8.66161],[-41.26873,-8.66322],[-41.28743,-8.66084],[-41.29546,-8.67018],[-41.30018,-8.68214],[-41.31766,-8.69815],[-41.33692,-8.70836],[-41.35834,-8.70762],[-41.38125,-8.70727],[-41.3939,-8.72436],[-41.40031,-8.74637],[-41.41139,-8.77437],[-41.42331,-8.76628],[-41.4298,-8.75658],[-41.44582,-8.7541],[-41.45483,-8.75592],[-41.47176,-8.77888],[-41.48865,-8.78379],[-41.49775,-8.80625],[-41.5147,-8.8039],[-41.51492,-8.79022],[-41.52308,-8.78664],[-41.53507,-8.78959],[-41.54129,-8.78187],[-41.55963,-8.77895],[-41.56309,-8.78812],[-41.59962,-8.79448],[-41.61309,-8.78646],[-41.61469,-8.77708],[-41.62277,-8.77732],[-41.62949,-8.77088],[-41.63112,-8.76143],[-41.63824,-8.76386],[-41.64583,-8.75808],[-41.65492,-8.75894],[-41.65838,-8.75141],[-41.67478,-8.75748],[-41.68157,-8.74745],[-41.6984,-8.75008],[-41.70389,-8.73919],[-41.70381,-8.72975],[-41.7126,-8.72869],[-41.71768,-8.73696],[-41.72837,-8.73855],[-41.73811,-8.73204],[-41.75078,-8.72965],[-41.75831,-8.73225],[-41.7615,-8.72103],[-41.77455,-8.71613],[-41.80001,-8.69637],[-41.80772,-8.68496],[-41.81686,-8.6959],[-41.83047,-8.693],[-41.83949,-8.70191],[-41.84961,-8.69993],[-41.85194,-8.69434],[-41.87975,-8.67182],[-41.89531,-8.67372],[-41.90699,-8.65981],[-41.90859,-8.65265],[-41.91637,-8.65776],[-41.93122,-8.64419],[-41.9469,-8.64478],[-41.9485,-8.63788],[-41.96791,-8.63586],[-41.96921,-8.62648],[-41.97713,-8.62481],[-41.98629,-8.61534],[-41.99702,-8.59841],[-42.00824,-8.60179],[-42.02446,-8.58588],[-42.03769,-8.58479],[-42.04949,-8.59712],[-42.06005,-8.59357],[-42.06429,-8.58191],[-42.07716,-8.58319],[-42.08019,-8.57289],[-42.11139,-8.58246],[-42.12388,-8.57523],[-42.12571,-8.56657],[-42.15804,-8.59042],[-42.18941,-8.58398],[-42.21006,-8.64919],[-42.29144,-8.63011],[-42.31075,-8.66258],[-42.47515,-8.65731],[-42.73349,-8.80064],[-42.72647,-8.68963],[-42.72782,-8.68202],[-42.72304,-8.65326],[-42.71695,-8.63663],[-42.71524,-8.61633],[-42.71014,-8.60467],[-42.7066,-8.57762],[-42.69455,-8.5505],[-42.67948,-8.53898],[-42.66698,-8.51802],[-42.65794,-8.51396],[-42.63803,-8.49339],[-42.64012,-8.44742],[-42.63769,-8.43452],[-42.64342,-8.41392],[-42.63744,-8.40148],[-42.6313,-8.38011],[-42.62747,-8.37572],[-42.62309,-8.3494],[-42.62468,-8.32963],[-42.60303,-8.29564],[-42.59617,-8.26901],[-42.59799,-8.26219],[-42.58915,-8.24797],[-42.59167,-8.23925],[-42.58417,-8.22787],[-42.58831,-8.22298],[-42.59074,-8.19332],[-42.5905,-8.16845],[-42.58655,-8.15347],[-42.58641,-8.13419],[-42.58337,-8.12416],[-42.60807,-8.11351],[-42.63939,-8.07131],[-42.64462,-8.05024],[-42.65924,-8.03135],[-42.67919,-8.03056],[-42.71189,-8.01989],[-42.71197,-7.97662],[-42.68631,-7.77898],[-42.75624,-7.70196],[-42.72885,-7.65463],[-42.72735,-7.63363],[-42.70298,-7.64343],[-42.67926,-7.62338],[-42.67854,-7.59146],[-42.58091,-7.58393],[-42.58414,-7.68016],[-42.50869,-7.84251],[-42.4824,-7.83604],[-42.4765,-7.70174],[-42.41581,-7.75715],[-42.3949,-7.75201],[-42.36909,-7.73366],[-42.36021,-7.73144],[-42.35538,-7.72397],[-42.18922,-7.72242],[-42.29919,-7.62745],[-42.21931,-7.62945],[-42.17038,-7.52149],[-42.21851,-7.43801],[-42.3149,-7.43135],[-42.31951,-7.4341],[-42.3607,-7.41775],[-42.31024,-7.22326],[-42.40384,-7.16982],[-42.41172,-7.1428],[-42.40668,-7.09633],[-42.41647,-7.05518],[-42.41679,-7.02257],[-42.4202,-7.00045],[-42.4208,-6.96715],[-42.51853,-6.98336],[-42.52515,-6.98368],[-42.59396,-6.99527],[-42.60508,-6.9938],[-42.62542,-6.99753],[-42.60111,-6.96805],[-42.5666,-6.86913],[-42.58708,-6.84477],[-42.59072,-6.84849],[-42.59814,-6.8375],[-42.60409,-6.83719],[-42.60646,-6.80858],[-42.59737,-6.799],[-42.57001,-6.78813],[-42.56321,-6.772],[-42.5633,-6.7545],[-42.54935,-6.74138],[-42.55843,-6.72301],[-42.54266,-6.71741],[-42.53442,-6.70694],[-42.52598,-6.70759],[-42.51594,-6.72069],[-42.506,-6.71345],[-42.48914,-6.70816],[-42.47883,-6.69528],[-42.47174,-6.67796],[-42.47919,-6.67755],[-42.47818,-6.66788],[-42.4651,-6.66313],[-42.46133,-6.66878],[-42.43521,-6.66804],[-42.42668,-6.66263],[-42.41807,-6.67126],[-42.40862,-6.66209],[-42.39421,-6.66519],[-42.38895,-6.67122],[-42.37544,-6.6767],[-42.35648,-6.52851],[-42.30946,-6.51401],[-42.30548,-6.58985],[-42.27966,-6.59658],[-42.20556,-6.62485],[-42.18275,-6.64722],[-42.1461,-6.64254],[-42.12416,-6.64446],[-42.0648,-6.63803],[-42.04304,-6.62748],[-41.99816,-6.617],[-41.91263,-6.65037],[-41.91251,-6.66842],[-41.89824,-6.68626],[-41.87487,-6.68755],[-41.86542,-6.69065],[-41.8373,-6.70858],[-41.81637,-6.71498],[-41.76598,-6.79024],[-41.76012,-6.79205],[-41.66053,-6.79601],[-41.66067,-6.82997],[-41.6066,-6.83353],[-41.54271,-6.73831],[-41.47962,-6.74493],[-41.49322,-6.68321],[-41.4953,-6.66777],[-41.5079,-6.63513],[-41.5111,-6.60825],[-41.50846,-6.55688],[-41.42645,-6.56587],[-41.37107,-6.59392],[-41.3297,-6.61857],[-41.28191,-6.65113],[-41.29309,-6.6746],[-41.25431,-6.68146],[-41.23983,-6.67903],[-41.1969,-6.67948],[-41.19006,-6.66375],[-41.13035,-6.65519],[-41.14312,-6.75047],[-41.09536,-6.75669],[-40.78994,-6.50063],[-40.79212,-6.51286],[-40.78767,-6.52378],[-40.75429,-6.55467],[-40.74022,-6.5775],[-40.73642,-6.60021],[-40.722,-6.61768],[-40.73224,-6.65359],[-40.71781,-6.67141],[-40.71018,-6.67613],[-40.66491,-6.67901],[-40.65131,-6.67819],[-40.63242,-6.6989],[-40.61927,-6.70865],[-40.60221,-6.71601],[-40.55897,-6.72081],[-40.51739,-6.73049],[-40.47693,-6.73283],[-40.47194,-6.74493],[-40.45816,-6.75768],[-40.45203,-6.78378],[-40.44293,-6.78987],[-40.43899,-6.80669],[-40.43217,-6.81298],[-40.41684,-6.81253],[-40.40414,-6.80249],[-40.38879,-6.797],[-40.37051,-6.80316],[-40.37058,-6.80799],[-40.3829,-6.82099],[-40.38711,-6.83008],[-40.40222,-6.83999],[-40.40755,-6.85129],[-40.41583,-6.85937],[-40.42852,-6.86425],[-40.42896,-6.88486],[-40.43291,-6.89272],[-40.43271,-6.90854],[-40.42779,-6.91581],[-40.42447,-6.9372],[-40.42912,-6.9485],[-40.42728,-6.96632],[-40.43037,-6.97575],[-40.42865,-6.99613],[-40.41107,-6.99908],[-40.40625,-7.00533],[-40.42801,-7.01848],[-40.43839,-7.01822],[-40.42772,-7.03388],[-40.44328,-7.0481],[-40.44426,-7.05593],[-40.45338,-7.07123],[-40.46942,-7.08764],[-40.47043,-7.09397],[-40.48974,-7.11869],[-40.48437,-7.1332],[-40.49571,-7.16962],[-40.49479,-7.18234],[-40.5013,-7.18865],[-40.51356,-7.2397],[-40.5158,-7.26446],[-40.51163,-7.29943],[-40.51427,-7.30783],[-40.52372,-7.31845],[-40.54151,-7.33227],[-40.54042,-7.3414],[-40.54846,-7.39269],[-40.65232,-7.43334],[-40.6634,-7.44941],[-40.67201,-7.45271],[-40.7012,-7.45636],[-40.71323,-7.473],[-40.71529,-7.48795],[-40.70429,-7.51871],[-40.69408,-7.53872],[-40.68134,-7.55774],[-40.66266,-7.5795],[-40.64558,-7.59477],[-40.63673,-7.60852],[-40.62656,-7.63168],[-40.62183,-7.65832],[-40.62775,-7.68499],[-40.6356,-7.69983],[-40.66655,-7.72636],[-40.67348,-7.73937],[-40.67357,-7.76167],[-40.66379,-7.77476],[-40.64517,-7.7868],[-40.62864,-7.79256],[-40.57845,-7.80521],[-40.55486,-7.81843],[-40.54206,-7.83848],[-40.53812,-7.85694],[-40.54591,-7.93692],[-40.54422,-7.9646],[-40.56232,-8.00068],[-40.59876,-8.08086],[-40.60387,-8.10369],[-40.59934,-8.11562],[-40.59124,-8.12352],[-40.5895,-8.1378],[-40.59756,-8.14117],[-40.60132,-8.15017],[-40.63284,-8.1393],[-40.64278,-8.15007],[-40.6452,-8.15808],[-40.65851,-8.15656],[-40.66648,-8.16159],[-40.66781,-8.17534],[-40.67526,-8.18486],[-40.68441,-8.18778],[-40.69437,-8.20088],[-40.70059,-8.20261],[-40.70342,-8.21713],[-40.71106,-8.22506],[-40.72273,-8.22325],[-40.73687,-8.22823],[-40.7445,-8.24007],[-40.76317,-8.24321],[-40.76684,-8.24798],[-40.78113,-8.25259],[-40.78398,-8.26185],[-40.77824,-8.28614],[-40.78009,-8.29627]]]},"properties":{"CD_REG":"2204","NM_REG":"Sudeste Piauiense","SIGLA_UF":"PI"}}]}