{"type":"FeatureCollection","features":[{"type":"Feature","geometry":{"type":"Polygon","coordinates":[[[-37.80632,-10.60053],[-37.81476,-10.59542],[-37.8172,-10.58641],[-37.83146,-10.58429],[-37.83257,-10.56111],[-37.8412,-10.55506],[-37.83765,-10.5479],[-37.83176,-10.55147],[-37.829,-10.54054],[-37.81927,-10.53961],[-37.81957,-10.53007],[-37.81267,-10.50913],[-37.81696,-10.50315],[-37.8196,-10.48693],[-37.84211,-10.44992],[-37.85927,-10.4285],[-37.85286,-10.42534],[-37.85225,-10.40555],[-37.83838,-10.40275],[-37.83941,-10.3813],[-37.82846,-10.37453],[-37.82451,-10.37786],[-37.8128,-10.36622],[-37.80713,-10.36732],[-37.78848,-10.35683],[-37.78501,-10.34556],[-37.75692,-10.3431],[-37.74331,-10.33839],[-37.74512,-10.31358],[-37.76866,-10.2892],[-37.75524,-10.29262],[-37.75013,-10.28878],[-37.74886,-10.26432],[-37.75916,-10.25351],[-37.76568,-10.25187],[-37.74709,-10.23807],[-37.76568,-10.19604],[-37.78223,-10.18559],[-37.78331,-10.17948],[-37.77522,-10.15344],[-37.77793,-10.13414],[-37.78562,-10.1293],[-37.80195,-10.11133],[-37.79884,-10.10423],[-37.79957,-10.08975],[-37.79455,-10.08707],[-37.79194,-10.07126],[-37.78823,-10.06938],[-37.78264,-10.0436],[-37.7909,-10.0327],[-37.80757,-10.03046],[-37.82602,-10.0365],[-37.82518,-10.02305],[-37.83306,-10.01917],[-37.85208,-9.99046],[-37.86256,-9.9886],[-37.89607,-9.95428],[-37.89505,-9.94283],[-37.90896,-9.94002],[-37.91344,-9.93311],[-37.90157,-9.92174],[-37.90793,-9.91074],[-37.91234,-9.91845],[-37.94461,-9.94279],[-37.95543,-9.943],[-37.96456,-9.93733],[-37.97542,-9.93673],[-37.98518,-9.9176],[-37.99675,-9.91866],[-38.00168,-9.90362],[-37.99493,-9.90308],[-37.99212,-9.89428],[-37.99524,-9.87844],[-38.0071,-9.86884],[-38.01005,-9.85403],[-38.00242,-9.85715],[-37.99544,-9.84608],[-38.00306,-9.83826],[-37.99834,-9.8257],[-38.00219,-9.81299],[-38.01795,-9.80247],[-38.02162,-9.78798],[-38.0179,-9.78386],[-38.0326,-9.7701],[-38.03047,-9.76605],[-38.03874,-9.74938],[-38.03678,-9.73969],[-38.04329,-9.7234],[-38.04497,-9.69777],[-38.04127,-9.68683],[-38.0343,-9.68672],[-38.03222,-9.66069],[-38.02792,-9.65595],[-38.02049,-9.66005],[-38.00929,-9.64986],[-38.01682,-9.63885],[-38.03299,-9.6349],[-38.03946,-9.62761],[-38.05562,-9.6322],[-38.05115,-9.62185],[-38.05582,-9.61443],[-38.0527,-9.60486],[-38.06033,-9.59543],[-38.06104,-9.58764],[-38.05242,-9.5887],[-38.03716,-9.58103],[-38.04204,-9.57499],[-38.03185,-9.56728],[-38.02809,-9.57485],[-38.02097,-9.56486],[-38.01864,-9.55068],[-38.02255,-9.54052],[-38.01496,-9.53548],[-38.01418,-9.52783],[-38.00329,-9.51503],[-37.98933,-9.52736],[-37.9778,-9.53145],[-37.9563,-9.53408],[-37.94819,-9.53882],[-37.91714,-9.54895],[-37.89592,-9.54006],[-37.88617,-9.55017],[-37.8638,-9.56655],[-37.83754,-9.58328],[-37.83179,-9.59488],[-37.81825,-9.59289],[-37.80976,-9.60702],[-37.7931,-9.62061],[-37.78654,-9.63865],[-37.74699,-9.62492],[-37.72488,-9.62998],[-37.71012,-9.63007],[-37.67827,-9.64878],[-37.67039,-9.65598],[-37.65405,-9.68633],[-37.63735,-9.69311],[-37.63353,-9.70013],[-37.59708,-9.72127],[-37.58182,-9.73414],[-37.57242,-9.73862],[-37.52756,-9.7423],[-37.51537,-9.74587],[-37.47309,-9.74636],[-37.44205,-9.75379],[-37.42492,-9.76157],[-37.40802,-9.76411],[-37.39362,-9.77924],[-37.38163,-9.78049],[-37.34662,-9.79118],[-37.32594,-9.81692],[-37.29857,-9.83164],[-37.28522,-9.83063],[-37.26088,-9.8507],[-37.24951,-9.87516],[-37.24554,-9.89184],[-37.23472,-9.89762],[-37.21402,-9.89976],[-37.19597,-9.89603],[-37.17757,-9.899],[-37.16254,-9.89385],[-37.13378,-9.91377],[-37.11202,-9.92778],[-37.1063,-9.93943],[-37.08594,-9.9517],[-37.06786,-9.97345],[-37.06495,-9.9806],[-37.05087,-9.9821],[-37.03309,-9.98758],[-37.00436,-9.97812],[-36.9957,-9.97244],[-36.98471,-9.98315],[-36.97329,-9.98436],[-36.96169,-9.99637],[-36.95345,-10.02282],[-37.00694,-10.03775],[-37.02978,-10.05694],[-37.06202,-10.06155],[-37.06797,-10.0923],[-37.06646,-10.13643],[-37.09028,-10.14479],[-37.15038,-10.16312],[-37.15429,-10.1874],[-37.13737,-10.19369],[-37.13652,-10.2003],[-37.14406,-10.20413],[-37.151,-10.23581],[-37.14072,-10.24633],[-37.13869,-10.27888],[-37.14664,-10.28519],[-37.15052,-10.29483],[-37.14925,-10.32156],[-37.16573,-10.33148],[-37.16411,-10.33975],[-37.17381,-10.33954],[-37.16882,-10.33333],[-37.16921,-10.32007],[-37.17553,-10.30933],[-37.18459,-10.30835],[-37.18559,-10.3013],[-37.19594,-10.30267],[-37.20031,-10.29615],[-37.21638,-10.30059],[-37.22889,-10.2925],[-37.24265,-10.26241],[-37.2516,-10.2548],[-37.26121,-10.23838],[-37.26766,-10.23939],[-37.29291,-10.25581],[-37.27004,-10.2624],[-37.25739,-10.26904],[-37.25609,-10.28022],[-37.24147,-10.28737],[-37.23958,-10.29799],[-37.25846,-10.30529],[-37.27402,-10.30649],[-37.27042,-10.31467],[-37.27902,-10.31176],[-37.29542,-10.31985],[-37.30295,-10.32836],[-37.30137,-10.33339],[-37.31456,-10.35218],[-37.31679,-10.36008],[-37.32614,-10.36717],[-37.32592,-10.37466],[-37.34544,-10.37939],[-37.35448,-10.36319],[-37.34546,-10.36245],[-37.35419,-10.34398],[-37.36077,-10.33897],[-37.35634,-10.3336],[-37.37098,-10.32734],[-37.37867,-10.31577],[-37.39192,-10.31644],[-37.38493,-10.30788],[-37.38479,-10.29839],[-37.39549,-10.28837],[-37.38985,-10.27626],[-37.39441,-10.2592],[-37.4084,-10.24565],[-37.40505,-10.25783],[-37.4028,-10.28972],[-37.40665,-10.32173],[-37.41175,-10.33229],[-37.41305,-10.34601],[-37.40983,-10.35546],[-37.41036,-10.4168],[-37.37201,-10.44746],[-37.37001,-10.45906],[-37.35979,-10.48354],[-37.34681,-10.50683],[-37.31963,-10.53944],[-37.33388,-10.54371],[-37.34552,-10.53898],[-37.3629,-10.5489],[-37.36386,-10.55898],[-37.37712,-10.56715],[-37.39454,-10.58232],[-37.42264,-10.57629],[-37.45975,-10.59431],[-37.4745,-10.56646],[-37.50946,-10.62623],[-37.53046,-10.6458],[-37.55857,-10.61945],[-37.64028,-10.60472],[-37.64986,-10.61921],[-37.65526,-10.64907],[-37.66211,-10.65493],[-37.66848,-10.67568],[-37.66406,-10.6811],[-37.6646,-10.69333],[-37.66046,-10.70139],[-37.67744,-10.71541],[-37.68474,-10.7089],[-37.67391,-10.70263],[-37.69121,-10.68469],[-37.70181,-10.67857],[-37.70613,-10.6682],[-37.71504,-10.66892],[-37.69365,-10.63945],[-37.70314,-10.64115],[-37.7066,-10.63306],[-37.71543,-10.64516],[-37.72411,-10.64126],[-37.72229,-10.63373],[-37.73156,-10.63014],[-37.7399,-10.63253],[-37.75141,-10.62083],[-37.75575,-10.62383],[-37.76624,-10.61944],[-37.76702,-10.60659],[-37.78529,-10.60095],[-37.79941,-10.59164],[-37.80632,-10.60053]]]},"properties":{"CD_REG":"2801","NM_REG":"Sertão Sergipano","SIGLA_UF":"SE"}},{"type":"Feature","geometry":{"type":"Polygon","coordinates":[[[-37.15038,-10.16312],[-37.0574,-10.18109],[-37.0169,-10.19101],[-36.99479,-10.1776],[-36.98352,-10.19565],[-36.97159,-10.20455],[-36.96119,-10.23566],[-36.92903,-10.22283],[-36.95237,-10.26652],[-36.93373,-10.27615],[-36.93588,-10.30668],[-36.90266,-10.32421],[-36.90075,-10.35012],[-36.91256,-10.36955],[-36.91576,-10.39341],[-36.903,-10.4026],[-36.9045,-10.41461],[-36.91718,-10.41937],[-36.92498,-10.42663],[-36.92905,-10.42382],[-36.93501,-10.43364],[-36.93638,-10.45091],[-36.94341,-10.44402],[-36.96129,-10.44227],[-36.96755,-10.42424],[-36.98526,-10.40299],[-36.98124,-10.40107],[-36.98585,-10.3875],[-36.97863,-10.37179],[-36.99055,-10.36558],[-36.99794,-10.35254],[-36.9981,-10.33242],[-37.00648,-10.32656],[-37.01551,-10.33254],[-37.03012,-10.32547],[-37.03821,-10.32658],[-37.05212,-10.34226],[-37.06262,-10.32908],[-37.07758,-10.33895],[-37.08992,-10.35762],[-37.0967,-10.35669],[-37.09845,-10.36433],[-37.11283,-10.3729],[-37.11909,-10.36825],[-37.12859,-10.37852],[-37.11719,-10.39078],[-37.11954,-10.39898],[-37.11215,-10.40455],[-37.11322,-10.4333],[-37.11814,-10.44076],[-37.13556,-10.45199],[-37.13867,-10.47013],[-37.13967,-10.50703],[-37.18081,-10.5628],[-37.1708,-10.57064],[-37.17584,-10.5797],[-37.18678,-10.58566],[-37.20557,-10.60258],[-37.20413,-10.62421],[-37.21707,-10.61178],[-37.24667,-10.59577],[-37.25366,-10.59577],[-37.26459,-10.58676],[-37.27848,-10.58659],[-37.29324,-10.59453],[-37.29546,-10.61086],[-37.28237,-10.61697],[-37.27921,-10.63216],[-37.2705,-10.63339],[-37.2589,-10.64929],[-37.24734,-10.64844],[-37.2467,-10.65952],[-37.23871,-10.66372],[-37.22899,-10.67532],[-37.22907,-10.70177],[-37.23794,-10.70836],[-37.24793,-10.70886],[-37.25893,-10.70173],[-37.26921,-10.71518],[-37.27543,-10.711],[-37.28226,-10.71732],[-37.2781,-10.7256],[-37.28306,-10.73173],[-37.27891,-10.74144],[-37.27062,-10.74646],[-37.27253,-10.75284],[-37.24451,-10.77838],[-37.31836,-10.83215],[-37.3291,-10.83344],[-37.33938,-10.84727],[-37.35134,-10.84992],[-37.3636,-10.84714],[-37.37052,-10.85215],[-37.38773,-10.85106],[-37.40485,-10.84302],[-37.40693,-10.83217],[-37.40317,-10.82576],[-37.45577,-10.88175],[-37.46401,-10.89253],[-37.47097,-10.89249],[-37.49017,-10.9035],[-37.50361,-10.9011],[-37.45564,-10.97755],[-37.51966,-10.96034],[-37.53101,-10.99622],[-37.56851,-11.02546],[-37.57001,-11.03478],[-37.56515,-11.04005],[-37.62242,-11.06748],[-37.61595,-11.06859],[-37.61192,-11.0799],[-37.62373,-11.08813],[-37.63303,-11.08145],[-37.64955,-11.10888],[-37.64672,-11.1262],[-37.67253,-11.14861],[-37.70679,-11.17432],[-37.71799,-11.16196],[-37.72888,-11.16313],[-37.73803,-11.14954],[-37.74045,-11.15379],[-37.76578,-11.14177],[-37.77511,-11.13253],[-37.79344,-11.13297],[-37.8465,-11.16076],[-37.87638,-11.18659],[-37.86584,-11.20952],[-37.8679,-11.22112],[-37.88678,-11.21298],[-37.90479,-11.22196],[-37.92212,-11.24146],[-37.92393,-11.24915],[-37.93619,-11.26978],[-37.93817,-11.28531],[-37.95124,-11.29498],[-37.95037,-11.30655],[-37.96843,-11.31178],[-37.96675,-11.32312],[-37.98224,-11.34795],[-37.98633,-11.34201],[-37.99908,-11.33952],[-37.98835,-11.32954],[-37.99872,-11.32152],[-37.99035,-11.32094],[-37.99165,-11.31284],[-38.00143,-11.30305],[-38.00269,-11.29372],[-38.01063,-11.29526],[-38.01202,-11.28441],[-38.00559,-11.28642],[-37.99221,-11.27883],[-37.98646,-11.26701],[-37.99585,-11.25952],[-37.98351,-11.24897],[-37.99022,-11.24863],[-37.99279,-11.23779],[-37.98664,-11.23831],[-37.99109,-11.22866],[-37.97744,-11.2215],[-37.98173,-11.21013],[-37.98131,-11.1992],[-37.99735,-11.19104],[-38.00313,-11.1937],[-38.01322,-11.18523],[-38.02911,-11.1773],[-38.04688,-11.18164],[-38.05721,-11.17205],[-38.07121,-11.1436],[-38.06637,-11.13471],[-38.0678,-11.11939],[-38.08882,-11.11568],[-38.09327,-11.10401],[-38.08644,-11.099],[-38.08047,-11.08217],[-38.07519,-11.07748],[-38.08113,-11.06391],[-38.09189,-11.05693],[-38.0911,-11.05141],[-38.10198,-11.04447],[-38.09827,-11.03832],[-38.10601,-11.02584],[-38.10075,-11.02038],[-38.10776,-11.01083],[-38.12095,-11.00727],[-38.12824,-11.01947],[-38.13617,-11.01433],[-38.14433,-11.0016],[-38.16871,-10.98967],[-38.18654,-10.96421],[-38.17949,-10.94866],[-38.18062,-10.94277],[-38.19422,-10.94183],[-38.20283,-10.93505],[-38.19909,-10.92826],[-38.20662,-10.92225],[-38.21096,-10.93121],[-38.2152,-10.92277],[-38.22817,-10.91418],[-38.22851,-10.90019],[-38.23642,-10.88203],[-38.23745,-10.8532],[-38.2314,-10.84293],[-38.23955,-10.8262],[-38.245,-10.82287],[-38.23451,-10.81226],[-38.23799,-10.80216],[-38.23167,-10.79034],[-38.21793,-10.78126],[-38.21559,-10.76815],[-38.20924,-10.75806],[-38.21464,-10.74724],[-38.21318,-10.73105],[-38.21652,-10.72681],[-38.20932,-10.71207],[-38.18313,-10.70538],[-38.17177,-10.71103],[-38.13281,-10.72087],[-38.11274,-10.71308],[-38.08383,-10.71294],[-38.06779,-10.71567],[-38.05492,-10.71088],[-38.04857,-10.70345],[-38.03188,-10.708],[-38.03375,-10.7247],[-38.02567,-10.72547],[-37.9768,-10.75793],[-37.96419,-10.75757],[-37.95289,-10.7501],[-37.94548,-10.75652],[-37.92409,-10.73487],[-37.90962,-10.71551],[-37.8683,-10.70299],[-37.84751,-10.69926],[-37.84635,-10.69438],[-37.83239,-10.68044],[-37.80993,-10.68881],[-37.8095,-10.67369],[-37.81405,-10.66982],[-37.80302,-10.6522],[-37.80975,-10.64875],[-37.80748,-10.63935],[-37.81672,-10.63138],[-37.81139,-10.6254],[-37.80632,-10.60053],[-37.79941,-10.59164],[-37.78529,-10.60095],[-37.76702,-10.60659],[-37.76624,-10.61944],[-37.75575,-10.62383],[-37.75141,-10.62083],[-37.7399,-10.63253],[-37.73156,-10.63014],[-37.72229,-10.63373],[-37.72411,-10.64126],[-37.71543,-10.64516],[-37.7066,-10.63306],[-37.70314,-10.64115],[-37.69365,-10.63945],[-37.71504,-10.66892],[-37.70613,-10.6682],[-37.70181,-10.67857],[-37.69121,-10.68469],[-37.67391,-10.70263],[-37.68474,-10.7089],[-37.67744,-10.71541],[-37.66046,-10.70139],[-37.6646,-10.69333],[-37.66406,-10.6811],[-37.66848,-10.67568],[-37.66211,-10.65493],[-37.65526,-10.64907],[-37.64986,-10.61921],[-37.64028,-10.60472],[-37.55857,-10.61945],[-37.53046,-10.6458],[-37.50946,-10.62623],[-37.4745,-10.56646],[-37.45975,-10.59431],[-37.42264,-10.57629],[-37.39454,-10.58232],[-37.37712,-10.56715],[-37.36386,-10.55898],[-37.3629,-10.5489],[-37.34552,-10.53898],[-37.33388,-10.54371],[-37.31963,-10.53944],[-37.34681,-10.50683],[-37.35979,-10.48354],[-37.37001,-10.45906],[-37.37201,-10.44746],[-37.41036,-10.4168],[-37.40983,-10.35546],[-37.41305,-10.34601],[-37.41175,-10.33229],[-37.40665,-10.32173],[-37.4028,-10.28972],[-37.40505,-10.25783],[-37.4084,-10.24565],[-37.39441,-10.2592],[-37.38985,-10.27626],[-37.39549,-10.28837],[-37.38479,-10.29839],[-37.38493,-10.30788],[-37.39192,-10.31644],[-37.37867,-10.31577],[-37.37098,-10.32734],[-37.35634,-10.3336],[-37.36077,-10.33897],[-37.35419,-10.34398],[-37.34546,-10.36245],[-37.35448,-10.36319],[-37.34544,-10.37939],[-37.32592,-10.37466],[-37.32614,-10.36717],[-37.31679,-10.36008],[-37.31456,-10.35218],[-37.30137,-10.33339],[-37.30295,-10.32836],[-37.29542,-10.31985],[-37.27902,-10.31176],[-37.27042,-10.31467],[-37.27402,-10.30649],[-37.25846,-10.30529],[-37.23958,-10.29799],[-37.24147,-10.28737],[-37.25609,-10.28022],[-37.25739,-10.26904],[-37.27004,-10.2624],[-37.29291,-10.25581],[-37.26766,-10.23939],[-37.26121,-10.23838],[-37.2516,-10.2548],[-37.24265,-10.26241],[-37.22889,-10.2925],[-37.21638,-10.30059],[-37.20031,-10.29615],[-37.19594,-10.30267],[-37.18559,-10.3013],[-37.18459,-10.30835],[-37.17553,-10.30933],[-37.16921,-10.32007],[-37.16882,-10.33333],[-37.17381,-10.33954],[-37.16411,-10.33975],[-37.16573,-10.33148],[-37.14925,-10.32156],[-37.15052,-10.29483],[-37.14664,-10.28519],[-37.13869,-10.27888],[-37.14072,-10.24633],[-37.151,-10.23581],[-37.14406,-10.20413],[-37.13652,-10.2003],[-37.13737,-10.19369],[-37.15429,-10.1874],[-37.15038,-10.16312]]]},"properties":{"CD_REG":"2802","NM_REG":"Agreste Sergipano","SIGLA_UF":"SE"}},{"type":"Feature","geometry":{"type":"MultiPolygon","coordinates":[[[[-37.15038,-10.16312],[-37.09028,-10.14479],[-37.06646,-10.13643],[-37.06797,-10.0923],[-37.06202,-10.06155],[-37.02978,-10.05694],[-37.00694,-10.03775],[-36.95345,-10.02282],[-36.9566,-10.05373],[-36.94916,-10.06755],[-36.9457,-10.08736],[-36.93096,-10.09808],[-36.92529,-10.11578],[-36.91142,-10.13878],[-36.89438,-10.13953],[-36.88974,-10.14746],[-36.87142,-10.14651],[-36.86627,-10.15609],[-36.85575,-10.16486],[-36.85039,-10.17845],[-36.84647,-10.18751],[-36.8342,-10.19723],[-36.82635,-10.21119],[-36.81446,-10.2152],[-36.80144,-10.21311],[-36.79147,-10.22722],[-36.76947,-10.22794],[-36.75834,-10.22491],[-36.74888,-10.22819],[-36.73521,-10.24193],[-36.72121,-10.2646],[-36.70162,-10.2704],[-36.6858,-10.27121],[-36.65771,-10.26791],[-36.63857,-10.25196],[-36.62155,-10.25639],[-36.61058,-10.27033],[-36.60371,-10.28577],[-36.57183,-10.31615],[-36.56395,-10.34297],[-36.56449,-10.35831],[-36.55674,-10.37708],[-36.56113,-10.41762],[-36.54973,-10.42591],[-36.53507,-10.43028],[-36.50193,-10.43113],[-36.4631,-10.40848],[-36.45151,-10.41367],[-36.43072,-10.42995],[-36.42195,-10.44286],[-36.40357,-10.48698],[-36.39594,-10.49687],[-36.4088,-10.51269],[-36.43679,-10.51706],[-36.4592,-10.52634],[-36.52171,-10.5495],[-36.57623,-10.57181],[-36.58481,-10.57255],[-36.6127,-10.5884],[-36.67295,-10.63079],[-36.68752,-10.63868],[-36.73469,-10.65807],[-36.78443,-10.68823],[-36.82789,-10.72145],[-36.8675,-10.75805],[-36.92064,-10.81618],[-36.93057,-10.83082],[-36.95306,-10.85151],[-37.00463,-10.91672],[-37.02605,-10.95143],[-37.03583,-10.96021],[-37.03537,-10.97985],[-37.05812,-11.00619],[-37.07932,-11.03532],[-37.12573,-11.10307],[-37.14398,-11.13387],[-37.15324,-11.16071],[-37.16611,-11.1825],[-37.20705,-11.22295],[-37.25531,-11.28248],[-37.27666,-11.31662],[-37.29968,-11.36368],[-37.30952,-11.3944],[-37.31222,-11.42299],[-37.32484,-11.43603],[-37.34115,-11.44234],[-37.35526,-11.4437],[-37.36863,-11.45982],[-37.39358,-11.48161],[-37.43252,-11.51118],[-37.45549,-11.52314],[-37.48561,-11.5228],[-37.50475,-11.52491],[-37.51645,-11.53633],[-37.52007,-11.5493],[-37.56067,-11.54846],[-37.56819,-11.53974],[-37.57509,-11.5428],[-37.57864,-11.55215],[-37.58601,-11.54122],[-37.57957,-11.53301],[-37.58714,-11.52848],[-37.60401,-11.54026],[-37.61627,-11.53848],[-37.62501,-11.53256],[-37.63736,-11.5181],[-37.64484,-11.52397],[-37.65034,-11.51644],[-37.65762,-11.53321],[-37.66422,-11.53214],[-37.6615,-11.54634],[-37.67173,-11.55726],[-37.67301,-11.56857],[-37.68672,-11.5616],[-37.70057,-11.56107],[-37.696,-11.54534],[-37.70235,-11.54027],[-37.71342,-11.55324],[-37.72881,-11.55202],[-37.73042,-11.53802],[-37.74936,-11.53863],[-37.75346,-11.53065],[-37.76294,-11.52493],[-37.77217,-11.53118],[-37.77401,-11.5253],[-37.79845,-11.52257],[-37.81493,-11.51378],[-37.81871,-11.49979],[-37.80883,-11.49604],[-37.82374,-11.49249],[-37.83298,-11.48223],[-37.85346,-11.4675],[-37.86433,-11.46658],[-37.86075,-11.45135],[-37.85302,-11.45171],[-37.84809,-11.44435],[-37.86861,-11.44105],[-37.86976,-11.43481],[-37.88066,-11.43143],[-37.86608,-11.4271],[-37.88274,-11.4249],[-37.89028,-11.4366],[-37.89865,-11.43839],[-37.90059,-11.42878],[-37.90658,-11.42743],[-37.90446,-11.41176],[-37.91694,-11.40277],[-37.92756,-11.4013],[-37.92834,-11.40925],[-37.93637,-11.42166],[-37.94563,-11.42303],[-37.94554,-11.41265],[-37.95404,-11.39384],[-37.96678,-11.40097],[-37.96828,-11.38954],[-37.97782,-11.39266],[-37.98153,-11.38628],[-37.96812,-11.38052],[-37.96935,-11.3728],[-37.97843,-11.36605],[-37.98224,-11.34795],[-37.96675,-11.32312],[-37.96843,-11.31178],[-37.95037,-11.30655],[-37.95124,-11.29498],[-37.93817,-11.28531],[-37.93619,-11.26978],[-37.92393,-11.24915],[-37.92212,-11.24146],[-37.90479,-11.22196],[-37.88678,-11.21298],[-37.8679,-11.22112],[-37.86584,-11.20952],[-37.87638,-11.18659],[-37.8465,-11.16076],[-37.79344,-11.13297],[-37.77511,-11.13253],[-37.76578,-11.14177],[-37.74045,-11.15379],[-37.73803,-11.14954],[-37.72888,-11.16313],[-37.71799,-11.16196],[-37.70679,-11.17432],[-37.67253,-11.14861],[-37.64672,-11.1262],[-37.64955,-11.10888],[-37.63303,-11.08145],[-37.62373,-11.08813],[-37.61192,-11.0799],[-37.61595,-11.06859],[-37.62242,-11.06748],[-37.56515,-11.04005],[-37.57001,-11.03478],[-37.56851,-11.02546],[-37.53101,-10.99622],[-37.51966,-10.96034],[-37.45564,-10.97755],[-37.50361,-10.9011],[-37.49017,-10.9035],[-37.47097,-10.89249],[-37.46401,-10.89253],[-37.45577,-10.88175],[-37.40317,-10.82576],[-37.40693,-10.83217],[-37.40485,-10.84302],[-37.38773,-10.85106],[-37.37052,-10.85215],[-37.3636,-10.84714],[-37.35134,-10.84992],[-37.33938,-10.84727],[-37.3291,-10.83344],[-37.31836,-10.83215],[-37.24451,-10.77838],[-37.27253,-10.75284],[-37.27062,-10.74646],[-37.27891,-10.74144],[-37.28306,-10.73173],[-37.2781,-10.7256],[-37.28226,-10.71732],[-37.27543,-10.711],[-37.26921,-10.71518],[-37.25893,-10.70173],[-37.24793,-10.70886],[-37.23794,-10.70836],[-37.22907,-10.70177],[-37.22899,-10.67532],[-37.23871,-10.66372],[-37.2467,-10.65952],[-37.24734,-10.64844],[-37.2589,-10.64929],[-37.2705,-10.63339],[-37.27921,-10.63216],[-37.28237,-10.61697],[-37.29546,-10.61086],[-37.29324,-10.59453],[-37.27848,-10.58659],[-37.26459,-10.58676],[-37.25366,-10.59577],[-37.24667,-10.59577],[-37.21707,-10.61178],[-37.20413,-10.62421],[-37.20557,-10.60258],[-37.18678,-10.58566],[-37.17584,-10.5797],[-37.1708,-10.57064],[-37.18081,-10.5628],[-37.13967,-10.50703],[-37.13867,-10.47013],[-37.13556,-10.45199],[-37.11814,-10.44076],[-37.11322,-10.4333],[-37.11215,-10.40455],[-37.11954,-10.39898],[-37.11719,-10.39078],[-37.12859,-10.37852],[-37.11909,-10.36825],[-37.11283,-10.3729],[-37.09845,-10.36433],[-37.0967,-10.35669],[-37.08992,-10.35762],[-37.07758,-10.33895],[-37.06262,-10.32908],[-37.05212,-10.34226],[-37.03821,-10.32658],[-37.03012,-10.32547],[-37.01551,-10.33254],[-37.00648,-10.32656],[-36.9981,-10.33242],[-36.99794,-10.35254],[-36.99055,-10.36558],[-36.97863,-10.37179],[-36.98585,-10.3875],[-36.98124,-10.40107],[-36.98526,-10.40299],[-36.96755,-10.42424],[-36.96129,-10.44227],[-36.94341,-10.44402],[-36.93638,-10.45091],[-36.93501,-10.43364],[-36.92905,-10.42382],[-36.92498,-10.42663],[-36.91718,-10.41937],[-36.9045,-10.41461],[-36.903,-10.4026],[-36.91576,-10.39341],[-36.91256,-10.36955],[-36.90075,-10.35012],[-36.90266,-10.32421],[-36.93588,-10.30668],[-36.93373,-10.27615],[-36.95237,-10.26652],[-36.92903,-10.22283],[-36.96119,-10.23566],[-36.97159,-10.20455],[-36.98352,-10.19565],[-36.99479,-10.1776],[-37.0169,-10.19101],[-37.0574,-10.18109],[-37.15038,-10.16312]]],[[[-36.91696,-10.84352],[-36.91874,-10.84588],[-36.91664,-10.84206],[-36.91696,-10.84352]]]]},"properties":{"CD_REG":"2803","NM_REG":"Leste Sergipano","SIGLA_UF":"SE"}}]}