{"type":"FeatureCollection","features":[{"type":"Feature","geometry":{"type":"Polygon","coordinates":[[[-35.57736,-9.25596],[-35.46403,-9.1898],[-35.41669,-9.25414],[-35.39466,-9.27136],[-35.38577,-9.2863],[-35.3958,-9.30337],[-35.41897,-9.31343],[-35.41383,-9.32064],[-35.43292,-9.32459],[-35.43972,-9.33911],[-35.46275,-9.34779],[-35.51228,-9.30808],[-35.57736,-9.25596]]]},"properties":{"CD_MUN":"2706505","NM_MUN":"Passo de Camaragibe","SIGLA_UF":"AL"}},{"type":"Feature","geometry":{"type":"Polygon","coordinates":[[[-36.68474,-9.96269],[-36.64565,-9.98623],[-36.64207,-9.99378],[-36.6531,-10.00567],[-36.64488,-10.00904],[-36.64971,-10.01811],[-36.65424,-10.01439],[-36.65066,-10.02699],[-36.6569,-10.03435],[-36.67135,-10.0711],[-36.67299,-10.09477],[-36.68266,-10.12597],[-36.74377,-10.14503],[-36.73527,-10.15747],[-36.72108,-10.23685],[-36.722,-10.26317],[-36.73653,-10.25056],[-36.74591,-10.23355],[-36.7608,-10.22951],[-36.77134,-10.22038],[-36.8012,-10.22196],[-36.82042,-10.21492],[-36.83781,-10.20232],[-36.84656,-10.18342],[-36.84667,-10.17662],[-36.82183,-10.15063],[-36.769,-10.12426],[-36.76052,-10.10561],[-36.74594,-10.08951],[-36.73616,-10.08623],[-36.72594,-10.0657],[-36.71346,-10.05412],[-36.71283,-10.04326],[-36.70416,-10.01964],[-36.70599,-10.00065],[-36.68474,-9.96269]]]},"properties":{"CD_MUN":"2707503","NM_MUN":"Porto Real do Colégio","SIGLA_UF":"AL"}},{"type":"Feature","geometry":{"type":"Polygon","coordinates":[[[-35.4998,-9.08117],[-35.48085,-9.07283],[-35.46496,-9.07611],[-35.45491,-9.0686],[-35.43785,-9.06717],[-35.42549,-9.06997],[-35.41921,-9.07701],[-35.39854,-9.06096],[-35.38535,-9.06082],[-35.36832,-9.07666],[-35.36929,-9.08363],[-35.36265,-9.09034],[-35.36652,-9.09556],[-35.35894,-9.09208],[-35.36416,-9.10324],[-35.35385,-9.10348],[-35.34908,-9.11351],[-35.35682,-9.10983],[-35.34585,-9.12028],[-35.35166,-9.12555],[-35.33996,-9.12359],[-35.33899,-9.12894],[-35.3309,-9.13259],[-35.33579,-9.1379],[-35.32085,-9.14705],[-35.31121,-9.14707],[-35.29107,-9.14598],[-35.29405,-9.15577],[-35.29382,-9.17062],[-35.30329,-9.19061],[-35.31841,-9.19848],[-35.32919,-9.22256],[-35.34149,-9.23126],[-35.35833,-9.2293],[-35.37694,-9.20975],[-35.42672,-9.19392],[-35.46403,-9.1898],[-35.46749,-9.18095],[-35.46374,-9.17021],[-35.48194,-9.14484],[-35.52285,-9.11903],[-35.4998,-9.08117]]]},"properties":{"CD_MUN":"2707404","NM_MUN":"Porto de Pedras","SIGLA_UF":"AL"}},{"type":"Feature","geometry":{"type":"Polygon","coordinates":[[[-35.45171,-8.96084],[-35.4489,-8.9646],[-35.42084,-8.92074],[-35.37734,-8.96856],[-35.36532,-8.94347],[-35.35298,-8.96369],[-35.35731,-8.98124],[-35.34337,-9.00325],[-35.33779,-9.00352],[-35.33018,-9.01323],[-35.30965,-9.01977],[-35.30926,-9.02485],[-35.30173,-9.0285],[-35.33504,-9.03194],[-35.33615,-9.043],[-35.33312,-9.05431],[-35.33738,-9.0733],[-35.32493,-9.12033],[-35.29996,-9.13604],[-35.31121,-9.14054],[-35.31121,-9.14707],[-35.32085,-9.14705],[-35.33579,-9.1379],[-35.3309,-9.13259],[-35.33899,-9.12894],[-35.33996,-9.12359],[-35.35166,-9.12555],[-35.34585,-9.12028],[-35.35682,-9.10983],[-35.34908,-9.11351],[-35.35385,-9.10348],[-35.36416,-9.10324],[-35.35894,-9.09208],[-35.36652,-9.09556],[-35.36265,-9.09034],[-35.36929,-9.08363],[-35.36832,-9.07666],[-35.38535,-9.06082],[-35.39854,-9.06096],[-35.41921,-9.07701],[-35.42549,-9.06997],[-35.43785,-9.06717],[-35.45491,-9.0686],[-35.46496,-9.07611],[-35.48085,-9.07283],[-35.4998,-9.08117],[-35.52016,-9.00968],[-35.45171,-8.96084]]]},"properties":{"CD_MUN":"2707305","NM_MUN":"Porto Calvo","SIGLA_UF":"AL"}},{"type":"Feature","geometry":{"type":"Polygon","coordinates":[[[-37.23337,-9.24021],[-37.21119,-9.22116],[-37.19733,-9.21551],[-37.15797,-9.23914],[-37.1673,-9.25187],[-37.16814,-9.26574],[-37.20189,-9.29165],[-37.21423,-9.31153],[-37.28173,-9.34209],[-37.3127,-9.3512],[-37.33623,-9.35046],[-37.36396,-9.35752],[-37.38893,-9.35223],[-37.40223,-9.36214],[-37.4443,-9.35725],[-37.48832,-9.34274],[-37.56043,-9.27079],[-37.40215,-9.3045],[-37.26781,-9.24236],[-37.26309,-9.25547],[-37.23337,-9.24021]]]},"properties":{"CD_MUN":"2707206","NM_MUN":"Poço das Trincheiras","SIGLA_UF":"AL"}},{"type":"Feature","geometry":{"type":"Polygon","coordinates":[[[-37.72727,-9.33395],[-37.65536,-9.40844],[-37.67022,-9.46233],[-37.66294,-9.4845],[-37.67342,-9.49922],[-37.66967,-9.50608],[-37.67522,-9.52129],[-37.67133,-9.53579],[-37.63664,-9.60376],[-37.65842,-9.65417],[-37.65506,-9.66741],[-37.65917,-9.67698],[-37.66507,-9.66662],[-37.66759,-9.65894],[-37.68359,-9.64549],[-37.71495,-9.63021],[-37.74657,-9.62585],[-37.7841,-9.63857],[-37.79012,-9.62313],[-37.80604,-9.61041],[-37.81743,-9.59324],[-37.83257,-9.59458],[-37.84126,-9.57939],[-37.84376,-9.56909],[-37.83248,-9.5505],[-37.81537,-9.54415],[-37.80906,-9.54837],[-37.80134,-9.54656],[-37.80176,-9.54211],[-37.79295,-9.54438],[-37.79354,-9.53488],[-37.78667,-9.52232],[-37.79509,-9.50545],[-37.77923,-9.48865],[-37.77289,-9.46913],[-37.77453,-9.44816],[-37.72205,-9.38429],[-37.72727,-9.33395]]]},"properties":{"CD_MUN":"2707107","NM_MUN":"Piranhas","SIGLA_UF":"AL"}},{"type":"Feature","geometry":{"type":"Polygon","coordinates":[[[-37.16814,-9.26574],[-37.16841,-9.27247],[-37.16337,-9.27575],[-37.14142,-9.26813],[-37.12867,-9.25988],[-37.1155,-9.24097],[-37.10719,-9.23875],[-37.08969,-9.2464],[-37.05622,-9.28184],[-37.06095,-9.29741],[-37.05633,-9.31826],[-37.07286,-9.3182],[-37.08567,-9.32993],[-37.08839,-9.34822],[-37.10175,-9.36172],[-37.10873,-9.38075],[-37.14553,-9.41768],[-37.1479,-9.43602],[-37.19712,-9.4323],[-37.20673,-9.43465],[-37.21304,-9.44535],[-37.25418,-9.44668],[-37.26887,-9.45353],[-37.3176,-9.42062],[-37.33091,-9.42415],[-37.4443,-9.35725],[-37.40223,-9.36214],[-37.38893,-9.35223],[-37.36396,-9.35752],[-37.33623,-9.35046],[-37.3127,-9.3512],[-37.28173,-9.34209],[-37.21423,-9.31153],[-37.20189,-9.29165],[-37.16814,-9.26574]]]},"properties":{"CD_MUN":"2708006","NM_MUN":"Santana do Ipanema","SIGLA_UF":"AL"}},{"type":"Feature","geometry":{"type":"Polygon","coordinates":[[[-35.81486,-9.57715],[-35.79269,-9.60031],[-35.81072,-9.61604],[-35.82558,-9.63999],[-35.83978,-9.64174],[-35.86666,-9.62665],[-35.85408,-9.61011],[-35.84928,-9.61207],[-35.85127,-9.60691],[-35.84439,-9.60616],[-35.82444,-9.57746],[-35.81486,-9.57715]]]},"properties":{"CD_MUN":"2707909","NM_MUN":"Santa Luzia do Norte","SIGLA_UF":"AL"}},{"type":"Feature","geometry":{"type":"Polygon","coordinates":[[[-36.02565,-9.81127],[-36.01543,-9.80783],[-36.00468,-9.81119],[-35.99679,-9.8196],[-35.99004,-9.81846],[-35.98293,-9.82601],[-35.96768,-9.82968],[-35.94915,-9.84526],[-35.9169,-9.8388],[-35.90326,-9.85665],[-35.90179,-9.87016],[-35.93429,-9.89924],[-35.96132,-9.94135],[-35.96704,-9.92978],[-35.97677,-9.92516],[-35.98193,-9.91034],[-35.99876,-9.91548],[-36.01291,-9.90764],[-36.02027,-9.92039],[-36.04329,-9.84967],[-36.03632,-9.82684],[-36.03813,-9.8155],[-36.02565,-9.81127]]]},"properties":{"CD_MUN":"2707800","NM_MUN":"Roteiro","SIGLA_UF":"AL"}},{"type":"Feature","geometry":{"type":"Polygon","coordinates":[[[-35.87688,-9.41028],[-35.76846,-9.38853],[-35.78394,-9.51128],[-35.79552,-9.53153],[-35.81669,-9.5375],[-35.81797,-9.54421],[-35.82925,-9.54551],[-35.83319,-9.55497],[-35.876,-9.564],[-35.88594,-9.58877],[-35.95875,-9.52807],[-35.93191,-9.48047],[-35.93596,-9.40146],[-35.92769,-9.37553],[-35.87688,-9.41028]]]},"properties":{"CD_MUN":"2707701","NM_MUN":"Rio Largo","SIGLA_UF":"AL"}},{"type":"Feature","geometry":{"type":"Polygon","coordinates":[[[-36.49946,-9.26385],[-36.489,-9.24597],[-36.48098,-9.24612],[-36.47953,-9.24125],[-36.47406,-9.24391],[-36.45509,-9.23346],[-36.455,-9.22614],[-36.44192,-9.21941],[-36.43895,-9.21193],[-36.42403,-9.21601],[-36.42559,-9.22489],[-36.42161,-9.22943],[-36.40839,-9.22129],[-36.33889,-9.28677],[-36.38976,-9.29293],[-36.37548,-9.3381],[-36.39787,-9.33958],[-36.4242,-9.35859],[-36.44387,-9.39683],[-36.48463,-9.4072],[-36.54984,-9.34387],[-36.54921,-9.35415],[-36.57376,-9.35773],[-36.58268,-9.35366],[-36.59224,-9.3609],[-36.62398,-9.33177],[-36.62296,-9.32662],[-36.61357,-9.32263],[-36.61479,-9.30675],[-36.50251,-9.27114],[-36.49946,-9.26385]]]},"properties":{"CD_MUN":"2707602","NM_MUN":"Quebrangulo","SIGLA_UF":"AL"}},{"type":"Feature","geometry":{"type":"Polygon","coordinates":[[[-35.72392,-9.1254],[-35.63964,-9.13004],[-35.59136,-9.15637],[-35.58027,-9.13966],[-35.57047,-9.1616],[-35.58175,-9.20328],[-35.56681,-9.21841],[-35.56608,-9.22617],[-35.56745,-9.23599],[-35.58045,-9.25036],[-35.57736,-9.25596],[-35.51228,-9.30808],[-35.5192,-9.32393],[-35.51239,-9.34578],[-35.51681,-9.35485],[-35.53473,-9.34652],[-35.56042,-9.35827],[-35.68668,-9.37091],[-35.69373,-9.26726],[-35.72392,-9.1254]]]},"properties":{"CD_MUN":"2708501","NM_MUN":"São Luís do Quitunde","SIGLA_UF":"AL"}},{"type":"Feature","geometry":{"type":"Polygon","coordinates":[[[-36.69216,-9.63387],[-36.6538,-9.6428],[-36.63655,-9.63658],[-36.62197,-9.65552],[-36.6085,-9.65428],[-36.60714,-9.66941],[-36.59475,-9.6838],[-36.59392,-9.69227],[-36.58658,-9.69227],[-36.58253,-9.70037],[-36.57603,-9.70697],[-36.55761,-9.71233],[-36.56586,-9.74015],[-36.55186,-9.77265],[-36.56459,-9.80362],[-36.54806,-9.80838],[-36.55378,-9.83774],[-36.54417,-9.84231],[-36.54167,-9.87182],[-36.54075,-9.8823],[-36.56056,-9.87432],[-36.58376,-9.88137],[-36.59115,-9.87281],[-36.60326,-9.8727],[-36.62087,-9.86043],[-36.63034,-9.83381],[-36.66462,-9.81245],[-36.68992,-9.80406],[-36.7519,-9.70984],[-36.69216,-9.63387]]]},"properties":{"CD_MUN":"2700300","NM_MUN":"Arapiraca","SIGLA_UF":"AL"}},{"type":"Feature","geometry":{"type":"Polygon","coordinates":[[[-37.65536,-9.40844],[-37.44438,-9.47667],[-37.37213,-9.52482],[-37.31269,-9.55316],[-37.35752,-9.64366],[-37.43044,-9.64821],[-37.47603,-9.62493],[-37.54936,-9.5592],[-37.59017,-9.53426],[-37.60219,-9.53621],[-37.6387,-9.52157],[-37.65722,-9.51988],[-37.67133,-9.53579],[-37.67522,-9.52129],[-37.66967,-9.50608],[-37.67342,-9.49922],[-37.66294,-9.4845],[-37.67022,-9.46233],[-37.65536,-9.40844]]]},"properties":{"CD_MUN":"2708402","NM_MUN":"São José da Tapera","SIGLA_UF":"AL"}},{"type":"Feature","geometry":{"type":"Polygon","coordinates":[[[-36.34977,-9.5924],[-36.34357,-9.60042],[-36.35018,-9.60726],[-36.31988,-9.60835],[-36.29285,-9.60161],[-36.28693,-9.60918],[-36.25293,-9.62394],[-36.23849,-9.67483],[-36.24563,-9.7325],[-36.25154,-9.72957],[-36.27799,-9.73409],[-36.31677,-9.72327],[-36.32288,-9.71346],[-36.33146,-9.7126],[-36.33424,-9.72853],[-36.34174,-9.7386],[-36.34216,-9.71327],[-36.36977,-9.69798],[-36.37466,-9.66633],[-36.38735,-9.65173],[-36.39319,-9.64842],[-36.37985,-9.63542],[-36.38763,-9.62882],[-36.39113,-9.60296],[-36.34977,-9.5924]]]},"properties":{"CD_MUN":"2700201","NM_MUN":"Anadia","SIGLA_UF":"AL"}},{"type":"Feature","geometry":{"type":"Polygon","coordinates":[[[-36.04617,-8.91273],[-36.03514,-8.90784],[-36.00436,-8.91305],[-35.98603,-8.90333],[-35.9642,-8.90318],[-35.9572,-8.89329],[-35.94678,-8.90761],[-35.94947,-8.91735],[-35.94397,-8.93292],[-35.94984,-8.94385],[-35.94228,-8.96531],[-35.97542,-9.00012],[-35.95795,-9.05207],[-36.03859,-9.05431],[-36.07004,-9.06111],[-36.07401,-9.06824],[-36.08793,-9.06797],[-36.09254,-9.07295],[-36.09068,-9.05907],[-36.11343,-9.05526],[-36.14118,-9.03907],[-36.12729,-9.03355],[-36.11151,-9.01772],[-36.11029,-9.01017],[-36.10423,-9.00733],[-36.1042,-8.99447],[-36.12532,-8.98296],[-36.12651,-8.9583],[-36.08565,-8.94585],[-36.06461,-8.9176],[-36.04617,-8.91273]]]},"properties":{"CD_MUN":"2708303","NM_MUN":"São José da Laje","SIGLA_UF":"AL"}},{"type":"Feature","geometry":{"type":"Polygon","coordinates":[[[-38.01005,-9.15606],[-37.999,-9.15229],[-37.99002,-9.15541],[-37.97839,-9.1484],[-37.97024,-9.12437],[-37.96014,-9.11988],[-37.9533,-9.10958],[-37.84133,-9.22247],[-37.77005,-9.29302],[-37.77861,-9.32516],[-37.806,-9.32846],[-37.8198,-9.3358],[-37.82686,-9.35112],[-37.83467,-9.35332],[-37.83622,-9.36421],[-37.84756,-9.37451],[-37.85111,-9.39128],[-37.86098,-9.40192],[-37.86967,-9.40689],[-37.87375,-9.40437],[-37.87559,-9.41292],[-38.00649,-9.33862],[-37.98489,-9.33074],[-37.97794,-9.31172],[-37.98208,-9.30215],[-37.97697,-9.29975],[-37.9835,-9.28407],[-37.97101,-9.25698],[-37.95909,-9.24721],[-37.98754,-9.24213],[-37.97663,-9.23202],[-37.97024,-9.21392],[-37.98295,-9.17858],[-37.99893,-9.17391],[-38.00232,-9.16192],[-38.01005,-9.15606]]]},"properties":{"CD_MUN":"2700102","NM_MUN":"Água Branca","SIGLA_UF":"AL"}},{"type":"Feature","geometry":{"type":"Polygon","coordinates":[[[-36.95141,-10.0749],[-36.93995,-10.07695],[-36.86794,-10.04714],[-36.8738,-10.05355],[-36.87141,-10.05834],[-36.82072,-10.07465],[-36.81242,-10.09188],[-36.78861,-10.10542],[-36.769,-10.12426],[-36.82183,-10.15063],[-36.84667,-10.17662],[-36.84969,-10.16076],[-36.86542,-10.1586],[-36.88036,-10.14504],[-36.91642,-10.13336],[-36.95141,-10.0749]]]},"properties":{"CD_MUN":"2708204","NM_MUN":"São Brás","SIGLA_UF":"AL"}},{"type":"Feature","geometry":{"type":"Polygon","coordinates":[[[-36.14118,-9.03907],[-36.11343,-9.05526],[-36.11227,-9.13691],[-36.11796,-9.13728],[-36.11757,-9.14181],[-36.17957,-9.21332],[-36.28058,-9.18629],[-36.28677,-9.17356],[-36.27327,-9.16691],[-36.27111,-9.1714],[-36.26016,-9.17115],[-36.2623,-9.17792],[-36.25733,-9.18269],[-36.25325,-9.18136],[-36.25405,-9.17423],[-36.24644,-9.17798],[-36.22319,-9.17079],[-36.23849,-9.16036],[-36.24683,-9.14407],[-36.25746,-9.13922],[-36.26741,-9.10252],[-36.23418,-9.10142],[-36.22296,-9.08712],[-36.22166,-9.07381],[-36.21054,-9.07338],[-36.20396,-9.06723],[-36.19576,-9.04482],[-36.14118,-9.03907]]]},"properties":{"CD_MUN":"2708105","NM_MUN":"Santana do Mundaú","SIGLA_UF":"AL"}},{"type":"Feature","geometry":{"type":"Polygon","coordinates":[[[-36.45627,-9.46621],[-36.41649,-9.47851],[-36.37649,-9.50147],[-36.38485,-9.50658],[-36.38623,-9.51639],[-36.3751,-9.52816],[-36.38246,-9.54128],[-36.37844,-9.57232],[-36.34977,-9.5924],[-36.39113,-9.60296],[-36.38763,-9.62882],[-36.37985,-9.63542],[-36.39319,-9.64842],[-36.40763,-9.63651],[-36.39832,-9.6245],[-36.40016,-9.61912],[-36.41652,-9.61133],[-36.43235,-9.61681],[-36.44538,-9.60549],[-36.45688,-9.61697],[-36.47274,-9.60267],[-36.44332,-9.58682],[-36.46266,-9.57217],[-36.48724,-9.50229],[-36.46646,-9.48344],[-36.45627,-9.46621]]]},"properties":{"CD_MUN":"2709004","NM_MUN":"Tanque d'Arca","SIGLA_UF":"AL"}},{"type":"Feature","geometry":{"type":"Polygon","coordinates":[[[-37.59016,-9.28717],[-37.57327,-9.28174],[-37.56043,-9.27079],[-37.48832,-9.34274],[-37.4443,-9.35725],[-37.33091,-9.42415],[-37.44891,-9.45335],[-37.44438,-9.47667],[-37.65536,-9.40844],[-37.63755,-9.37735],[-37.62322,-9.36416],[-37.59433,-9.31273],[-37.59016,-9.28717]]]},"properties":{"CD_MUN":"2708956","NM_MUN":"Senador Rui Palmeira","SIGLA_UF":"AL"}},{"type":"Feature","geometry":{"type":"Polygon","coordinates":[[[-36.53108,-9.53214],[-36.52524,-9.52808],[-36.52421,-9.51502],[-36.51688,-9.50393],[-36.50135,-9.50088],[-36.49927,-9.49641],[-36.48724,-9.50229],[-36.46266,-9.57217],[-36.44332,-9.58682],[-36.47274,-9.60267],[-36.48366,-9.58915],[-36.49716,-9.58332],[-36.50335,-9.56092],[-36.53108,-9.53214]]]},"properties":{"CD_MUN":"2700805","NM_MUN":"Belém","SIGLA_UF":"AL"}},{"type":"Feature","geometry":{"type":"Polygon","coordinates":[[[-37.16249,-9.60805],[-37.15882,-9.60235],[-37.10893,-9.60605],[-37.0512,-9.6198],[-37.06666,-9.63696],[-37.06616,-9.65848],[-36.99249,-9.72077],[-37.00165,-9.73343],[-36.99738,-9.76317],[-37.01416,-9.77188],[-37.01966,-9.78512],[-37.03185,-9.79336],[-37.03424,-9.8105],[-37.04008,-9.80868],[-37.06724,-9.79051],[-37.08174,-9.79448],[-37.10208,-9.79135],[-37.15438,-9.76059],[-37.16644,-9.74216],[-37.18374,-9.73673],[-37.21849,-9.70988],[-37.21919,-9.70325],[-37.21413,-9.70388],[-37.21149,-9.69342],[-37.19002,-9.69044],[-37.15185,-9.61392],[-37.16249,-9.60805]]]},"properties":{"CD_MUN":"2700706","NM_MUN":"Batalha","SIGLA_UF":"AL"}},{"type":"Feature","geometry":{"type":"Polygon","coordinates":[[[-35.79552,-9.53153],[-35.81486,-9.57715],[-35.82444,-9.57746],[-35.84439,-9.60616],[-35.85127,-9.60691],[-35.84928,-9.61207],[-35.85408,-9.61011],[-35.86666,-9.62665],[-35.88594,-9.58877],[-35.876,-9.564],[-35.83319,-9.55497],[-35.82925,-9.54551],[-35.81797,-9.54421],[-35.81669,-9.5375],[-35.79552,-9.53153]]]},"properties":{"CD_MUN":"2708907","NM_MUN":"Satuba","SIGLA_UF":"AL"}},{"type":"Feature","geometry":{"type":"Polygon","coordinates":[[[-36.60326,-9.8727],[-36.59115,-9.87281],[-36.58376,-9.88137],[-36.56056,-9.87432],[-36.54075,-9.8823],[-36.54167,-9.87182],[-36.50267,-9.85653],[-36.49559,-9.86701],[-36.49675,-9.90082],[-36.48675,-9.9162],[-36.48517,-9.92769],[-36.47004,-9.93903],[-36.47201,-9.95362],[-36.47859,-9.96146],[-36.47115,-9.97425],[-36.47295,-9.99704],[-36.48687,-10.02209],[-36.48257,-10.0271],[-36.45398,-10.03232],[-36.4904,-10.07115],[-36.50862,-10.06868],[-36.51626,-10.04058],[-36.6569,-10.03435],[-36.65066,-10.02699],[-36.65424,-10.01439],[-36.64971,-10.01811],[-36.64488,-10.00904],[-36.6531,-10.00567],[-36.64207,-9.99378],[-36.64565,-9.98623],[-36.62735,-9.98025],[-36.62996,-9.96916],[-36.62396,-9.96533],[-36.62987,-9.95235],[-36.61257,-9.95113],[-36.61373,-9.91215],[-36.6109,-9.90526],[-36.60245,-9.90256],[-36.60326,-9.8727]]]},"properties":{"CD_MUN":"2708808","NM_MUN":"São Sebastião","SIGLA_UF":"AL"}},{"type":"Feature","geometry":{"type":"Polygon","coordinates":[[[-36.02565,-9.81127],[-36.00354,-9.76718],[-35.99026,-9.78188],[-35.96048,-9.79006],[-35.94043,-9.78795],[-35.9364,-9.79478],[-35.92551,-9.79577],[-35.91373,-9.80963],[-35.90465,-9.81197],[-35.85406,-9.78824],[-35.88868,-9.84003],[-35.90179,-9.87016],[-35.90326,-9.85665],[-35.9169,-9.8388],[-35.94915,-9.84526],[-35.96768,-9.82968],[-35.98293,-9.82601],[-35.99004,-9.81846],[-35.99679,-9.8196],[-36.00468,-9.81119],[-36.01543,-9.80783],[-36.02565,-9.81127]]]},"properties":{"CD_MUN":"2700607","NM_MUN":"Barra de São Miguel","SIGLA_UF":"AL"}},{"type":"Feature","geometry":{"type":"Polygon","coordinates":[[[-35.46403,-9.1898],[-35.42672,-9.19392],[-35.37694,-9.20975],[-35.35833,-9.2293],[-35.34149,-9.23126],[-35.35313,-9.25558],[-35.38577,-9.2863],[-35.39466,-9.27136],[-35.41669,-9.25414],[-35.46403,-9.1898]]]},"properties":{"CD_MUN":"2708709","NM_MUN":"São Miguel dos Milagres","SIGLA_UF":"AL"}},{"type":"Feature","geometry":{"type":"Polygon","coordinates":[[[-35.51228,-9.30808],[-35.46275,-9.34779],[-35.49284,-9.38651],[-35.49664,-9.41977],[-35.5017,-9.41839],[-35.51242,-9.44037],[-35.52427,-9.44305],[-35.54501,-9.41691],[-35.5435,-9.41051],[-35.54863,-9.40365],[-35.57496,-9.40185],[-35.59434,-9.40866],[-35.60999,-9.4046],[-35.62001,-9.40995],[-35.63944,-9.40187],[-35.64968,-9.40483],[-35.67577,-9.39849],[-35.68668,-9.37091],[-35.56042,-9.35827],[-35.53473,-9.34652],[-35.51681,-9.35485],[-35.51239,-9.34578],[-35.5192,-9.32393],[-35.51228,-9.30808]]]},"properties":{"CD_MUN":"2700508","NM_MUN":"Barra de Santo Antônio","SIGLA_UF":"AL"}},{"type":"Feature","geometry":{"type":"Polygon","coordinates":[[[-36.0741,-9.67379],[-36.02884,-9.67135],[-36.01737,-9.68754],[-35.99167,-9.69363],[-35.98717,-9.70056],[-35.98701,-9.73785],[-36.00354,-9.76718],[-36.02565,-9.81127],[-36.03813,-9.8155],[-36.03632,-9.82684],[-36.04329,-9.84967],[-36.02027,-9.92039],[-36.01291,-9.90764],[-35.99876,-9.91548],[-35.98193,-9.91034],[-35.97677,-9.92516],[-35.96704,-9.92978],[-35.96132,-9.94135],[-36.0305,-10.05091],[-36.0258,-10.04212],[-36.03044,-10.02535],[-36.0221,-10.00545],[-36.0273,-9.9637],[-36.03149,-9.95997],[-36.06438,-9.95739],[-36.09697,-9.94377],[-36.10863,-9.93378],[-36.28008,-9.93461],[-36.27633,-9.89955],[-36.21849,-9.90443],[-36.17836,-9.88939],[-36.18069,-9.88005],[-36.23861,-9.87176],[-36.21847,-9.83661],[-36.20871,-9.84288],[-36.1965,-9.83757],[-36.19632,-9.82652],[-36.20721,-9.80572],[-36.18766,-9.79908],[-36.18624,-9.79426],[-36.24563,-9.7325],[-36.17988,-9.72538],[-36.17766,-9.71727],[-36.0779,-9.69454],[-36.06759,-9.68916],[-36.07787,-9.67966],[-36.0741,-9.67379]]]},"properties":{"CD_MUN":"2708600","NM_MUN":"São Miguel dos Campos","SIGLA_UF":"AL"}},{"type":"Feature","geometry":{"type":"Polygon","coordinates":[[[-35.98224,-9.38348],[-35.92769,-9.37553],[-35.93596,-9.40146],[-35.93191,-9.48047],[-35.95875,-9.52807],[-35.97861,-9.55049],[-35.97542,-9.55564],[-35.99942,-9.57445],[-36.00489,-9.5863],[-36.0167,-9.57593],[-36.0834,-9.60034],[-36.1189,-9.59571],[-36.12731,-9.59916],[-36.13759,-9.61311],[-36.14906,-9.61212],[-36.15773,-9.61883],[-36.18076,-9.61287],[-36.19059,-9.59991],[-36.21768,-9.56417],[-36.22659,-9.51331],[-36.21059,-9.45438],[-36.16075,-9.47408],[-36.07228,-9.43936],[-36.07106,-9.43156],[-36.05766,-9.42832],[-36.05658,-9.41995],[-35.98224,-9.38348]]]},"properties":{"CD_MUN":"2700409","NM_MUN":"Atalaia","SIGLA_UF":"AL"}},{"type":"Feature","geometry":{"type":"Polygon","coordinates":[[[-36.21059,-9.45438],[-36.19664,-9.38798],[-36.20789,-9.38113],[-36.19861,-9.33028],[-36.11097,-9.31154],[-36.1053,-9.3529],[-36.16075,-9.47408],[-36.21059,-9.45438]]]},"properties":{"CD_MUN":"2701308","NM_MUN":"Cajueiro","SIGLA_UF":"AL"}},{"type":"Feature","geometry":{"type":"Polygon","coordinates":[[[-36.33889,-9.28677],[-36.32558,-9.28468],[-36.32122,-9.28944],[-36.32489,-9.29597],[-36.31547,-9.29722],[-36.31253,-9.3026],[-36.3,-9.30226],[-36.29833,-9.31244],[-36.23578,-9.29136],[-36.17957,-9.21332],[-36.19861,-9.33028],[-36.20789,-9.38113],[-36.19664,-9.38798],[-36.21059,-9.45438],[-36.24278,-9.44113],[-36.31754,-9.45102],[-36.33284,-9.4425],[-36.35076,-9.44899],[-36.35087,-9.45269],[-36.36901,-9.44691],[-36.38829,-9.42512],[-36.37368,-9.3761],[-36.36348,-9.38316],[-36.3655,-9.36276],[-36.33889,-9.28677]]]},"properties":{"CD_MUN":"2709400","NM_MUN":"Viçosa","SIGLA_UF":"AL"}},{"type":"Feature","geometry":{"type":"Polygon","coordinates":[[[-36.97625,-9.36167],[-36.95341,-9.38234],[-36.93684,-9.37695],[-36.90044,-9.39782],[-36.82557,-9.39102],[-36.83192,-9.40828],[-36.82675,-9.41559],[-36.82834,-9.42814],[-36.8448,-9.44225],[-36.83917,-9.46965],[-36.84234,-9.48658],[-36.83203,-9.49783],[-36.832,-9.50681],[-36.83992,-9.51182],[-36.83033,-9.52807],[-36.83608,-9.53196],[-36.87569,-9.53516],[-36.97967,-9.48689],[-36.98228,-9.47643],[-37.01723,-9.4351],[-37.01883,-9.41391],[-37.02925,-9.39238],[-37.02181,-9.36964],[-36.99111,-9.37465],[-36.97625,-9.36167]]]},"properties":{"CD_MUN":"2701209","NM_MUN":"Cacimbinhas","SIGLA_UF":"AL"}},{"type":"Feature","geometry":{"type":"Polygon","coordinates":[[[-35.95795,-9.05207],[-35.85942,-9.05011],[-35.86131,-9.13747],[-35.99988,-9.19817],[-36.05938,-9.21604],[-36.06621,-9.20667],[-36.08724,-9.20217],[-36.10738,-9.20954],[-36.12749,-9.20254],[-36.17957,-9.21332],[-36.11757,-9.14181],[-36.11796,-9.13728],[-36.11227,-9.13691],[-36.11343,-9.05526],[-36.09068,-9.05907],[-36.09254,-9.07295],[-36.08793,-9.06797],[-36.07401,-9.06824],[-36.07004,-9.06111],[-36.03859,-9.05431],[-35.95795,-9.05207]]]},"properties":{"CD_MUN":"2709301","NM_MUN":"União dos Palmares","SIGLA_UF":"AL"}},{"type":"Feature","geometry":{"type":"Polygon","coordinates":[[[-36.17957,-9.21332],[-36.12749,-9.20254],[-36.10738,-9.20954],[-36.08724,-9.20217],[-36.06621,-9.20667],[-36.05938,-9.21604],[-35.99988,-9.19817],[-35.86131,-9.13747],[-35.96738,-9.25094],[-35.98755,-9.27859],[-36.148,-9.25487],[-36.17957,-9.21332]]]},"properties":{"CD_MUN":"2701100","NM_MUN":"Branquinha","SIGLA_UF":"AL"}},{"type":"Feature","geometry":{"type":"Polygon","coordinates":[[[-36.99249,-9.72077],[-36.98402,-9.71518],[-36.98529,-9.70584],[-36.97582,-9.69341],[-36.96854,-9.69419],[-36.89968,-9.73998],[-36.90246,-9.81053],[-36.9186,-9.81943],[-36.92202,-9.88204],[-36.90921,-9.8937],[-36.88024,-9.90291],[-36.84813,-9.92971],[-36.82621,-9.92926],[-36.82807,-9.94333],[-36.81927,-9.95513],[-36.80996,-9.96102],[-36.79727,-9.95899],[-36.80979,-9.98358],[-36.83746,-10.00198],[-36.84213,-10.01025],[-36.86019,-10.02768],[-36.86794,-10.04714],[-36.93995,-10.07695],[-36.95141,-10.0749],[-36.95414,-10.06435],[-36.95875,-10.0479],[-36.95608,-10.02002],[-36.96389,-9.99411],[-36.99517,-9.97629],[-37.03186,-9.98861],[-37.04728,-9.98816],[-37.13186,-9.91412],[-37.12728,-9.90799],[-37.13386,-9.89951],[-37.12744,-9.90087],[-37.12464,-9.89345],[-37.11808,-9.89109],[-37.11792,-9.87562],[-37.10747,-9.86785],[-37.10411,-9.8502],[-37.04008,-9.80868],[-37.03424,-9.8105],[-37.03185,-9.79336],[-37.01966,-9.78512],[-37.01416,-9.77188],[-36.99738,-9.76317],[-37.00165,-9.73343],[-36.99249,-9.72077]]]},"properties":{"CD_MUN":"2709202","NM_MUN":"Traipu","SIGLA_UF":"AL"}},{"type":"Feature","geometry":{"type":"Polygon","coordinates":[[[-36.19059,-9.59991],[-36.18076,-9.61287],[-36.17595,-9.62137],[-36.15479,-9.62497],[-36.13118,-9.65118],[-36.11428,-9.64948],[-36.10345,-9.63885],[-36.09809,-9.65195],[-36.08907,-9.65569],[-36.0741,-9.67379],[-36.07787,-9.67966],[-36.06759,-9.68916],[-36.0779,-9.69454],[-36.17766,-9.71727],[-36.17988,-9.72538],[-36.24563,-9.7325],[-36.23849,-9.67483],[-36.25293,-9.62394],[-36.26343,-9.5957],[-36.19059,-9.59991]]]},"properties":{"CD_MUN":"2701001","NM_MUN":"Boca da Mata","SIGLA_UF":"AL"}},{"type":"Feature","geometry":{"type":"Polygon","coordinates":[[[-36.312,-9.88702],[-36.27691,-9.89235],[-36.27633,-9.89955],[-36.28008,-9.93461],[-36.29023,-10.00032],[-36.30461,-10.01944],[-36.30331,-10.03121],[-36.45268,-10.0384],[-36.45398,-10.03232],[-36.48257,-10.0271],[-36.48687,-10.02209],[-36.47295,-9.99704],[-36.47115,-9.97425],[-36.47859,-9.96146],[-36.46865,-9.97157],[-36.45931,-9.96259],[-36.44995,-9.96124],[-36.39786,-9.88813],[-36.39489,-9.87456],[-36.312,-9.88702]]]},"properties":{"CD_MUN":"2709152","NM_MUN":"Teotônio Vilela","SIGLA_UF":"AL"}},{"type":"Feature","geometry":{"type":"Polygon","coordinates":[[[-36.57291,-9.56546],[-36.56552,-9.56099],[-36.55407,-9.54068],[-36.53108,-9.53214],[-36.50335,-9.56092],[-36.49716,-9.58332],[-36.48366,-9.58915],[-36.47274,-9.60267],[-36.45688,-9.61697],[-36.44538,-9.60549],[-36.43235,-9.61681],[-36.41652,-9.61133],[-36.40016,-9.61912],[-36.39832,-9.6245],[-36.40763,-9.63651],[-36.39319,-9.64842],[-36.38735,-9.65173],[-36.50922,-9.69234],[-36.52547,-9.68816],[-36.53513,-9.66313],[-36.54286,-9.62773],[-36.55021,-9.62077],[-36.5696,-9.56424],[-36.57291,-9.56546]]]},"properties":{"CD_MUN":"2709103","NM_MUN":"Taquarana","SIGLA_UF":"AL"}},{"type":"Feature","geometry":{"type":"Polygon","coordinates":[[[-37.23872,-9.73688],[-37.22872,-9.73033],[-37.22821,-9.72249],[-37.2205,-9.72319],[-37.21849,-9.70988],[-37.18374,-9.73673],[-37.16644,-9.74216],[-37.15438,-9.76059],[-37.10208,-9.79135],[-37.08174,-9.79448],[-37.06724,-9.79051],[-37.04008,-9.80868],[-37.10411,-9.8502],[-37.10747,-9.86785],[-37.11792,-9.87562],[-37.11808,-9.89109],[-37.12464,-9.89345],[-37.12744,-9.90087],[-37.13386,-9.89951],[-37.12728,-9.90799],[-37.13186,-9.91412],[-37.1547,-9.89843],[-37.22545,-9.89946],[-37.24389,-9.88781],[-37.26039,-9.85349],[-37.29642,-9.82689],[-37.29742,-9.81743],[-37.30886,-9.80376],[-37.30034,-9.78865],[-37.28453,-9.77874],[-37.28586,-9.77221],[-37.27458,-9.77425],[-37.27236,-9.76736],[-37.25077,-9.75205],[-37.24783,-9.73906],[-37.23872,-9.73688]]]},"properties":{"CD_MUN":"2700904","NM_MUN":"Belo Monte","SIGLA_UF":"AL"}},{"type":"Feature","geometry":{"type":"Polygon","coordinates":[[[-37.33091,-9.42415],[-37.3176,-9.42062],[-37.26887,-9.45353],[-37.30996,-9.46732],[-37.37213,-9.52482],[-37.44438,-9.47667],[-37.44891,-9.45335],[-37.33091,-9.42415]]]},"properties":{"CD_MUN":"2701803","NM_MUN":"Carneiros","SIGLA_UF":"AL"}},{"type":"Feature","geometry":{"type":"Polygon","coordinates":[[[-36.17957,-9.21332],[-36.148,-9.25487],[-35.98224,-9.38348],[-36.05658,-9.41995],[-36.05766,-9.42832],[-36.07106,-9.43156],[-36.07228,-9.43936],[-36.16075,-9.47408],[-36.1053,-9.3529],[-36.11097,-9.31154],[-36.19861,-9.33028],[-36.17957,-9.21332]]]},"properties":{"CD_MUN":"2701704","NM_MUN":"Capela","SIGLA_UF":"AL"}},{"type":"Feature","geometry":{"type":"Polygon","coordinates":[[[-37.5293,-8.96346],[-37.50922,-8.96785],[-37.48936,-8.96594],[-37.48603,-8.97559],[-37.49278,-9.00073],[-37.47781,-9.01958],[-37.46839,-9.02771],[-37.43456,-9.02892],[-37.39983,-9.05221],[-37.41878,-9.07588],[-37.42556,-9.10231],[-37.41897,-9.13836],[-37.42439,-9.15536],[-37.42192,-9.16196],[-37.44201,-9.19125],[-37.46506,-9.20828],[-37.47951,-9.2149],[-37.48007,-9.22397],[-37.51985,-9.24397],[-37.52787,-9.2565],[-37.54126,-9.25761],[-37.56043,-9.27079],[-37.57327,-9.28174],[-37.59016,-9.28717],[-37.5963,-9.28909],[-37.60741,-9.28105],[-37.6086,-9.25636],[-37.61141,-9.25037],[-37.61974,-9.24813],[-37.61982,-9.23941],[-37.60963,-9.23252],[-37.6104,-9.22766],[-37.6239,-9.2204],[-37.61743,-9.20573],[-37.6209,-9.19437],[-37.69148,-9.17683],[-37.66898,-9.15569],[-37.63495,-9.11068],[-37.6084,-9.09148],[-37.54175,-9.00069],[-37.5293,-8.96346]]]},"properties":{"CD_MUN":"2701605","NM_MUN":"Canapi","SIGLA_UF":"AL"}},{"type":"Feature","geometry":{"type":"Polygon","coordinates":[[[-36.79727,-9.95899],[-36.79274,-9.94699],[-36.78404,-9.9426],[-36.78965,-9.92843],[-36.77966,-9.91295],[-36.75968,-9.90214],[-36.75084,-9.88315],[-36.74165,-9.89032],[-36.73432,-9.8885],[-36.72665,-9.90414],[-36.71829,-9.90068],[-36.70463,-9.9117],[-36.6914,-9.91227],[-36.68826,-9.92744],[-36.67209,-9.93765],[-36.68474,-9.96269],[-36.70599,-10.00065],[-36.70416,-10.01964],[-36.71283,-10.04326],[-36.78727,-10.02129],[-36.78538,-10.01499],[-36.79835,-10.00605],[-36.80855,-10.00986],[-36.81924,-10.0023],[-36.83316,-10.01289],[-36.84213,-10.01025],[-36.83746,-10.00198],[-36.80979,-9.98358],[-36.79727,-9.95899]]]},"properties":{"CD_MUN":"2701506","NM_MUN":"Campo Grande","SIGLA_UF":"AL"}},{"type":"Feature","geometry":{"type":"Polygon","coordinates":[[[-36.34174,-9.7386],[-36.33424,-9.72853],[-36.33146,-9.7126],[-36.32288,-9.71346],[-36.31677,-9.72327],[-36.27799,-9.73409],[-36.25154,-9.72957],[-36.24563,-9.7325],[-36.18624,-9.79426],[-36.18766,-9.79908],[-36.20721,-9.80572],[-36.19632,-9.82652],[-36.1965,-9.83757],[-36.20871,-9.84288],[-36.21847,-9.83661],[-36.23861,-9.87176],[-36.18069,-9.88005],[-36.17836,-9.88939],[-36.21849,-9.90443],[-36.27633,-9.89955],[-36.27691,-9.89235],[-36.312,-9.88702],[-36.3245,-9.87712],[-36.33636,-9.85304],[-36.393,-9.79281],[-36.39302,-9.77413],[-36.36797,-9.76577],[-36.35905,-9.76906],[-36.35319,-9.75727],[-36.36041,-9.7522],[-36.34641,-9.74859],[-36.34174,-9.7386]]]},"properties":{"CD_MUN":"2701407","NM_MUN":"Campo Alegre","SIGLA_UF":"AL"}},{"type":"Feature","geometry":{"type":"Polygon","coordinates":[[[-36.8872,-9.59946],[-36.87795,-9.59678],[-36.87287,-9.58636],[-36.84925,-9.57031],[-36.84128,-9.57301],[-36.84145,-9.56532],[-36.83047,-9.55198],[-36.81084,-9.56364],[-36.78458,-9.55026],[-36.76294,-9.55803],[-36.75608,-9.56459],[-36.75311,-9.57698],[-36.7267,-9.57314],[-36.70619,-9.58464],[-36.69434,-9.57998],[-36.69791,-9.59992],[-36.68769,-9.59693],[-36.68242,-9.60063],[-36.68675,-9.62718],[-36.69216,-9.63387],[-36.7519,-9.70984],[-36.7707,-9.73363],[-36.79209,-9.7112],[-36.81637,-9.699],[-36.81598,-9.68722],[-36.86715,-9.66025],[-36.87198,-9.64587],[-36.90195,-9.62601],[-36.90407,-9.61624],[-36.88845,-9.60695],[-36.8872,-9.59946]]]},"properties":{"CD_MUN":"2702355","NM_MUN":"Craíbas","SIGLA_UF":"AL"}},{"type":"Feature","geometry":{"type":"Polygon","coordinates":[[[-38.23685,-9.32937],[-38.20345,-9.29793],[-38.17576,-9.28857],[-38.15759,-9.26379],[-38.15584,-9.25232],[-38.00649,-9.33862],[-37.87559,-9.41292],[-37.89576,-9.44876],[-37.89173,-9.46217],[-37.8969,-9.47475],[-37.89703,-9.49526],[-37.89212,-9.50253],[-37.89456,-9.51506],[-37.88746,-9.52071],[-37.88684,-9.5305],[-37.89373,-9.53453],[-37.89329,-9.53931],[-37.92232,-9.54798],[-37.95788,-9.53346],[-37.97637,-9.53174],[-38.00235,-9.51511],[-37.99698,-9.49929],[-38.01176,-9.47853],[-38.02748,-9.46798],[-38.04329,-9.46842],[-38.05807,-9.45973],[-38.06726,-9.45974],[-38.06868,-9.45009],[-38.07846,-9.44116],[-38.10921,-9.43608],[-38.11779,-9.44261],[-38.1406,-9.43809],[-38.15449,-9.44375],[-38.17796,-9.42562],[-38.20382,-9.4187],[-38.20087,-9.40027],[-38.19323,-9.39442],[-38.19418,-9.38545],[-38.20712,-9.36014],[-38.22365,-9.34557],[-38.23685,-9.32937]]]},"properties":{"CD_MUN":"2702405","NM_MUN":"Delmiro Gouveia","SIGLA_UF":"AL"}},{"type":"Feature","geometry":{"type":"Polygon","coordinates":[[[-36.45268,-10.0384],[-36.30331,-10.03121],[-36.30461,-10.01944],[-36.29023,-10.00032],[-36.28008,-9.93461],[-36.10863,-9.93378],[-36.09697,-9.94377],[-36.06438,-9.95739],[-36.03149,-9.95997],[-36.0273,-9.9637],[-36.0221,-10.00545],[-36.03044,-10.02535],[-36.0258,-10.04212],[-36.0305,-10.05091],[-36.04522,-10.07561],[-36.05716,-10.08511],[-36.06897,-10.08468],[-36.08625,-10.09339],[-36.10778,-10.12934],[-36.12036,-10.13777],[-36.13389,-10.15888],[-36.14486,-10.15493],[-36.16987,-10.17131],[-36.18562,-10.19749],[-36.21259,-10.21424],[-36.23612,-10.24071],[-36.27121,-10.27513],[-36.38549,-10.23686],[-36.37274,-10.23272],[-36.37143,-10.22432],[-36.36385,-10.22611],[-36.35587,-10.22048],[-36.35101,-10.2127],[-36.35285,-10.20272],[-36.33723,-10.18605],[-36.33582,-10.17421],[-36.34243,-10.16479],[-36.36051,-10.1553],[-36.36109,-10.12165],[-36.37262,-10.10765],[-36.39876,-10.10184],[-36.39837,-10.08373],[-36.41346,-10.08403],[-36.41723,-10.06645],[-36.43387,-10.07373],[-36.44771,-10.06024],[-36.45268,-10.0384]]]},"properties":{"CD_MUN":"2702306","NM_MUN":"Coruripe","SIGLA_UF":"AL"}},{"type":"Feature","geometry":{"type":"Polygon","coordinates":[[[-35.86666,-9.62665],[-35.83978,-9.64174],[-35.82558,-9.63999],[-35.81072,-9.61604],[-35.79269,-9.60031],[-35.76814,-9.63778],[-35.79006,-9.6828],[-35.80253,-9.67613],[-35.81178,-9.65502],[-35.86347,-9.65489],[-35.86666,-9.62665]]]},"properties":{"CD_MUN":"2702207","NM_MUN":"Coqueiro Seco","SIGLA_UF":"AL"}},{"type":"Feature","geometry":{"type":"Polygon","coordinates":[[[-35.72374,-8.9046],[-35.69694,-8.90147],[-35.68055,-8.89058],[-35.67077,-8.89567],[-35.65416,-8.87377],[-35.64555,-8.89671],[-35.68022,-8.93374],[-35.67691,-8.94608],[-35.70999,-8.99905],[-35.70655,-9.0353],[-35.85942,-9.05011],[-35.8233,-8.871],[-35.81975,-8.85744],[-35.80499,-8.86135],[-35.78891,-8.84717],[-35.77224,-8.85966],[-35.77236,-8.86953],[-35.7798,-8.88127],[-35.77575,-8.89007],[-35.7795,-8.89869],[-35.76116,-8.90037],[-35.7618,-8.90919],[-35.74855,-8.91614],[-35.73469,-8.90603],[-35.72374,-8.9046]]]},"properties":{"CD_MUN":"2702108","NM_MUN":"Colônia Leopoldina","SIGLA_UF":"AL"}},{"type":"Feature","geometry":{"type":"Polygon","coordinates":[[[-36.6085,-9.65428],[-36.60536,-9.65346],[-36.61036,-9.64332],[-36.60797,-9.6345],[-36.61319,-9.62843],[-36.62936,-9.63043],[-36.62253,-9.62116],[-36.61317,-9.62286],[-36.60999,-9.61868],[-36.61442,-9.60864],[-36.62286,-9.60426],[-36.61985,-9.58736],[-36.62294,-9.58143],[-36.60174,-9.57594],[-36.60038,-9.56806],[-36.58485,-9.5732],[-36.57291,-9.56546],[-36.5696,-9.56424],[-36.55021,-9.62077],[-36.54286,-9.62773],[-36.53513,-9.66313],[-36.56544,-9.68237],[-36.58253,-9.70037],[-36.58658,-9.69227],[-36.59392,-9.69227],[-36.59475,-9.6838],[-36.60714,-9.66941],[-36.6085,-9.65428]]]},"properties":{"CD_MUN":"2702009","NM_MUN":"Coité do Nóia","SIGLA_UF":"AL"}},{"type":"Feature","geometry":{"type":"Polygon","coordinates":[[[-36.28677,-9.17356],[-36.28058,-9.18629],[-36.17957,-9.21332],[-36.23578,-9.29136],[-36.29833,-9.31244],[-36.3,-9.30226],[-36.31253,-9.3026],[-36.31547,-9.29722],[-36.32489,-9.29597],[-36.32122,-9.28944],[-36.32558,-9.28468],[-36.33889,-9.28677],[-36.40839,-9.22129],[-36.38783,-9.22426],[-36.37475,-9.21671],[-36.36489,-9.22265],[-36.35253,-9.2202],[-36.34791,-9.21543],[-36.35286,-9.20121],[-36.34036,-9.20705],[-36.33275,-9.20444],[-36.31005,-9.17272],[-36.30686,-9.17883],[-36.28677,-9.17356]]]},"properties":{"CD_MUN":"2701902","NM_MUN":"Chã Preta","SIGLA_UF":"AL"}},{"type":"Feature","geometry":{"type":"Polygon","coordinates":[[[-36.96854,-9.69419],[-36.96376,-9.67482],[-36.95318,-9.66246],[-36.95143,-9.64344],[-36.94237,-9.64015],[-36.94534,-9.63351],[-36.94215,-9.62873],[-36.90195,-9.62601],[-36.87198,-9.64587],[-36.86715,-9.66025],[-36.81598,-9.68722],[-36.81637,-9.699],[-36.79209,-9.7112],[-36.7707,-9.73363],[-36.74545,-9.76846],[-36.76429,-9.80234],[-36.75754,-9.82043],[-36.7576,-9.83911],[-36.76343,-9.84921],[-36.75084,-9.88315],[-36.75968,-9.90214],[-36.77966,-9.91295],[-36.78965,-9.92843],[-36.78404,-9.9426],[-36.79274,-9.94699],[-36.79727,-9.95899],[-36.80996,-9.96102],[-36.81927,-9.95513],[-36.82807,-9.94333],[-36.82621,-9.92926],[-36.84813,-9.92971],[-36.88024,-9.90291],[-36.90921,-9.8937],[-36.92202,-9.88204],[-36.9186,-9.81943],[-36.90246,-9.81053],[-36.89968,-9.73998],[-36.96854,-9.69419]]]},"properties":{"CD_MUN":"2702900","NM_MUN":"Girau do Ponciano","SIGLA_UF":"AL"}},{"type":"Feature","geometry":{"type":"Polygon","coordinates":[[[-35.86131,-9.13747],[-35.8502,-9.14507],[-35.83256,-9.14664],[-35.81201,-9.16288],[-35.78412,-9.15608],[-35.72392,-9.1254],[-35.69373,-9.26726],[-35.68668,-9.37091],[-35.71287,-9.3547],[-35.7436,-9.38474],[-35.76846,-9.38853],[-35.76801,-9.30906],[-35.80354,-9.26659],[-35.83535,-9.2646],[-35.84146,-9.25033],[-35.86131,-9.13747]]]},"properties":{"CD_MUN":"2702801","NM_MUN":"Flexeiras","SIGLA_UF":"AL"}},{"type":"Feature","geometry":{"type":"Polygon","coordinates":[[[-36.38549,-10.23686],[-36.27121,-10.27513],[-36.29815,-10.31456],[-36.3013,-10.3427],[-36.31283,-10.3471],[-36.32963,-10.33579],[-36.39169,-10.31006],[-36.37674,-10.29423],[-36.38213,-10.27313],[-36.39143,-10.2684],[-36.39563,-10.25915],[-36.39696,-10.24674],[-36.38549,-10.23686]]]},"properties":{"CD_MUN":"2702702","NM_MUN":"Feliz Deserto","SIGLA_UF":"AL"}},{"type":"Feature","geometry":{"type":"Polygon","coordinates":[[[-36.68992,-9.80406],[-36.66462,-9.81245],[-36.63034,-9.83381],[-36.62087,-9.86043],[-36.60326,-9.8727],[-36.60245,-9.90256],[-36.6109,-9.90526],[-36.61373,-9.91215],[-36.61257,-9.95113],[-36.62987,-9.95235],[-36.62396,-9.96533],[-36.62996,-9.96916],[-36.62735,-9.98025],[-36.64565,-9.98623],[-36.68474,-9.96269],[-36.67209,-9.93765],[-36.68826,-9.92744],[-36.6914,-9.91227],[-36.70463,-9.9117],[-36.71829,-9.90068],[-36.72665,-9.90414],[-36.73432,-9.8885],[-36.74165,-9.89032],[-36.75084,-9.88315],[-36.68449,-9.85836],[-36.68992,-9.80406]]]},"properties":{"CD_MUN":"2702603","NM_MUN":"Feira Grande","SIGLA_UF":"AL"}},{"type":"Feature","geometry":{"type":"Polygon","coordinates":[[[-36.79615,-9.29299],[-36.75891,-9.27143],[-36.69286,-9.27539],[-36.69717,-9.29152],[-36.71152,-9.31405],[-36.72035,-9.35456],[-36.71166,-9.37761],[-36.71633,-9.38762],[-36.72289,-9.39035],[-36.72151,-9.43329],[-36.71563,-9.44608],[-36.72027,-9.46846],[-36.70866,-9.47808],[-36.70796,-9.48515],[-36.79241,-9.48536],[-36.832,-9.50681],[-36.83203,-9.49783],[-36.84234,-9.48658],[-36.83917,-9.46965],[-36.8448,-9.44225],[-36.82834,-9.42814],[-36.82675,-9.41559],[-36.83192,-9.40828],[-36.82557,-9.39102],[-36.79583,-9.35652],[-36.79615,-9.29299]]]},"properties":{"CD_MUN":"2702553","NM_MUN":"Estrela de Alagoas","SIGLA_UF":"AL"}},{"type":"Feature","geometry":{"type":"Polygon","coordinates":[[[-37.05633,-9.31826],[-37.05278,-9.30656],[-37.04094,-9.31481],[-37.01986,-9.31481],[-37.00125,-9.35284],[-36.97625,-9.36167],[-36.99111,-9.37465],[-37.02181,-9.36964],[-37.02925,-9.39238],[-37.03762,-9.41689],[-37.10223,-9.45637],[-37.11665,-9.46005],[-37.11675,-9.43774],[-37.1479,-9.43602],[-37.14553,-9.41768],[-37.10873,-9.38075],[-37.10175,-9.36172],[-37.08839,-9.34822],[-37.08567,-9.32993],[-37.07286,-9.3182],[-37.05633,-9.31826]]]},"properties":{"CD_MUN":"2702504","NM_MUN":"Dois Riachos","SIGLA_UF":"AL"}},{"type":"Feature","geometry":{"type":"Polygon","coordinates":[[[-37.25441,-9.58137],[-37.16249,-9.60805],[-37.15185,-9.61392],[-37.19002,-9.69044],[-37.21149,-9.69342],[-37.21413,-9.70388],[-37.21919,-9.70325],[-37.21849,-9.70988],[-37.2205,-9.72319],[-37.22821,-9.72249],[-37.22872,-9.73033],[-37.23872,-9.73688],[-37.28744,-9.68659],[-37.3021,-9.63607],[-37.24885,-9.63237],[-37.2348,-9.61241],[-37.25441,-9.58137]]]},"properties":{"CD_MUN":"2703403","NM_MUN":"Jacaré dos Homens","SIGLA_UF":"AL"}},{"type":"Feature","geometry":{"type":"Polygon","coordinates":[[[-37.84133,-9.22247],[-37.84091,-9.20631],[-37.72319,-9.19627],[-37.69148,-9.17683],[-37.6209,-9.19437],[-37.61743,-9.20573],[-37.6239,-9.2204],[-37.6104,-9.22766],[-37.60963,-9.23252],[-37.61982,-9.23941],[-37.61974,-9.24813],[-37.61141,-9.25037],[-37.6086,-9.25636],[-37.60741,-9.28105],[-37.5963,-9.28909],[-37.59016,-9.28717],[-37.59433,-9.31273],[-37.62322,-9.36416],[-37.63755,-9.37735],[-37.65536,-9.40844],[-37.72727,-9.33395],[-37.77005,-9.29302],[-37.84133,-9.22247]]]},"properties":{"CD_MUN":"2703304","NM_MUN":"Inhapi","SIGLA_UF":"AL"}},{"type":"Feature","geometry":{"type":"Polygon","coordinates":[[[-36.6569,-10.03435],[-36.51626,-10.04058],[-36.50862,-10.06868],[-36.4904,-10.07115],[-36.50146,-10.09537],[-36.50366,-10.12596],[-36.52266,-10.17702],[-36.59713,-10.19423],[-36.65939,-10.24386],[-36.63028,-10.25309],[-36.64561,-10.25277],[-36.66089,-10.2666],[-36.6806,-10.27167],[-36.68358,-10.27522],[-36.70272,-10.27026],[-36.722,-10.26317],[-36.72108,-10.23685],[-36.73527,-10.15747],[-36.74377,-10.14503],[-36.68266,-10.12597],[-36.67299,-10.09477],[-36.67135,-10.0711],[-36.6569,-10.03435]]]},"properties":{"CD_MUN":"2703205","NM_MUN":"Igreja Nova","SIGLA_UF":"AL"}},{"type":"Feature","geometry":{"type":"Polygon","coordinates":[[[-36.832,-9.50681],[-36.79241,-9.48536],[-36.70796,-9.48515],[-36.68744,-9.48509],[-36.64005,-9.50186],[-36.61327,-9.48287],[-36.56918,-9.48741],[-36.53108,-9.53214],[-36.55407,-9.54068],[-36.56552,-9.56099],[-36.57291,-9.56546],[-36.58485,-9.5732],[-36.60038,-9.56806],[-36.60174,-9.57594],[-36.62294,-9.58143],[-36.61985,-9.58736],[-36.62286,-9.60426],[-36.61442,-9.60864],[-36.60999,-9.61868],[-36.61317,-9.62286],[-36.62253,-9.62116],[-36.62936,-9.63043],[-36.61319,-9.62843],[-36.60797,-9.6345],[-36.61036,-9.64332],[-36.60536,-9.65346],[-36.6085,-9.65428],[-36.62197,-9.65552],[-36.63655,-9.63658],[-36.6538,-9.6428],[-36.69216,-9.63387],[-36.68675,-9.62718],[-36.68242,-9.60063],[-36.68769,-9.59693],[-36.69791,-9.59992],[-36.69434,-9.57998],[-36.70619,-9.58464],[-36.7267,-9.57314],[-36.75311,-9.57698],[-36.75608,-9.56459],[-36.76294,-9.55803],[-36.78458,-9.55026],[-36.81084,-9.56364],[-36.83047,-9.55198],[-36.83772,-9.53943],[-36.83608,-9.53196],[-36.83033,-9.52807],[-36.83992,-9.51182],[-36.832,-9.50681]]]},"properties":{"CD_MUN":"2703106","NM_MUN":"Igaci","SIGLA_UF":"AL"}},{"type":"Feature","geometry":{"type":"Polygon","coordinates":[[[-35.84402,-8.87118],[-35.8233,-8.871],[-35.85942,-9.05011],[-35.95795,-9.05207],[-35.97542,-9.00012],[-35.94228,-8.96531],[-35.94984,-8.94385],[-35.94397,-8.93292],[-35.94947,-8.91735],[-35.94678,-8.90761],[-35.9572,-8.89329],[-35.94889,-8.89213],[-35.94219,-8.88414],[-35.91928,-8.88103],[-35.915,-8.86492],[-35.90883,-8.85957],[-35.89888,-8.86007],[-35.89388,-8.85245],[-35.88297,-8.86019],[-35.85975,-8.85653],[-35.84402,-8.87118]]]},"properties":{"CD_MUN":"2703007","NM_MUN":"Ibateguara","SIGLA_UF":"AL"}},{"type":"Feature","geometry":{"type":"Polygon","coordinates":[[[-35.57221,-8.84148],[-35.56218,-8.82816],[-35.54615,-8.8253],[-35.53787,-8.81717],[-35.54737,-8.84431],[-35.52221,-8.90145],[-35.51087,-8.91212],[-35.49718,-8.90856],[-35.50113,-8.92382],[-35.49462,-8.92324],[-35.49502,-8.93799],[-35.47579,-8.94419],[-35.47215,-8.94328],[-35.47388,-8.93834],[-35.4636,-8.94741],[-35.45649,-8.94643],[-35.44799,-8.95414],[-35.45171,-8.96084],[-35.52016,-9.00968],[-35.58752,-9.02089],[-35.58407,-8.86409],[-35.57221,-8.84148]]]},"properties":{"CD_MUN":"2703908","NM_MUN":"Jundiá","SIGLA_UF":"AL"}},{"type":"Feature","geometry":{"type":"Polygon","coordinates":[[[-35.70655,-9.0353],[-35.67225,-9.03042],[-35.67908,-9.03658],[-35.68772,-9.03507],[-35.70792,-9.04524],[-35.69844,-9.08354],[-35.68547,-9.09867],[-35.62986,-9.09942],[-35.58027,-9.13966],[-35.59136,-9.15637],[-35.63964,-9.13004],[-35.72392,-9.1254],[-35.78412,-9.15608],[-35.81201,-9.16288],[-35.83256,-9.14664],[-35.8502,-9.14507],[-35.86131,-9.13747],[-35.85942,-9.05011],[-35.70655,-9.0353]]]},"properties":{"CD_MUN":"2703809","NM_MUN":"Joaquim Gomes","SIGLA_UF":"AL"}},{"type":"Feature","geometry":{"type":"Polygon","coordinates":[[[-36.8872,-9.59946],[-36.88845,-9.60695],[-36.90407,-9.61624],[-36.90195,-9.62601],[-36.94215,-9.62873],[-36.94534,-9.63351],[-36.94237,-9.64015],[-36.95143,-9.64344],[-36.95318,-9.66246],[-36.96376,-9.67482],[-36.96854,-9.69419],[-36.97582,-9.69341],[-36.98529,-9.70584],[-36.98402,-9.71518],[-36.99249,-9.72077],[-37.06616,-9.65848],[-37.06666,-9.63696],[-37.0512,-9.6198],[-37.00176,-9.63053],[-36.8872,-9.59946]]]},"properties":{"CD_MUN":"2703700","NM_MUN":"Jaramataia","SIGLA_UF":"AL"}},{"type":"Feature","geometry":{"type":"Polygon","coordinates":[[[-35.30173,-9.0285],[-35.28612,-9.03375],[-35.25873,-9.06924],[-35.25124,-9.07262],[-35.23954,-9.06477],[-35.24282,-9.07651],[-35.25607,-9.08944],[-35.2694,-9.12257],[-35.28193,-9.12831],[-35.28382,-9.15033],[-35.29405,-9.15577],[-35.29107,-9.14598],[-35.31121,-9.14707],[-35.31121,-9.14054],[-35.29996,-9.13604],[-35.32493,-9.12033],[-35.33738,-9.0733],[-35.33312,-9.05431],[-35.33615,-9.043],[-35.33504,-9.03194],[-35.30173,-9.0285]]]},"properties":{"CD_MUN":"2703601","NM_MUN":"Japaratinga","SIGLA_UF":"AL"}},{"type":"Feature","geometry":{"type":"Polygon","coordinates":[[[-35.53787,-8.81717],[-35.53309,-8.81635],[-35.52965,-8.82453],[-35.51256,-8.81343],[-35.49879,-8.81818],[-35.49762,-8.82599],[-35.49073,-8.82484],[-35.48728,-8.83023],[-35.4679,-8.81262],[-35.46148,-8.81835],[-35.46529,-8.82807],[-35.4594,-8.83028],[-35.4552,-8.83997],[-35.43793,-8.84053],[-35.42984,-8.83558],[-35.41345,-8.83845],[-35.40015,-8.84919],[-35.34976,-8.86083],[-35.34084,-8.87465],[-35.35854,-8.88491],[-35.36593,-8.90892],[-35.37104,-8.91243],[-35.36532,-8.94347],[-35.37734,-8.96856],[-35.42084,-8.92074],[-35.4489,-8.9646],[-35.45171,-8.96084],[-35.44799,-8.95414],[-35.45649,-8.94643],[-35.4636,-8.94741],[-35.47388,-8.93834],[-35.47215,-8.94328],[-35.47579,-8.94419],[-35.49502,-8.93799],[-35.49462,-8.92324],[-35.50113,-8.92382],[-35.49718,-8.90856],[-35.51087,-8.91212],[-35.52221,-8.90145],[-35.54737,-8.84431],[-35.53787,-8.81717]]]},"properties":{"CD_MUN":"2703502","NM_MUN":"Jacuípe","SIGLA_UF":"AL"}},{"type":"Feature","geometry":{"type":"Polygon","coordinates":[[[-37.10223,-9.45637],[-37.03762,-9.41689],[-37.02925,-9.39238],[-37.01883,-9.41391],[-37.01723,-9.4351],[-36.98228,-9.47643],[-36.97967,-9.48689],[-36.87569,-9.53516],[-36.83608,-9.53196],[-36.83772,-9.53943],[-36.83047,-9.55198],[-36.84145,-9.56532],[-36.84128,-9.57301],[-36.84925,-9.57031],[-36.87287,-9.58636],[-36.87795,-9.59678],[-36.8872,-9.59946],[-37.00176,-9.63053],[-37.0512,-9.6198],[-37.10893,-9.60605],[-37.15882,-9.60235],[-37.11967,-9.53871],[-37.10873,-9.5165],[-37.11379,-9.49704],[-37.10245,-9.4902],[-37.10223,-9.45637]]]},"properties":{"CD_MUN":"2704401","NM_MUN":"Major Isidoro","SIGLA_UF":"AL"}},{"type":"Feature","geometry":{"type":"Polygon","coordinates":[[[-35.76846,-9.38853],[-35.7436,-9.38474],[-35.71287,-9.3547],[-35.68668,-9.37091],[-35.67577,-9.39849],[-35.66457,-9.42974],[-35.64088,-9.44441],[-35.62479,-9.44802],[-35.6241,-9.46135],[-35.61662,-9.46974],[-35.6009,-9.47411],[-35.58284,-9.46994],[-35.5614,-9.47982],[-35.55751,-9.48752],[-35.57615,-9.5005],[-35.58646,-9.51147],[-35.5911,-9.53038],[-35.60424,-9.53155],[-35.61552,-9.54835],[-35.63446,-9.55505],[-35.67488,-9.59904],[-35.69622,-9.63525],[-35.69841,-9.64918],[-35.69383,-9.66484],[-35.70791,-9.6655],[-35.72302,-9.68472],[-35.72836,-9.68275],[-35.72164,-9.68099],[-35.72511,-9.67282],[-35.74397,-9.67332],[-35.79347,-9.7132],[-35.7952,-9.70827],[-35.78142,-9.69736],[-35.79006,-9.6828],[-35.76814,-9.63778],[-35.79269,-9.60031],[-35.81486,-9.57715],[-35.79552,-9.53153],[-35.78394,-9.51128],[-35.76846,-9.38853]]]},"properties":{"CD_MUN":"2704302","NM_MUN":"Maceió","SIGLA_UF":"AL"}},{"type":"Feature","geometry":{"type":"Polygon","coordinates":[[[-36.53513,-9.66313],[-36.52547,-9.68816],[-36.50922,-9.69234],[-36.38735,-9.65173],[-36.37466,-9.66633],[-36.36977,-9.69798],[-36.34216,-9.71327],[-36.34174,-9.7386],[-36.34641,-9.74859],[-36.36041,-9.7522],[-36.35319,-9.75727],[-36.35905,-9.76906],[-36.36797,-9.76577],[-36.39302,-9.77413],[-36.41489,-9.77968],[-36.48881,-9.82742],[-36.54417,-9.84231],[-36.55378,-9.83774],[-36.54806,-9.80838],[-36.56459,-9.80362],[-36.55186,-9.77265],[-36.56586,-9.74015],[-36.55761,-9.71233],[-36.57603,-9.70697],[-36.58253,-9.70037],[-36.56544,-9.68237],[-36.53513,-9.66313]]]},"properties":{"CD_MUN":"2704203","NM_MUN":"Limoeiro de Anadia","SIGLA_UF":"AL"}},{"type":"Feature","geometry":{"type":"Polygon","coordinates":[[[-36.7707,-9.73363],[-36.7519,-9.70984],[-36.68992,-9.80406],[-36.68449,-9.85836],[-36.75084,-9.88315],[-36.76343,-9.84921],[-36.7576,-9.83911],[-36.75754,-9.82043],[-36.76429,-9.80234],[-36.74545,-9.76846],[-36.7707,-9.73363]]]},"properties":{"CD_MUN":"2704104","NM_MUN":"Lagoa da Canoa","SIGLA_UF":"AL"}},{"type":"Feature","geometry":{"type":"Polygon","coordinates":[[[-36.54417,-9.84231],[-36.48881,-9.82742],[-36.41489,-9.77968],[-36.39302,-9.77413],[-36.393,-9.79281],[-36.33636,-9.85304],[-36.3245,-9.87712],[-36.312,-9.88702],[-36.39489,-9.87456],[-36.39786,-9.88813],[-36.44995,-9.96124],[-36.45931,-9.96259],[-36.46865,-9.97157],[-36.47859,-9.96146],[-36.47201,-9.95362],[-36.47004,-9.93903],[-36.48517,-9.92769],[-36.48675,-9.9162],[-36.49675,-9.90082],[-36.49559,-9.86701],[-36.50267,-9.85653],[-36.54167,-9.87182],[-36.54417,-9.84231]]]},"properties":{"CD_MUN":"2704005","NM_MUN":"Junqueiro","SIGLA_UF":"AL"}},{"type":"Feature","geometry":{"type":"Polygon","coordinates":[[[-36.38829,-9.42512],[-36.36901,-9.44691],[-36.35087,-9.45269],[-36.28851,-9.48932],[-36.30095,-9.51413],[-36.30545,-9.52275],[-36.32815,-9.51067],[-36.33563,-9.51371],[-36.37649,-9.50147],[-36.41649,-9.47851],[-36.45627,-9.46621],[-36.45168,-9.45789],[-36.45932,-9.45377],[-36.38829,-9.42512]]]},"properties":{"CD_MUN":"2704906","NM_MUN":"Mar Vermelho","SIGLA_UF":"AL"}},{"type":"Feature","geometry":{"type":"Polygon","coordinates":[[[-36.37649,-9.50147],[-36.33563,-9.51371],[-36.32815,-9.51067],[-36.30545,-9.52275],[-36.30095,-9.51413],[-36.27765,-9.5274],[-36.22659,-9.51331],[-36.21768,-9.56417],[-36.19059,-9.59991],[-36.26343,-9.5957],[-36.25293,-9.62394],[-36.28693,-9.60918],[-36.29285,-9.60161],[-36.31988,-9.60835],[-36.35018,-9.60726],[-36.34357,-9.60042],[-36.34977,-9.5924],[-36.37844,-9.57232],[-36.38246,-9.54128],[-36.3751,-9.52816],[-36.38623,-9.51639],[-36.38485,-9.50658],[-36.37649,-9.50147]]]},"properties":{"CD_MUN":"2704807","NM_MUN":"Maribondo","SIGLA_UF":"AL"}},{"type":"Feature","geometry":{"type":"Polygon","coordinates":[[[-35.88594,-9.58877],[-35.86666,-9.62665],[-35.86347,-9.65489],[-35.81178,-9.65502],[-35.80253,-9.67613],[-35.79006,-9.6828],[-35.78142,-9.69736],[-35.7952,-9.70827],[-35.79347,-9.7132],[-35.85406,-9.78824],[-35.90465,-9.81197],[-35.91373,-9.80963],[-35.92551,-9.79577],[-35.9364,-9.79478],[-35.94043,-9.78795],[-35.96048,-9.79006],[-35.99026,-9.78188],[-36.00354,-9.76718],[-35.98701,-9.73785],[-35.98717,-9.70056],[-35.99167,-9.69363],[-36.01737,-9.68754],[-36.02884,-9.67135],[-36.01881,-9.65985],[-36.02334,-9.64647],[-35.97917,-9.67291],[-35.98593,-9.66255],[-35.97756,-9.64385],[-35.96667,-9.64084],[-35.95595,-9.64777],[-35.88594,-9.58877]]]},"properties":{"CD_MUN":"2704708","NM_MUN":"Marechal Deodoro","SIGLA_UF":"AL"}},{"type":"Feature","geometry":{"type":"Polygon","coordinates":[[[-37.46506,-9.20828],[-37.29475,-9.18913],[-37.26145,-9.16005],[-37.24564,-9.17965],[-37.24225,-9.18608],[-37.24581,-9.19042],[-37.23258,-9.20662],[-37.22781,-9.22557],[-37.23337,-9.24021],[-37.26309,-9.25547],[-37.26781,-9.24236],[-37.40215,-9.3045],[-37.56043,-9.27079],[-37.54126,-9.25761],[-37.52787,-9.2565],[-37.51985,-9.24397],[-37.48007,-9.22397],[-37.47951,-9.2149],[-37.46506,-9.20828]]]},"properties":{"CD_MUN":"2704609","NM_MUN":"Maravilha","SIGLA_UF":"AL"}},{"type":"Feature","geometry":{"type":"Polygon","coordinates":[[[-35.34976,-8.86083],[-35.27372,-8.87574],[-35.25089,-8.88774],[-35.23384,-8.88328],[-35.20831,-8.89196],[-35.19403,-8.88651],[-35.17011,-8.8911],[-35.15572,-8.90269],[-35.1517,-8.91473],[-35.16761,-8.93698],[-35.18109,-8.97835],[-35.21067,-9.00194],[-35.22076,-9.01584],[-35.23754,-9.04814],[-35.23954,-9.06477],[-35.25124,-9.07262],[-35.25873,-9.06924],[-35.28612,-9.03375],[-35.30173,-9.0285],[-35.30926,-9.02485],[-35.30965,-9.01977],[-35.33018,-9.01323],[-35.33779,-9.00352],[-35.34337,-9.00325],[-35.35731,-8.98124],[-35.35298,-8.96369],[-35.36532,-8.94347],[-35.37104,-8.91243],[-35.36593,-8.90892],[-35.35854,-8.88491],[-35.34084,-8.87465],[-35.34976,-8.86083]]]},"properties":{"CD_MUN":"2704500","NM_MUN":"Maragogi","SIGLA_UF":"AL"}},{"type":"Feature","geometry":{"type":"Polygon","coordinates":[[[-37.31269,-9.55316],[-37.30408,-9.53597],[-37.25441,-9.58137],[-37.2348,-9.61241],[-37.24885,-9.63237],[-37.3021,-9.63607],[-37.35752,-9.64366],[-37.31269,-9.55316]]]},"properties":{"CD_MUN":"2705408","NM_MUN":"Monteirópolis","SIGLA_UF":"AL"}},{"type":"Feature","geometry":{"type":"Polygon","coordinates":[[[-36.88183,-9.27752],[-36.86719,-9.26881],[-36.84641,-9.27688],[-36.8386,-9.2887],[-36.79615,-9.29299],[-36.79583,-9.35652],[-36.82557,-9.39102],[-36.90044,-9.39782],[-36.93684,-9.37695],[-36.93108,-9.36972],[-36.93894,-9.35254],[-36.92291,-9.3395],[-36.92161,-9.33216],[-36.92769,-9.32461],[-36.92338,-9.31051],[-36.90136,-9.28229],[-36.88183,-9.27752]]]},"properties":{"CD_MUN":"2705309","NM_MUN":"Minador do Negrão","SIGLA_UF":"AL"}},{"type":"Feature","geometry":{"type":"Polygon","coordinates":[[[-35.83535,-9.2646],[-35.80354,-9.26659],[-35.76801,-9.30906],[-35.76846,-9.38853],[-35.87688,-9.41028],[-35.82932,-9.32297],[-35.82946,-9.3132],[-35.83746,-9.30893],[-35.83535,-9.2646]]]},"properties":{"CD_MUN":"2705200","NM_MUN":"Messias","SIGLA_UF":"AL"}},{"type":"Feature","geometry":{"type":"Polygon","coordinates":[[[-35.58752,-9.02089],[-35.52016,-9.00968],[-35.4998,-9.08117],[-35.52285,-9.11903],[-35.48194,-9.14484],[-35.46374,-9.17021],[-35.46749,-9.18095],[-35.46403,-9.1898],[-35.57736,-9.25596],[-35.58045,-9.25036],[-35.56745,-9.23599],[-35.56608,-9.22617],[-35.56681,-9.21841],[-35.58175,-9.20328],[-35.57047,-9.1616],[-35.58027,-9.13966],[-35.62986,-9.09942],[-35.68547,-9.09867],[-35.69844,-9.08354],[-35.70792,-9.04524],[-35.68772,-9.03507],[-35.67908,-9.03658],[-35.67225,-9.03042],[-35.58752,-9.02089]]]},"properties":{"CD_MUN":"2705101","NM_MUN":"Matriz de Camaragibe","SIGLA_UF":"AL"}},{"type":"Feature","geometry":{"type":"Polygon","coordinates":[[[-37.52997,-8.95864],[-37.5293,-8.96346],[-37.54175,-9.00069],[-37.6084,-9.09148],[-37.63495,-9.11068],[-37.66898,-9.15569],[-37.69148,-9.17683],[-37.72319,-9.19627],[-37.84091,-9.20631],[-37.84133,-9.22247],[-37.9533,-9.10958],[-37.95061,-9.09728],[-37.9069,-9.05225],[-37.90477,-9.04103],[-37.8888,-9.03483],[-37.88174,-9.0407],[-37.87729,-9.03699],[-37.87426,-9.02465],[-37.87863,-9.01545],[-37.85213,-9.00018],[-37.83812,-8.97842],[-37.82481,-8.92898],[-37.83018,-8.92074],[-37.82037,-8.90818],[-37.82559,-8.88572],[-37.79676,-8.87703],[-37.77395,-8.85378],[-37.7672,-8.8546],[-37.76125,-8.84771],[-37.74865,-8.86087],[-37.74256,-8.87913],[-37.73136,-8.88552],[-37.73206,-8.89151],[-37.72367,-8.89808],[-37.71876,-8.91267],[-37.70487,-8.926],[-37.70115,-8.94377],[-37.68367,-8.96545],[-37.68451,-8.97595],[-37.7007,-8.98659],[-37.6984,-8.99268],[-37.68751,-8.99016],[-37.68301,-8.99917],[-37.65959,-8.98787],[-37.66204,-9.00047],[-37.64764,-9.01586],[-37.63109,-9.0167],[-37.61531,-9.00053],[-37.61053,-8.98505],[-37.59825,-8.97514],[-37.58381,-8.97027],[-37.56511,-8.97281],[-37.54414,-8.9602],[-37.52997,-8.95864]]]},"properties":{"CD_MUN":"2705002","NM_MUN":"Mata Grande","SIGLA_UF":"AL"}},{"type":"Feature","geometry":{"type":"Polygon","coordinates":[[[-36.84213,-10.01025],[-36.83316,-10.01289],[-36.81924,-10.0023],[-36.80855,-10.00986],[-36.79835,-10.00605],[-36.78538,-10.01499],[-36.78727,-10.02129],[-36.71283,-10.04326],[-36.71346,-10.05412],[-36.72594,-10.0657],[-36.73616,-10.08623],[-36.74594,-10.08951],[-36.76052,-10.10561],[-36.769,-10.12426],[-36.78861,-10.10542],[-36.81242,-10.09188],[-36.82072,-10.07465],[-36.87141,-10.05834],[-36.8738,-10.05355],[-36.86794,-10.04714],[-36.86019,-10.02768],[-36.84213,-10.01025]]]},"properties":{"CD_MUN":"2705903","NM_MUN":"Olho d'Água Grande","SIGLA_UF":"AL"}},{"type":"Feature","geometry":{"type":"Polygon","coordinates":[[[-37.77005,-9.29302],[-37.72727,-9.33395],[-37.72205,-9.38429],[-37.77453,-9.44816],[-37.77289,-9.46913],[-37.77923,-9.48865],[-37.79509,-9.50545],[-37.78667,-9.52232],[-37.79354,-9.53488],[-37.79295,-9.54438],[-37.80176,-9.54211],[-37.80134,-9.54656],[-37.80906,-9.54837],[-37.81537,-9.54415],[-37.83248,-9.5505],[-37.84376,-9.56909],[-37.84126,-9.57939],[-37.88585,-9.54964],[-37.89329,-9.53931],[-37.89373,-9.53453],[-37.88684,-9.5305],[-37.88746,-9.52071],[-37.89456,-9.51506],[-37.89212,-9.50253],[-37.89703,-9.49526],[-37.8969,-9.47475],[-37.89173,-9.46217],[-37.89576,-9.44876],[-37.87559,-9.41292],[-37.87375,-9.40437],[-37.86967,-9.40689],[-37.86098,-9.40192],[-37.85111,-9.39128],[-37.84756,-9.37451],[-37.83622,-9.36421],[-37.83467,-9.35332],[-37.82686,-9.35112],[-37.8198,-9.3358],[-37.806,-9.32846],[-37.77861,-9.32516],[-37.77005,-9.29302]]]},"properties":{"CD_MUN":"2705804","NM_MUN":"Olho d'Água do Casado","SIGLA_UF":"AL"}},{"type":"Feature","geometry":{"type":"Polygon","coordinates":[[[-37.37213,-9.52482],[-37.30996,-9.46732],[-37.26887,-9.45353],[-37.1566,-9.58283],[-37.11967,-9.53871],[-37.15882,-9.60235],[-37.16249,-9.60805],[-37.25441,-9.58137],[-37.30408,-9.53597],[-37.31269,-9.55316],[-37.37213,-9.52482]]]},"properties":{"CD_MUN":"2705705","NM_MUN":"Olho d'Água das Flores","SIGLA_UF":"AL"}},{"type":"Feature","geometry":{"type":"Polygon","coordinates":[[[-35.57808,-8.84006],[-35.57221,-8.84148],[-35.58407,-8.86409],[-35.58752,-9.02089],[-35.67225,-9.03042],[-35.70655,-9.0353],[-35.70999,-8.99905],[-35.67691,-8.94608],[-35.68022,-8.93374],[-35.64555,-8.89671],[-35.65416,-8.87377],[-35.64821,-8.87912],[-35.63291,-8.87941],[-35.62093,-8.87136],[-35.62574,-8.86318],[-35.59801,-8.85976],[-35.57808,-8.84006]]]},"properties":{"CD_MUN":"2705606","NM_MUN":"Novo Lino","SIGLA_UF":"AL"}},{"type":"Feature","geometry":{"type":"Polygon","coordinates":[[[-35.86131,-9.13747],[-35.84146,-9.25033],[-35.83535,-9.2646],[-35.83746,-9.30893],[-35.82946,-9.3132],[-35.82932,-9.32297],[-35.87688,-9.41028],[-35.92769,-9.37553],[-35.98224,-9.38348],[-36.148,-9.25487],[-35.98755,-9.27859],[-35.96738,-9.25094],[-35.86131,-9.13747]]]},"properties":{"CD_MUN":"2705507","NM_MUN":"Murici","SIGLA_UF":"AL"}},{"type":"Feature","geometry":{"type":"Polygon","coordinates":[[[-35.67577,-9.39849],[-35.64968,-9.40483],[-35.63944,-9.40187],[-35.62001,-9.40995],[-35.60999,-9.4046],[-35.59434,-9.40866],[-35.57496,-9.40185],[-35.54863,-9.40365],[-35.5435,-9.41051],[-35.54501,-9.41691],[-35.52427,-9.44305],[-35.5291,-9.45663],[-35.55271,-9.4745],[-35.55751,-9.48752],[-35.5614,-9.47982],[-35.58284,-9.46994],[-35.6009,-9.47411],[-35.61662,-9.46974],[-35.6241,-9.46135],[-35.62479,-9.44802],[-35.64088,-9.44441],[-35.66457,-9.42974],[-35.67577,-9.39849]]]},"properties":{"CD_MUN":"2706448","NM_MUN":"Paripueira","SIGLA_UF":"AL"}},{"type":"Feature","geometry":{"type":"Polygon","coordinates":[[[-37.35752,-9.64366],[-37.3021,-9.63607],[-37.31688,-9.66036],[-37.33516,-9.67179],[-37.37175,-9.67626],[-37.34547,-9.68889],[-37.32752,-9.71107],[-37.23872,-9.73688],[-37.24783,-9.73906],[-37.25077,-9.75205],[-37.27236,-9.76736],[-37.27458,-9.77425],[-37.28586,-9.77221],[-37.28453,-9.77874],[-37.30034,-9.78865],[-37.30886,-9.80376],[-37.29742,-9.81743],[-37.29642,-9.82689],[-37.32175,-9.82081],[-37.34567,-9.79296],[-37.3962,-9.77705],[-37.42148,-9.76133],[-37.46215,-9.74986],[-37.57698,-9.73628],[-37.64992,-9.68847],[-37.65917,-9.67698],[-37.65506,-9.66741],[-37.65842,-9.65417],[-37.63664,-9.60376],[-37.67133,-9.53579],[-37.65722,-9.51988],[-37.6387,-9.52157],[-37.60219,-9.53621],[-37.59017,-9.53426],[-37.54936,-9.5592],[-37.47603,-9.62493],[-37.43044,-9.64821],[-37.35752,-9.64366]]]},"properties":{"CD_MUN":"2706406","NM_MUN":"Pão de Açúcar","SIGLA_UF":"AL"}},{"type":"Feature","geometry":{"type":"Polygon","coordinates":[[[-38.04939,-9.16805],[-38.02933,-9.16498],[-38.02483,-9.15554],[-38.01005,-9.15606],[-38.00232,-9.16192],[-37.99893,-9.17391],[-37.98295,-9.17858],[-37.97024,-9.21392],[-37.97663,-9.23202],[-37.98754,-9.24213],[-37.95909,-9.24721],[-37.97101,-9.25698],[-37.9835,-9.28407],[-37.97697,-9.29975],[-37.98208,-9.30215],[-37.97794,-9.31172],[-37.98489,-9.33074],[-38.00649,-9.33862],[-38.15584,-9.25232],[-38.15579,-9.24123],[-38.14359,-9.21831],[-38.11556,-9.19831],[-38.10181,-9.18007],[-38.08856,-9.17203],[-38.06514,-9.17425],[-38.04939,-9.16805]]]},"properties":{"CD_MUN":"2706422","NM_MUN":"Pariconha","SIGLA_UF":"AL"}},{"type":"Feature","geometry":{"type":"Polygon","coordinates":[[[-36.69286,-9.27539],[-36.65318,-9.31414],[-36.64338,-9.31414],[-36.62398,-9.33177],[-36.59224,-9.3609],[-36.58268,-9.35366],[-36.57376,-9.35773],[-36.54921,-9.35415],[-36.54984,-9.34387],[-36.48463,-9.4072],[-36.45932,-9.45377],[-36.45168,-9.45789],[-36.45627,-9.46621],[-36.46646,-9.48344],[-36.48724,-9.50229],[-36.49927,-9.49641],[-36.50135,-9.50088],[-36.51688,-9.50393],[-36.52421,-9.51502],[-36.52524,-9.52808],[-36.53108,-9.53214],[-36.56918,-9.48741],[-36.61327,-9.48287],[-36.64005,-9.50186],[-36.68744,-9.48509],[-36.70796,-9.48515],[-36.70866,-9.47808],[-36.72027,-9.46846],[-36.71563,-9.44608],[-36.72151,-9.43329],[-36.72289,-9.39035],[-36.71633,-9.38762],[-36.71166,-9.37761],[-36.72035,-9.35456],[-36.71152,-9.31405],[-36.69717,-9.29152],[-36.69286,-9.27539]]]},"properties":{"CD_MUN":"2706307","NM_MUN":"Palmeira dos Índios","SIGLA_UF":"AL"}},{"type":"Feature","geometry":{"type":"Polygon","coordinates":[[[-37.3021,-9.63607],[-37.28744,-9.68659],[-37.23872,-9.73688],[-37.32752,-9.71107],[-37.34547,-9.68889],[-37.37175,-9.67626],[-37.33516,-9.67179],[-37.31688,-9.66036],[-37.3021,-9.63607]]]},"properties":{"CD_MUN":"2706208","NM_MUN":"Palestina","SIGLA_UF":"AL"}},{"type":"Feature","geometry":{"type":"Polygon","coordinates":[[[-37.39983,-9.05221],[-37.33411,-9.08148],[-37.32672,-9.09327],[-37.31647,-9.09244],[-37.28131,-9.14888],[-37.26145,-9.16005],[-37.29475,-9.18913],[-37.46506,-9.20828],[-37.44201,-9.19125],[-37.42192,-9.16196],[-37.42439,-9.15536],[-37.41897,-9.13836],[-37.42556,-9.10231],[-37.41878,-9.07588],[-37.39983,-9.05221]]]},"properties":{"CD_MUN":"2706109","NM_MUN":"Ouro Branco","SIGLA_UF":"AL"}},{"type":"Feature","geometry":{"type":"Polygon","coordinates":[[[-37.26887,-9.45353],[-37.25418,-9.44668],[-37.21304,-9.44535],[-37.20673,-9.43465],[-37.19712,-9.4323],[-37.1479,-9.43602],[-37.11675,-9.43774],[-37.11665,-9.46005],[-37.10223,-9.45637],[-37.10245,-9.4902],[-37.11379,-9.49704],[-37.10873,-9.5165],[-37.11967,-9.53871],[-37.1566,-9.58283],[-37.26887,-9.45353]]]},"properties":{"CD_MUN":"2706000","NM_MUN":"Olivença","SIGLA_UF":"AL"}},{"type":"Feature","geometry":{"type":"Polygon","coordinates":[[[-36.35087,-9.45269],[-36.35076,-9.44899],[-36.33284,-9.4425],[-36.31754,-9.45102],[-36.24278,-9.44113],[-36.21059,-9.45438],[-36.22659,-9.51331],[-36.27765,-9.5274],[-36.30095,-9.51413],[-36.28851,-9.48932],[-36.35087,-9.45269]]]},"properties":{"CD_MUN":"2707008","NM_MUN":"Pindoba","SIGLA_UF":"AL"}},{"type":"Feature","geometry":{"type":"Polygon","coordinates":[[[-35.95875,-9.52807],[-35.88594,-9.58877],[-35.95595,-9.64777],[-35.96667,-9.64084],[-35.97756,-9.64385],[-35.98593,-9.66255],[-35.97917,-9.67291],[-36.02334,-9.64647],[-36.01881,-9.65985],[-36.02884,-9.67135],[-36.0741,-9.67379],[-36.08907,-9.65569],[-36.09809,-9.65195],[-36.10345,-9.63885],[-36.11428,-9.64948],[-36.13118,-9.65118],[-36.15479,-9.62497],[-36.17595,-9.62137],[-36.18076,-9.61287],[-36.15773,-9.61883],[-36.14906,-9.61212],[-36.13759,-9.61311],[-36.12731,-9.59916],[-36.1189,-9.59571],[-36.0834,-9.60034],[-36.0167,-9.57593],[-36.00489,-9.5863],[-35.99942,-9.57445],[-35.97542,-9.55564],[-35.97861,-9.55049],[-35.95875,-9.52807]]]},"properties":{"CD_MUN":"2706901","NM_MUN":"Pilar","SIGLA_UF":"AL"}},{"type":"Feature","geometry":{"type":"Polygon","coordinates":[[[-36.39169,-10.31006],[-36.32963,-10.33579],[-36.31283,-10.3471],[-36.3013,-10.3427],[-36.29277,-10.35498],[-36.32024,-10.38076],[-36.38091,-10.49406],[-36.39058,-10.50124],[-36.39803,-10.49831],[-36.42686,-10.43306],[-36.45369,-10.40782],[-36.46458,-10.40862],[-36.48647,-10.42299],[-36.50525,-10.39561],[-36.48722,-10.38248],[-36.48899,-10.37886],[-36.5075,-10.37884],[-36.50678,-10.36851],[-36.49069,-10.36468],[-36.48963,-10.35667],[-36.49377,-10.35314],[-36.4593,-10.33308],[-36.44661,-10.33536],[-36.42741,-10.32692],[-36.41602,-10.32894],[-36.39752,-10.30294],[-36.39169,-10.31006]]]},"properties":{"CD_MUN":"2706802","NM_MUN":"Piaçabuçu","SIGLA_UF":"AL"}},{"type":"Feature","geometry":{"type":"Polygon","coordinates":[[[-36.45398,-10.03232],[-36.45268,-10.0384],[-36.44771,-10.06024],[-36.43387,-10.07373],[-36.41723,-10.06645],[-36.41346,-10.08403],[-36.39837,-10.08373],[-36.39876,-10.10184],[-36.37262,-10.10765],[-36.36109,-10.12165],[-36.36051,-10.1553],[-36.34243,-10.16479],[-36.33582,-10.17421],[-36.33723,-10.18605],[-36.35285,-10.20272],[-36.35101,-10.2127],[-36.35587,-10.22048],[-36.36385,-10.22611],[-36.37143,-10.22432],[-36.37274,-10.23272],[-36.38549,-10.23686],[-36.39696,-10.24674],[-36.39563,-10.25915],[-36.39143,-10.2684],[-36.38213,-10.27313],[-36.37674,-10.29423],[-36.39169,-10.31006],[-36.39752,-10.30294],[-36.41602,-10.32894],[-36.42741,-10.32692],[-36.44661,-10.33536],[-36.4593,-10.33308],[-36.49377,-10.35314],[-36.48963,-10.35667],[-36.49069,-10.36468],[-36.50678,-10.36851],[-36.5075,-10.37884],[-36.48899,-10.37886],[-36.48722,-10.38248],[-36.50525,-10.39561],[-36.48647,-10.42299],[-36.5077,-10.43249],[-36.52078,-10.42907],[-36.51167,-10.41963],[-36.53681,-10.42146],[-36.54553,-10.42665],[-36.56217,-10.41256],[-36.56034,-10.38801],[-36.56758,-10.36295],[-36.56489,-10.32942],[-36.58547,-10.30415],[-36.59269,-10.28646],[-36.63028,-10.25309],[-36.65939,-10.24386],[-36.59713,-10.19423],[-36.52266,-10.17702],[-36.50366,-10.12596],[-36.50146,-10.09537],[-36.4904,-10.07115],[-36.45398,-10.03232]]]},"properties":{"CD_MUN":"2706703","NM_MUN":"Penedo","SIGLA_UF":"AL"}},{"type":"Feature","geometry":{"type":"Polygon","coordinates":[[[-36.48463,-9.4072],[-36.44387,-9.39683],[-36.4242,-9.35859],[-36.39787,-9.33958],[-36.37548,-9.3381],[-36.38976,-9.29293],[-36.33889,-9.28677],[-36.3655,-9.36276],[-36.36348,-9.38316],[-36.37368,-9.3761],[-36.38829,-9.42512],[-36.45932,-9.45377],[-36.48463,-9.4072]]]},"properties":{"CD_MUN":"2706604","NM_MUN":"Paulo Jacinto","SIGLA_UF":"AL"}}]}