{"type":"FeatureCollection","features":[{"type":"Feature","geometry":{"type":"Polygon","coordinates":[[[-60.99968,2.68209],[-60.98024,2.66727],[-60.9694,2.66616],[-60.9594,2.6456],[-60.94218,2.65172],[-60.91635,2.6281],[-60.91162,2.59699],[-60.91468,2.5656],[-60.92663,2.56449],[-60.92663,2.55005],[-60.94357,2.52171],[-60.92024,2.51977],[-60.89274,2.5081],[-60.89357,2.49199],[-60.91302,2.47449],[-60.91219,2.46838],[-60.90608,2.46644],[-60.90163,2.47477],[-60.89135,2.47616],[-60.86913,2.46255],[-60.85691,2.44893],[-60.85718,2.44199],[-60.86746,2.43504],[-60.84774,2.42866],[-60.83579,2.4381],[-60.83552,2.4206],[-60.84607,2.39893],[-60.84663,2.38199],[-60.83802,2.37449],[-60.83497,2.36226],[-60.84497,2.31393],[-60.85275,2.30504],[-60.88997,2.28421],[-60.90692,2.2406],[-60.94803,2.19532],[-61.01276,2.14393],[-61.04637,2.08449],[-61.04888,2.03949],[-61.02693,2.00004],[-62.80144,2.00007],[-62.82227,2.01034],[-62.89727,2.01784],[-62.92172,2.02645],[-62.99089,2.00895],[-63.02033,2.01646],[-63.05922,2.04173],[-63.10339,2.09951],[-63.117,2.13257],[-63.11283,2.16146],[-63.11811,2.16701],[-63.16894,2.17618],[-63.24672,2.14924],[-63.27422,2.15063],[-63.32867,2.18285],[-63.37769,2.23351],[-63.37589,2.24841],[-63.35755,2.28591],[-63.36144,2.30146],[-63.35839,2.32063],[-63.37211,2.34516],[-63.35588,2.38591],[-63.36533,2.41507],[-63.38255,2.43174],[-63.41977,2.43646],[-63.46533,2.43341],[-63.54422,2.4173],[-63.64339,2.38591],[-63.70868,2.38036],[-63.74534,2.38508],[-63.78562,2.3973],[-63.85534,2.42786],[-63.91284,2.44508],[-63.95257,2.4637],[-63.95812,2.47342],[-63.98007,2.46731],[-63.99979,2.48092],[-63.66672,2.59786],[-63.66033,2.59286],[-63.64783,2.60564],[-63.63422,2.60453],[-63.62116,2.60953],[-63.60311,2.59564],[-63.56116,2.59703],[-63.55616,2.59314],[-63.54449,2.5948],[-63.51838,2.58258],[-63.50755,2.58563],[-63.49894,2.59647],[-63.48838,2.59897],[-63.46865,2.62369],[-63.47754,2.66508],[-63.4606,2.67258],[-63.46143,2.6873],[-63.4681,2.69286],[-63.46143,2.69925],[-63.46171,2.7073],[-63.46865,2.7123],[-63.46476,2.72369],[-63.45837,2.7273],[-63.46199,2.73452],[-63.45226,2.7398],[-63.46059,2.75175],[-63.45476,2.75897],[-63.45337,2.77341],[-63.44587,2.77508],[-63.44004,2.78453],[-63.43059,2.78036],[-63.42087,2.78258],[-63.38559,2.76314],[-63.36643,2.76786],[-63.35865,2.76036],[-63.35281,2.78008],[-63.33865,2.78452],[-63.33476,2.78063],[-63.32142,2.78175],[-63.31753,2.78647],[-63.30614,2.77952],[-63.2917,2.78202],[-63.27336,2.7998],[-63.27003,2.80952],[-63.2617,2.8098],[-63.26114,2.81508],[-63.2542,2.81258],[-63.24836,2.82202],[-63.2442,2.8198],[-63.22919,2.82869],[-63.22336,2.82758],[-63.22281,2.82258],[-63.21947,2.82508],[-63.21919,2.82008],[-63.20753,2.81814],[-63.19808,2.82508],[-63.19003,2.82313],[-63.18919,2.82702],[-63.18002,2.82341],[-63.17364,2.80897],[-63.16086,2.81258],[-63.16058,2.80841],[-63.15808,2.81174],[-63.13891,2.80146],[-63.12503,2.80535],[-63.12252,2.79786],[-63.11864,2.8048],[-63.11336,2.80063],[-63.1153,2.79674],[-63.08919,2.80146],[-63.0903,2.7948],[-63.08419,2.79813],[-63.06891,2.79091],[-63.06169,2.80202],[-63.05197,2.80063],[-63.04141,2.81091],[-63.03724,2.80174],[-63.02252,2.79813],[-63.01141,2.81063],[-62.99974,2.80424],[-62.98391,2.80674],[-62.96974,2.80285],[-62.9728,2.79563],[-62.96641,2.78563],[-62.93919,2.78285],[-62.93502,2.77146],[-62.91696,2.76424],[-62.91002,2.76841],[-62.89863,2.76452],[-62.89141,2.76757],[-62.88224,2.76202],[-62.87697,2.76757],[-62.86363,2.75869],[-62.84724,2.78563],[-62.84252,2.77146],[-62.83502,2.76813],[-62.83057,2.75813],[-62.82391,2.7598],[-62.79918,2.73896],[-62.79502,2.72785],[-62.75557,2.73285],[-62.74835,2.72591],[-62.73279,2.72535],[-62.71196,2.71563],[-62.69752,2.69674],[-62.68446,2.69951],[-62.68585,2.70868],[-62.65724,2.70702],[-62.6514,2.71007],[-62.65224,2.71535],[-62.6389,2.71563],[-62.63501,2.72285],[-62.61723,2.72979],[-62.61473,2.73979],[-62.60723,2.73729],[-62.59779,2.74229],[-62.58557,2.73451],[-62.52528,2.74701],[-62.485,2.77035],[-62.46612,2.76923],[-62.4639,2.77451],[-62.45417,2.77424],[-62.44223,2.78173],[-62.43583,2.78118],[-62.43389,2.77507],[-62.40695,2.78312],[-62.37333,2.77562],[-62.345,2.77562],[-62.31361,2.7634],[-62.2825,2.76229],[-62.27389,2.75757],[-62.22389,2.7559],[-62.20861,2.76451],[-62.20083,2.76229],[-62.20444,2.75729],[-62.19472,2.74784],[-62.08416,2.74673],[-62.05888,2.73395],[-62.03304,2.73006],[-62.00527,2.73395],[-61.99971,2.72479],[-61.99555,2.71729],[-61.97694,2.717],[-61.97332,2.71173],[-61.97638,2.6945],[-61.97221,2.68839],[-61.94332,2.68395],[-61.93249,2.70256],[-61.92304,2.70617],[-61.91305,2.69201],[-61.89999,2.69423],[-61.88915,2.69006],[-61.88304,2.69728],[-61.86971,2.68395],[-61.86277,2.68284],[-61.83082,2.69701],[-61.81693,2.68951],[-61.81638,2.69756],[-61.78887,2.70617],[-61.77304,2.72034],[-61.76832,2.71173],[-61.73609,2.71506],[-61.73192,2.71867],[-61.73248,2.73589],[-61.73748,2.7445],[-61.74192,2.73812],[-61.7472,2.74312],[-61.74026,2.76478],[-61.72498,2.78367],[-61.69275,2.79478],[-61.69748,2.80423],[-61.70831,2.79978],[-61.72081,2.81506],[-61.69386,2.86367],[-61.64608,2.90645],[-61.62664,2.93256],[-61.61691,2.932],[-61.60497,2.94033],[-61.5758,2.94756],[-61.56386,2.94033],[-61.5558,2.92672],[-61.54774,2.92589],[-61.54608,2.91422],[-61.5358,2.91256],[-61.53024,2.90089],[-61.49969,2.88867],[-61.48385,2.89172],[-61.47802,2.88867],[-61.46969,2.89312],[-61.45691,2.88617],[-61.45524,2.89367],[-61.44996,2.89561],[-61.44469,2.877],[-61.43663,2.86978],[-61.40524,2.86172],[-61.38108,2.83867],[-61.37052,2.84006],[-61.36885,2.82894],[-61.3783,2.81617],[-61.36636,2.80922],[-61.35497,2.7695],[-61.34469,2.76644],[-61.34358,2.75811],[-61.33247,2.76005],[-61.3308,2.74866],[-61.32441,2.74506],[-61.32608,2.73033],[-61.30719,2.72616],[-61.3133,2.71867],[-61.2958,2.70617],[-61.30164,2.69256],[-61.28886,2.65783],[-61.26997,2.67172],[-61.25247,2.66783],[-61.24025,2.65172],[-61.22663,2.65422],[-61.21469,2.6645],[-61.21358,2.68172],[-61.19969,2.68172],[-61.19552,2.68811],[-61.18302,2.67755],[-61.13635,2.70116],[-61.13329,2.72033],[-61.12857,2.71616],[-61.1258,2.69811],[-61.10163,2.69505],[-61.0944,2.70811],[-61.08024,2.70227],[-61.07412,2.69088],[-61.05524,2.68616],[-61.04496,2.67505],[-61.03385,2.67838],[-61.0294,2.69755],[-61.01829,2.68283],[-60.99968,2.68209]]]},"properties":{"CD_MUN":"1400308","NM_MUN":"Mucajaí","SIGLA_UF":"RR"}},{"type":"Feature","geometry":{"type":"Polygon","coordinates":[[[-62.80144,2.00007],[-61.02693,2.00004],[-59.73272,2.00003],[-59.73217,1.98419],[-59.7405,1.97225],[-59.7355,1.96752],[-59.73716,1.95586],[-59.74522,1.94142],[-59.74495,1.92919],[-59.75522,1.92197],[-59.75328,1.91252],[-59.75856,1.90086],[-59.74606,1.87891],[-59.75273,1.86697],[-59.75078,1.85891],[-59.73439,1.84863],[-59.70995,1.85503],[-59.69106,1.85391],[-59.67689,1.83891],[-59.66495,1.84863],[-59.66856,1.86113],[-59.66217,1.87086],[-59.66217,1.86336],[-59.64911,1.84391],[-59.65772,1.82474],[-59.65412,1.81641],[-59.678,1.80752],[-59.67801,1.79085],[-59.68495,1.7903],[-59.6894,1.75669],[-59.66551,1.75502],[-59.66218,1.73724],[-59.65301,1.74335],[-59.63217,1.74141],[-59.62912,1.72835],[-59.61662,1.71558],[-59.60717,1.7228],[-59.58689,1.72669],[-59.58328,1.73252],[-59.56578,1.73613],[-59.55606,1.72418],[-59.54967,1.72863],[-59.54439,1.72169],[-59.53745,1.72224],[-59.53356,1.70919],[-59.52578,1.70279],[-59.52551,1.69169],[-59.51245,1.6803],[-59.5105,1.6689],[-59.49967,1.67752],[-59.49245,1.67391],[-59.49412,1.64557],[-59.48217,1.62696],[-59.46439,1.61807],[-59.44717,1.61974],[-59.43689,1.59418],[-59.42634,1.58668],[-59.43023,1.56668],[-59.42217,1.55613],[-59.4119,1.55196],[-59.4469,1.54613],[-59.45551,1.55835],[-59.46578,1.55974],[-59.46495,1.57252],[-59.48023,1.59252],[-59.48662,1.59668],[-59.49967,1.59363],[-59.51829,1.5903],[-59.58773,1.61169],[-59.59495,1.60946],[-59.6144,1.62697],[-59.62968,1.62446],[-59.64468,1.61446],[-59.64718,1.6078],[-59.66135,1.61029],[-59.65913,1.62196],[-59.66718,1.62557],[-59.70774,1.60474],[-59.71857,1.61085],[-59.76385,1.60669],[-59.77524,1.59197],[-59.76496,1.57974],[-59.76663,1.56391],[-59.78996,1.55919],[-59.79635,1.53474],[-59.80469,1.52836],[-59.80747,1.5328],[-59.81385,1.53169],[-59.80274,1.50946],[-59.81858,1.4903],[-59.82024,1.48002],[-59.81469,1.47391],[-59.81691,1.45169],[-59.79163,1.43224],[-59.79358,1.41252],[-59.78691,1.41446],[-59.78024,1.40668],[-59.77969,1.39418],[-59.77358,1.38863],[-59.77802,1.38113],[-59.77164,1.37668],[-59.7758,1.37279],[-59.77136,1.36668],[-59.77969,1.36307],[-59.78164,1.35585],[-59.7783,1.35558],[-59.78275,1.35474],[-59.78997,1.33919],[-59.78525,1.33363],[-59.79275,1.32974],[-59.77886,1.31446],[-59.78609,1.28418],[-59.78359,1.27835],[-59.78081,1.28251],[-59.77886,1.27502],[-59.7847,1.26557],[-59.80553,1.26419],[-59.8047,1.25529],[-59.82331,1.25668],[-59.83387,1.21613],[-59.8422,1.20863],[-59.84054,1.20085],[-59.84859,1.19974],[-59.86082,1.18724],[-59.86665,1.18807],[-59.87748,1.21307],[-59.8797,1.2028],[-59.88943,1.19724],[-59.89582,1.2028],[-59.90859,1.20002],[-59.91304,1.19141],[-59.92582,1.19446],[-59.9336,1.1889],[-59.93832,1.19279],[-59.95054,1.18446],[-59.94554,1.17641],[-59.95943,1.17891],[-59.96498,1.17196],[-59.97415,1.13974],[-59.98165,1.13585],[-59.99165,1.12474],[-60.01193,1.11779],[-60.01332,1.12446],[-60.02693,1.12529],[-60.0811,1.10279],[-60.11444,1.10363],[-60.12222,1.09613],[-60.13111,1.10335],[-60.21388,1.12947],[-60.23722,1.1303],[-60.24444,1.12058],[-60.24444,1.12447],[-60.25194,1.12196],[-60.27611,1.13197],[-60.29083,1.11585],[-60.29916,1.12252],[-60.29416,1.12974],[-60.29972,1.13752],[-60.31278,1.13252],[-60.31944,1.14836],[-60.32333,1.1478],[-60.32389,1.13835],[-60.34333,1.13308],[-60.35166,1.14391],[-60.34917,1.1378],[-60.35667,1.1303],[-60.37556,1.13974],[-60.39917,1.13197],[-60.41473,1.12391],[-60.41695,1.10224],[-60.42306,1.10002],[-60.42612,1.10641],[-60.4325,1.10697],[-60.44417,1.0978],[-60.45028,1.09835],[-60.45195,1.08085],[-60.46667,1.08169],[-60.46362,1.0703],[-60.48001,1.05947],[-60.48168,1.04613],[-60.49723,1.04002],[-60.50918,1.02613],[-60.51307,0.99058],[-60.52196,0.98613],[-60.53529,0.99308],[-60.54084,0.98558],[-60.53779,0.9753],[-60.54446,0.9703],[-60.54224,0.96614],[-60.56029,0.95558],[-60.55363,0.95558],[-60.56057,0.93947],[-60.5728,0.94391],[-60.56807,0.93641],[-60.58307,0.9328],[-60.59252,0.92391],[-60.6014,0.9328],[-60.60169,0.9253],[-60.5964,0.92058],[-60.60418,0.9103],[-60.60196,0.90475],[-60.61113,0.90419],[-60.61891,0.89752],[-60.63058,0.90086],[-60.63502,0.89641],[-60.65002,0.90335],[-60.65419,0.89114],[-60.6603,0.89225],[-60.66835,0.87919],[-60.67669,0.88641],[-60.68141,0.87669],[-60.68363,0.88447],[-60.68502,0.87669],[-60.68113,0.87502],[-60.6878,0.87308],[-60.6903,0.88391],[-60.7053,0.87058],[-60.71336,0.87974],[-60.71308,0.86753],[-60.71808,0.86835],[-60.72363,0.88169],[-60.72919,0.88114],[-60.73225,0.89697],[-60.74113,0.90308],[-60.73141,0.90697],[-60.72585,0.92141],[-60.72919,0.93475],[-60.7553,0.93975],[-60.76474,0.9353],[-60.77447,0.94113],[-60.77891,0.95891],[-60.79558,0.97753],[-60.8078,0.98003],[-60.81947,1.00003],[-60.82252,1.00669],[-60.81558,1.03114],[-60.82058,1.03975],[-60.81891,1.06308],[-60.84002,1.07642],[-60.84168,1.09059],[-60.85141,1.10308],[-60.88446,1.13059],[-60.90419,1.12114],[-60.91058,1.10114],[-60.9053,1.09531],[-60.91141,1.09364],[-60.92363,1.07392],[-60.9428,1.07253],[-60.94808,1.08281],[-60.9603,1.08892],[-60.97391,1.08503],[-60.98447,1.09281],[-60.99086,1.08308],[-61.00224,1.08975],[-61.01114,1.08475],[-61.0153,1.10336],[-61.02003,1.10087],[-61.02169,1.08448],[-61.03947,1.08781],[-61.04308,1.08114],[-61.03642,1.07058],[-61.04919,1.05809],[-61.04475,1.04808],[-61.06475,1.03614],[-61.05725,1.02753],[-61.06864,1.02031],[-61.06281,1.01225],[-61.06697,1.00975],[-61.07836,1.01614],[-61.08836,1.01003],[-61.09003,1.00503],[-61.08503,1.00225],[-61.08809,0.99781],[-61.09948,0.98642],[-61.10559,0.99087],[-61.11392,0.98281],[-61.10976,0.97642],[-61.11448,0.9692],[-61.10781,0.96336],[-61.1292,0.96392],[-61.12698,0.95836],[-61.1192,0.95753],[-61.12726,0.9442],[-61.14254,0.95225],[-61.14892,0.93642],[-61.15559,0.94059],[-61.15615,0.95447],[-61.16226,0.95781],[-61.1742,0.9542],[-61.17309,0.96197],[-61.1867,0.96003],[-61.18698,0.95003],[-61.1917,0.95031],[-61.20226,0.97836],[-61.22114,1.00114],[-61.23393,1.00003],[-61.25226,0.96948],[-61.25948,0.96642],[-61.26365,0.9792],[-61.2817,0.97725],[-61.30615,0.98587],[-61.3167,0.99559],[-61.32365,0.99364],[-61.36227,0.96197],[-61.37504,0.92586],[-61.42366,0.87031],[-61.43616,0.82003],[-61.46839,0.76531],[-61.49978,0.72392],[-61.55867,0.67975],[-61.59228,0.62864],[-61.61201,0.61087],[-61.63535,0.53309],[-61.66868,0.50003],[-61.68313,0.49003],[-61.71063,0.43614],[-61.72869,0.36558],[-61.75814,0.31003],[-61.77148,0.23448],[-61.77703,0.16808],[-61.76926,0.09781],[-61.77287,0.05947],[-61.81537,-0.03803],[-61.81288,-0.05442],[-61.79065,-0.09081],[-61.78927,-0.10081],[-61.80538,-0.13887],[-61.81761,-0.20053],[-61.83372,-0.24525],[-61.83733,-0.27137],[-61.82928,-0.3172],[-61.84567,-0.36276],[-61.8415,-0.39387],[-61.82956,-0.41415],[-61.80484,-0.44081],[-61.79956,-0.45609],[-61.80151,-0.47387],[-61.81817,-0.50387],[-61.82429,-0.52554],[-61.82151,-0.54304],[-61.81123,-0.56276],[-61.80873,-0.60303],[-61.86708,-0.72359],[-61.86097,-0.76526],[-61.84791,-0.79748],[-61.84736,-0.82137],[-61.8543,-0.83998],[-61.8743,-0.85998],[-61.88153,-0.87749],[-61.88264,-0.8961],[-61.86903,-0.93137],[-61.88903,-0.99999],[-61.8582,-1.05693],[-61.86125,-1.08082],[-61.87431,-1.09832],[-61.8807,-1.12638],[-61.84931,-1.19832],[-61.83848,-1.25805],[-61.86932,-1.32193],[-61.87071,-1.33943],[-61.85738,-1.38138],[-61.8393,-1.4007],[-61.86877,-1.40138],[-61.89599,-1.39499],[-61.90488,-1.37916],[-61.90849,-1.34832],[-61.94932,-1.29665],[-61.95627,-1.26554],[-61.96626,-1.24249],[-61.98738,-1.21637],[-61.98876,-1.20138],[-62.01154,-1.1511],[-62.03904,-1.11804],[-62.06154,-1.09943],[-62.09904,-1.09637],[-62.11765,-1.0761],[-62.11071,-1.05998],[-62.12488,-1.03693],[-62.14238,-1.03693],[-62.14487,-1.02804],[-62.15432,-1.02582],[-62.17126,-1.00554],[-62.19932,-0.99998],[-62.20321,-0.98248],[-62.21293,-0.98331],[-62.22682,-0.97303],[-62.25849,-0.97554],[-62.27154,-0.95165],[-62.28543,-0.94359],[-62.29321,-0.94776],[-62.3121,-0.92998],[-62.31654,-0.91387],[-62.32793,-0.91525],[-62.3396,-0.90387],[-62.35598,-0.8747],[-62.36432,-0.87692],[-62.36598,-0.86887],[-62.37571,-0.86581],[-62.36932,-0.85886],[-62.37988,-0.84331],[-62.37543,-0.83609],[-62.39349,-0.82859],[-62.39515,-0.81997],[-62.42765,-0.81192],[-62.43265,-0.80359],[-62.4421,-0.80164],[-62.44765,-0.80969],[-62.46099,-0.80136],[-62.46487,-0.78859],[-62.48015,-0.7947],[-62.50043,-0.78109],[-62.5096,-0.75859],[-62.49432,-0.75025],[-62.49821,-0.73359],[-62.50543,-0.73053],[-62.50765,-0.71386],[-62.49487,-0.70358],[-62.49237,-0.68719],[-62.48598,-0.68108],[-62.46904,-0.69359],[-62.4632,-0.68775],[-62.42792,-0.69247],[-62.42487,-0.69969],[-62.40987,-0.70998],[-62.40626,-0.72692],[-62.39209,-0.71914],[-62.38987,-0.70914],[-62.3582,-0.70664],[-62.3607,-0.69914],[-62.36876,-0.69498],[-62.37014,-0.67636],[-62.3532,-0.67664],[-62.3482,-0.67025],[-62.3407,-0.67553],[-62.33273,-0.67045],[-62.32606,-0.656],[-62.30856,-0.66045],[-62.29022,-0.64628],[-62.28911,-0.62934],[-62.30106,-0.61878],[-62.29966,-0.61044],[-62.29133,-0.61017],[-62.29022,-0.60183],[-62.30911,-0.58295],[-62.30772,-0.56711],[-62.31772,-0.55211],[-62.30883,-0.546],[-62.31105,-0.53711],[-62.30327,-0.53433],[-62.30855,-0.51378],[-62.29411,-0.50739],[-62.28577,-0.49322],[-62.28966,-0.48378],[-62.28383,-0.47711],[-62.27438,-0.47822],[-62.27022,-0.47016],[-62.27744,-0.46488],[-62.27327,-0.45377],[-62.2266,-0.42544],[-62.22104,-0.40905],[-62.21215,-0.40794],[-62.2166,-0.39905],[-62.2016,-0.39266],[-62.20576,-0.37655],[-62.20327,-0.36794],[-62.19465,-0.36405],[-62.19326,-0.33821],[-62.1877,-0.33044],[-62.2191,-0.31072],[-62.22577,-0.31683],[-62.23521,-0.31683],[-62.24771,-0.30155],[-62.24465,-0.29433],[-62.25354,-0.27932],[-62.25298,-0.27099],[-62.2377,-0.25238],[-62.24632,-0.25182],[-62.25242,-0.23627],[-62.25271,-0.21933],[-62.24465,-0.21127],[-62.24632,-0.1896],[-62.24131,-0.18127],[-62.24437,-0.17433],[-62.26742,-0.16349],[-62.28992,-0.13906],[-62.29823,-0.12184],[-62.31906,-0.10213],[-62.31726,-0.08412],[-62.32153,-0.06993],[-62.32959,-0.06855],[-62.33153,-0.06022],[-62.32264,-0.06161],[-62.32123,-0.03773],[-62.32567,-0.03107],[-62.32206,-0.02385],[-62.34595,0.03004],[-62.37011,0.05448],[-62.39012,0.06004],[-62.41428,0.07476],[-62.42372,0.09198],[-62.42817,0.11892],[-62.42261,0.14504],[-62.42789,0.17393],[-62.43789,0.19531],[-62.45206,0.20782],[-62.45372,0.24393],[-62.46761,0.27615],[-62.45789,0.31393],[-62.46622,0.33337],[-62.45121,0.36559],[-62.45232,0.37393],[-62.44566,0.37949],[-62.45538,0.39282],[-62.45788,0.41809],[-62.48455,0.45449],[-62.50855,0.4403],[-62.51796,0.44411],[-62.52227,0.48596],[-62.53232,0.50921],[-62.5176,0.58421],[-62.53759,0.6756],[-62.53482,0.69421],[-62.52787,0.7106],[-62.49981,0.74838],[-62.45703,0.7856],[-62.46536,0.82949],[-62.48037,0.8431],[-62.48536,0.85838],[-62.48397,0.87643],[-62.47036,0.91754],[-62.45286,0.93504],[-62.44202,0.95894],[-62.44508,0.97727],[-62.46091,0.99533],[-62.47702,1.02838],[-62.47369,1.0406],[-62.47758,1.05699],[-62.47091,1.08672],[-62.52035,1.08421],[-62.52897,1.08921],[-62.54452,1.12116],[-62.55396,1.17533],[-62.59118,1.272],[-62.61007,1.35311],[-62.61979,1.36311],[-62.62562,1.38561],[-62.61951,1.40422],[-62.63923,1.43866],[-62.67618,1.45505],[-62.73007,1.50006],[-62.73923,1.53756],[-62.77617,1.57673],[-62.79256,1.58728],[-62.79756,1.60228],[-62.78673,1.61228],[-62.78173,1.63061],[-62.70784,1.70756],[-62.70811,1.74395],[-62.71839,1.80367],[-62.69338,1.85951],[-62.68227,1.92284],[-62.69282,1.94228],[-62.70644,1.9545],[-62.76171,1.97979],[-62.79394,1.9884],[-62.80144,2.00007]]]},"properties":{"CD_MUN":"1400209","NM_MUN":"Caracaraí","SIGLA_UF":"RR"}},{"type":"Feature","geometry":{"type":"Polygon","coordinates":[[[-60.32046,3.36949],[-60.29435,3.38755],[-60.24157,3.39421],[-60.19629,3.40727],[-60.1849,3.41755],[-60.17518,3.44588],[-60.15517,3.4631],[-60.13573,3.46283],[-60.11323,3.48116],[-60.08239,3.49393],[-60.0535,3.52644],[-60.036,3.5281],[-60.02655,3.54032],[-59.99894,3.55316],[-59.97433,3.55699],[-59.95739,3.5731],[-59.94905,3.57144],[-59.94267,3.56088],[-59.93627,3.55921],[-59.9221,3.57894],[-59.9046,3.58671],[-59.88488,3.56421],[-59.87099,3.56366],[-59.86544,3.55838],[-59.84294,3.55421],[-59.83711,3.52977],[-59.8171,3.52143],[-59.80322,3.50726],[-59.80155,3.49115],[-59.82516,3.47976],[-59.81239,3.47754],[-59.81016,3.46949],[-59.82322,3.46949],[-59.82794,3.45588],[-59.83905,3.44365],[-59.84128,3.4256],[-59.83322,3.4231],[-59.81322,3.42837],[-59.81933,3.41116],[-59.80295,3.36199],[-59.80711,3.3531],[-59.8235,3.35699],[-59.83267,3.35365],[-59.82684,3.33199],[-59.84128,3.31865],[-59.84156,3.30865],[-59.85128,3.30449],[-59.85823,3.27865],[-59.87184,3.27671],[-59.88017,3.25976],[-59.87823,3.24588],[-59.88767,3.24254],[-59.87351,3.22949],[-59.87462,3.22393],[-59.88684,3.21671],[-59.90295,3.21671],[-59.9074,3.21059],[-59.91129,3.1881],[-59.89907,3.15393],[-59.92018,3.14726],[-59.90768,3.14448],[-59.90657,3.13976],[-59.91851,3.13226],[-59.91629,3.12615],[-59.90851,3.12449],[-59.90713,3.11448],[-59.9149,3.11143],[-59.92046,3.12115],[-59.92379,3.10893],[-59.92907,3.10976],[-59.93796,3.09976],[-59.93879,3.08809],[-59.95518,3.08143],[-59.95102,3.04171],[-59.96158,3.01671],[-59.94621,3.0001],[-59.96296,2.96337],[-59.95769,2.95393],[-59.98186,2.93059],[-59.98463,2.91004],[-59.97686,2.9042],[-59.97603,2.89698],[-59.98797,2.88198],[-59.98047,2.86976],[-59.98547,2.8642],[-59.98297,2.85281],[-59.98991,2.83948],[-59.98547,2.80337],[-59.99186,2.78615],[-59.98603,2.74837],[-59.99103,2.73448],[-59.98715,2.69587],[-59.9902,2.68754],[-59.97242,2.66837],[-59.9702,2.65587],[-59.9752,2.64003],[-59.96187,2.62642],[-59.96243,2.61698],[-59.95576,2.61059],[-59.96576,2.60865],[-59.96993,2.59392],[-59.94242,2.58615],[-59.92715,2.57087],[-59.93604,2.55309],[-59.91604,2.52698],[-59.91798,2.51003],[-59.91048,2.50281],[-59.90965,2.49476],[-59.89465,2.48198],[-59.89798,2.47198],[-59.8916,2.46476],[-59.89187,2.45392],[-59.89826,2.43864],[-59.88827,2.42503],[-59.89493,2.42364],[-59.89382,2.40642],[-59.90632,2.38975],[-59.89577,2.36336],[-59.87882,2.35309],[-59.86965,2.36087],[-59.85077,2.33087],[-59.8416,2.3292],[-59.84132,2.32058],[-59.82715,2.32892],[-59.82382,2.32058],[-59.80493,2.30781],[-59.80132,2.29781],[-59.78493,2.28447],[-59.76938,2.2942],[-59.74882,2.28836],[-59.73798,2.29197],[-59.7216,2.27725],[-59.72687,2.26391],[-59.71827,2.23781],[-59.72687,2.23031],[-59.72354,2.2053],[-59.73105,2.20364],[-59.72577,2.20003],[-59.73688,2.17919],[-59.73966,2.16308],[-59.73716,2.14669],[-59.72577,2.13614],[-59.7266,2.12391],[-59.71994,2.11502],[-59.72133,2.09808],[-59.73383,2.09114],[-59.74022,2.07391],[-59.73522,2.05031],[-59.72605,2.03475],[-59.72828,2.03058],[-59.71938,2.02808],[-59.73439,2.01308],[-59.72994,2.00808],[-59.73272,2.00003],[-61.02693,2.00004],[-61.04888,2.03949],[-61.04637,2.08449],[-61.01276,2.14393],[-60.94803,2.19532],[-60.90692,2.2406],[-60.88997,2.28421],[-60.85275,2.30504],[-60.84497,2.31393],[-60.83497,2.36226],[-60.83802,2.37449],[-60.84663,2.38199],[-60.84607,2.39893],[-60.83552,2.4206],[-60.83579,2.4381],[-60.82718,2.45588],[-60.82135,2.51949],[-60.82357,2.54727],[-60.7744,2.64393],[-60.71939,2.70838],[-60.69383,2.72866],[-60.67327,2.77699],[-60.67022,2.79949],[-60.64855,2.83532],[-60.60299,2.85699],[-60.5491,2.90338],[-60.52521,2.94671],[-60.50354,2.97366],[-60.48771,3.01727],[-60.4477,3.04588],[-60.43909,3.07477],[-60.41687,3.10171],[-60.39269,3.14671],[-60.37297,3.16532],[-60.38436,3.18227],[-60.38381,3.21116],[-60.40797,3.2556],[-60.40964,3.28005],[-60.39519,3.30088],[-60.35408,3.31144],[-60.34491,3.3181],[-60.3438,3.34088],[-60.32046,3.36949]]]},"properties":{"CD_MUN":"1400159","NM_MUN":"Bonfim","SIGLA_UF":"RR"}},{"type":"Feature","geometry":{"type":"Polygon","coordinates":[[[-60.71734,5.19605],[-60.70984,5.2048],[-60.70012,5.1973],[-60.68234,5.21007],[-60.68068,5.20202],[-60.67262,5.20285],[-60.6629,5.19452],[-60.65901,5.18036],[-60.65373,5.17869],[-60.64623,5.18424],[-60.63345,5.18146],[-60.62623,5.16646],[-60.61123,5.16202],[-60.60234,5.14869],[-60.5904,5.14368],[-60.58234,5.14618],[-60.57651,5.15619],[-60.57123,5.14869],[-60.55067,5.14563],[-60.54262,5.15591],[-60.50678,5.16119],[-60.50095,5.1573],[-60.48289,5.16924],[-60.46983,5.1659],[-60.46095,5.15646],[-60.45317,5.15702],[-60.43845,5.14424],[-60.45262,5.13008],[-60.44289,5.12479],[-60.43789,5.13119],[-60.43261,5.12563],[-60.42178,5.12952],[-60.42234,5.11618],[-60.42789,5.11091],[-60.419,5.11396],[-60.40012,5.10868],[-60.39928,5.09841],[-60.40956,5.09285],[-60.40956,5.0784],[-60.40512,5.07646],[-60.42317,5.0609],[-60.4215,5.05618],[-60.40567,5.05423],[-60.40762,5.03951],[-60.41873,5.03813],[-60.42595,5.03035],[-60.43095,5.01702],[-60.42568,5.01507],[-60.43206,5.01229],[-60.43207,5.00007],[-60.44429,4.9884],[-60.45317,4.99285],[-60.46123,4.98868],[-60.4554,4.97563],[-60.46845,4.96507],[-60.45151,4.95618],[-60.45679,4.94646],[-60.45179,4.9359],[-60.4604,4.9109],[-60.4754,4.89368],[-60.47568,4.88646],[-60.46235,4.87452],[-60.46513,4.85063],[-60.45957,4.84701],[-60.47068,4.79118],[-60.46457,4.78646],[-60.46763,4.77507],[-60.46402,4.76618],[-60.4718,4.75007],[-60.46874,4.74396],[-60.47263,4.74285],[-60.47514,4.70285],[-60.48347,4.69507],[-60.47958,4.68673],[-60.48791,4.66951],[-60.48847,4.65229],[-60.47125,4.63701],[-60.46736,4.61257],[-60.45069,4.60562],[-60.44319,4.60757],[-60.43902,4.59785],[-60.42958,4.59284],[-60.40319,4.59089],[-60.38875,4.59812],[-60.34235,4.58229],[-60.32402,4.59507],[-60.3068,4.58951],[-60.30402,4.57062],[-60.30875,4.56145],[-60.30264,4.53507],[-60.29236,4.52312],[-60.29152,4.50534],[-60.27153,4.49506],[-60.29736,4.46867],[-60.32403,4.45617],[-60.32264,4.45034],[-60.36264,4.4209],[-60.37348,4.3959],[-60.45904,4.36367],[-60.51321,4.31673],[-60.56321,4.28617],[-60.56682,4.2759],[-60.55932,4.26284],[-60.52654,4.25173],[-60.50987,4.24062],[-60.50821,4.23395],[-60.54099,4.20728],[-60.53543,4.18256],[-60.53905,4.17312],[-60.53516,4.16756],[-60.5146,4.16701],[-60.50932,4.15534],[-60.49877,4.14756],[-60.5046,4.13339],[-60.48877,4.14367],[-60.48155,4.132],[-60.47127,4.12867],[-60.47349,4.11506],[-60.46377,4.11145],[-60.45627,4.09117],[-60.44655,4.0845],[-60.44905,4.05089],[-60.43766,4.03311],[-60.43988,4.02255],[-60.44794,4.01533],[-60.45072,3.99811],[-60.4596,3.99173],[-60.45738,3.95533],[-60.48378,3.95506],[-60.49239,3.93867],[-60.48767,3.92395],[-60.49961,3.91589],[-60.50044,3.91117],[-60.48683,3.90061],[-60.48906,3.88589],[-60.49906,3.87395],[-60.481,3.85422],[-60.47628,3.84006],[-60.48517,3.82784],[-60.48156,3.79867],[-60.4874,3.80506],[-60.49073,3.80117],[-60.47962,3.77533],[-60.48462,3.77089],[-60.49295,3.77311],[-60.48851,3.75145],[-60.50601,3.73478],[-60.48601,3.74339],[-60.4799,3.72923],[-60.47073,3.72339],[-60.47462,3.70144],[-60.47101,3.69505],[-60.46073,3.69672],[-60.45406,3.68338],[-60.45712,3.67283],[-60.43156,3.64922],[-60.4374,3.627],[-60.42462,3.62144],[-60.43018,3.61255],[-60.42156,3.61255],[-60.40768,3.56894],[-60.3949,3.57311],[-60.37907,3.56699],[-60.37573,3.5631],[-60.37962,3.55477],[-60.35796,3.54227],[-60.35212,3.552],[-60.33684,3.54589],[-60.32157,3.53005],[-60.32073,3.52144],[-60.32935,3.52005],[-60.32906,3.51533],[-60.32018,3.50672],[-60.3099,3.50866],[-60.30962,3.49532],[-60.29851,3.48699],[-60.30101,3.47588],[-60.28824,3.46449],[-60.2849,3.45005],[-60.29851,3.43949],[-60.29629,3.43033],[-60.30157,3.4245],[-60.32074,3.41505],[-60.3249,3.39644],[-60.32046,3.36949],[-60.3438,3.34088],[-60.34491,3.3181],[-60.35408,3.31144],[-60.39519,3.30088],[-60.40964,3.28005],[-60.40797,3.2556],[-60.38381,3.21116],[-60.38436,3.18227],[-60.37297,3.16532],[-60.39269,3.14671],[-60.41687,3.10171],[-60.43909,3.07477],[-60.4477,3.04588],[-60.48771,3.01727],[-60.50354,2.97366],[-60.52521,2.94671],[-60.5491,2.90338],[-60.60299,2.85699],[-60.64855,2.83532],[-60.67022,2.79949],[-60.67327,2.77699],[-60.69383,2.72866],[-60.71939,2.70838],[-60.7744,2.64393],[-60.82357,2.54727],[-60.82135,2.51949],[-60.82718,2.45588],[-60.83579,2.4381],[-60.84774,2.42866],[-60.86746,2.43504],[-60.85718,2.44199],[-60.85691,2.44893],[-60.86913,2.46255],[-60.89135,2.47616],[-60.90163,2.47477],[-60.90608,2.46644],[-60.91219,2.46838],[-60.91302,2.47449],[-60.89357,2.49199],[-60.89274,2.5081],[-60.92024,2.51977],[-60.94357,2.52171],[-60.92663,2.55005],[-60.92663,2.56449],[-60.91468,2.5656],[-60.91162,2.59699],[-60.91635,2.6281],[-60.94218,2.65172],[-60.9594,2.6456],[-60.9694,2.66616],[-60.98024,2.66727],[-60.99968,2.68209],[-60.99965,3.44839],[-61.02076,3.43895],[-61.05576,3.44256],[-61.13104,3.43395],[-61.15271,3.45006],[-61.1641,3.45311],[-61.21799,3.45006],[-61.23521,3.44339],[-61.26688,3.40061],[-61.30827,3.3695],[-61.31578,3.35728],[-61.32939,3.35979],[-61.34855,3.35423],[-61.37827,3.3659],[-61.40494,3.35062],[-61.45967,3.34756],[-61.47494,3.33784],[-61.4855,3.34089],[-61.50383,3.32395],[-61.50661,3.31479],[-61.51884,3.30756],[-61.53162,3.3109],[-61.53634,3.30173],[-61.55578,3.31423],[-61.56412,3.30701],[-61.58634,3.31451],[-61.59356,3.30951],[-61.61329,3.33089],[-61.62551,3.35756],[-61.66079,3.33062],[-61.68912,3.32118],[-61.69829,3.33173],[-61.71107,3.33562],[-61.71412,3.32534],[-61.72968,3.32034],[-61.75829,3.32062],[-61.78301,3.32979],[-61.80524,3.32868],[-61.82301,3.32256],[-61.83024,3.30951],[-61.82663,3.3034],[-61.83913,3.2984],[-61.83996,3.28256],[-61.84996,3.26368],[-61.86774,3.26868],[-61.87052,3.27673],[-61.88691,3.28256],[-61.89274,3.29173],[-61.91219,3.29035],[-61.92413,3.28063],[-61.93191,3.28896],[-61.9433,3.27868],[-61.94135,3.26979],[-61.94885,3.26424],[-61.94635,3.25701],[-61.95219,3.25757],[-61.95636,3.25146],[-61.96913,3.26173],[-62.01636,3.24951],[-62.04553,3.25896],[-62.05108,3.26507],[-62.05997,3.26396],[-62.08136,3.24785],[-62.0883,3.2509],[-62.11497,3.23701],[-62.12969,3.23507],[-62.14164,3.22007],[-62.16331,3.20785],[-62.16553,3.20063],[-62.17942,3.19452],[-62.18414,3.18729],[-62.19859,3.18451],[-62.20026,3.1759],[-62.21053,3.17063],[-62.21387,3.16257],[-62.23192,3.16063],[-62.24109,3.15452],[-62.24026,3.14507],[-62.24859,3.13785],[-62.26693,3.14118],[-62.27248,3.14951],[-62.28721,3.15257],[-62.29359,3.14702],[-62.30943,3.1459],[-62.32137,3.15479],[-62.33998,3.15201],[-62.34943,3.15563],[-62.37443,3.14035],[-62.38721,3.14091],[-62.39026,3.1334],[-62.40471,3.12674],[-62.4161,3.1298],[-62.43138,3.12479],[-62.44666,3.13285],[-62.45415,3.18424],[-62.46776,3.19035],[-62.4736,3.20313],[-62.49971,3.20729],[-62.55332,3.23313],[-62.5686,3.22952],[-62.59749,3.23258],[-62.61916,3.24397],[-62.62944,3.24035],[-62.63444,3.24897],[-62.64666,3.23396],[-62.64832,3.24063],[-62.69388,3.22008],[-62.73638,3.23924],[-62.79278,3.23786],[-62.80972,3.24869],[-62.825,3.24813],[-62.83777,3.26508],[-62.85972,3.27147],[-62.87722,3.2848],[-62.90138,3.29397],[-62.91861,3.30842],[-62.95889,3.3173],[-62.97472,3.34286],[-63.00639,3.34897],[-63.01027,3.36814],[-63.02333,3.38008],[-63.02333,3.38841],[-63.04027,3.40786],[-63.05472,3.42036],[-63.06472,3.41758],[-63.06833,3.4273],[-63.10277,3.44314],[-63.11527,3.46508],[-63.12805,3.46592],[-63.1475,3.47786],[-63.14333,3.48203],[-63.14639,3.49231],[-63.17111,3.51953],[-63.17528,3.53981],[-63.16527,3.55147],[-63.16749,3.56231],[-63.15805,3.58675],[-63.15888,3.59703],[-63.14888,3.60425],[-63.16138,3.63148],[-63.18166,3.6437],[-63.17999,3.65787],[-63.18555,3.6737],[-63.19832,3.68203],[-63.21749,3.6762],[-63.22499,3.68231],[-63.24888,3.68036],[-63.2661,3.6887],[-63.27499,3.68592],[-63.27222,3.64481],[-63.27972,3.62231],[-63.27444,3.61092],[-63.30444,3.58176],[-63.32222,3.57509],[-63.34639,3.58898],[-63.34778,3.60092],[-63.34139,3.61036],[-63.35,3.62453],[-63.36556,3.61453],[-63.39389,3.6162],[-63.44806,3.64815],[-63.45667,3.66342],[-63.48695,3.66759],[-63.49972,3.67565],[-63.50945,3.68759],[-63.52806,3.68148],[-63.55111,3.68371],[-63.5725,3.70454],[-63.56722,3.71759],[-63.56917,3.72871],[-63.59028,3.73899],[-63.63473,3.74204],[-63.65001,3.72565],[-63.67667,3.71509],[-63.69584,3.71482],[-63.71223,3.69843],[-63.71028,3.68676],[-63.71779,3.67982],[-63.7164,3.65981],[-63.74168,3.58565],[-63.74001,3.57037],[-63.76085,3.56371],[-63.77001,3.55121],[-63.78529,3.54537],[-63.78724,3.52954],[-63.80252,3.54204],[-63.8053,3.54009],[-63.81085,3.52315],[-63.80502,3.52426],[-63.80724,3.5201],[-63.82224,3.51898],[-63.82446,3.50954],[-63.83419,3.5012],[-63.82975,3.49593],[-63.83835,3.48482],[-63.83641,3.47899],[-63.84502,3.4562],[-63.87197,3.43593],[-63.8703,3.42898],[-63.88531,3.4262],[-63.88669,3.41954],[-63.91391,3.42676],[-63.93364,3.44565],[-63.93919,3.44204],[-63.95447,3.44815],[-63.96494,3.44485],[-63.96919,3.43426],[-63.97864,3.43482],[-63.98086,3.43954],[-63.98558,3.4337],[-63.99975,3.43399],[-64.01669,3.45176],[-64.02975,3.45371],[-64.03392,3.46065],[-64.04197,3.45982],[-64.0717,3.48121],[-64.09031,3.4826],[-64.10503,3.47621],[-64.14031,3.47399],[-64.17864,3.48676],[-64.18614,3.5001],[-64.18308,3.55065],[-64.18725,3.56454],[-64.20531,3.59093],[-64.24364,3.62538],[-64.25697,3.64816],[-64.27503,3.66177],[-64.28836,3.7001],[-64.32725,3.72094],[-64.34197,3.73538],[-64.40836,3.76622],[-64.4278,3.78038],[-64.4467,3.78455],[-64.4717,3.78205],[-64.48809,3.79094],[-64.5237,3.84239],[-64.56758,3.88225],[-64.57947,3.92878],[-64.61392,3.94706],[-64.64233,3.98525],[-64.67308,4.00511],[-64.68003,4.01678],[-64.68308,4.04067],[-64.7078,4.06706],[-64.73141,4.12067],[-64.80975,4.17512],[-64.82113,4.21234],[-64.82447,4.24206],[-64.82086,4.25901],[-64.79891,4.28456],[-64.78363,4.28734],[-64.69891,4.25067],[-64.6578,4.21206],[-64.62669,4.139],[-64.59225,4.11456],[-64.55972,4.10206],[-64.54363,4.11428],[-64.5203,4.11678],[-64.49974,4.11094],[-64.45696,4.12178],[-64.43085,4.13511],[-64.40307,4.13261],[-64.38557,4.13761],[-64.33473,4.12955],[-64.30557,4.13178],[-64.29306,4.14261],[-64.27556,4.14427],[-64.26557,4.12677],[-64.25001,4.13011],[-64.21223,4.11539],[-64.19001,4.11705],[-64.16723,4.12844],[-64.14667,4.11066],[-64.11695,4.09649],[-64.10806,4.08594],[-64.09445,4.04872],[-64.09918,4.03511],[-64.0964,4.02566],[-64.07501,4.00011],[-64.05001,3.95066],[-64.03529,3.94455],[-64.03489,3.93474],[-64.00112,3.93344],[-63.99973,3.92482],[-63.9964,3.90399],[-63.98556,3.89733],[-63.97806,3.90093],[-63.96335,3.86843],[-63.95862,3.88788],[-63.94918,3.88705],[-63.94612,3.9001],[-63.93723,3.90177],[-63.93639,3.91538],[-63.92751,3.92538],[-63.91362,3.92649],[-63.90056,3.93427],[-63.89028,3.93094],[-63.86945,3.93815],[-63.86,3.94788],[-63.85222,3.94538],[-63.84945,3.95038],[-63.83445,3.94037],[-63.81472,3.9401],[-63.79584,3.93315],[-63.75444,3.94066],[-63.73722,3.92899],[-63.74305,3.92149],[-63.73805,3.91565],[-63.7225,3.91454],[-63.71222,3.90371],[-63.70667,3.91426],[-63.68194,3.90788],[-63.6625,3.92287],[-63.67361,3.9226],[-63.67278,3.92732],[-63.68167,3.93621],[-63.6925,3.93649],[-63.7,3.95065],[-63.69417,3.95704],[-63.69555,3.96676],[-63.68527,3.9926],[-63.6886,4.01593],[-63.6761,4.01955],[-63.65194,4.00232],[-63.64277,3.97899],[-63.61971,3.96315],[-63.59139,3.92871],[-63.58722,3.91788],[-63.59222,3.90454],[-63.58388,3.89815],[-63.59111,3.88593],[-63.57083,3.8837],[-63.55388,3.89148],[-63.5511,3.86537],[-63.5386,3.86565],[-63.53222,3.85759],[-63.51166,3.84787],[-63.50277,3.8501],[-63.49666,3.84037],[-63.49416,3.85092],[-63.50222,3.86843],[-63.49305,3.8676],[-63.49055,3.87398],[-63.47999,3.87371],[-63.46833,3.86232],[-63.45194,3.8587],[-63.43388,3.86537],[-63.43305,3.87648],[-63.43777,3.8837],[-63.41721,3.90148],[-63.4111,3.91371],[-63.41971,3.92426],[-63.41693,3.93537],[-63.43888,3.9376],[-63.44193,3.94009],[-63.4386,3.94898],[-63.45138,3.95593],[-63.42804,3.9776],[-63.41276,3.97565],[-63.39248,3.98093],[-63.36387,3.96454],[-63.33776,3.95732],[-63.32387,3.96426],[-63.31054,3.96176],[-63.31415,3.96898],[-63.31026,3.98231],[-63.29165,3.97093],[-63.28581,3.97315],[-63.27998,3.95565],[-63.25332,3.96204],[-63.2472,3.95509],[-63.20415,3.95176],[-63.22137,3.89898],[-63.23276,3.88204],[-63.23137,3.8512],[-63.22582,3.83592],[-63.2036,3.81204],[-63.19499,3.81565],[-63.16388,3.80537],[-63.12248,3.80509],[-63.08609,3.77897],[-63.08165,3.76759],[-63.05832,3.74786],[-63.06276,3.70537],[-63.06971,3.69675],[-63.08054,3.6937],[-63.03165,3.6662],[-63.0261,3.65064],[-63.01471,3.64564],[-62.99971,3.62342],[-62.98415,3.61008],[-62.95943,3.60814],[-62.95165,3.61231],[-62.92832,3.63981],[-62.91832,3.67286],[-62.90804,3.67147],[-62.88609,3.68397],[-62.8522,3.71231],[-62.83498,3.73898],[-62.80359,3.73008],[-62.78914,3.71814],[-62.78414,3.70008],[-62.77526,3.69758],[-62.75553,3.67786],[-62.74303,3.67369],[-62.74331,3.68425],[-62.73608,3.68952],[-62.73025,3.70814],[-62.73914,3.75675],[-62.73497,3.77953],[-62.74275,3.78758],[-62.73108,3.79675],[-62.7283,3.80508],[-62.74247,3.80869],[-62.77053,3.83453],[-62.7708,3.84009],[-62.75302,3.85009],[-62.75663,3.86008],[-62.7683,3.86759],[-62.78802,3.8937],[-62.78664,3.91509],[-62.78191,3.92231],[-62.7858,3.92981],[-62.76108,3.94203],[-62.74247,3.97259],[-62.76163,3.98453],[-62.76608,4.00009],[-62.76579,4.01286],[-62.74885,4.0212],[-62.75274,4.03175],[-62.73524,4.04037],[-62.70107,4.0312],[-62.67801,4.03897],[-62.65829,4.03509],[-62.65551,4.04231],[-62.64551,4.04675],[-62.62746,4.03981],[-62.60885,4.04453],[-62.58773,4.03286],[-62.57968,4.01786],[-62.55746,4.01648],[-62.56079,4.03814],[-62.54745,4.04564],[-62.53245,4.04647],[-62.54301,4.06481],[-62.54078,4.07925],[-62.55773,4.08064],[-62.54384,4.09814],[-62.55189,4.10925],[-62.52189,4.11925],[-62.53078,4.13675],[-62.50745,4.12703],[-62.50772,4.13758],[-62.4955,4.14287],[-62.47745,4.13119],[-62.47078,4.13953],[-62.46078,4.14175],[-62.46189,4.15175],[-62.45439,4.15619],[-62.46189,4.16342],[-62.46995,4.16342],[-62.46328,4.17786],[-62.45106,4.17342],[-62.43689,4.18342],[-62.41689,4.1848],[-62.39355,4.1737],[-62.38883,4.17842],[-62.36939,4.16314],[-62.36106,4.16759],[-62.35272,4.16564],[-62.34967,4.1512],[-62.32883,4.13508],[-62.32161,4.14092],[-62.30189,4.13703],[-62.29133,4.14175],[-62.27911,4.13009],[-62.25188,4.1298],[-62.24383,4.11731],[-62.23411,4.11869],[-62.21466,4.10952],[-62.19633,4.11341],[-62.19299,4.09869],[-62.17661,4.09064],[-62.16105,4.09091],[-62.14522,4.07452],[-62.13438,4.08702],[-62.11188,4.0898],[-62.1166,4.11786],[-62.10438,4.11563],[-62.09049,4.12953],[-62.07771,4.1198],[-62.07104,4.12564],[-62.07021,4.13091],[-62.08077,4.14508],[-62.07604,4.15425],[-62.0641,4.15897],[-62.04743,4.15064],[-62.03187,4.15841],[-62.02827,4.15063],[-62.02104,4.15758],[-62.01077,4.15647],[-62.0041,4.16619],[-61.99965,4.16453],[-61.99243,4.17536],[-61.98048,4.18091],[-61.98021,4.1623],[-61.97437,4.15147],[-61.94993,4.12591],[-61.94437,4.11147],[-61.92993,4.10369],[-61.92215,4.15619],[-61.89909,4.16119],[-61.87243,4.15174],[-61.86854,4.15869],[-61.87409,4.17064],[-61.85214,4.17452],[-61.84576,4.1648],[-61.83604,4.16063],[-61.82326,4.16397],[-61.81798,4.16813],[-61.81492,4.18896],[-61.82103,4.20008],[-61.80798,4.20286],[-61.80715,4.21397],[-61.80048,4.21924],[-61.80159,4.22869],[-61.78714,4.23174],[-61.78186,4.22452],[-61.76325,4.23258],[-61.77408,4.25008],[-61.73825,4.25647],[-61.7352,4.26369],[-61.72325,4.2698],[-61.72242,4.26064],[-61.73075,4.25313],[-61.72269,4.2448],[-61.70269,4.25508],[-61.67881,4.2548],[-61.66547,4.26313],[-61.64603,4.25286],[-61.64381,4.24174],[-61.63797,4.23785],[-61.63102,4.24147],[-61.62658,4.25424],[-61.62075,4.25063],[-61.60741,4.26146],[-61.60019,4.25008],[-61.58991,4.24452],[-61.56102,4.25147],[-61.55241,4.26591],[-61.52241,4.28896],[-61.52518,4.29619],[-61.50713,4.32035],[-61.52018,4.32591],[-61.52658,4.34258],[-61.52463,4.34813],[-61.51602,4.3498],[-61.52101,4.37369],[-61.51268,4.40591],[-61.48546,4.41091],[-61.47157,4.4248],[-61.46462,4.4248],[-61.46129,4.43674],[-61.43907,4.43647],[-61.4349,4.43285],[-61.44129,4.42758],[-61.4274,4.42618],[-61.42129,4.43396],[-61.40712,4.43091],[-61.40351,4.42507],[-61.37157,4.42758],[-61.35073,4.41924],[-61.33768,4.42118],[-61.33601,4.42869],[-61.31851,4.43063],[-61.32434,4.44285],[-61.3135,4.45146],[-61.31239,4.45813],[-61.28739,4.45785],[-61.28767,4.46369],[-61.2785,4.4698],[-61.2785,4.47924],[-61.29489,4.48119],[-61.29628,4.49397],[-61.30267,4.49424],[-61.31209,4.50467],[-61.32137,4.50391],[-61.32147,4.51101],[-61.32881,4.51617],[-61.32398,4.53419],[-61.3067,4.5371],[-61.30456,4.54114],[-61.29917,4.53639],[-61.28289,4.53755],[-61.27514,4.52842],[-61.26889,4.54012],[-61.25636,4.53658],[-61.25206,4.52286],[-61.24344,4.53397],[-61.21944,4.52303],[-61.21641,4.53572],[-61.20047,4.51692],[-61.18736,4.52102],[-61.16156,4.49646],[-61.15156,4.49619],[-61.146,4.48202],[-61.12661,4.50039],[-61.12469,4.50566],[-61.10556,4.51143],[-61.09191,4.52288],[-61.07775,4.51787],[-61.06463,4.52365],[-61.0476,4.52391],[-61.01616,4.51647],[-60.99377,4.51896],[-60.99488,4.52618],[-60.98294,4.54285],[-60.96321,4.54424],[-60.9571,4.55091],[-60.95321,4.56285],[-60.95543,4.58452],[-60.93877,4.58007],[-60.93126,4.58674],[-60.9421,4.60035],[-60.93182,4.61674],[-60.93793,4.62396],[-60.93821,4.63452],[-60.95071,4.64257],[-60.94876,4.65313],[-60.91626,4.66535],[-60.90848,4.68646],[-60.91098,4.70369],[-60.9007,4.71508],[-60.87431,4.71535],[-60.86987,4.70896],[-60.85209,4.70396],[-60.83098,4.72813],[-60.81126,4.73174],[-60.81264,4.73813],[-60.8057,4.74869],[-60.78875,4.74924],[-60.78764,4.75341],[-60.7632,4.75952],[-60.7507,4.75591],[-60.73736,4.77257],[-60.72014,4.77896],[-60.72597,4.78118],[-60.72264,4.78618],[-60.72597,4.79174],[-60.71875,4.80008],[-60.70431,4.81007],[-60.69514,4.81091],[-60.67152,4.84119],[-60.65819,4.84952],[-60.65541,4.86563],[-60.64735,4.86924],[-60.65152,4.88507],[-60.62791,4.88924],[-60.62485,4.90452],[-60.61513,4.91841],[-60.60791,4.92452],[-60.59096,4.92729],[-60.58318,4.95618],[-60.59179,4.97118],[-60.59818,4.9998],[-60.61207,5.00702],[-60.61057,5.01563],[-60.6229,5.02757],[-60.63104,5.05049],[-60.64346,5.0573],[-60.6399,5.08202],[-60.64429,5.09646],[-60.63996,5.11022],[-60.64485,5.11869],[-60.65512,5.1148],[-60.65612,5.15644],[-60.67845,5.17702],[-60.67987,5.18905],[-60.68573,5.19477],[-60.71734,5.19605]]]},"properties":{"CD_MUN":"1400100","NM_MUN":"Boa Vista","SIGLA_UF":"RR"}},{"type":"Feature","geometry":{"type":"Polygon","coordinates":[[[-64.18614,3.5001],[-64.17864,3.48676],[-64.14031,3.47399],[-64.10503,3.47621],[-64.09031,3.4826],[-64.0717,3.48121],[-64.04197,3.45982],[-64.03392,3.46065],[-64.02975,3.45371],[-64.01669,3.45176],[-63.99975,3.43399],[-63.98558,3.4337],[-63.98086,3.43954],[-63.97864,3.43482],[-63.96919,3.43426],[-63.96494,3.44485],[-63.95447,3.44815],[-63.93919,3.44204],[-63.93364,3.44565],[-63.91391,3.42676],[-63.88669,3.41954],[-63.88531,3.4262],[-63.8703,3.42898],[-63.87197,3.43593],[-63.84502,3.4562],[-63.83641,3.47899],[-63.83835,3.48482],[-63.82975,3.49593],[-63.83419,3.5012],[-63.82446,3.50954],[-63.82224,3.51898],[-63.80724,3.5201],[-63.80502,3.52426],[-63.81085,3.52315],[-63.8053,3.54009],[-63.80252,3.54204],[-63.78724,3.52954],[-63.78529,3.54537],[-63.77001,3.55121],[-63.76085,3.56371],[-63.74001,3.57037],[-63.74168,3.58565],[-63.7164,3.65981],[-63.71779,3.67982],[-63.71028,3.68676],[-63.71223,3.69843],[-63.69584,3.71482],[-63.67667,3.71509],[-63.65001,3.72565],[-63.63473,3.74204],[-63.59028,3.73899],[-63.56917,3.72871],[-63.56722,3.71759],[-63.5725,3.70454],[-63.55111,3.68371],[-63.52806,3.68148],[-63.50945,3.68759],[-63.49972,3.67565],[-63.48695,3.66759],[-63.45667,3.66342],[-63.44806,3.64815],[-63.39389,3.6162],[-63.36556,3.61453],[-63.35,3.62453],[-63.34139,3.61036],[-63.34778,3.60092],[-63.34639,3.58898],[-63.32222,3.57509],[-63.30444,3.58176],[-63.27444,3.61092],[-63.27972,3.62231],[-63.27222,3.64481],[-63.27499,3.68592],[-63.2661,3.6887],[-63.24888,3.68036],[-63.22499,3.68231],[-63.21749,3.6762],[-63.19832,3.68203],[-63.18555,3.6737],[-63.17999,3.65787],[-63.18166,3.6437],[-63.16138,3.63148],[-63.14888,3.60425],[-63.15888,3.59703],[-63.15805,3.58675],[-63.16749,3.56231],[-63.16527,3.55147],[-63.17528,3.53981],[-63.17111,3.51953],[-63.14639,3.49231],[-63.14333,3.48203],[-63.1475,3.47786],[-63.12805,3.46592],[-63.11527,3.46508],[-63.10277,3.44314],[-63.06833,3.4273],[-63.06472,3.41758],[-63.05472,3.42036],[-63.04027,3.40786],[-63.02333,3.38841],[-63.02333,3.38008],[-63.01027,3.36814],[-63.00639,3.34897],[-62.97472,3.34286],[-62.95889,3.3173],[-62.91861,3.30842],[-62.90138,3.29397],[-62.87722,3.2848],[-62.85972,3.27147],[-62.83777,3.26508],[-62.825,3.24813],[-62.80972,3.24869],[-62.79278,3.23786],[-62.73638,3.23924],[-62.69388,3.22008],[-62.64832,3.24063],[-62.64666,3.23396],[-62.63444,3.24897],[-62.62944,3.24035],[-62.61916,3.24397],[-62.59749,3.23258],[-62.5686,3.22952],[-62.55332,3.23313],[-62.49971,3.20729],[-62.4736,3.20313],[-62.46776,3.19035],[-62.45415,3.18424],[-62.44666,3.13285],[-62.43138,3.12479],[-62.4161,3.1298],[-62.40471,3.12674],[-62.39026,3.1334],[-62.38721,3.14091],[-62.37443,3.14035],[-62.34943,3.15563],[-62.33998,3.15201],[-62.32137,3.15479],[-62.30943,3.1459],[-62.29359,3.14702],[-62.28721,3.15257],[-62.27248,3.14951],[-62.26693,3.14118],[-62.24859,3.13785],[-62.24026,3.14507],[-62.24109,3.15452],[-62.23192,3.16063],[-62.21387,3.16257],[-62.21053,3.17063],[-62.20026,3.1759],[-62.19859,3.18451],[-62.18414,3.18729],[-62.17942,3.19452],[-62.16553,3.20063],[-62.16331,3.20785],[-62.14164,3.22007],[-62.12969,3.23507],[-62.11497,3.23701],[-62.0883,3.2509],[-62.08136,3.24785],[-62.05997,3.26396],[-62.05108,3.26507],[-62.04553,3.25896],[-62.01636,3.24951],[-61.96913,3.26173],[-61.95636,3.25146],[-61.95219,3.25757],[-61.94635,3.25701],[-61.94885,3.26424],[-61.94135,3.26979],[-61.9433,3.27868],[-61.93191,3.28896],[-61.92413,3.28063],[-61.91219,3.29035],[-61.89274,3.29173],[-61.88691,3.28256],[-61.87052,3.27673],[-61.86774,3.26868],[-61.84996,3.26368],[-61.83996,3.28256],[-61.83913,3.2984],[-61.82663,3.3034],[-61.83024,3.30951],[-61.82301,3.32256],[-61.80524,3.32868],[-61.78301,3.32979],[-61.75829,3.32062],[-61.72968,3.32034],[-61.71412,3.32534],[-61.71107,3.33562],[-61.69829,3.33173],[-61.68912,3.32118],[-61.66079,3.33062],[-61.62551,3.35756],[-61.61329,3.33089],[-61.59356,3.30951],[-61.58634,3.31451],[-61.56412,3.30701],[-61.55578,3.31423],[-61.53634,3.30173],[-61.53162,3.3109],[-61.51884,3.30756],[-61.50661,3.31479],[-61.50383,3.32395],[-61.4855,3.34089],[-61.47494,3.33784],[-61.45967,3.34756],[-61.40494,3.35062],[-61.37827,3.3659],[-61.34855,3.35423],[-61.32939,3.35979],[-61.31578,3.35728],[-61.30827,3.3695],[-61.26688,3.40061],[-61.23521,3.44339],[-61.21799,3.45006],[-61.1641,3.45311],[-61.15271,3.45006],[-61.13104,3.43395],[-61.05576,3.44256],[-61.02076,3.43895],[-60.99965,3.44839],[-60.99968,2.68209],[-61.01829,2.68283],[-61.0294,2.69755],[-61.03385,2.67838],[-61.04496,2.67505],[-61.05524,2.68616],[-61.07412,2.69088],[-61.08024,2.70227],[-61.0944,2.70811],[-61.10163,2.69505],[-61.1258,2.69811],[-61.12857,2.71616],[-61.13329,2.72033],[-61.13635,2.70116],[-61.18302,2.67755],[-61.19552,2.68811],[-61.19969,2.68172],[-61.21358,2.68172],[-61.21469,2.6645],[-61.22663,2.65422],[-61.24025,2.65172],[-61.25247,2.66783],[-61.26997,2.67172],[-61.28886,2.65783],[-61.30164,2.69256],[-61.2958,2.70617],[-61.3133,2.71867],[-61.30719,2.72616],[-61.32608,2.73033],[-61.32441,2.74506],[-61.3308,2.74866],[-61.33247,2.76005],[-61.34358,2.75811],[-61.34469,2.76644],[-61.35497,2.7695],[-61.36636,2.80922],[-61.3783,2.81617],[-61.36885,2.82894],[-61.37052,2.84006],[-61.38108,2.83867],[-61.40524,2.86172],[-61.43663,2.86978],[-61.44469,2.877],[-61.44996,2.89561],[-61.45524,2.89367],[-61.45691,2.88617],[-61.46969,2.89312],[-61.47802,2.88867],[-61.48385,2.89172],[-61.49969,2.88867],[-61.53024,2.90089],[-61.5358,2.91256],[-61.54608,2.91422],[-61.54774,2.92589],[-61.5558,2.92672],[-61.56386,2.94033],[-61.5758,2.94756],[-61.60497,2.94033],[-61.61691,2.932],[-61.62664,2.93256],[-61.64608,2.90645],[-61.69386,2.86367],[-61.72081,2.81506],[-61.70831,2.79978],[-61.69748,2.80423],[-61.69275,2.79478],[-61.72498,2.78367],[-61.74026,2.76478],[-61.7472,2.74312],[-61.74192,2.73812],[-61.73748,2.7445],[-61.73248,2.73589],[-61.73192,2.71867],[-61.73609,2.71506],[-61.76832,2.71173],[-61.77304,2.72034],[-61.78887,2.70617],[-61.81638,2.69756],[-61.81693,2.68951],[-61.83082,2.69701],[-61.86277,2.68284],[-61.86971,2.68395],[-61.88304,2.69728],[-61.88915,2.69006],[-61.89999,2.69423],[-61.91305,2.69201],[-61.92304,2.70617],[-61.93249,2.70256],[-61.94332,2.68395],[-61.97221,2.68839],[-61.97638,2.6945],[-61.97332,2.71173],[-61.97694,2.717],[-61.99555,2.71729],[-61.99971,2.72479],[-62.00527,2.73395],[-62.03304,2.73006],[-62.05888,2.73395],[-62.08416,2.74673],[-62.19472,2.74784],[-62.20444,2.75729],[-62.20083,2.76229],[-62.20861,2.76451],[-62.22389,2.7559],[-62.27389,2.75757],[-62.2825,2.76229],[-62.31361,2.7634],[-62.345,2.77562],[-62.37333,2.77562],[-62.40695,2.78312],[-62.43389,2.77507],[-62.43583,2.78118],[-62.44223,2.78173],[-62.45417,2.77424],[-62.4639,2.77451],[-62.46612,2.76923],[-62.485,2.77035],[-62.52528,2.74701],[-62.58557,2.73451],[-62.59779,2.74229],[-62.60723,2.73729],[-62.61473,2.73979],[-62.61723,2.72979],[-62.63501,2.72285],[-62.6389,2.71563],[-62.65224,2.71535],[-62.6514,2.71007],[-62.65724,2.70702],[-62.68585,2.70868],[-62.68446,2.69951],[-62.69752,2.69674],[-62.71196,2.71563],[-62.73279,2.72535],[-62.74835,2.72591],[-62.75557,2.73285],[-62.79502,2.72785],[-62.79918,2.73896],[-62.82391,2.7598],[-62.83057,2.75813],[-62.83502,2.76813],[-62.84252,2.77146],[-62.84724,2.78563],[-62.86363,2.75869],[-62.87697,2.76757],[-62.88224,2.76202],[-62.89141,2.76757],[-62.89863,2.76452],[-62.91002,2.76841],[-62.91696,2.76424],[-62.93502,2.77146],[-62.93919,2.78285],[-62.96641,2.78563],[-62.9728,2.79563],[-62.96974,2.80285],[-62.98391,2.80674],[-62.99974,2.80424],[-63.01141,2.81063],[-63.02252,2.79813],[-63.03724,2.80174],[-63.04141,2.81091],[-63.05197,2.80063],[-63.06169,2.80202],[-63.06891,2.79091],[-63.08419,2.79813],[-63.0903,2.7948],[-63.08919,2.80146],[-63.1153,2.79674],[-63.11336,2.80063],[-63.11864,2.8048],[-63.12252,2.79786],[-63.12503,2.80535],[-63.13891,2.80146],[-63.15808,2.81174],[-63.16058,2.80841],[-63.16086,2.81258],[-63.17364,2.80897],[-63.18002,2.82341],[-63.18919,2.82702],[-63.19003,2.82313],[-63.19808,2.82508],[-63.20753,2.81814],[-63.21919,2.82008],[-63.21947,2.82508],[-63.22281,2.82258],[-63.22336,2.82758],[-63.22919,2.82869],[-63.2442,2.8198],[-63.24836,2.82202],[-63.2542,2.81258],[-63.26114,2.81508],[-63.2617,2.8098],[-63.27003,2.80952],[-63.27336,2.7998],[-63.2917,2.78202],[-63.30614,2.77952],[-63.31753,2.78647],[-63.32142,2.78175],[-63.33476,2.78063],[-63.33865,2.78452],[-63.35281,2.78008],[-63.35865,2.76036],[-63.36643,2.76786],[-63.38559,2.76314],[-63.42087,2.78258],[-63.43059,2.78036],[-63.44004,2.78453],[-63.44587,2.77508],[-63.45337,2.77341],[-63.45476,2.75897],[-63.46059,2.75175],[-63.45226,2.7398],[-63.46199,2.73452],[-63.45837,2.7273],[-63.46476,2.72369],[-63.46865,2.7123],[-63.46171,2.7073],[-63.46143,2.69925],[-63.4681,2.69286],[-63.46143,2.6873],[-63.4606,2.67258],[-63.47754,2.66508],[-63.46865,2.62369],[-63.48838,2.59897],[-63.49894,2.59647],[-63.50755,2.58563],[-63.51838,2.58258],[-63.54449,2.5948],[-63.55616,2.59314],[-63.56116,2.59703],[-63.60311,2.59564],[-63.62116,2.60953],[-63.63422,2.60453],[-63.64783,2.60564],[-63.66033,2.59286],[-63.66672,2.59786],[-63.99979,2.48092],[-64.00951,2.4812],[-64.0134,2.47008],[-64.02007,2.46703],[-64.03132,2.47267],[-64.02951,2.48231],[-64.03729,2.48731],[-64.03812,2.49453],[-64.05535,2.49814],[-64.05829,2.50856],[-64.04479,2.53148],[-64.04818,2.54911],[-64.04368,2.5737],[-64.0384,2.57898],[-64.0284,2.57648],[-64.02367,2.5912],[-64.0084,2.6087],[-64.00923,2.62064],[-63.99089,2.63675],[-63.98423,2.64898],[-63.98367,2.66009],[-63.9907,2.67058],[-63.98478,2.68648],[-64.00112,2.70009],[-64.00284,2.70759],[-63.982,2.71786],[-63.98589,2.7312],[-63.99895,2.74064],[-63.99839,2.76036],[-63.99311,2.77037],[-64.00867,2.7787],[-64.01339,2.79592],[-64.01255,2.81953],[-64.04644,2.83676],[-64.057,2.85092],[-64.06617,2.88009],[-64.07088,2.93814],[-64.10172,2.95204],[-64.11061,2.96092],[-64.12422,2.98093],[-64.12977,3.00481],[-64.16005,3.03315],[-64.17255,3.05815],[-64.21977,3.0962],[-64.23449,3.11482],[-64.23283,3.13037],[-64.21005,3.17259],[-64.20782,3.19482],[-64.2131,3.24676],[-64.2406,3.31537],[-64.23365,3.38454],[-64.25087,3.40371],[-64.25337,3.42066],[-64.2392,3.44343],[-64.20198,3.4776],[-64.18614,3.5001]]]},"properties":{"CD_MUN":"1400050","NM_MUN":"Alto Alegre","SIGLA_UF":"RR"}},{"type":"Feature","geometry":{"type":"Polygon","coordinates":[[[-59.98165,1.13585],[-59.98027,1.00002],[-59.97499,0.98918],[-59.98277,0.96918],[-60.01805,0.95891],[-60.02111,0.95335],[-60.01805,0.94029],[-60.02833,0.9164],[-60.04944,0.89974],[-60.04944,0.88168],[-60.05611,0.87001],[-60.05306,0.85307],[-60.06139,0.83779],[-60.05528,0.83335],[-60.05417,0.80807],[-60.04584,0.79529],[-60.06112,0.75307],[-60.05473,0.74057],[-60.06556,0.69529],[-60.06362,0.68279],[-60.08001,0.6739],[-60.07029,0.6439],[-60.06946,0.60974],[-60.07668,0.60834],[-60.08112,0.60057],[-60.09251,0.60446],[-60.11418,0.58529],[-60.12418,0.58696],[-60.12391,0.57974],[-60.15168,0.57418],[-60.15558,0.56112],[-60.16335,0.56751],[-60.18363,0.56362],[-60.18863,0.5714],[-60.19641,0.56585],[-60.22669,0.56363],[-60.22919,0.57112],[-60.22113,0.57779],[-60.21641,0.59057],[-60.22502,0.59002],[-60.2278,0.58362],[-60.23502,0.58502],[-60.24168,0.60085],[-60.25446,0.60001],[-60.27085,0.59418],[-60.28308,0.57613],[-60.28669,0.55724],[-60.29474,0.55724],[-60.30724,0.54446],[-60.33502,0.56001],[-60.34808,0.55779],[-60.35586,0.5389],[-60.36919,0.53252],[-60.38752,0.54029],[-60.39419,0.53613],[-60.40169,0.53891],[-60.4028,0.53252],[-60.41336,0.53779],[-60.42864,0.53335],[-60.4378,0.53946],[-60.44614,0.52418],[-60.45531,0.52612],[-60.4592,0.51752],[-60.4717,0.5139],[-60.48309,0.50002],[-60.49031,0.49418],[-60.48947,0.48585],[-60.49587,0.47835],[-60.51003,0.48307],[-60.51531,0.47974],[-60.52309,0.49252],[-60.53281,0.4889],[-60.56337,0.45057],[-60.57587,0.44696],[-60.57476,0.43613],[-60.5831,0.43418],[-60.58504,0.42474],[-60.62032,0.38918],[-60.62865,0.39307],[-60.65087,0.37863],[-60.66365,0.38279],[-60.66643,0.37168],[-60.65532,0.37057],[-60.65505,0.36585],[-60.66227,0.36752],[-60.66227,0.36335],[-60.65505,0.34946],[-60.65727,0.34335],[-60.66421,0.34696],[-60.66171,0.33474],[-60.66977,0.31029],[-60.66033,0.2878],[-60.65227,0.28196],[-60.64394,0.28418],[-60.6406,0.2789],[-60.64838,0.26585],[-60.65755,0.26057],[-60.66727,0.23863],[-60.6581,0.2364],[-60.66144,0.23112],[-60.64422,0.21251],[-60.62505,0.20973],[-60.61977,0.20418],[-60.60227,0.20946],[-60.59116,0.2064],[-60.57811,0.17613],[-60.57033,0.17307],[-60.53949,0.13807],[-60.51921,0.12834],[-60.48088,0.09418],[-60.45116,0.09168],[-60.43949,0.09807],[-60.41838,0.11584],[-60.4131,0.13223],[-60.39865,0.14251],[-60.39171,0.1614],[-60.18449,0.0],[-60.18096,-0.00953],[-60.20257,-0.03325],[-60.20552,-0.06117],[-60.22149,-0.08271],[-60.2281,-0.10082],[-60.22977,-0.10999],[-60.22449,-0.11916],[-60.22672,-0.12833],[-60.21977,-0.13499],[-60.24922,-0.16665],[-60.24866,-0.1747],[-60.25755,-0.17304],[-60.26533,-0.17804],[-60.26367,-0.18915],[-60.27533,-0.20221],[-60.28505,-0.21027],[-60.29283,-0.20527],[-60.29867,-0.21138],[-60.29089,-0.22888],[-60.30422,-0.26444],[-60.28923,-0.29277],[-60.30228,-0.30361],[-60.30145,-0.32777],[-60.31784,-0.33027],[-60.32089,-0.33721],[-60.31645,-0.35832],[-60.32145,-0.37721],[-60.33534,-0.38499],[-60.34926,-0.40692],[-60.3437,-0.41276],[-60.34398,-0.44025],[-60.38176,-0.46997],[-60.39035,-0.50278],[-60.39924,-0.50972],[-60.3973,-0.54555],[-60.39424,-0.55306],[-60.38174,-0.55722],[-60.37869,-0.57611],[-60.3873,-0.58111],[-60.38257,-0.58972],[-60.36507,-0.58778],[-60.35035,-0.62195],[-60.34007,-0.62528],[-60.32702,-0.64],[-60.31924,-0.63667],[-60.31285,-0.64111],[-60.31396,-0.65973],[-60.30313,-0.67361],[-60.30813,-0.68944],[-60.30146,-0.69306],[-60.30202,-0.70889],[-60.30897,-0.72445],[-60.31646,-0.7225],[-60.34536,-0.74556],[-60.37675,-0.7425],[-60.38258,-0.75945],[-60.40036,-0.75722],[-60.41841,-0.76389],[-60.42647,-0.77806],[-60.43397,-0.77222],[-60.47842,-0.77055],[-60.49731,-0.78916],[-60.49147,-0.79639],[-60.49814,-0.82194],[-60.50592,-0.82111],[-60.51925,-0.83334],[-60.50259,-0.84111],[-60.50397,-0.84889],[-60.53037,-0.87472],[-60.55703,-0.86945],[-60.55731,-0.85972],[-60.59065,-0.85306],[-60.5937,-0.87194],[-60.61981,-0.86305],[-60.62343,-0.87111],[-60.63315,-0.86805],[-60.63537,-0.87583],[-60.65398,-0.88278],[-60.66732,-0.89417],[-60.67204,-0.8875],[-60.66926,-0.87805],[-60.67509,-0.87305],[-60.70704,-0.86528],[-60.71648,-0.86972],[-60.73176,-0.85806],[-60.75204,-0.86083],[-60.75389,-0.84186],[-60.75871,-0.82833],[-60.75259,-0.81944],[-60.75843,-0.80944],[-60.75593,-0.79527],[-60.77315,-0.79083],[-60.76037,-0.76111],[-60.76815,-0.75416],[-60.77648,-0.75583],[-60.78815,-0.74444],[-60.79648,-0.74444],[-60.79898,-0.73555],[-60.79259,-0.72805],[-60.79259,-0.71805],[-60.79704,-0.70055],[-60.81148,-0.69166],[-60.84259,-0.69027],[-60.8512,-0.67444],[-60.84676,-0.6636],[-60.85398,-0.6475],[-60.86037,-0.64194],[-60.88204,-0.64888],[-60.90759,-0.6236],[-60.90815,-0.61555],[-60.91565,-0.60999],[-60.91176,-0.58083],[-60.92009,-0.55499],[-60.92954,-0.55444],[-60.93509,-0.55971],[-60.95259,-0.55416],[-60.95759,-0.55999],[-60.97482,-0.56221],[-60.99982,-0.55944],[-61.02454,-0.5436],[-61.03315,-0.5486],[-61.04537,-0.54554],[-61.05454,-0.53832],[-61.06315,-0.51277],[-61.08676,-0.49971],[-61.09592,-0.49915],[-61.11176,-0.50693],[-61.12843,-0.49721],[-61.14815,-0.49888],[-61.15676,-0.51499],[-61.17287,-0.50777],[-61.19788,-0.50555],[-61.20815,-0.49832],[-61.21621,-0.49971],[-61.22232,-0.50526],[-61.2226,-0.51888],[-61.21565,-0.53277],[-61.22344,-0.53888],[-61.22344,-0.55916],[-61.27483,-0.57582],[-61.29761,-0.57582],[-61.32538,-0.59749],[-61.34649,-0.59471],[-61.35622,-0.59804],[-61.4065,-0.6311],[-61.42817,-0.63387],[-61.42595,-0.65277],[-61.43456,-0.65804],[-61.45622,-0.65665],[-61.464,-0.66443],[-61.479,-0.71415],[-61.51595,-0.74527],[-61.53818,-0.75582],[-61.55151,-0.80137],[-61.54929,-0.83888],[-61.5429,-0.84304],[-61.5429,-0.85193],[-61.55763,-0.8636],[-61.55818,-0.89276],[-61.5779,-0.90971],[-61.57957,-0.92999],[-61.58457,-0.93665],[-61.57902,-0.95554],[-61.58291,-0.98221],[-61.57541,-0.98777],[-61.56006,-0.98768],[-61.55958,-1.00971],[-61.54291,-1.03499],[-61.54347,-1.06193],[-61.54596,-1.07083],[-61.57596,-1.07888],[-61.57763,-1.08804],[-61.56569,-1.09943],[-61.57736,-1.11277],[-61.56597,-1.13221],[-61.58153,-1.16416],[-61.5732,-1.18443],[-61.58764,-1.19693],[-61.60625,-1.24416],[-61.60709,-1.27777],[-61.62625,-1.2936],[-61.6282,-1.3011],[-61.61098,-1.30777],[-61.58487,-1.33833],[-61.58154,-1.35305],[-61.59931,-1.36722],[-61.61848,-1.39444],[-61.61404,-1.40222],[-61.60237,-1.40694],[-61.58126,-1.40916],[-61.57321,-1.42832],[-61.53765,-1.43305],[-61.53237,-1.46472],[-61.51584,-1.50207],[-61.48071,-1.5175],[-61.47265,-1.5275],[-61.46932,-1.53777],[-61.47487,-1.55277],[-61.47404,-1.57861],[-61.4821,-1.58027],[-61.49043,-1.57444],[-61.54404,-1.52527],[-61.57154,-1.47777],[-61.60432,-1.44777],[-61.63487,-1.43361],[-61.71737,-1.40944],[-61.74015,-1.39166],[-61.76904,-1.38249],[-61.79738,-1.38027],[-61.81655,-1.39916],[-61.8393,-1.4007],[-61.85738,-1.38138],[-61.87071,-1.33943],[-61.86932,-1.32193],[-61.83848,-1.25805],[-61.84931,-1.19832],[-61.8807,-1.12638],[-61.87431,-1.09832],[-61.86125,-1.08082],[-61.8582,-1.05693],[-61.88903,-0.99999],[-61.86903,-0.93137],[-61.88264,-0.8961],[-61.88153,-0.87749],[-61.8743,-0.85998],[-61.8543,-0.83998],[-61.84736,-0.82137],[-61.84791,-0.79748],[-61.86097,-0.76526],[-61.86708,-0.72359],[-61.80873,-0.60303],[-61.81123,-0.56276],[-61.82151,-0.54304],[-61.82429,-0.52554],[-61.81817,-0.50387],[-61.80151,-0.47387],[-61.79956,-0.45609],[-61.80484,-0.44081],[-61.82956,-0.41415],[-61.8415,-0.39387],[-61.84567,-0.36276],[-61.82928,-0.3172],[-61.83733,-0.27137],[-61.83372,-0.24525],[-61.81761,-0.20053],[-61.80538,-0.13887],[-61.78927,-0.10081],[-61.79065,-0.09081],[-61.81288,-0.05442],[-61.81537,-0.03803],[-61.77287,0.05947],[-61.76926,0.09781],[-61.77703,0.16808],[-61.77148,0.23448],[-61.75814,0.31003],[-61.72869,0.36558],[-61.71063,0.43614],[-61.68313,0.49003],[-61.66868,0.50003],[-61.63535,0.53309],[-61.61201,0.61087],[-61.59228,0.62864],[-61.55867,0.67975],[-61.49978,0.72392],[-61.46839,0.76531],[-61.43616,0.82003],[-61.42366,0.87031],[-61.37504,0.92586],[-61.36227,0.96197],[-61.32365,0.99364],[-61.3167,0.99559],[-61.30615,0.98587],[-61.2817,0.97725],[-61.26365,0.9792],[-61.25948,0.96642],[-61.25226,0.96948],[-61.23393,1.00003],[-61.22114,1.00114],[-61.20226,0.97836],[-61.1917,0.95031],[-61.18698,0.95003],[-61.1867,0.96003],[-61.17309,0.96197],[-61.1742,0.9542],[-61.16226,0.95781],[-61.15615,0.95447],[-61.15559,0.94059],[-61.14892,0.93642],[-61.14254,0.95225],[-61.12726,0.9442],[-61.1192,0.95753],[-61.12698,0.95836],[-61.1292,0.96392],[-61.10781,0.96336],[-61.11448,0.9692],[-61.10976,0.97642],[-61.11392,0.98281],[-61.10559,0.99087],[-61.09948,0.98642],[-61.08809,0.99781],[-61.08503,1.00225],[-61.09003,1.00503],[-61.08836,1.01003],[-61.07836,1.01614],[-61.06697,1.00975],[-61.06281,1.01225],[-61.06864,1.02031],[-61.05725,1.02753],[-61.06475,1.03614],[-61.04475,1.04808],[-61.04919,1.05809],[-61.03642,1.07058],[-61.04308,1.08114],[-61.03947,1.08781],[-61.02169,1.08448],[-61.02003,1.10087],[-61.0153,1.10336],[-61.01114,1.08475],[-61.00224,1.08975],[-60.99086,1.08308],[-60.98447,1.09281],[-60.97391,1.08503],[-60.9603,1.08892],[-60.94808,1.08281],[-60.9428,1.07253],[-60.92363,1.07392],[-60.91141,1.09364],[-60.9053,1.09531],[-60.91058,1.10114],[-60.90419,1.12114],[-60.88446,1.13059],[-60.85141,1.10308],[-60.84168,1.09059],[-60.84002,1.07642],[-60.81891,1.06308],[-60.82058,1.03975],[-60.81558,1.03114],[-60.82252,1.00669],[-60.81947,1.00003],[-60.8078,0.98003],[-60.79558,0.97753],[-60.77891,0.95891],[-60.77447,0.94113],[-60.76474,0.9353],[-60.7553,0.93975],[-60.72919,0.93475],[-60.72585,0.92141],[-60.73141,0.90697],[-60.74113,0.90308],[-60.73225,0.89697],[-60.72919,0.88114],[-60.72363,0.88169],[-60.71808,0.86835],[-60.71308,0.86753],[-60.71336,0.87974],[-60.7053,0.87058],[-60.6903,0.88391],[-60.6878,0.87308],[-60.68113,0.87502],[-60.68502,0.87669],[-60.68363,0.88447],[-60.68141,0.87669],[-60.67669,0.88641],[-60.66835,0.87919],[-60.6603,0.89225],[-60.65419,0.89114],[-60.65002,0.90335],[-60.63502,0.89641],[-60.63058,0.90086],[-60.61891,0.89752],[-60.61113,0.90419],[-60.60196,0.90475],[-60.60418,0.9103],[-60.5964,0.92058],[-60.60169,0.9253],[-60.6014,0.9328],[-60.59252,0.92391],[-60.58307,0.9328],[-60.56807,0.93641],[-60.5728,0.94391],[-60.56057,0.93947],[-60.55363,0.95558],[-60.56029,0.95558],[-60.54224,0.96614],[-60.54446,0.9703],[-60.53779,0.9753],[-60.54084,0.98558],[-60.53529,0.99308],[-60.52196,0.98613],[-60.51307,0.99058],[-60.50918,1.02613],[-60.49723,1.04002],[-60.48168,1.04613],[-60.48001,1.05947],[-60.46362,1.0703],[-60.46667,1.08169],[-60.45195,1.08085],[-60.45028,1.09835],[-60.44417,1.0978],[-60.4325,1.10697],[-60.42612,1.10641],[-60.42306,1.10002],[-60.41695,1.10224],[-60.41473,1.12391],[-60.39917,1.13197],[-60.37556,1.13974],[-60.35667,1.1303],[-60.34917,1.1378],[-60.35166,1.14391],[-60.34333,1.13308],[-60.32389,1.13835],[-60.32333,1.1478],[-60.31944,1.14836],[-60.31278,1.13252],[-60.29972,1.13752],[-60.29416,1.12974],[-60.29916,1.12252],[-60.29083,1.11585],[-60.27611,1.13197],[-60.25194,1.12196],[-60.24444,1.12447],[-60.24444,1.12058],[-60.23722,1.1303],[-60.21388,1.12947],[-60.13111,1.10335],[-60.12222,1.09613],[-60.11444,1.10363],[-60.0811,1.10279],[-60.02693,1.12529],[-60.01332,1.12446],[-60.01193,1.11779],[-59.99165,1.12474],[-59.98165,1.13585]]]},"properties":{"CD_MUN":"1400605","NM_MUN":"São Luiz","SIGLA_UF":"RR"}},{"type":"Feature","geometry":{"type":"Polygon","coordinates":[[[-59.4119,1.55196],[-59.39523,1.55557],[-59.39356,1.53752],[-59.37801,1.52113],[-59.38106,1.50751],[-59.36411,1.51002],[-59.36134,1.50418],[-59.35801,1.51835],[-59.32911,1.51418],[-59.33162,1.50612],[-59.32078,1.48251],[-59.32718,1.4739],[-59.32551,1.46307],[-59.31328,1.46057],[-59.30968,1.4664],[-59.30162,1.46585],[-59.28634,1.45335],[-59.28301,1.44835],[-59.28773,1.43946],[-59.27412,1.41807],[-59.28218,1.41084],[-59.27134,1.40695],[-59.25245,1.38862],[-59.23301,1.38668],[-59.22579,1.37779],[-59.2069,1.37168],[-59.20384,1.37723],[-59.18773,1.37557],[-59.17606,1.36085],[-59.16884,1.35695],[-59.16023,1.35945],[-59.14995,1.34862],[-59.13078,1.35279],[-59.11773,1.34306],[-59.10189,1.34862],[-59.08912,1.34668],[-59.08634,1.3389],[-59.07551,1.3314],[-59.05689,1.33501],[-59.04773,1.32306],[-59.02217,1.3314],[-59.01244,1.32417],[-58.993,1.32751],[-58.978,1.30195],[-58.96522,1.31278],[-58.91578,1.31584],[-58.92161,1.29028],[-58.898,1.27973],[-58.88605,1.26056],[-58.90384,1.25139],[-58.90384,1.24167],[-58.91134,1.23862],[-58.89467,1.22806],[-58.89471,0.26388],[-59.19158,0.26389],[-60.03725,0.2639],[-60.05836,0.16334],[-60.08614,0.14306],[-60.11559,0.13362],[-60.13726,0.10306],[-60.13559,0.09334],[-60.12282,0.0814],[-60.13587,0.06584],[-60.13392,0.05445],[-60.14254,0.03778],[-60.13782,0.02917],[-60.16004,0.01667],[-60.17032,0.00056],[-60.18449,0.0],[-60.39171,0.1614],[-60.39865,0.14251],[-60.4131,0.13223],[-60.41838,0.11584],[-60.43949,0.09807],[-60.45116,0.09168],[-60.48088,0.09418],[-60.51921,0.12834],[-60.53949,0.13807],[-60.57033,0.17307],[-60.57811,0.17613],[-60.59116,0.2064],[-60.60227,0.20946],[-60.61977,0.20418],[-60.62505,0.20973],[-60.64422,0.21251],[-60.66144,0.23112],[-60.6581,0.2364],[-60.66727,0.23863],[-60.65755,0.26057],[-60.64838,0.26585],[-60.6406,0.2789],[-60.64394,0.28418],[-60.65227,0.28196],[-60.66033,0.2878],[-60.66977,0.31029],[-60.66171,0.33474],[-60.66421,0.34696],[-60.65727,0.34335],[-60.65505,0.34946],[-60.66227,0.36335],[-60.66227,0.36752],[-60.65505,0.36585],[-60.65532,0.37057],[-60.66643,0.37168],[-60.66365,0.38279],[-60.65087,0.37863],[-60.62865,0.39307],[-60.62032,0.38918],[-60.58504,0.42474],[-60.5831,0.43418],[-60.57476,0.43613],[-60.57587,0.44696],[-60.56337,0.45057],[-60.53281,0.4889],[-60.52309,0.49252],[-60.51531,0.47974],[-60.51003,0.48307],[-60.49587,0.47835],[-60.48947,0.48585],[-60.49031,0.49418],[-60.48309,0.50002],[-60.4717,0.5139],[-60.4592,0.51752],[-60.45531,0.52612],[-60.44614,0.52418],[-60.4378,0.53946],[-60.42864,0.53335],[-60.41336,0.53779],[-60.4028,0.53252],[-60.40169,0.53891],[-60.39419,0.53613],[-60.38752,0.54029],[-60.36919,0.53252],[-60.35586,0.5389],[-60.34808,0.55779],[-60.33502,0.56001],[-60.30724,0.54446],[-60.29474,0.55724],[-60.28669,0.55724],[-60.28308,0.57613],[-60.27085,0.59418],[-60.25446,0.60001],[-60.24168,0.60085],[-60.23502,0.58502],[-60.2278,0.58362],[-60.22502,0.59002],[-60.21641,0.59057],[-60.22113,0.57779],[-60.22919,0.57112],[-60.22669,0.56363],[-60.19641,0.56585],[-60.18863,0.5714],[-60.18363,0.56362],[-60.16335,0.56751],[-60.15558,0.56112],[-60.15168,0.57418],[-60.12391,0.57974],[-60.12418,0.58696],[-60.11418,0.58529],[-60.09251,0.60446],[-60.08112,0.60057],[-60.07668,0.60834],[-60.06946,0.60974],[-60.07029,0.6439],[-60.08001,0.6739],[-60.06362,0.68279],[-60.06556,0.69529],[-60.05473,0.74057],[-60.06112,0.75307],[-60.04584,0.79529],[-60.05417,0.80807],[-60.05528,0.83335],[-60.06139,0.83779],[-60.05306,0.85307],[-60.05611,0.87001],[-60.04944,0.88168],[-60.04944,0.89974],[-60.02833,0.9164],[-60.01805,0.94029],[-60.02111,0.95335],[-60.01805,0.95891],[-59.98277,0.96918],[-59.97499,0.98918],[-59.98027,1.00002],[-59.98165,1.13585],[-59.97415,1.13974],[-59.96498,1.17196],[-59.95943,1.17891],[-59.94554,1.17641],[-59.95054,1.18446],[-59.93832,1.19279],[-59.9336,1.1889],[-59.92582,1.19446],[-59.91304,1.19141],[-59.90859,1.20002],[-59.89582,1.2028],[-59.88943,1.19724],[-59.8797,1.2028],[-59.87748,1.21307],[-59.86665,1.18807],[-59.86082,1.18724],[-59.84859,1.19974],[-59.84054,1.20085],[-59.8422,1.20863],[-59.83387,1.21613],[-59.82331,1.25668],[-59.8047,1.25529],[-59.80553,1.26419],[-59.7847,1.26557],[-59.77886,1.27502],[-59.78081,1.28251],[-59.78359,1.27835],[-59.78609,1.28418],[-59.77886,1.31446],[-59.79275,1.32974],[-59.78525,1.33363],[-59.78997,1.33919],[-59.78275,1.35474],[-59.7783,1.35558],[-59.78164,1.35585],[-59.77969,1.36307],[-59.77136,1.36668],[-59.7758,1.37279],[-59.77164,1.37668],[-59.77802,1.38113],[-59.77358,1.38863],[-59.77969,1.39418],[-59.78024,1.40668],[-59.78691,1.41446],[-59.79358,1.41252],[-59.79163,1.43224],[-59.81691,1.45169],[-59.81469,1.47391],[-59.82024,1.48002],[-59.81858,1.4903],[-59.80274,1.50946],[-59.81385,1.53169],[-59.80747,1.5328],[-59.80469,1.52836],[-59.79635,1.53474],[-59.78996,1.55919],[-59.76663,1.56391],[-59.76496,1.57974],[-59.77524,1.59197],[-59.76385,1.60669],[-59.71857,1.61085],[-59.70774,1.60474],[-59.66718,1.62557],[-59.65913,1.62196],[-59.66135,1.61029],[-59.64718,1.6078],[-59.64468,1.61446],[-59.62968,1.62446],[-59.6144,1.62697],[-59.59495,1.60946],[-59.58773,1.61169],[-59.51829,1.5903],[-59.49967,1.59363],[-59.48662,1.59668],[-59.48023,1.59252],[-59.46495,1.57252],[-59.46578,1.55974],[-59.45551,1.55835],[-59.4469,1.54613],[-59.4119,1.55196]]]},"properties":{"CD_MUN":"1400506","NM_MUN":"São João da Baliza","SIGLA_UF":"RR"}},{"type":"Feature","geometry":{"type":"Polygon","coordinates":[[[-60.71734,5.19605],[-60.7354,5.2023],[-60.72234,5.22035],[-60.70845,5.21897],[-60.69623,5.22924],[-60.67762,5.23258],[-60.65901,5.2273],[-60.64984,5.23063],[-60.62401,5.21563],[-60.61373,5.21869],[-60.60262,5.21563],[-60.59651,5.22091],[-60.59123,5.21785],[-60.58956,5.20785],[-60.56845,5.19619],[-60.54484,5.19452],[-60.53873,5.20313],[-60.52622,5.20841],[-60.46261,5.19952],[-60.45094,5.20341],[-60.44567,5.18452],[-60.43344,5.18174],[-60.41789,5.19424],[-60.41261,5.21396],[-60.40428,5.21146],[-60.38316,5.22229],[-60.37039,5.21507],[-60.36622,5.20479],[-60.35511,5.21007],[-60.34483,5.20507],[-60.319,5.20813],[-60.31261,5.2109],[-60.30344,5.22702],[-60.2701,5.2348],[-60.26316,5.25146],[-60.2451,5.2523],[-60.23427,5.26313],[-60.21149,5.27229],[-60.20121,5.26702],[-60.19232,5.25341],[-60.19427,5.23868],[-60.17149,5.22701],[-60.1351,5.24952],[-60.13177,5.22535],[-60.10593,5.19451],[-60.09483,5.14118],[-60.07288,5.13924],[-60.0651,5.12812],[-60.05927,5.12701],[-60.05205,5.1109],[-60.04677,5.11229],[-60.02594,5.09284],[-59.99588,5.08494],[-60.00252,5.07357],[-59.99683,5.06693],[-60.00726,5.05935],[-59.99493,5.04892],[-60.00347,5.02428],[-59.98927,4.98701],[-59.98871,4.9709],[-59.99511,4.9609],[-59.99011,4.94757],[-59.99455,4.9459],[-59.99316,4.93256],[-59.99955,4.92395],[-60.00705,4.90701],[-60.01622,4.84229],[-60.029,4.82479],[-60.03289,4.8109],[-60.02761,4.80534],[-60.03595,4.79923],[-60.039,4.78395],[-60.02623,4.7734],[-60.03039,4.75923],[-60.02845,4.73868],[-60.04262,4.71756],[-60.02929,4.7009],[-60.0779,4.64895],[-60.07984,4.64145],[-60.07429,4.63312],[-60.07873,4.62172],[-60.07429,4.60895],[-60.10124,4.59562],[-60.10874,4.60117],[-60.11652,4.59562],[-60.12763,4.59617],[-60.13457,4.58812],[-60.1268,4.56895],[-60.14152,4.57117],[-60.13985,4.55617],[-60.14902,4.55784],[-60.15652,4.5659],[-60.16402,4.54867],[-60.15735,4.53923],[-60.16319,4.51172],[-60.15819,4.50423],[-60.10402,4.50145],[-60.10152,4.50673],[-60.10763,4.51812],[-60.09069,4.52367],[-60.0868,4.51672],[-60.08902,4.50895],[-60.07541,4.51701],[-60.06763,4.512],[-60.07013,4.49422],[-60.04485,4.49561],[-60.03346,4.49117],[-60.02318,4.49533],[-60.01791,4.49034],[-60.00263,4.49645],[-59.99854,4.48913],[-59.9854,4.48089],[-59.97629,4.4825],[-59.97179,4.47672],[-59.96874,4.50339],[-59.93845,4.49089],[-59.93346,4.4945],[-59.93151,4.48811],[-59.92179,4.48505],[-59.92512,4.47617],[-59.90846,4.47339],[-59.91151,4.46311],[-59.90401,4.45478],[-59.89457,4.47172],[-59.87846,4.47172],[-59.87067,4.48394],[-59.87207,4.47422],[-59.85957,4.467],[-59.86512,4.46422],[-59.86734,4.45534],[-59.8579,4.44867],[-59.84929,4.45228],[-59.83984,4.4495],[-59.83068,4.45505],[-59.82762,4.44783],[-59.81123,4.44561],[-59.80401,4.45117],[-59.8029,4.46367],[-59.79429,4.46506],[-59.79345,4.44617],[-59.77873,4.447],[-59.77901,4.43839],[-59.76512,4.43755],[-59.75151,4.41978],[-59.73484,4.42033],[-59.71956,4.40561],[-59.71901,4.39561],[-59.69567,4.3795],[-59.68345,4.38339],[-59.67317,4.37644],[-59.67262,4.37061],[-59.68207,4.36339],[-59.67512,4.34672],[-59.67762,4.34088],[-59.68985,4.33422],[-59.70179,4.31922],[-59.70207,4.30366],[-59.7154,4.30367],[-59.73096,4.28478],[-59.72624,4.27894],[-59.72846,4.27172],[-59.71485,4.27422],[-59.70707,4.26839],[-59.73568,4.2345],[-59.73096,4.22533],[-59.73152,4.20894],[-59.72013,4.19005],[-59.72457,4.18255],[-59.70985,4.16505],[-59.67985,4.147],[-59.64207,4.14644],[-59.61568,4.13283],[-59.64875,4.07088],[-59.63819,4.0681],[-59.62736,4.05421],[-59.61402,4.05421],[-59.61374,4.03893],[-59.59707,4.03032],[-59.59596,4.0181],[-59.60735,4.02032],[-59.60875,4.01671],[-59.59902,4.00949],[-59.58958,4.01977],[-59.58708,4.01255],[-59.59291,4.00005],[-59.58902,3.99505],[-59.57819,4.00421],[-59.57402,4.00199],[-59.57846,3.99755],[-59.57235,3.98783],[-59.58596,3.97755],[-59.58485,3.97005],[-59.57013,3.96949],[-59.56708,3.96505],[-59.55763,3.97894],[-59.54513,3.97921],[-59.54374,3.97282],[-59.52541,3.96755],[-59.51958,3.95477],[-59.52208,3.95171],[-59.51541,3.94449],[-59.52652,3.93838],[-59.52764,3.92421],[-59.53819,3.93255],[-59.54291,3.9306],[-59.54097,3.9231],[-59.54736,3.91976],[-59.56402,3.92005],[-59.56736,3.89088],[-59.57708,3.90226],[-59.57569,3.8906],[-59.58986,3.88921],[-59.59375,3.88421],[-59.59264,3.86032],[-59.58403,3.85754],[-59.58931,3.85227],[-59.58709,3.83588],[-59.57792,3.83199],[-59.57847,3.81671],[-59.58431,3.82338],[-59.59042,3.81588],[-59.59792,3.81476],[-59.59403,3.80727],[-59.59792,3.79449],[-59.60847,3.80449],[-59.62903,3.78477],[-59.63264,3.78838],[-59.62764,3.79922],[-59.63959,3.78504],[-59.64764,3.7881],[-59.6657,3.78116],[-59.66876,3.7656],[-59.68015,3.75755],[-59.67209,3.75338],[-59.67459,3.74588],[-59.66348,3.73393],[-59.6707,3.72893],[-59.66237,3.71643],[-59.66765,3.70338],[-59.67987,3.69643],[-59.6882,3.69921],[-59.69321,3.68866],[-59.70376,3.68949],[-59.71876,3.67449],[-59.72321,3.66338],[-59.74293,3.65976],[-59.75488,3.6481],[-59.7596,3.63254],[-59.76849,3.63282],[-59.76376,3.62588],[-59.77376,3.62588],[-59.79015,3.61699],[-59.8146,3.6206],[-59.81515,3.61115],[-59.82127,3.61421],[-59.8496,3.60504],[-59.8571,3.58199],[-59.86544,3.5781],[-59.85794,3.57088],[-59.87099,3.56366],[-59.88488,3.56421],[-59.9046,3.58671],[-59.9221,3.57894],[-59.93627,3.55921],[-59.94267,3.56088],[-59.94905,3.57144],[-59.95739,3.5731],[-59.97433,3.55699],[-59.99894,3.55316],[-60.02655,3.54032],[-60.036,3.5281],[-60.0535,3.52644],[-60.08239,3.49393],[-60.11323,3.48116],[-60.13573,3.46283],[-60.15517,3.4631],[-60.17518,3.44588],[-60.1849,3.41755],[-60.19629,3.40727],[-60.24157,3.39421],[-60.29435,3.38755],[-60.32046,3.36949],[-60.3249,3.39644],[-60.32074,3.41505],[-60.30157,3.4245],[-60.29629,3.43033],[-60.29851,3.43949],[-60.2849,3.45005],[-60.28824,3.46449],[-60.30101,3.47588],[-60.29851,3.48699],[-60.30962,3.49532],[-60.3099,3.50866],[-60.32018,3.50672],[-60.32906,3.51533],[-60.32935,3.52005],[-60.32073,3.52144],[-60.32157,3.53005],[-60.33684,3.54589],[-60.35212,3.552],[-60.35796,3.54227],[-60.37962,3.55477],[-60.37573,3.5631],[-60.37907,3.56699],[-60.3949,3.57311],[-60.40768,3.56894],[-60.42156,3.61255],[-60.43018,3.61255],[-60.42462,3.62144],[-60.4374,3.627],[-60.43156,3.64922],[-60.45712,3.67283],[-60.45406,3.68338],[-60.46073,3.69672],[-60.47101,3.69505],[-60.47462,3.70144],[-60.47073,3.72339],[-60.4799,3.72923],[-60.48601,3.74339],[-60.50601,3.73478],[-60.48851,3.75145],[-60.49295,3.77311],[-60.48462,3.77089],[-60.47962,3.77533],[-60.49073,3.80117],[-60.4874,3.80506],[-60.48156,3.79867],[-60.48517,3.82784],[-60.47628,3.84006],[-60.481,3.85422],[-60.49906,3.87395],[-60.48906,3.88589],[-60.48683,3.90061],[-60.50044,3.91117],[-60.49961,3.91589],[-60.48767,3.92395],[-60.49239,3.93867],[-60.48378,3.95506],[-60.45738,3.95533],[-60.4596,3.99173],[-60.45072,3.99811],[-60.44794,4.01533],[-60.43988,4.02255],[-60.43766,4.03311],[-60.44905,4.05089],[-60.44655,4.0845],[-60.45627,4.09117],[-60.46377,4.11145],[-60.47349,4.11506],[-60.47127,4.12867],[-60.48155,4.132],[-60.48877,4.14367],[-60.5046,4.13339],[-60.49877,4.14756],[-60.50932,4.15534],[-60.5146,4.16701],[-60.53516,4.16756],[-60.53905,4.17312],[-60.53543,4.18256],[-60.54099,4.20728],[-60.50821,4.23395],[-60.50987,4.24062],[-60.52654,4.25173],[-60.55932,4.26284],[-60.56682,4.2759],[-60.56321,4.28617],[-60.51321,4.31673],[-60.45904,4.36367],[-60.37348,4.3959],[-60.36264,4.4209],[-60.32264,4.45034],[-60.32403,4.45617],[-60.29736,4.46867],[-60.27153,4.49506],[-60.29152,4.50534],[-60.29236,4.52312],[-60.30264,4.53507],[-60.30875,4.56145],[-60.30402,4.57062],[-60.3068,4.58951],[-60.32402,4.59507],[-60.34235,4.58229],[-60.38875,4.59812],[-60.40319,4.59089],[-60.42958,4.59284],[-60.43902,4.59785],[-60.44319,4.60757],[-60.45069,4.60562],[-60.46736,4.61257],[-60.47125,4.63701],[-60.48847,4.65229],[-60.48791,4.66951],[-60.47958,4.68673],[-60.48347,4.69507],[-60.47514,4.70285],[-60.47263,4.74285],[-60.46874,4.74396],[-60.4718,4.75007],[-60.46402,4.76618],[-60.46763,4.77507],[-60.46457,4.78646],[-60.47068,4.79118],[-60.45957,4.84701],[-60.46513,4.85063],[-60.46235,4.87452],[-60.47568,4.88646],[-60.4754,4.89368],[-60.4604,4.9109],[-60.45179,4.9359],[-60.45679,4.94646],[-60.45151,4.95618],[-60.46845,4.96507],[-60.4554,4.97563],[-60.46123,4.98868],[-60.45317,4.99285],[-60.44429,4.9884],[-60.43207,5.00007],[-60.43206,5.01229],[-60.42568,5.01507],[-60.43095,5.01702],[-60.42595,5.03035],[-60.41873,5.03813],[-60.40762,5.03951],[-60.40567,5.05423],[-60.4215,5.05618],[-60.42317,5.0609],[-60.40512,5.07646],[-60.40956,5.0784],[-60.40956,5.09285],[-60.39928,5.09841],[-60.40012,5.10868],[-60.419,5.11396],[-60.42789,5.11091],[-60.42234,5.11618],[-60.42178,5.12952],[-60.43261,5.12563],[-60.43789,5.13119],[-60.44289,5.12479],[-60.45262,5.13008],[-60.43845,5.14424],[-60.45317,5.15702],[-60.46095,5.15646],[-60.46983,5.1659],[-60.48289,5.16924],[-60.50095,5.1573],[-60.50678,5.16119],[-60.54262,5.15591],[-60.55067,5.14563],[-60.57123,5.14869],[-60.57651,5.15619],[-60.58234,5.14618],[-60.5904,5.14368],[-60.60234,5.14869],[-60.61123,5.16202],[-60.62623,5.16646],[-60.63345,5.18146],[-60.64623,5.18424],[-60.65373,5.17869],[-60.65901,5.18036],[-60.6629,5.19452],[-60.67262,5.20285],[-60.68068,5.20202],[-60.68234,5.21007],[-60.70012,5.1973],[-60.70984,5.2048],[-60.71734,5.19605]]]},"properties":{"CD_MUN":"1400407","NM_MUN":"Normandia","SIGLA_UF":"RR"}}]}