{"type":"FeatureCollection","features":[{"type":"Feature","geometry":{"type":"Polygon","coordinates":[[[-37.46215,-9.74986],[-37.42148,-9.76133],[-37.3962,-9.77705],[-37.34567,-9.79296],[-37.32175,-9.82081],[-37.29642,-9.82689],[-37.26039,-9.85349],[-37.24389,-9.88781],[-37.22545,-9.89946],[-37.23034,-9.91271],[-37.23275,-9.95937],[-37.25675,-9.95869],[-37.26125,-9.96698],[-37.26684,-9.96145],[-37.27134,-9.96513],[-37.26548,-9.99402],[-37.28521,-9.98973],[-37.28459,-10.00812],[-37.29215,-10.01558],[-37.30132,-10.00202],[-37.31059,-10.00395],[-37.3124,-10.00033],[-37.31684,-10.00963],[-37.33046,-10.01548],[-37.32704,-10.00965],[-37.33387,-10.00156],[-37.33096,-9.99475],[-37.33856,-9.98702],[-37.3434,-9.99988],[-37.35143,-9.99433],[-37.35515,-10.00415],[-37.3469,-10.00468],[-37.35093,-10.01479],[-37.36365,-10.01576],[-37.36651,-10.00663],[-37.37807,-10.00992],[-37.37193,-10.02091],[-37.37868,-10.0208],[-37.37509,-10.02555],[-37.38382,-10.03014],[-37.38207,-10.03789],[-37.39137,-10.04081],[-37.39374,-10.0493],[-37.39941,-10.04541],[-37.40052,-10.05257],[-37.40877,-10.05181],[-37.41899,-10.0614],[-37.46832,-10.02056],[-37.56694,-9.9986],[-37.58574,-10.0007],[-37.5956,-10.0221],[-37.60677,-10.01923],[-37.6146,-10.02551],[-37.63841,-10.01776],[-37.64708,-10.02206],[-37.65644,-10.01292],[-37.66516,-10.01475],[-37.67302,-10.02621],[-37.68297,-10.02806],[-37.70141,-10.01484],[-37.72144,-10.02632],[-37.73133,-10.02039],[-37.73781,-10.02966],[-37.75858,-10.02542],[-37.77397,-10.03273],[-37.80481,-10.03199],[-37.66411,-9.99966],[-37.65193,-9.99534],[-37.64024,-9.97901],[-37.60735,-9.96964],[-37.46215,-9.74986]]]},"properties":{"CD_MUN":"2805604","NM_MUN":"Porto da Folha","SIGLA_UF":"SE"}},{"type":"Feature","geometry":{"type":"Polygon","coordinates":[[[-38.20198,-10.70022],[-38.14915,-10.70407],[-38.08565,-10.71133],[-38.01576,-10.76161],[-37.99898,-10.76443],[-37.9717,-10.75465],[-37.97177,-10.78245],[-38.0053,-10.79162],[-38.02617,-10.80427],[-38.07764,-10.80595],[-38.12261,-10.82048],[-38.13352,-10.84056],[-38.1276,-10.85245],[-38.13567,-10.87555],[-38.14643,-10.88676],[-38.16386,-10.88762],[-38.19072,-10.92365],[-38.20522,-10.91789],[-38.20308,-10.90891],[-38.2081,-10.90238],[-38.2113,-10.90907],[-38.21541,-10.90591],[-38.22425,-10.91061],[-38.23893,-10.87],[-38.24341,-10.84755],[-38.23955,-10.82405],[-38.24807,-10.80211],[-38.23921,-10.76904],[-38.21779,-10.738],[-38.22315,-10.72427],[-38.22035,-10.71362],[-38.20198,-10.70022]]]},"properties":{"CD_MUN":"2805505","NM_MUN":"Poço Verde","SIGLA_UF":"SE"}},{"type":"Feature","geometry":{"type":"Polygon","coordinates":[[[-37.66507,-9.66662],[-37.65917,-9.67698],[-37.64992,-9.68847],[-37.57698,-9.73628],[-37.46215,-9.74986],[-37.60735,-9.96964],[-37.64024,-9.97901],[-37.65193,-9.99534],[-37.66411,-9.99966],[-37.80481,-10.03199],[-37.82297,-10.03611],[-37.81503,-10.02352],[-37.82319,-10.01695],[-37.82314,-10.00534],[-37.8318,-9.99939],[-37.87536,-9.97844],[-37.91245,-9.9769],[-37.92667,-9.966],[-37.93595,-9.96598],[-37.92497,-9.95412],[-37.91825,-9.93313],[-37.89638,-9.91344],[-37.88367,-9.91236],[-37.86764,-9.89933],[-37.86974,-9.84323],[-37.85905,-9.8006],[-37.85352,-9.79364],[-37.85346,-9.7796],[-37.84058,-9.76301],[-37.84255,-9.74774],[-37.83105,-9.70439],[-37.66507,-9.66662]]]},"properties":{"CD_MUN":"2805406","NM_MUN":"Poço Redondo","SIGLA_UF":"SE"}},{"type":"Feature","geometry":{"type":"Polygon","coordinates":[[[-37.69263,-11.30808],[-37.66793,-11.29278],[-37.60168,-11.3431],[-37.59266,-11.32696],[-37.57305,-11.32328],[-37.54885,-11.30496],[-37.53343,-11.30546],[-37.52466,-11.29953],[-37.50201,-11.30449],[-37.48707,-11.30173],[-37.46074,-11.31005],[-37.44757,-11.29338],[-37.44179,-11.29378],[-37.42487,-11.30782],[-37.4204,-11.30179],[-37.40671,-11.30101],[-37.39868,-11.31472],[-37.38473,-11.3187],[-37.37654,-11.34144],[-37.38657,-11.35433],[-37.38896,-11.37177],[-37.4071,-11.39219],[-37.40777,-11.42366],[-37.41932,-11.43019],[-37.43254,-11.42315],[-37.44224,-11.42524],[-37.45005,-11.44288],[-37.45774,-11.4419],[-37.46277,-11.45074],[-37.4678,-11.44612],[-37.47288,-11.45079],[-37.48177,-11.44844],[-37.48374,-11.44269],[-37.49452,-11.44158],[-37.50669,-11.41501],[-37.52427,-11.42292],[-37.53502,-11.41608],[-37.56194,-11.41418],[-37.60477,-11.39426],[-37.69263,-11.30808]]]},"properties":{"CD_MUN":"2806305","NM_MUN":"Santa Luzia do Itanhy","SIGLA_UF":"SE"}},{"type":"Feature","geometry":{"type":"Polygon","coordinates":[[[-37.52953,-10.99146],[-37.51905,-10.96147],[-37.45614,-10.97535],[-37.4273,-10.98778],[-37.42478,-11.00199],[-37.4135,-11.00817],[-37.40445,-11.03481],[-37.38822,-11.05352],[-37.43736,-11.08832],[-37.43776,-11.09694],[-37.43045,-11.10434],[-37.43117,-11.11744],[-37.43586,-11.12925],[-37.45773,-11.14623],[-37.54684,-11.16672],[-37.55554,-11.15421],[-37.54568,-11.15552],[-37.54198,-11.1426],[-37.55884,-11.13833],[-37.53703,-11.09859],[-37.52953,-10.99146]]]},"properties":{"CD_MUN":"2806206","NM_MUN":"Salgado","SIGLA_UF":"SE"}},{"type":"Feature","geometry":{"type":"Polygon","coordinates":[[[-37.07116,-10.61452],[-37.05697,-10.62253],[-37.03392,-10.62522],[-37.00936,-10.64118],[-37.00953,-10.67574],[-37.01231,-10.67926],[-37.00183,-10.68824],[-37.00395,-10.6957],[-36.99778,-10.70163],[-36.97333,-10.70166],[-36.97067,-10.70629],[-36.96339,-10.70342],[-36.9505,-10.71373],[-36.97917,-10.73886],[-36.99675,-10.73089],[-37.0107,-10.73211],[-37.0145,-10.72134],[-37.06787,-10.74795],[-37.05331,-10.70645],[-37.06956,-10.68652],[-37.08845,-10.68215],[-37.08944,-10.65429],[-37.09053,-10.64163],[-37.07233,-10.63838],[-37.07116,-10.61452]]]},"properties":{"CD_MUN":"2806107","NM_MUN":"Rosário do Catete","SIGLA_UF":"SE"}},{"type":"Feature","geometry":{"type":"Polygon","coordinates":[[[-37.54679,-10.46244],[-37.47359,-10.45989],[-37.41995,-10.40239],[-37.40144,-10.41779],[-37.36786,-10.45091],[-37.35931,-10.48245],[-37.34859,-10.49287],[-37.31903,-10.54138],[-37.33226,-10.54477],[-37.34425,-10.54042],[-37.36273,-10.54971],[-37.36509,-10.56122],[-37.3894,-10.57594],[-37.3934,-10.58352],[-37.42401,-10.57558],[-37.46112,-10.59557],[-37.47399,-10.56583],[-37.49982,-10.52936],[-37.5102,-10.50019],[-37.54679,-10.46244]]]},"properties":{"CD_MUN":"2806008","NM_MUN":"Ribeirópolis","SIGLA_UF":"SE"}},{"type":"Feature","geometry":{"type":"Polygon","coordinates":[[[-37.23301,-10.67212],[-37.19789,-10.67639],[-37.19573,-10.69264],[-37.20568,-10.70657],[-37.19848,-10.72102],[-37.2059,-10.72612],[-37.19118,-10.72873],[-37.17851,-10.71835],[-37.16673,-10.72797],[-37.17045,-10.73452],[-37.16017,-10.73574],[-37.16048,-10.75018],[-37.21654,-10.7646],[-37.22215,-10.75947],[-37.24418,-10.77887],[-37.2796,-10.74117],[-37.28115,-10.72118],[-37.27604,-10.71193],[-37.26415,-10.71337],[-37.25937,-10.70254],[-37.24798,-10.70953],[-37.23648,-10.70824],[-37.22956,-10.70205],[-37.2232,-10.706],[-37.23137,-10.69657],[-37.22687,-10.68386],[-37.23301,-10.67212]]]},"properties":{"CD_MUN":"2805901","NM_MUN":"Riachuelo","SIGLA_UF":"SE"}},{"type":"Feature","geometry":{"type":"Polygon","coordinates":[[[-37.6171,-10.71258],[-37.61102,-10.71406],[-37.60824,-10.70705],[-37.60449,-10.71049],[-37.60539,-10.69553],[-37.59505,-10.69646],[-37.58619,-10.71076],[-37.58733,-10.72201],[-37.55955,-10.7576],[-37.56486,-10.77018],[-37.55577,-10.78128],[-37.527,-10.78408],[-37.52916,-10.79011],[-37.51874,-10.79293],[-37.52161,-10.79932],[-37.5153,-10.79815],[-37.52305,-10.80838],[-37.5188,-10.8126],[-37.52299,-10.82],[-37.50567,-10.82424],[-37.49719,-10.83132],[-37.50833,-10.83437],[-37.50924,-10.8424],[-37.51505,-10.84488],[-37.53689,-10.84101],[-37.54236,-10.83533],[-37.54983,-10.83993],[-37.56386,-10.83505],[-37.57083,-10.83963],[-37.59391,-10.82595],[-37.59933,-10.81475],[-37.60891,-10.81204],[-37.61363,-10.79729],[-37.60002,-10.77859],[-37.61911,-10.7484],[-37.63211,-10.7488],[-37.62752,-10.74101],[-37.63071,-10.72732],[-37.6171,-10.71258]]]},"properties":{"CD_MUN":"2806800","NM_MUN":"São Domingos","SIGLA_UF":"SE"}},{"type":"Feature","geometry":{"type":"Polygon","coordinates":[[[-37.31779,-10.83108],[-37.30719,-10.83278],[-37.29904,-10.84641],[-37.29019,-10.85155],[-37.27299,-10.85148],[-37.26491,-10.84601],[-37.24807,-10.8549],[-37.23932,-10.86795],[-37.21818,-10.87774],[-37.2069,-10.87506],[-37.19732,-10.88969],[-37.19004,-10.88557],[-37.18349,-10.89651],[-37.17265,-10.90014],[-37.17154,-10.91291],[-37.16124,-10.92435],[-37.14576,-10.92831],[-37.11932,-10.91678],[-37.10168,-10.91743],[-37.09874,-10.94377],[-37.14047,-11.06277],[-37.14666,-11.05596],[-37.15608,-11.05556],[-37.17166,-11.07534],[-37.1636,-11.09442],[-37.16527,-11.10518],[-37.21869,-11.07458],[-37.22749,-11.04034],[-37.28491,-11.02781],[-37.28452,-11.02346],[-37.29627,-11.01563],[-37.30435,-10.98521],[-37.32827,-10.97587],[-37.32388,-10.97093],[-37.3325,-10.96305],[-37.33785,-10.94614],[-37.3293,-10.93549],[-37.31779,-10.83108]]]},"properties":{"CD_MUN":"2806701","NM_MUN":"São Cristóvão","SIGLA_UF":"SE"}},{"type":"Feature","geometry":{"type":"Polygon","coordinates":[[[-36.91719,-10.68667],[-36.91225,-10.68805],[-36.90761,-10.68231],[-36.90247,-10.68597],[-36.90064,-10.70336],[-36.89252,-10.70529],[-36.88455,-10.70107],[-36.88827,-10.69607],[-36.88011,-10.69579],[-36.87544,-10.70979],[-36.87013,-10.70774],[-36.86761,-10.73297],[-36.87241,-10.74104],[-36.87569,-10.73834],[-36.8805,-10.7424],[-36.90533,-10.77782],[-36.92842,-10.79044],[-36.93764,-10.78738],[-36.93786,-10.79484],[-36.96003,-10.80868],[-36.96667,-10.82696],[-36.958,-10.82397],[-36.95828,-10.83073],[-36.9879,-10.83575],[-36.98164,-10.84753],[-36.99106,-10.85245],[-36.99554,-10.8487],[-36.99795,-10.86136],[-37.00498,-10.85868],[-37.00804,-10.86364],[-37.01506,-10.86366],[-37.0127,-10.88238],[-37.01857,-10.88378],[-37.0184,-10.87721],[-37.02893,-10.8846],[-37.03854,-10.88432],[-37.03481,-10.86834],[-37.0274,-10.84949],[-37.02909,-10.84145],[-37.04234,-10.82756],[-37.06153,-10.82276],[-37.0847,-10.79782],[-37.087,-10.78297],[-37.07192,-10.77692],[-37.06728,-10.76768],[-37.06787,-10.74795],[-37.0145,-10.72134],[-37.0107,-10.73211],[-36.99675,-10.73089],[-36.97917,-10.73886],[-36.9505,-10.71373],[-36.93511,-10.69708],[-36.91719,-10.68667]]]},"properties":{"CD_MUN":"2806602","NM_MUN":"Santo Amaro das Brotas","SIGLA_UF":"SE"}},{"type":"Feature","geometry":{"type":"Polygon","coordinates":[[[-37.29556,-10.60243],[-37.28059,-10.58788],[-37.26506,-10.58727],[-37.2472,-10.59529],[-37.217,-10.61168],[-37.21598,-10.61695],[-37.20328,-10.62488],[-37.20234,-10.62853],[-37.19198,-10.62751],[-37.17992,-10.64273],[-37.18273,-10.64965],[-37.17903,-10.65387],[-37.18828,-10.65841],[-37.19167,-10.67744],[-37.19789,-10.67639],[-37.23301,-10.67212],[-37.23742,-10.66447],[-37.24554,-10.6621],[-37.24526,-10.64929],[-37.25753,-10.64988],[-37.26695,-10.63511],[-37.27751,-10.63389],[-37.28081,-10.6183],[-37.28842,-10.61585],[-37.29556,-10.60243]]]},"properties":{"CD_MUN":"2806503","NM_MUN":"Santa Rosa de Lima","SIGLA_UF":"SE"}},{"type":"Feature","geometry":{"type":"Polygon","coordinates":[[[-36.6806,-10.27167],[-36.66089,-10.2666],[-36.64561,-10.25277],[-36.63028,-10.25309],[-36.59269,-10.28646],[-36.58547,-10.30415],[-36.6519,-10.32258],[-36.6806,-10.27167]]]},"properties":{"CD_MUN":"2806404","NM_MUN":"Santana do São Francisco","SIGLA_UF":"SE"}},{"type":"Feature","geometry":{"type":"Polygon","coordinates":[[[-36.88036,-10.14504],[-36.86542,-10.1586],[-36.84969,-10.16076],[-36.84667,-10.17662],[-36.84656,-10.18342],[-36.85947,-10.17821],[-36.85467,-10.19394],[-36.86456,-10.20938],[-36.86562,-10.2298],[-36.89056,-10.23245],[-36.93234,-10.22382],[-36.94948,-10.22763],[-36.88036,-10.14504]]]},"properties":{"CD_MUN":"2807303","NM_MUN":"Telha","SIGLA_UF":"SE"}},{"type":"Feature","geometry":{"type":"Polygon","coordinates":[[[-37.2052,-10.60765],[-37.19372,-10.59221],[-37.17319,-10.5772],[-37.14166,-10.50058],[-37.13711,-10.46994],[-37.11422,-10.48315],[-37.10074,-10.51066],[-37.10283,-10.5253],[-37.06447,-10.52976],[-37.07258,-10.56231],[-37.06869,-10.57403],[-37.07656,-10.58564],[-37.06505,-10.5934],[-37.06428,-10.6049],[-37.07116,-10.61452],[-37.07233,-10.63838],[-37.09053,-10.64163],[-37.09264,-10.63841],[-37.09747,-10.64424],[-37.13289,-10.65109],[-37.14553,-10.63636],[-37.14214,-10.6256],[-37.14828,-10.62495],[-37.14906,-10.62941],[-37.1572,-10.62701],[-37.14934,-10.62064],[-37.17567,-10.62549],[-37.2052,-10.60765]]]},"properties":{"CD_MUN":"2807204","NM_MUN":"Siriri","SIGLA_UF":"SE"}},{"type":"Feature","geometry":{"type":"Polygon","coordinates":[[[-37.82002,-10.58648],[-37.80585,-10.60151],[-37.79992,-10.59206],[-37.76799,-10.60552],[-37.76361,-10.62099],[-37.74902,-10.62167],[-37.73811,-10.6336],[-37.72233,-10.63341],[-37.72361,-10.64188],[-37.71594,-10.64551],[-37.7053,-10.6338],[-37.70102,-10.64262],[-37.6928,-10.63992],[-37.71355,-10.66873],[-37.7078,-10.67229],[-37.70394,-10.66929],[-37.70258,-10.67769],[-37.69188,-10.68556],[-37.68194,-10.68531],[-37.68525,-10.69278],[-37.67303,-10.70432],[-37.68339,-10.7069],[-37.68336,-10.7107],[-37.67586,-10.71656],[-37.67858,-10.72713],[-37.7053,-10.74129],[-37.70845,-10.75542],[-37.76056,-10.82303],[-37.80314,-10.83777],[-37.8129,-10.86938],[-37.82748,-10.85897],[-37.85231,-10.86672],[-37.87565,-10.86405],[-37.93784,-10.88156],[-37.93907,-10.88851],[-37.97202,-10.88033],[-37.97177,-10.78245],[-37.9717,-10.75465],[-37.81272,-10.69098],[-37.82002,-10.58648]]]},"properties":{"CD_MUN":"2807105","NM_MUN":"Simão Dias","SIGLA_UF":"SE"}},{"type":"Feature","geometry":{"type":"Polygon","coordinates":[[[-37.408,-10.29647],[-37.40336,-10.27786],[-37.40397,-10.25551],[-37.40886,-10.24589],[-37.39758,-10.25574],[-37.38983,-10.27365],[-37.39519,-10.28919],[-37.38483,-10.29826],[-37.38461,-10.30798],[-37.3908,-10.31731],[-37.38036,-10.31524],[-37.37275,-10.32988],[-37.36277,-10.32847],[-37.35555,-10.33405],[-37.35833,-10.34421],[-37.34894,-10.34649],[-37.34372,-10.36124],[-37.35253,-10.36313],[-37.35505,-10.36882],[-37.34906,-10.3707],[-37.3478,-10.38407],[-37.33986,-10.38416],[-37.34678,-10.40051],[-37.33317,-10.40055],[-37.33041,-10.41775],[-37.32311,-10.42082],[-37.33247,-10.42531],[-37.33133,-10.43083],[-37.31856,-10.4343],[-37.3065,-10.42565],[-37.30194,-10.43601],[-37.29167,-10.43521],[-37.29478,-10.44357],[-37.28714,-10.45355],[-37.28864,-10.46757],[-37.27994,-10.46189],[-37.27392,-10.46541],[-37.34859,-10.49287],[-37.35931,-10.48245],[-37.36786,-10.45091],[-37.40144,-10.41779],[-37.41247,-10.34619],[-37.40503,-10.31532],[-37.408,-10.29647]]]},"properties":{"CD_MUN":"2807006","NM_MUN":"São Miguel do Aleixo","SIGLA_UF":"SE"}},{"type":"Feature","geometry":{"type":"Polygon","coordinates":[[[-36.84612,-10.26295],[-36.83817,-10.29163],[-36.82142,-10.29855],[-36.82645,-10.32977],[-36.84028,-10.34327],[-36.84512,-10.3711],[-36.86337,-10.38638],[-36.89946,-10.38896],[-36.90462,-10.40432],[-36.91551,-10.39757],[-36.91809,-10.38936],[-36.9069,-10.35074],[-36.90523,-10.32555],[-36.8872,-10.30126],[-36.87562,-10.29823],[-36.84612,-10.26295]]]},"properties":{"CD_MUN":"2806909","NM_MUN":"São Francisco","SIGLA_UF":"SE"}},{"type":"Feature","geometry":{"type":"Polygon","coordinates":[[[-37.69263,-11.30808],[-37.60477,-11.39426],[-37.65028,-11.48408],[-37.65594,-11.47974],[-37.66078,-11.48555],[-37.67441,-11.47764],[-37.67817,-11.47177],[-37.67264,-11.45696],[-37.69406,-11.42427],[-37.7205,-11.40968],[-37.72217,-11.40142],[-37.7305,-11.40302],[-37.6976,-11.36149],[-37.69263,-11.30808]]]},"properties":{"CD_MUN":"2807600","NM_MUN":"Umbaúba","SIGLA_UF":"SE"}},{"type":"Feature","geometry":{"type":"Polygon","coordinates":[[[-38.03154,-11.35408],[-37.92494,-11.25611],[-37.91675,-11.26558],[-37.90461,-11.26469],[-37.89747,-11.27655],[-37.88413,-11.28125],[-37.87797,-11.28879],[-37.869,-11.28452],[-37.86033,-11.3008],[-37.84831,-11.29917],[-37.82733,-11.3211],[-37.81647,-11.32059],[-37.81361,-11.33237],[-37.79025,-11.34767],[-37.78328,-11.37305],[-37.7663,-11.38197],[-37.767,-11.39067],[-37.75925,-11.39527],[-37.762,-11.40447],[-37.74866,-11.40643],[-37.74825,-11.4018],[-37.74467,-11.41319],[-37.80559,-11.41358],[-37.85259,-11.4524],[-37.84976,-11.44078],[-37.86654,-11.44261],[-37.86789,-11.43726],[-37.8799,-11.43351],[-37.8652,-11.42914],[-37.87095,-11.42523],[-37.88256,-11.42568],[-37.89045,-11.43665],[-37.89928,-11.43762],[-37.90095,-11.42856],[-37.90592,-11.42741],[-37.90412,-11.41155],[-37.91142,-11.41074],[-37.91506,-11.40447],[-37.92834,-11.40348],[-37.92698,-11.41055],[-37.93434,-11.41515],[-37.93595,-11.42308],[-37.94301,-11.42371],[-37.94196,-11.41792],[-37.95464,-11.40871],[-37.95017,-11.40491],[-37.95228,-11.39586],[-37.96426,-11.40376],[-37.96678,-11.39197],[-37.99012,-11.39055],[-37.99987,-11.40077],[-38.02567,-11.36584],[-38.03154,-11.35408]]]},"properties":{"CD_MUN":"2807501","NM_MUN":"Tomar do Geru","SIGLA_UF":"SE"}},{"type":"Feature","geometry":{"type":"Polygon","coordinates":[[[-37.97177,-10.78245],[-37.97202,-10.88033],[-37.95671,-10.93356],[-37.94365,-10.94804],[-37.93254,-10.97145],[-37.94105,-10.98497],[-37.94504,-10.98116],[-37.94821,-10.98535],[-37.94649,-10.99707],[-37.93094,-11.00339],[-37.92924,-11.01252],[-37.89632,-11.04093],[-37.83988,-11.10637],[-37.79024,-11.13386],[-37.84244,-11.15871],[-37.87469,-11.18715],[-37.86369,-11.21041],[-37.86686,-11.22256],[-37.88572,-11.21085],[-37.91789,-11.23944],[-37.92494,-11.25611],[-38.03154,-11.35408],[-38.0419,-11.34971],[-38.03692,-11.32829],[-38.03809,-11.30402],[-38.02981,-11.29565],[-38.02975,-11.2828],[-38.00939,-11.27468],[-38.00558,-11.26117],[-37.99681,-11.28467],[-37.98995,-11.27888],[-37.99211,-11.2741],[-37.98534,-11.27243],[-37.98459,-11.26808],[-37.99419,-11.25986],[-37.98253,-11.24933],[-37.98876,-11.24844],[-37.99186,-11.24214],[-37.98492,-11.23729],[-37.99019,-11.22908],[-37.97608,-11.22211],[-37.97945,-11.19954],[-37.97231,-11.1964],[-37.99556,-11.19231],[-38.00783,-11.20074],[-38.04197,-11.17299],[-38.06709,-11.16818],[-38.07484,-11.16005],[-38.08142,-11.14442],[-38.07497,-11.11468],[-38.09747,-11.08688],[-38.08944,-11.05765],[-38.10163,-11.05086],[-38.10685,-11.01866],[-38.12305,-11.00969],[-38.13417,-11.01898],[-38.14542,-11.01315],[-38.15483,-10.98199],[-38.18113,-10.96684],[-38.19022,-10.94516],[-38.18425,-10.92971],[-38.19072,-10.92365],[-38.16386,-10.88762],[-38.14643,-10.88676],[-38.13567,-10.87555],[-38.1276,-10.85245],[-38.13352,-10.84056],[-38.12261,-10.82048],[-38.07764,-10.80595],[-38.02617,-10.80427],[-38.0053,-10.79162],[-37.97177,-10.78245]]]},"properties":{"CD_MUN":"2807402","NM_MUN":"Tobias Barreto","SIGLA_UF":"SE"}},{"type":"Feature","geometry":{"type":"Polygon","coordinates":[[[-36.91642,-10.13336],[-36.88036,-10.14504],[-36.94948,-10.22763],[-36.94189,-10.12095],[-36.93836,-10.11811],[-36.92225,-10.13389],[-36.91642,-10.13336]]]},"properties":{"CD_MUN":"2800100","NM_MUN":"Amparo de São Francisco","SIGLA_UF":"SE"}},{"type":"Feature","geometry":{"type":"Polygon","coordinates":[[[-37.62262,-11.06687],[-37.52953,-10.99146],[-37.53703,-11.09859],[-37.55884,-11.13833],[-37.54198,-11.1426],[-37.54568,-11.15552],[-37.55554,-11.15421],[-37.54684,-11.16672],[-37.59654,-11.20338],[-37.63663,-11.20027],[-37.67113,-11.18389],[-37.67879,-11.18999],[-37.69152,-11.17101],[-37.70524,-11.19315],[-37.7041,-11.17812],[-37.66643,-11.13968],[-37.63351,-11.08172],[-37.62306,-11.08784],[-37.61209,-11.07883],[-37.61537,-11.06874],[-37.62262,-11.06687]]]},"properties":{"CD_MUN":"2800670","NM_MUN":"Boquim","SIGLA_UF":"SE"}},{"type":"Feature","geometry":{"type":"Polygon","coordinates":[[[-36.48647,-10.42299],[-36.46458,-10.40862],[-36.45369,-10.40782],[-36.42686,-10.43306],[-36.39803,-10.49831],[-36.39058,-10.50124],[-36.39816,-10.50828],[-36.39992,-10.51936],[-36.43497,-10.52118],[-36.4902,-10.53763],[-36.4934,-10.53343],[-36.4862,-10.53022],[-36.4955,-10.51111],[-36.58909,-10.50257],[-36.53058,-10.46677],[-36.51336,-10.44632],[-36.47994,-10.43618],[-36.48647,-10.42299]]]},"properties":{"CD_MUN":"2800704","NM_MUN":"Brejo Grande","SIGLA_UF":"SE"}},{"type":"Feature","geometry":{"type":"Polygon","coordinates":[[[-36.87241,-10.74104],[-36.85433,-10.74374],[-36.92978,-10.8232],[-37.02234,-10.9441],[-37.03515,-10.95387],[-37.04256,-10.90113],[-37.03854,-10.88432],[-37.02893,-10.8846],[-37.0184,-10.87721],[-37.01857,-10.88378],[-37.0127,-10.88238],[-37.01506,-10.86366],[-37.00804,-10.86364],[-37.00498,-10.85868],[-36.99795,-10.86136],[-36.99554,-10.8487],[-36.99106,-10.85245],[-36.98164,-10.84753],[-36.9879,-10.83575],[-36.95828,-10.83073],[-36.958,-10.82397],[-36.96667,-10.82696],[-36.96003,-10.80868],[-36.93786,-10.79484],[-36.93764,-10.78738],[-36.92842,-10.79044],[-36.90533,-10.77782],[-36.8805,-10.7424],[-36.87569,-10.73834],[-36.87241,-10.74104]]]},"properties":{"CD_MUN":"2800605","NM_MUN":"Barra dos Coqueiros","SIGLA_UF":"SE"}},{"type":"Feature","geometry":{"type":"Polygon","coordinates":[[[-37.33565,-10.72085],[-37.31032,-10.73261],[-37.31751,-10.73773],[-37.31335,-10.74139],[-37.29743,-10.73226],[-37.29868,-10.72823],[-37.29173,-10.72231],[-37.28115,-10.72118],[-37.2796,-10.74117],[-37.24418,-10.77887],[-37.31779,-10.83108],[-37.40213,-10.82435],[-37.36079,-10.73848],[-37.33565,-10.72085]]]},"properties":{"CD_MUN":"2800506","NM_MUN":"Areia Branca","SIGLA_UF":"SE"}},{"type":"Feature","geometry":{"type":"Polygon","coordinates":[[[-37.59654,-11.20338],[-37.54684,-11.16672],[-37.55704,-11.17931],[-37.55365,-11.18518],[-37.54785,-11.18204],[-37.54812,-11.18658],[-37.53465,-11.19074],[-37.53773,-11.2191],[-37.53287,-11.22809],[-37.52543,-11.22781],[-37.53032,-11.23659],[-37.52437,-11.24442],[-37.52676,-11.25434],[-37.51474,-11.26545],[-37.51549,-11.27094],[-37.50665,-11.27372],[-37.52462,-11.29318],[-37.52466,-11.29953],[-37.53343,-11.30546],[-37.54885,-11.30496],[-37.57305,-11.32328],[-37.59266,-11.32696],[-37.60168,-11.3431],[-37.66793,-11.29278],[-37.69263,-11.30808],[-37.66305,-11.25368],[-37.65071,-11.25505],[-37.65455,-11.24497],[-37.64738,-11.22005],[-37.60682,-11.21743],[-37.5976,-11.21142],[-37.59654,-11.20338]]]},"properties":{"CD_MUN":"2800407","NM_MUN":"Arauá","SIGLA_UF":"SE"}},{"type":"Feature","geometry":{"type":"Polygon","coordinates":[[[-37.03481,-10.86834],[-37.03854,-10.88432],[-37.04256,-10.90113],[-37.03515,-10.95387],[-37.03918,-10.96044],[-37.0334,-10.97113],[-37.06205,-11.00644],[-37.1383,-11.12314],[-37.15152,-11.13021],[-37.15441,-11.14428],[-37.16438,-11.15011],[-37.16124,-11.11914],[-37.16527,-11.10518],[-37.1636,-11.09442],[-37.17166,-11.07534],[-37.15608,-11.05556],[-37.14666,-11.05596],[-37.14047,-11.06277],[-37.09874,-10.94377],[-37.10168,-10.91743],[-37.10496,-10.88979],[-37.0956,-10.88395],[-37.10226,-10.8758],[-37.09234,-10.87386],[-37.08068,-10.86244],[-37.07193,-10.86599],[-37.06657,-10.8769],[-37.05376,-10.86312],[-37.03481,-10.86834]]]},"properties":{"CD_MUN":"2800308","NM_MUN":"Aracaju","SIGLA_UF":"SE"}},{"type":"Feature","geometry":{"type":"Polygon","coordinates":[[[-36.94948,-10.22763],[-36.93234,-10.22382],[-36.94062,-10.26681],[-36.93034,-10.27697],[-36.93662,-10.28593],[-37.00215,-10.30585],[-37.01743,-10.33122],[-37.03735,-10.326],[-37.05026,-10.34053],[-37.06552,-10.3297],[-37.08421,-10.34622],[-37.08935,-10.35685],[-37.09796,-10.3588],[-37.10207,-10.36885],[-37.11082,-10.37268],[-37.11893,-10.3677],[-37.12477,-10.37533],[-37.13493,-10.35814],[-37.14379,-10.3609],[-37.14374,-10.36719],[-37.14718,-10.36185],[-37.15749,-10.36603],[-37.15877,-10.3608],[-37.15374,-10.35797],[-37.1571,-10.34925],[-37.15246,-10.34604],[-37.16332,-10.33886],[-37.16468,-10.33141],[-37.1496,-10.32225],[-37.1551,-10.30623],[-37.14702,-10.30294],[-37.15063,-10.28762],[-37.1384,-10.27447],[-37.13893,-10.26047],[-37.14952,-10.25069],[-37.1496,-10.16438],[-37.01431,-10.19047],[-36.99634,-10.17871],[-36.99517,-10.19403],[-36.9624,-10.20927],[-36.95584,-10.23344],[-36.94948,-10.22763]]]},"properties":{"CD_MUN":"2800209","NM_MUN":"Aquidabã","SIGLA_UF":"SE"}},{"type":"Feature","geometry":{"type":"Polygon","coordinates":[[[-38.00235,-9.51511],[-37.97637,-9.53174],[-37.95788,-9.53346],[-37.92232,-9.54798],[-37.89329,-9.53931],[-37.88585,-9.54964],[-37.84126,-9.57939],[-37.83257,-9.59458],[-37.81743,-9.59324],[-37.80604,-9.61041],[-37.79012,-9.62313],[-37.7841,-9.63857],[-37.74657,-9.62585],[-37.71495,-9.63021],[-37.68359,-9.64549],[-37.66759,-9.65894],[-37.66507,-9.66662],[-37.83105,-9.70439],[-37.84255,-9.74774],[-37.84058,-9.76301],[-37.85346,-9.7796],[-37.85352,-9.79364],[-37.85905,-9.8006],[-37.86974,-9.84323],[-37.86764,-9.89933],[-37.88367,-9.91236],[-37.89638,-9.91344],[-37.91825,-9.93313],[-37.92497,-9.95412],[-37.93595,-9.96598],[-37.9522,-9.971],[-37.96962,-9.96306],[-37.98667,-9.93224],[-37.987,-9.92188],[-37.99678,-9.91668],[-37.97247,-9.85319],[-37.97375,-9.83012],[-37.9655,-9.81993],[-37.96758,-9.81509],[-37.98016,-9.81526],[-38.01347,-9.7905],[-38.01936,-9.77767],[-38.02727,-9.77611],[-38.037,-9.7495],[-38.03578,-9.73878],[-38.04249,-9.71872],[-38.04166,-9.68928],[-38.02405,-9.68292],[-38.02124,-9.66683],[-38.00607,-9.65177],[-37.99605,-9.64992],[-37.99157,-9.65696],[-37.98641,-9.64776],[-37.99124,-9.63746],[-38.00808,-9.63633],[-38.00874,-9.63131],[-38.03435,-9.61268],[-38.03957,-9.60262],[-38.03813,-9.58324],[-38.0406,-9.57407],[-38.03113,-9.56852],[-38.02707,-9.5756],[-38.01874,-9.5644],[-38.02151,-9.54116],[-38.01359,-9.53587],[-38.00235,-9.51511]]]},"properties":{"CD_MUN":"2801207","NM_MUN":"Canindé de São Francisco","SIGLA_UF":"SE"}},{"type":"Feature","geometry":{"type":"Polygon","coordinates":[[[-36.95414,-10.06435],[-36.95141,-10.0749],[-36.91642,-10.13336],[-36.92225,-10.13389],[-36.93836,-10.11811],[-36.94189,-10.12095],[-36.94948,-10.22763],[-36.95584,-10.23344],[-36.9624,-10.20927],[-36.99517,-10.19403],[-36.99634,-10.17871],[-37.01431,-10.19047],[-37.1496,-10.16438],[-37.06428,-10.13955],[-37.05562,-10.12799],[-37.04729,-10.12572],[-37.04014,-10.13805],[-37.03198,-10.13272],[-37.01787,-10.10649],[-36.98967,-10.08378],[-36.95414,-10.06435]]]},"properties":{"CD_MUN":"2801108","NM_MUN":"Canhoba","SIGLA_UF":"SE"}},{"type":"Feature","geometry":{"type":"Polygon","coordinates":[[[-37.59505,-10.69646],[-37.58388,-10.68103],[-37.57227,-10.69078],[-37.54683,-10.699],[-37.53372,-10.69537],[-37.53149,-10.68897],[-37.49977,-10.68972],[-37.49913,-10.69386],[-37.48068,-10.70099],[-37.47393,-10.71031],[-37.46382,-10.71304],[-37.45554,-10.72445],[-37.44896,-10.74864],[-37.44821,-10.76733],[-37.45194,-10.77051],[-37.44032,-10.78146],[-37.44219,-10.78504],[-37.4458,-10.78215],[-37.44888,-10.78905],[-37.42974,-10.8306],[-37.40213,-10.82435],[-37.45678,-10.88161],[-37.46541,-10.85716],[-37.47124,-10.85229],[-37.47811,-10.85976],[-37.48216,-10.85844],[-37.4796,-10.84118],[-37.48908,-10.83639],[-37.49055,-10.8307],[-37.49719,-10.83132],[-37.50567,-10.82424],[-37.52299,-10.82],[-37.5188,-10.8126],[-37.52305,-10.80838],[-37.5153,-10.79815],[-37.52161,-10.79932],[-37.51874,-10.79293],[-37.52916,-10.79011],[-37.527,-10.78408],[-37.55577,-10.78128],[-37.56486,-10.77018],[-37.55955,-10.7576],[-37.58733,-10.72201],[-37.58619,-10.71076],[-37.59505,-10.69646]]]},"properties":{"CD_MUN":"2801009","NM_MUN":"Campo do Brito","SIGLA_UF":"SE"}},{"type":"Feature","geometry":{"type":"Polygon","coordinates":[[[-37.74467,-11.41319],[-37.7305,-11.40302],[-37.72217,-11.40142],[-37.7205,-11.40968],[-37.69406,-11.42427],[-37.67264,-11.45696],[-37.67817,-11.47177],[-37.67441,-11.47764],[-37.66078,-11.48555],[-37.65594,-11.47974],[-37.65028,-11.48408],[-37.64558,-11.49753],[-37.6492,-11.49981],[-37.63789,-11.50084],[-37.63084,-11.51813],[-37.6432,-11.52412],[-37.65037,-11.51717],[-37.65628,-11.53286],[-37.66306,-11.53231],[-37.66156,-11.54607],[-37.6725,-11.56855],[-37.68306,-11.56216],[-37.68728,-11.56647],[-37.69928,-11.56248],[-37.69545,-11.5456],[-37.70287,-11.54043],[-37.71087,-11.5522],[-37.7267,-11.55302],[-37.73015,-11.53806],[-37.74711,-11.53842],[-37.75859,-11.5253],[-37.76934,-11.53167],[-37.77431,-11.52456],[-37.78984,-11.52441],[-37.7942,-11.51855],[-37.79915,-11.52145],[-37.81168,-11.51569],[-37.81792,-11.50391],[-37.80731,-11.49702],[-37.83898,-11.48176],[-37.84714,-11.46989],[-37.86201,-11.46649],[-37.8622,-11.45268],[-37.85259,-11.4524],[-37.80559,-11.41358],[-37.74467,-11.41319]]]},"properties":{"CD_MUN":"2801702","NM_MUN":"Cristinápolis","SIGLA_UF":"SE"}},{"type":"Feature","geometry":{"type":"Polygon","coordinates":[[[-36.93234,-10.22382],[-36.89056,-10.23245],[-36.86562,-10.2298],[-36.84612,-10.26295],[-36.87562,-10.29823],[-36.8872,-10.30126],[-36.90523,-10.32555],[-36.9042,-10.3095],[-36.92923,-10.31121],[-36.93662,-10.28593],[-36.93034,-10.27697],[-36.94062,-10.26681],[-36.93234,-10.22382]]]},"properties":{"CD_MUN":"2801603","NM_MUN":"Cedro de São João","SIGLA_UF":"SE"}},{"type":"Feature","geometry":{"type":"Polygon","coordinates":[[[-37.00953,-10.67574],[-37.00936,-10.64118],[-36.9845,-10.64096],[-36.97333,-10.63518],[-36.95967,-10.6519],[-36.93336,-10.65493],[-36.92319,-10.67761],[-36.90858,-10.67894],[-36.90761,-10.68231],[-36.91225,-10.68805],[-36.91719,-10.68667],[-36.99961,-10.68353],[-37.00953,-10.67574]]]},"properties":{"CD_MUN":"2801504","NM_MUN":"Carmópolis","SIGLA_UF":"SE"}},{"type":"Feature","geometry":{"type":"Polygon","coordinates":[[[-37.762,-10.19667],[-37.7544,-10.19959],[-37.72045,-10.18814],[-37.70978,-10.19043],[-37.70028,-10.19477],[-37.70025,-10.20155],[-37.69284,-10.20868],[-37.6882,-10.2049],[-37.68151,-10.21033],[-37.67364,-10.20751],[-37.62811,-10.24278],[-37.61745,-10.24155],[-37.61222,-10.25003],[-37.60678,-10.23959],[-37.59603,-10.25219],[-37.591,-10.24946],[-37.61264,-10.27923],[-37.58653,-10.32284],[-37.57467,-10.37038],[-37.62567,-10.41359],[-37.67432,-10.48615],[-37.72063,-10.50785],[-37.72999,-10.51646],[-37.77163,-10.50664],[-37.77899,-10.5122],[-37.79588,-10.50899],[-37.81452,-10.51727],[-37.81213,-10.50858],[-37.82015,-10.4847],[-37.85799,-10.43025],[-37.85005,-10.41527],[-37.85257,-10.40655],[-37.83735,-10.40149],[-37.84182,-10.39891],[-37.84015,-10.38879],[-37.83268,-10.38539],[-37.83846,-10.37903],[-37.8291,-10.37503],[-37.82318,-10.37805],[-37.81212,-10.36625],[-37.78699,-10.35483],[-37.78307,-10.34626],[-37.76162,-10.34447],[-37.73395,-10.33286],[-37.762,-10.19667]]]},"properties":{"CD_MUN":"2801405","NM_MUN":"Carira","SIGLA_UF":"SE"}},{"type":"Feature","geometry":{"type":"Polygon","coordinates":[[[-37.12477,-10.37533],[-37.11893,-10.3677],[-37.11082,-10.37268],[-37.10207,-10.36885],[-37.09796,-10.3588],[-37.08935,-10.35685],[-37.08421,-10.34622],[-37.06552,-10.3297],[-37.05026,-10.34053],[-37.03735,-10.326],[-37.01743,-10.33122],[-37.00876,-10.33439],[-36.99768,-10.36017],[-36.98071,-10.37404],[-36.98863,-10.38658],[-36.98374,-10.39685],[-36.98543,-10.40533],[-36.96979,-10.42641],[-36.96502,-10.4426],[-36.93782,-10.45151],[-36.95946,-10.52164],[-36.97657,-10.52915],[-36.97393,-10.54179],[-37.00936,-10.64118],[-37.03392,-10.62522],[-37.05697,-10.62253],[-37.07116,-10.61452],[-37.06428,-10.6049],[-37.06505,-10.5934],[-37.07656,-10.58564],[-37.06869,-10.57403],[-37.07258,-10.56231],[-37.06447,-10.52976],[-37.10283,-10.5253],[-37.10074,-10.51066],[-37.11422,-10.48315],[-37.13711,-10.46994],[-37.13435,-10.45537],[-37.09663,-10.42354],[-37.11144,-10.42416],[-37.10805,-10.41814],[-37.11746,-10.40929],[-37.10627,-10.39979],[-37.11838,-10.39977],[-37.11794,-10.38817],[-37.13138,-10.384],[-37.12477,-10.37533]]]},"properties":{"CD_MUN":"2801306","NM_MUN":"Capela","SIGLA_UF":"SE"}},{"type":"Feature","geometry":{"type":"Polygon","coordinates":[[[-37.32944,-10.21031],[-37.26113,-10.23786],[-37.29155,-10.25621],[-37.26482,-10.26562],[-37.24183,-10.28729],[-37.24424,-10.29851],[-37.27363,-10.30589],[-37.27693,-10.32221],[-37.27355,-10.326],[-37.30141,-10.33482],[-37.30836,-10.3476],[-37.31735,-10.35161],[-37.31586,-10.35843],[-37.32519,-10.36557],[-37.32522,-10.37482],[-37.34394,-10.37968],[-37.33986,-10.38416],[-37.3478,-10.38407],[-37.34906,-10.3707],[-37.35505,-10.36882],[-37.35253,-10.36313],[-37.34372,-10.36124],[-37.34894,-10.34649],[-37.35833,-10.34421],[-37.35555,-10.33405],[-37.36277,-10.32847],[-37.37275,-10.32988],[-37.38036,-10.31524],[-37.3908,-10.31731],[-37.38461,-10.30798],[-37.38483,-10.29826],[-37.39519,-10.28919],[-37.38983,-10.27365],[-37.39758,-10.25574],[-37.3828,-10.21751],[-37.32944,-10.21031]]]},"properties":{"CD_MUN":"2802205","NM_MUN":"Feira Nova","SIGLA_UF":"SE"}},{"type":"Feature","geometry":{"type":"Polygon","coordinates":[[[-37.54684,-11.16672],[-37.45773,-11.14623],[-37.43586,-11.12925],[-37.43117,-11.11744],[-37.43045,-11.10434],[-37.43776,-11.09694],[-37.43736,-11.08832],[-37.38822,-11.05352],[-37.37783,-11.07016],[-37.36605,-11.07461],[-37.34966,-11.09173],[-37.33536,-11.11331],[-37.33914,-11.1248],[-37.33067,-11.14156],[-37.33814,-11.15249],[-37.33692,-11.16647],[-37.34472,-11.17566],[-37.34765,-11.19481],[-37.33756,-11.20971],[-37.32937,-11.21345],[-37.32953,-11.23343],[-37.31154,-11.24965],[-37.25562,-11.28254],[-37.29323,-11.35054],[-37.31835,-11.42802],[-37.32601,-11.42926],[-37.33918,-11.44144],[-37.35955,-11.44501],[-37.37208,-11.45469],[-37.39743,-11.43745],[-37.40777,-11.42366],[-37.4071,-11.39219],[-37.38896,-11.37177],[-37.38657,-11.35433],[-37.37654,-11.34144],[-37.38473,-11.3187],[-37.39868,-11.31472],[-37.40671,-11.30101],[-37.4204,-11.30179],[-37.42487,-11.30782],[-37.44179,-11.29378],[-37.44757,-11.29338],[-37.46074,-11.31005],[-37.48707,-11.30173],[-37.50201,-11.30449],[-37.52466,-11.29953],[-37.52462,-11.29318],[-37.50665,-11.27372],[-37.51549,-11.27094],[-37.51474,-11.26545],[-37.52676,-11.25434],[-37.52437,-11.24442],[-37.53032,-11.23659],[-37.52543,-11.22781],[-37.53287,-11.22809],[-37.53773,-11.2191],[-37.53465,-11.19074],[-37.54812,-11.18658],[-37.54785,-11.18204],[-37.55365,-11.18518],[-37.55704,-11.17931],[-37.54684,-11.16672]]]},"properties":{"CD_MUN":"2802106","NM_MUN":"Estância","SIGLA_UF":"SE"}},{"type":"Feature","geometry":{"type":"Polygon","coordinates":[[[-37.20328,-10.62488],[-37.2052,-10.60765],[-37.17567,-10.62549],[-37.14934,-10.62064],[-37.1572,-10.62701],[-37.14906,-10.62941],[-37.14828,-10.62495],[-37.14214,-10.6256],[-37.14553,-10.63636],[-37.13289,-10.65109],[-37.09747,-10.64424],[-37.09264,-10.63841],[-37.09053,-10.64163],[-37.08944,-10.65429],[-37.11573,-10.68479],[-37.12142,-10.70144],[-37.14437,-10.7112],[-37.14525,-10.71948],[-37.15354,-10.72759],[-37.14962,-10.73768],[-37.16048,-10.75018],[-37.16017,-10.73574],[-37.17045,-10.73452],[-37.16673,-10.72797],[-37.17851,-10.71835],[-37.19118,-10.72873],[-37.2059,-10.72612],[-37.19848,-10.72102],[-37.20568,-10.70657],[-37.19573,-10.69264],[-37.19789,-10.67639],[-37.19167,-10.67744],[-37.18828,-10.65841],[-37.17903,-10.65387],[-37.18273,-10.64965],[-37.17992,-10.64273],[-37.19198,-10.62751],[-37.20234,-10.62853],[-37.20328,-10.62488]]]},"properties":{"CD_MUN":"2802007","NM_MUN":"Divina Pastora","SIGLA_UF":"SE"}},{"type":"Feature","geometry":{"type":"Polygon","coordinates":[[[-37.24424,-10.29851],[-37.24183,-10.28729],[-37.26482,-10.26562],[-37.29155,-10.25621],[-37.26113,-10.23786],[-37.24058,-10.26554],[-37.22727,-10.29421],[-37.21541,-10.30032],[-37.20971,-10.29498],[-37.18505,-10.30161],[-37.16982,-10.31638],[-37.17213,-10.32353],[-37.16641,-10.32787],[-37.17369,-10.33363],[-37.17199,-10.33885],[-37.16332,-10.33886],[-37.15246,-10.34604],[-37.1571,-10.34925],[-37.15374,-10.35797],[-37.15877,-10.3608],[-37.15749,-10.36603],[-37.14718,-10.36185],[-37.14374,-10.36719],[-37.14379,-10.3609],[-37.13493,-10.35814],[-37.12477,-10.37533],[-37.13138,-10.384],[-37.11794,-10.38817],[-37.11838,-10.39977],[-37.10627,-10.39979],[-37.11746,-10.40929],[-37.12085,-10.40535],[-37.12816,-10.41065],[-37.13221,-10.40618],[-37.14374,-10.4186],[-37.1613,-10.41068],[-37.16833,-10.41674],[-37.17808,-10.41649],[-37.18905,-10.40655],[-37.20744,-10.40115],[-37.23991,-10.35852],[-37.23935,-10.34008],[-37.24905,-10.32118],[-37.24424,-10.29851]]]},"properties":{"CD_MUN":"2801900","NM_MUN":"Cumbe","SIGLA_UF":"SE"}},{"type":"Feature","geometry":{"type":"Polygon","coordinates":[[[-36.56217,-10.41256],[-36.54553,-10.42665],[-36.53681,-10.42146],[-36.51167,-10.41963],[-36.52078,-10.42907],[-36.5077,-10.43249],[-36.48647,-10.42299],[-36.47994,-10.43618],[-36.51336,-10.44632],[-36.53058,-10.46677],[-36.58909,-10.50257],[-36.5987,-10.49775],[-36.59392,-10.48388],[-36.6017,-10.47929],[-36.59759,-10.4504],[-36.59317,-10.44629],[-36.58839,-10.45204],[-36.58378,-10.43908],[-36.57686,-10.43912],[-36.58298,-10.43372],[-36.58131,-10.42963],[-36.57239,-10.43543],[-36.56778,-10.43332],[-36.56217,-10.41256]]]},"properties":{"CD_MUN":"2802700","NM_MUN":"Ilha das Flores","SIGLA_UF":"SE"}},{"type":"Feature","geometry":{"type":"Polygon","coordinates":[[[-37.31438,-10.15294],[-37.28443,-10.15671],[-37.28382,-10.16932],[-37.27935,-10.17147],[-37.27204,-10.16494],[-37.26154,-10.16381],[-37.26176,-10.15585],[-37.24957,-10.15465],[-37.24615,-10.14756],[-37.23807,-10.1596],[-37.23012,-10.15903],[-37.22751,-10.15315],[-37.22276,-10.15793],[-37.22012,-10.1361],[-37.20365,-10.14778],[-37.2071,-10.15046],[-37.2041,-10.15872],[-37.19512,-10.16373],[-37.19046,-10.15889],[-37.18049,-10.17471],[-37.1496,-10.16438],[-37.14952,-10.25069],[-37.13893,-10.26047],[-37.1384,-10.27447],[-37.15063,-10.28762],[-37.14702,-10.30294],[-37.1551,-10.30623],[-37.1496,-10.32225],[-37.16468,-10.33141],[-37.16332,-10.33886],[-37.17199,-10.33885],[-37.17369,-10.33363],[-37.16641,-10.32787],[-37.17213,-10.32353],[-37.16982,-10.31638],[-37.18505,-10.30161],[-37.20971,-10.29498],[-37.21541,-10.30032],[-37.22727,-10.29421],[-37.24058,-10.26554],[-37.26113,-10.23786],[-37.32944,-10.21031],[-37.31438,-10.15294]]]},"properties":{"CD_MUN":"2802601","NM_MUN":"Gracho Cardoso","SIGLA_UF":"SE"}},{"type":"Feature","geometry":{"type":"Polygon","coordinates":[[[-37.00953,-10.67574],[-36.99961,-10.68353],[-36.91719,-10.68667],[-36.93511,-10.69708],[-36.9505,-10.71373],[-36.96339,-10.70342],[-36.97067,-10.70629],[-36.97333,-10.70166],[-36.99778,-10.70163],[-37.00395,-10.6957],[-37.00183,-10.68824],[-37.01231,-10.67926],[-37.00953,-10.67574]]]},"properties":{"CD_MUN":"2802502","NM_MUN":"General Maynard","SIGLA_UF":"SE"}},{"type":"Feature","geometry":{"type":"Polygon","coordinates":[[[-37.22545,-9.89946],[-37.1547,-9.89843],[-37.13186,-9.91412],[-37.04728,-9.98816],[-37.03186,-9.98861],[-36.99517,-9.97629],[-36.96389,-9.99411],[-36.95608,-10.02002],[-37.02033,-10.04511],[-37.02739,-10.05768],[-37.05964,-10.05585],[-37.19353,-10.02758],[-37.18817,-10.03083],[-37.1869,-10.04009],[-37.19198,-10.05089],[-37.1854,-10.05583],[-37.19678,-10.06952],[-37.18648,-10.06686],[-37.18442,-10.07427],[-37.19481,-10.07466],[-37.19923,-10.08135],[-37.21179,-10.07756],[-37.20501,-10.09627],[-37.21776,-10.09018],[-37.21495,-10.10391],[-37.22915,-10.10182],[-37.23226,-10.11418],[-37.2304,-10.11751],[-37.21993,-10.11393],[-37.2266,-10.11934],[-37.22015,-10.12332],[-37.22012,-10.1361],[-37.22276,-10.15793],[-37.22751,-10.15315],[-37.23012,-10.15903],[-37.23807,-10.1596],[-37.24615,-10.14756],[-37.24957,-10.15465],[-37.26176,-10.15585],[-37.26154,-10.16381],[-37.27204,-10.16494],[-37.27935,-10.17147],[-37.28382,-10.16932],[-37.28443,-10.15671],[-37.31438,-10.15294],[-37.34504,-10.15548],[-37.33341,-10.11849],[-37.35432,-10.11095],[-37.41899,-10.0614],[-37.40877,-10.05181],[-37.40052,-10.05257],[-37.39941,-10.04541],[-37.39374,-10.0493],[-37.39137,-10.04081],[-37.38207,-10.03789],[-37.38382,-10.03014],[-37.37509,-10.02555],[-37.37868,-10.0208],[-37.37193,-10.02091],[-37.37807,-10.00992],[-37.36651,-10.00663],[-37.36365,-10.01576],[-37.35093,-10.01479],[-37.3469,-10.00468],[-37.35515,-10.00415],[-37.35143,-9.99433],[-37.3434,-9.99988],[-37.33856,-9.98702],[-37.33096,-9.99475],[-37.33387,-10.00156],[-37.32704,-10.00965],[-37.33046,-10.01548],[-37.31684,-10.00963],[-37.3124,-10.00033],[-37.31059,-10.00395],[-37.30132,-10.00202],[-37.29215,-10.01558],[-37.28459,-10.00812],[-37.28521,-9.98973],[-37.26548,-9.99402],[-37.27134,-9.96513],[-37.26684,-9.96145],[-37.26125,-9.96698],[-37.25675,-9.95869],[-37.23275,-9.95937],[-37.23034,-9.91271],[-37.22545,-9.89946]]]},"properties":{"CD_MUN":"2802403","NM_MUN":"Gararu","SIGLA_UF":"SE"}},{"type":"Feature","geometry":{"type":"Polygon","coordinates":[[[-37.57467,-10.37038],[-37.55756,-10.44324],[-37.54679,-10.46244],[-37.5102,-10.50019],[-37.49982,-10.52936],[-37.47399,-10.56583],[-37.50807,-10.62616],[-37.52949,-10.64571],[-37.55771,-10.61956],[-37.64177,-10.60687],[-37.69529,-10.53969],[-37.72063,-10.50785],[-37.67432,-10.48615],[-37.62567,-10.41359],[-37.57467,-10.37038]]]},"properties":{"CD_MUN":"2802304","NM_MUN":"Frei Paulo","SIGLA_UF":"SE"}},{"type":"Feature","geometry":{"type":"Polygon","coordinates":[[[-37.40213,-10.82435],[-37.31779,-10.83108],[-37.3293,-10.93549],[-37.33785,-10.94614],[-37.3325,-10.96305],[-37.32388,-10.97093],[-37.32827,-10.97587],[-37.30435,-10.98521],[-37.29627,-11.01563],[-37.28452,-11.02346],[-37.28491,-11.02781],[-37.22749,-11.04034],[-37.21869,-11.07458],[-37.16527,-11.10518],[-37.16124,-11.11914],[-37.16438,-11.15011],[-37.17141,-11.15964],[-37.16042,-11.16567],[-37.16003,-11.17177],[-37.25562,-11.28254],[-37.31154,-11.24965],[-37.32953,-11.23343],[-37.32937,-11.21345],[-37.33756,-11.20971],[-37.34765,-11.19481],[-37.34472,-11.17566],[-37.33692,-11.16647],[-37.33814,-11.15249],[-37.33067,-11.14156],[-37.33914,-11.1248],[-37.33536,-11.11331],[-37.34966,-11.09173],[-37.36605,-11.07461],[-37.37783,-11.07016],[-37.38822,-11.05352],[-37.40445,-11.03481],[-37.4135,-11.00817],[-37.42478,-11.00199],[-37.4273,-10.98778],[-37.45614,-10.97535],[-37.50155,-10.90126],[-37.49236,-10.90376],[-37.47338,-10.89229],[-37.46458,-10.89195],[-37.45678,-10.88161],[-37.40213,-10.82435]]]},"properties":{"CD_MUN":"2803203","NM_MUN":"Itaporanga d'Ajuda","SIGLA_UF":"SE"}},{"type":"Feature","geometry":{"type":"Polygon","coordinates":[[[-37.22012,-10.1361],[-37.22015,-10.12332],[-37.2266,-10.11934],[-37.21993,-10.11393],[-37.2304,-10.11751],[-37.23226,-10.11418],[-37.22915,-10.10182],[-37.21495,-10.10391],[-37.21776,-10.09018],[-37.20501,-10.09627],[-37.21179,-10.07756],[-37.19923,-10.08135],[-37.19481,-10.07466],[-37.18442,-10.07427],[-37.18648,-10.06686],[-37.19678,-10.06952],[-37.1854,-10.05583],[-37.19198,-10.05089],[-37.1869,-10.04009],[-37.18817,-10.03083],[-37.19353,-10.02758],[-37.05964,-10.05585],[-37.06773,-10.09008],[-37.06428,-10.13955],[-37.1496,-10.16438],[-37.18049,-10.17471],[-37.19046,-10.15889],[-37.19512,-10.16373],[-37.2041,-10.15872],[-37.2071,-10.15046],[-37.20365,-10.14778],[-37.22012,-10.1361]]]},"properties":{"CD_MUN":"2803104","NM_MUN":"Itabi","SIGLA_UF":"SE"}},{"type":"Feature","geometry":{"type":"Polygon","coordinates":[[[-37.79024,-11.13386],[-37.77204,-11.13262],[-37.76229,-11.14253],[-37.74793,-11.14796],[-37.74652,-11.15362],[-37.73932,-11.1499],[-37.72885,-11.16462],[-37.71818,-11.16326],[-37.7041,-11.17812],[-37.70524,-11.19315],[-37.69688,-11.1992],[-37.69593,-11.20566],[-37.69035,-11.20471],[-37.67863,-11.23372],[-37.66477,-11.24621],[-37.66305,-11.25368],[-37.69263,-11.30808],[-37.6976,-11.36149],[-37.7305,-11.40302],[-37.74467,-11.41319],[-37.74825,-11.4018],[-37.74866,-11.40643],[-37.762,-11.40447],[-37.75925,-11.39527],[-37.767,-11.39067],[-37.7663,-11.38197],[-37.78328,-11.37305],[-37.79025,-11.34767],[-37.81361,-11.33237],[-37.81647,-11.32059],[-37.82733,-11.3211],[-37.84831,-11.29917],[-37.86033,-11.3008],[-37.869,-11.28452],[-37.87797,-11.28879],[-37.88413,-11.28125],[-37.89747,-11.27655],[-37.90461,-11.26469],[-37.91675,-11.26558],[-37.92494,-11.25611],[-37.91789,-11.23944],[-37.88572,-11.21085],[-37.86686,-11.22256],[-37.86369,-11.21041],[-37.87469,-11.18715],[-37.84244,-11.15871],[-37.79024,-11.13386]]]},"properties":{"CD_MUN":"2803005","NM_MUN":"Itabaianinha","SIGLA_UF":"SE"}},{"type":"Feature","geometry":{"type":"Polygon","coordinates":[[[-37.47399,-10.56583],[-37.46112,-10.59557],[-37.42401,-10.57558],[-37.3934,-10.58352],[-37.38667,-10.59809],[-37.38832,-10.62806],[-37.3807,-10.63231],[-37.37993,-10.62553],[-37.37532,-10.62571],[-37.36451,-10.64528],[-37.35859,-10.64498],[-37.36018,-10.65175],[-37.35418,-10.65698],[-37.32801,-10.6535],[-37.31959,-10.69303],[-37.33565,-10.72085],[-37.36079,-10.73848],[-37.40213,-10.82435],[-37.42974,-10.8306],[-37.44888,-10.78905],[-37.4458,-10.78215],[-37.44219,-10.78504],[-37.44032,-10.78146],[-37.45194,-10.77051],[-37.44821,-10.76733],[-37.44896,-10.74864],[-37.45554,-10.72445],[-37.46382,-10.71304],[-37.47393,-10.71031],[-37.48068,-10.70099],[-37.49913,-10.69386],[-37.49977,-10.68972],[-37.50721,-10.67219],[-37.52057,-10.66219],[-37.51663,-10.65652],[-37.52949,-10.64571],[-37.50807,-10.62616],[-37.47399,-10.56583]]]},"properties":{"CD_MUN":"2802908","NM_MUN":"Itabaiana","SIGLA_UF":"SE"}},{"type":"Feature","geometry":{"type":"Polygon","coordinates":[[[-37.60477,-11.39426],[-37.56194,-11.41418],[-37.53502,-11.41608],[-37.52427,-11.42292],[-37.50669,-11.41501],[-37.49452,-11.44158],[-37.48374,-11.44269],[-37.48177,-11.44844],[-37.47288,-11.45079],[-37.4678,-11.44612],[-37.46277,-11.45074],[-37.45774,-11.4419],[-37.45005,-11.44288],[-37.44224,-11.42524],[-37.43254,-11.42315],[-37.41932,-11.43019],[-37.40777,-11.42366],[-37.39743,-11.43745],[-37.37208,-11.45469],[-37.3981,-11.48534],[-37.43452,-11.51286],[-37.45833,-11.5226],[-37.50455,-11.52431],[-37.51614,-11.53508],[-37.51814,-11.54819],[-37.5525,-11.54665],[-37.55725,-11.5505],[-37.5688,-11.53931],[-37.57741,-11.55105],[-37.58464,-11.54155],[-37.57792,-11.53359],[-37.58025,-11.53057],[-37.58883,-11.52772],[-37.60197,-11.53968],[-37.61533,-11.53802],[-37.63056,-11.52518],[-37.63084,-11.51813],[-37.63789,-11.50084],[-37.6492,-11.49981],[-37.64558,-11.49753],[-37.65028,-11.48408],[-37.60477,-11.39426]]]},"properties":{"CD_MUN":"2802809","NM_MUN":"Indiaroba","SIGLA_UF":"SE"}},{"type":"Feature","geometry":{"type":"Polygon","coordinates":[[[-37.64177,-10.60687],[-37.55771,-10.61956],[-37.52949,-10.64571],[-37.51663,-10.65652],[-37.52057,-10.66219],[-37.50721,-10.67219],[-37.49977,-10.68972],[-37.53149,-10.68897],[-37.53372,-10.69537],[-37.54683,-10.699],[-37.57227,-10.69078],[-37.58388,-10.68103],[-37.59505,-10.69646],[-37.60539,-10.69553],[-37.60449,-10.71049],[-37.60824,-10.70705],[-37.61102,-10.71406],[-37.6171,-10.71258],[-37.61933,-10.70679],[-37.63541,-10.71444],[-37.6445,-10.71131],[-37.64174,-10.69965],[-37.64652,-10.69673],[-37.66272,-10.71781],[-37.66521,-10.70732],[-37.66005,-10.70108],[-37.66788,-10.67401],[-37.65227,-10.64056],[-37.65035,-10.61892],[-37.64177,-10.60687]]]},"properties":{"CD_MUN":"2803708","NM_MUN":"Macambira","SIGLA_UF":"SE"}},{"type":"Feature","geometry":{"type":"Polygon","coordinates":[[[-37.24418,-10.77887],[-37.22215,-10.75947],[-37.21654,-10.7646],[-37.16048,-10.75018],[-37.14859,-10.77221],[-37.14267,-10.76613],[-37.1312,-10.76839],[-37.13267,-10.77739],[-37.1274,-10.78511],[-37.09837,-10.77424],[-37.087,-10.78297],[-37.0847,-10.79782],[-37.06153,-10.82276],[-37.09304,-10.82275],[-37.10215,-10.81822],[-37.11834,-10.83165],[-37.14829,-10.83489],[-37.15737,-10.83161],[-37.1582,-10.8362],[-37.17354,-10.84302],[-37.17862,-10.85431],[-37.21582,-10.84688],[-37.24385,-10.83303],[-37.31779,-10.83108],[-37.24418,-10.77887]]]},"properties":{"CD_MUN":"2803609","NM_MUN":"Laranjeiras","SIGLA_UF":"SE"}},{"type":"Feature","geometry":{"type":"Polygon","coordinates":[[[-37.66272,-10.71781],[-37.64652,-10.69673],[-37.64174,-10.69965],[-37.6445,-10.71131],[-37.63541,-10.71444],[-37.61933,-10.70679],[-37.6171,-10.71258],[-37.63071,-10.72732],[-37.62752,-10.74101],[-37.63211,-10.7488],[-37.61911,-10.7484],[-37.60002,-10.77859],[-37.61363,-10.79729],[-37.60891,-10.81204],[-37.59933,-10.81475],[-37.59391,-10.82595],[-37.57083,-10.83963],[-37.56386,-10.83505],[-37.54983,-10.83993],[-37.54236,-10.83533],[-37.53689,-10.84101],[-37.51505,-10.84488],[-37.50924,-10.8424],[-37.50833,-10.83437],[-37.49719,-10.83132],[-37.49055,-10.8307],[-37.48908,-10.83639],[-37.4796,-10.84118],[-37.48216,-10.85844],[-37.47811,-10.85976],[-37.47124,-10.85229],[-37.46541,-10.85716],[-37.45678,-10.88161],[-37.46458,-10.89195],[-37.47338,-10.89229],[-37.49236,-10.90376],[-37.50155,-10.90126],[-37.45614,-10.97535],[-37.51905,-10.96147],[-37.52953,-10.99146],[-37.62262,-11.06687],[-37.63529,-11.06253],[-37.64301,-11.04658],[-37.65262,-11.04536],[-37.65578,-11.03826],[-37.66959,-11.03107],[-37.67334,-11.02127],[-37.69204,-11.02509],[-37.70279,-11.0057],[-37.74217,-10.99088],[-37.74059,-11.00899],[-37.74973,-11.00874],[-37.75343,-11.00278],[-37.75918,-11.01067],[-37.76476,-11.0087],[-37.77059,-11.01837],[-37.7756,-11.00457],[-37.77987,-11.00974],[-37.78415,-11.00674],[-37.79184,-11.01816],[-37.7966,-11.01127],[-37.8069,-11.01044],[-37.80995,-11.00225],[-37.81271,-11.00618],[-37.8211,-11.00428],[-37.82482,-10.99067],[-37.83604,-10.98878],[-37.83152,-10.9807],[-37.83887,-10.97125],[-37.83829,-10.95648],[-37.8336,-10.95095],[-37.83951,-10.94805],[-37.84606,-10.93383],[-37.87357,-10.92109],[-37.86493,-10.89783],[-37.87565,-10.86405],[-37.85231,-10.86672],[-37.82748,-10.85897],[-37.8129,-10.86938],[-37.80314,-10.83777],[-37.76056,-10.82303],[-37.70845,-10.75542],[-37.7053,-10.74129],[-37.67858,-10.72713],[-37.67586,-10.71656],[-37.66958,-10.7084],[-37.66272,-10.71781]]]},"properties":{"CD_MUN":"2803500","NM_MUN":"Lagarto","SIGLA_UF":"SE"}},{"type":"Feature","geometry":{"type":"Polygon","coordinates":[[[-36.82142,-10.29855],[-36.81261,-10.29845],[-36.80362,-10.28545],[-36.77947,-10.30987],[-36.76353,-10.32013],[-36.751,-10.31513],[-36.72586,-10.33655],[-36.71631,-10.35242],[-36.714,-10.38414],[-36.74918,-10.59547],[-36.7549,-10.59456],[-36.76466,-10.58162],[-36.78216,-10.57614],[-36.80977,-10.57364],[-36.80721,-10.55095],[-36.8301,-10.53274],[-36.8356,-10.51052],[-36.84443,-10.4999],[-36.86363,-10.49627],[-36.87015,-10.48627],[-36.87732,-10.44023],[-36.85934,-10.42923],[-36.86004,-10.4195],[-36.87243,-10.41888],[-36.88532,-10.39811],[-36.90462,-10.40432],[-36.89946,-10.38896],[-36.86337,-10.38638],[-36.84512,-10.3711],[-36.84028,-10.34327],[-36.82645,-10.32977],[-36.82142,-10.29855]]]},"properties":{"CD_MUN":"2803401","NM_MUN":"Japoatã","SIGLA_UF":"SE"}},{"type":"Feature","geometry":{"type":"Polygon","coordinates":[[[-36.93782,-10.45151],[-36.90563,-10.41383],[-36.90462,-10.40432],[-36.88532,-10.39811],[-36.87243,-10.41888],[-36.86004,-10.4195],[-36.85934,-10.42923],[-36.87732,-10.44023],[-36.87015,-10.48627],[-36.86363,-10.49627],[-36.84443,-10.4999],[-36.8356,-10.51052],[-36.8301,-10.53274],[-36.80721,-10.55095],[-36.80977,-10.57364],[-36.78216,-10.57614],[-36.90858,-10.67894],[-36.92319,-10.67761],[-36.93336,-10.65493],[-36.95967,-10.6519],[-36.97333,-10.63518],[-36.9845,-10.64096],[-37.00936,-10.64118],[-36.97393,-10.54179],[-36.97657,-10.52915],[-36.95946,-10.52164],[-36.93782,-10.45151]]]},"properties":{"CD_MUN":"2803302","NM_MUN":"Japaratuba","SIGLA_UF":"SE"}},{"type":"Feature","geometry":{"type":"Polygon","coordinates":[[[-37.82297,-10.03611],[-37.80481,-10.03199],[-37.77397,-10.03273],[-37.75858,-10.02542],[-37.73781,-10.02966],[-37.73133,-10.02039],[-37.72144,-10.02632],[-37.70141,-10.01484],[-37.68297,-10.02806],[-37.67302,-10.02621],[-37.66516,-10.01475],[-37.65644,-10.01292],[-37.64708,-10.02206],[-37.63841,-10.01776],[-37.6146,-10.02551],[-37.60677,-10.01923],[-37.5956,-10.0221],[-37.58574,-10.0007],[-37.56694,-9.9986],[-37.46832,-10.02056],[-37.41899,-10.0614],[-37.42043,-10.06753],[-37.41221,-10.0692],[-37.4136,-10.07704],[-37.4281,-10.06416],[-37.4278,-10.07663],[-37.43488,-10.07183],[-37.44177,-10.07559],[-37.44049,-10.08449],[-37.43255,-10.0857],[-37.43941,-10.09156],[-37.4366,-10.10365],[-37.45977,-10.10326],[-37.45896,-10.0961],[-37.46405,-10.09167],[-37.47519,-10.09585],[-37.48063,-10.0889],[-37.49008,-10.10194],[-37.49483,-10.09695],[-37.50535,-10.10453],[-37.51349,-10.10181],[-37.51555,-10.10876],[-37.52269,-10.10522],[-37.53171,-10.11358],[-37.53772,-10.11016],[-37.54252,-10.11513],[-37.55352,-10.11361],[-37.55814,-10.12205],[-37.5638,-10.10816],[-37.58841,-10.09015],[-37.60433,-10.10199],[-37.61694,-10.09609],[-37.62344,-10.10582],[-37.63094,-10.10402],[-37.6383,-10.11227],[-37.64561,-10.11152],[-37.66272,-10.12915],[-37.67205,-10.1299],[-37.679,-10.12302],[-37.69608,-10.12796],[-37.73975,-10.11006],[-37.75636,-10.11903],[-37.7667,-10.11564],[-37.7752,-10.13699],[-37.80292,-10.09995],[-37.81936,-10.05956],[-37.82297,-10.03611]]]},"properties":{"CD_MUN":"2804201","NM_MUN":"Monte Alegre de Sergipe","SIGLA_UF":"SE"}},{"type":"Feature","geometry":{"type":"Polygon","coordinates":[[[-37.3934,-10.58352],[-37.3894,-10.57594],[-37.36509,-10.56122],[-37.36273,-10.54971],[-37.34425,-10.54042],[-37.33226,-10.54477],[-37.31903,-10.54138],[-37.31592,-10.54831],[-37.31034,-10.54771],[-37.31131,-10.56322],[-37.30289,-10.57499],[-37.26192,-10.5774],[-37.2472,-10.59529],[-37.26506,-10.58727],[-37.28059,-10.58788],[-37.29556,-10.60243],[-37.32523,-10.62317],[-37.33143,-10.63959],[-37.32801,-10.6535],[-37.35418,-10.65698],[-37.36018,-10.65175],[-37.35859,-10.64498],[-37.36451,-10.64528],[-37.37532,-10.62571],[-37.37993,-10.62553],[-37.3807,-10.63231],[-37.38832,-10.62806],[-37.38667,-10.59809],[-37.3934,-10.58352]]]},"properties":{"CD_MUN":"2804102","NM_MUN":"Moita Bonita","SIGLA_UF":"SE"}},{"type":"Feature","geometry":{"type":"Polygon","coordinates":[[[-37.08944,-10.65429],[-37.08845,-10.68215],[-37.06956,-10.68652],[-37.05331,-10.70645],[-37.06787,-10.74795],[-37.06728,-10.76768],[-37.07192,-10.77692],[-37.087,-10.78297],[-37.09837,-10.77424],[-37.1274,-10.78511],[-37.13267,-10.77739],[-37.1312,-10.76839],[-37.14267,-10.76613],[-37.14859,-10.77221],[-37.16048,-10.75018],[-37.14962,-10.73768],[-37.15354,-10.72759],[-37.14525,-10.71948],[-37.14437,-10.7112],[-37.12142,-10.70144],[-37.11573,-10.68479],[-37.08944,-10.65429]]]},"properties":{"CD_MUN":"2804003","NM_MUN":"Maruim","SIGLA_UF":"SE"}},{"type":"Feature","geometry":{"type":"Polygon","coordinates":[[[-37.32801,-10.6535],[-37.33143,-10.63959],[-37.32523,-10.62317],[-37.29556,-10.60243],[-37.28842,-10.61585],[-37.28081,-10.6183],[-37.27751,-10.63389],[-37.26695,-10.63511],[-37.25753,-10.64988],[-37.24526,-10.64929],[-37.24554,-10.6621],[-37.23742,-10.66447],[-37.23301,-10.67212],[-37.22687,-10.68386],[-37.23137,-10.69657],[-37.2232,-10.706],[-37.22956,-10.70205],[-37.23648,-10.70824],[-37.24798,-10.70953],[-37.25937,-10.70254],[-37.26415,-10.71337],[-37.27604,-10.71193],[-37.28115,-10.72118],[-37.29173,-10.72231],[-37.29868,-10.72823],[-37.29743,-10.73226],[-37.31335,-10.74139],[-37.31751,-10.73773],[-37.31032,-10.73261],[-37.33565,-10.72085],[-37.31959,-10.69303],[-37.32801,-10.6535]]]},"properties":{"CD_MUN":"2803906","NM_MUN":"Malhador","SIGLA_UF":"SE"}},{"type":"Feature","geometry":{"type":"Polygon","coordinates":[[[-37.00215,-10.30585],[-36.93662,-10.28593],[-36.92923,-10.31121],[-36.9042,-10.3095],[-36.90523,-10.32555],[-36.9069,-10.35074],[-36.91809,-10.38936],[-37.00215,-10.30585]]]},"properties":{"CD_MUN":"2803807","NM_MUN":"Malhada dos Bois","SIGLA_UF":"SE"}},{"type":"Feature","geometry":{"type":"Polygon","coordinates":[[[-37.31779,-10.83108],[-37.24385,-10.83303],[-37.21582,-10.84688],[-37.17862,-10.85431],[-37.17354,-10.84302],[-37.1582,-10.8362],[-37.15737,-10.83161],[-37.14829,-10.83489],[-37.11834,-10.83165],[-37.10215,-10.81822],[-37.09304,-10.82275],[-37.06153,-10.82276],[-37.04234,-10.82756],[-37.02909,-10.84145],[-37.0274,-10.84949],[-37.03481,-10.86834],[-37.05376,-10.86312],[-37.06657,-10.8769],[-37.07193,-10.86599],[-37.08068,-10.86244],[-37.09234,-10.87386],[-37.10226,-10.8758],[-37.0956,-10.88395],[-37.10496,-10.88979],[-37.10168,-10.91743],[-37.11932,-10.91678],[-37.14576,-10.92831],[-37.16124,-10.92435],[-37.17154,-10.91291],[-37.17265,-10.90014],[-37.18349,-10.89651],[-37.19004,-10.88557],[-37.19732,-10.88969],[-37.2069,-10.87506],[-37.21818,-10.87774],[-37.23932,-10.86795],[-37.24807,-10.8549],[-37.26491,-10.84601],[-37.27299,-10.85148],[-37.29019,-10.85155],[-37.29904,-10.84641],[-37.30719,-10.83278],[-37.31779,-10.83108]]]},"properties":{"CD_MUN":"2804805","NM_MUN":"Nossa Senhora do Socorro","SIGLA_UF":"SE"}},{"type":"Feature","geometry":{"type":"Polygon","coordinates":[[[-37.05964,-10.05585],[-37.02739,-10.05768],[-37.02033,-10.04511],[-36.95608,-10.02002],[-36.95875,-10.0479],[-36.95414,-10.06435],[-36.98967,-10.08378],[-37.01787,-10.10649],[-37.03198,-10.13272],[-37.04014,-10.13805],[-37.04729,-10.12572],[-37.05562,-10.12799],[-37.06428,-10.13955],[-37.06773,-10.09008],[-37.05964,-10.05585]]]},"properties":{"CD_MUN":"2804706","NM_MUN":"Nossa Senhora de Lourdes","SIGLA_UF":"SE"}},{"type":"Feature","geometry":{"type":"Polygon","coordinates":[[[-37.33986,-10.38416],[-37.34394,-10.37968],[-37.32522,-10.37482],[-37.32519,-10.36557],[-37.31586,-10.35843],[-37.31735,-10.35161],[-37.30836,-10.3476],[-37.30141,-10.33482],[-37.27355,-10.326],[-37.27693,-10.32221],[-37.27363,-10.30589],[-37.24424,-10.29851],[-37.24905,-10.32118],[-37.23935,-10.34008],[-37.23991,-10.35852],[-37.20744,-10.40115],[-37.18905,-10.40655],[-37.17808,-10.41649],[-37.16833,-10.41674],[-37.1613,-10.41068],[-37.14374,-10.4186],[-37.13221,-10.40618],[-37.12816,-10.41065],[-37.12085,-10.40535],[-37.11746,-10.40929],[-37.10805,-10.41814],[-37.11144,-10.42416],[-37.09663,-10.42354],[-37.13435,-10.45537],[-37.13711,-10.46994],[-37.14166,-10.50058],[-37.17319,-10.5772],[-37.19372,-10.59221],[-37.2052,-10.60765],[-37.20328,-10.62488],[-37.21598,-10.61695],[-37.217,-10.61168],[-37.2472,-10.59529],[-37.26192,-10.5774],[-37.30289,-10.57499],[-37.31131,-10.56322],[-37.31034,-10.54771],[-37.31592,-10.54831],[-37.31903,-10.54138],[-37.34859,-10.49287],[-37.27392,-10.46541],[-37.27994,-10.46189],[-37.28864,-10.46757],[-37.28714,-10.45355],[-37.29478,-10.44357],[-37.29167,-10.43521],[-37.30194,-10.43601],[-37.3065,-10.42565],[-37.31856,-10.4343],[-37.33133,-10.43083],[-37.33247,-10.42531],[-37.32311,-10.42082],[-37.33041,-10.41775],[-37.33317,-10.40055],[-37.34678,-10.40051],[-37.33986,-10.38416]]]},"properties":{"CD_MUN":"2804607","NM_MUN":"Nossa Senhora das Dores","SIGLA_UF":"SE"}},{"type":"Feature","geometry":{"type":"Polygon","coordinates":[[[-37.7752,-10.13699],[-37.7667,-10.11564],[-37.75636,-10.11903],[-37.73975,-10.11006],[-37.69608,-10.12796],[-37.679,-10.12302],[-37.67205,-10.1299],[-37.66272,-10.12915],[-37.64561,-10.11152],[-37.6383,-10.11227],[-37.63094,-10.10402],[-37.62344,-10.10582],[-37.61694,-10.09609],[-37.60433,-10.10199],[-37.58841,-10.09015],[-37.5638,-10.10816],[-37.55814,-10.12205],[-37.55352,-10.11361],[-37.54252,-10.11513],[-37.53772,-10.11016],[-37.53171,-10.11358],[-37.52269,-10.10522],[-37.51555,-10.10876],[-37.51349,-10.10181],[-37.50535,-10.10453],[-37.49483,-10.09695],[-37.49008,-10.10194],[-37.48063,-10.0889],[-37.47519,-10.09585],[-37.46405,-10.09167],[-37.45896,-10.0961],[-37.45977,-10.10326],[-37.4366,-10.10365],[-37.43941,-10.09156],[-37.43255,-10.0857],[-37.44049,-10.08449],[-37.44177,-10.07559],[-37.43488,-10.07183],[-37.4278,-10.07663],[-37.4281,-10.06416],[-37.4136,-10.07704],[-37.41221,-10.0692],[-37.42043,-10.06753],[-37.41899,-10.0614],[-37.35432,-10.11095],[-37.33341,-10.11849],[-37.34504,-10.15548],[-37.31438,-10.15294],[-37.32944,-10.21031],[-37.3828,-10.21751],[-37.39758,-10.25574],[-37.40886,-10.24589],[-37.40397,-10.25551],[-37.40336,-10.27786],[-37.408,-10.29647],[-37.4103,-10.30485],[-37.41908,-10.30707],[-37.42744,-10.30201],[-37.42883,-10.30759],[-37.43478,-10.30369],[-37.4353,-10.29619],[-37.44672,-10.29449],[-37.44728,-10.28845],[-37.45561,-10.29025],[-37.46255,-10.2781],[-37.47008,-10.28462],[-37.46955,-10.29016],[-37.482,-10.29494],[-37.48175,-10.28237],[-37.48586,-10.28615],[-37.48911,-10.2834],[-37.49722,-10.29514],[-37.50711,-10.29015],[-37.51261,-10.29423],[-37.5247,-10.2805],[-37.53089,-10.28228],[-37.54389,-10.269],[-37.53772,-10.25844],[-37.55309,-10.25941],[-37.55353,-10.26733],[-37.55773,-10.25927],[-37.56169,-10.26147],[-37.56842,-10.2565],[-37.57039,-10.24835],[-37.5785,-10.24816],[-37.58122,-10.24042],[-37.591,-10.24946],[-37.59603,-10.25219],[-37.60678,-10.23959],[-37.61222,-10.25003],[-37.61745,-10.24155],[-37.62811,-10.24278],[-37.67364,-10.20751],[-37.68151,-10.21033],[-37.6882,-10.2049],[-37.69284,-10.20868],[-37.70025,-10.20155],[-37.70028,-10.19477],[-37.70978,-10.19043],[-37.72045,-10.18814],[-37.7544,-10.19959],[-37.762,-10.19667],[-37.7752,-10.13699]]]},"properties":{"CD_MUN":"2804508","NM_MUN":"Nossa Senhora da Glória","SIGLA_UF":"SE"}},{"type":"Feature","geometry":{"type":"Polygon","coordinates":[[[-37.591,-10.24946],[-37.58122,-10.24042],[-37.5785,-10.24816],[-37.57039,-10.24835],[-37.56842,-10.2565],[-37.56169,-10.26147],[-37.55773,-10.25927],[-37.55353,-10.26733],[-37.55309,-10.25941],[-37.53772,-10.25844],[-37.54389,-10.269],[-37.53089,-10.28228],[-37.5247,-10.2805],[-37.51261,-10.29423],[-37.50711,-10.29015],[-37.49722,-10.29514],[-37.48911,-10.2834],[-37.48586,-10.28615],[-37.48175,-10.28237],[-37.482,-10.29494],[-37.46955,-10.29016],[-37.47008,-10.28462],[-37.46255,-10.2781],[-37.45561,-10.29025],[-37.44728,-10.28845],[-37.44672,-10.29449],[-37.4353,-10.29619],[-37.43478,-10.30369],[-37.42883,-10.30759],[-37.42744,-10.30201],[-37.41908,-10.30707],[-37.4103,-10.30485],[-37.408,-10.29647],[-37.40503,-10.31532],[-37.41247,-10.34619],[-37.40144,-10.41779],[-37.41995,-10.40239],[-37.47359,-10.45989],[-37.54679,-10.46244],[-37.55756,-10.44324],[-37.57467,-10.37038],[-37.58653,-10.32284],[-37.61264,-10.27923],[-37.591,-10.24946]]]},"properties":{"CD_MUN":"2804458","NM_MUN":"Nossa Senhora Aparecida","SIGLA_UF":"SE"}},{"type":"Feature","geometry":{"type":"Polygon","coordinates":[[[-36.70272,-10.27026],[-36.68358,-10.27522],[-36.6806,-10.27167],[-36.6519,-10.32258],[-36.58547,-10.30415],[-36.56489,-10.32942],[-36.56758,-10.36295],[-36.56034,-10.38801],[-36.56217,-10.41256],[-36.56778,-10.43332],[-36.57239,-10.43543],[-36.58131,-10.42963],[-36.58298,-10.43372],[-36.57686,-10.43912],[-36.58378,-10.43908],[-36.58839,-10.45204],[-36.59317,-10.44629],[-36.59759,-10.4504],[-36.6017,-10.47929],[-36.59392,-10.48388],[-36.5987,-10.49775],[-36.61142,-10.42787],[-36.59972,-10.41523],[-36.6145,-10.38727],[-36.64076,-10.40353],[-36.714,-10.38414],[-36.71631,-10.35242],[-36.72586,-10.33655],[-36.751,-10.31513],[-36.76353,-10.32013],[-36.77947,-10.30987],[-36.80362,-10.28545],[-36.78992,-10.26437],[-36.77892,-10.26642],[-36.7615,-10.25601],[-36.7602,-10.26214],[-36.75164,-10.26259],[-36.74156,-10.27236],[-36.73798,-10.28333],[-36.73211,-10.2803],[-36.70822,-10.28445],[-36.70272,-10.27026]]]},"properties":{"CD_MUN":"2804409","NM_MUN":"Neópolis","SIGLA_UF":"SE"}},{"type":"Feature","geometry":{"type":"Polygon","coordinates":[[[-37.01743,-10.33122],[-37.00215,-10.30585],[-36.91809,-10.38936],[-36.91551,-10.39757],[-36.90462,-10.40432],[-36.90563,-10.41383],[-36.93782,-10.45151],[-36.96502,-10.4426],[-36.96979,-10.42641],[-36.98543,-10.40533],[-36.98374,-10.39685],[-36.98863,-10.38658],[-36.98071,-10.37404],[-36.99768,-10.36017],[-37.00876,-10.33439],[-37.01743,-10.33122]]]},"properties":{"CD_MUN":"2804300","NM_MUN":"Muribeca","SIGLA_UF":"SE"}},{"type":"Feature","geometry":{"type":"Polygon","coordinates":[[[-36.78216,-10.57614],[-36.76466,-10.58162],[-36.7549,-10.59456],[-36.74918,-10.59547],[-36.67493,-10.63114],[-36.73129,-10.65581],[-36.78452,-10.68794],[-36.85433,-10.74374],[-36.87241,-10.74104],[-36.86761,-10.73297],[-36.87013,-10.70774],[-36.87544,-10.70979],[-36.88011,-10.69579],[-36.88827,-10.69607],[-36.88455,-10.70107],[-36.89252,-10.70529],[-36.90064,-10.70336],[-36.90247,-10.68597],[-36.90761,-10.68231],[-36.90858,-10.67894],[-36.78216,-10.57614]]]},"properties":{"CD_MUN":"2805307","NM_MUN":"Pirambu","SIGLA_UF":"SE"}},{"type":"Feature","geometry":{"type":"Polygon","coordinates":[[[-37.81452,-10.51727],[-37.79588,-10.50899],[-37.77899,-10.5122],[-37.77163,-10.50664],[-37.72999,-10.51646],[-37.72063,-10.50785],[-37.69529,-10.53969],[-37.69813,-10.58252],[-37.71844,-10.62444],[-37.71477,-10.63421],[-37.7053,-10.6338],[-37.71594,-10.64551],[-37.72361,-10.64188],[-37.72233,-10.63341],[-37.73811,-10.6336],[-37.74902,-10.62167],[-37.76361,-10.62099],[-37.76799,-10.60552],[-37.79992,-10.59206],[-37.80585,-10.60151],[-37.82002,-10.58648],[-37.82905,-10.5857],[-37.82466,-10.58064],[-37.83119,-10.57796],[-37.83233,-10.55998],[-37.84035,-10.55016],[-37.83088,-10.55147],[-37.82886,-10.54128],[-37.81891,-10.53993],[-37.82138,-10.53101],[-37.81452,-10.51727]]]},"properties":{"CD_MUN":"2805208","NM_MUN":"Pinhão","SIGLA_UF":"SE"}},{"type":"Feature","geometry":{"type":"Polygon","coordinates":[[[-37.70524,-11.19315],[-37.69152,-11.17101],[-37.67879,-11.18999],[-37.67113,-11.18389],[-37.63663,-11.20027],[-37.59654,-11.20338],[-37.5976,-11.21142],[-37.60682,-11.21743],[-37.64738,-11.22005],[-37.65455,-11.24497],[-37.65071,-11.25505],[-37.66305,-11.25368],[-37.66477,-11.24621],[-37.67863,-11.23372],[-37.69035,-11.20471],[-37.69593,-11.20566],[-37.69688,-11.1992],[-37.70524,-11.19315]]]},"properties":{"CD_MUN":"2805109","NM_MUN":"Pedrinhas","SIGLA_UF":"SE"}},{"type":"Feature","geometry":{"type":"Polygon","coordinates":[[[-37.69529,-10.53969],[-37.64177,-10.60687],[-37.65035,-10.61892],[-37.65227,-10.64056],[-37.66788,-10.67401],[-37.66005,-10.70108],[-37.66521,-10.70732],[-37.66272,-10.71781],[-37.66958,-10.7084],[-37.67586,-10.71656],[-37.68336,-10.7107],[-37.68339,-10.7069],[-37.67303,-10.70432],[-37.68525,-10.69278],[-37.68194,-10.68531],[-37.69188,-10.68556],[-37.70258,-10.67769],[-37.70394,-10.66929],[-37.7078,-10.67229],[-37.71355,-10.66873],[-37.6928,-10.63992],[-37.70102,-10.64262],[-37.7053,-10.6338],[-37.71477,-10.63421],[-37.71844,-10.62444],[-37.69813,-10.58252],[-37.69529,-10.53969]]]},"properties":{"CD_MUN":"2805000","NM_MUN":"Pedra Mole","SIGLA_UF":"SE"}},{"type":"Feature","geometry":{"type":"Polygon","coordinates":[[[-36.714,-10.38414],[-36.64076,-10.40353],[-36.6145,-10.38727],[-36.59972,-10.41523],[-36.61142,-10.42787],[-36.5987,-10.49775],[-36.58909,-10.50257],[-36.4955,-10.51111],[-36.4862,-10.53022],[-36.4934,-10.53343],[-36.50298,-10.54255],[-36.61959,-10.58943],[-36.67493,-10.63114],[-36.74918,-10.59547],[-36.714,-10.38414]]]},"properties":{"CD_MUN":"2804904","NM_MUN":"Pacatuba","SIGLA_UF":"SE"}},{"type":"Feature","geometry":{"type":"Polygon","coordinates":[[[-37.97202,-10.88033],[-37.93907,-10.88851],[-37.93784,-10.88156],[-37.87565,-10.86405],[-37.86493,-10.89783],[-37.87357,-10.92109],[-37.84606,-10.93383],[-37.83951,-10.94805],[-37.8336,-10.95095],[-37.83829,-10.95648],[-37.83887,-10.97125],[-37.83152,-10.9807],[-37.83604,-10.98878],[-37.82482,-10.99067],[-37.8211,-11.00428],[-37.81271,-11.00618],[-37.80995,-11.00225],[-37.8069,-11.01044],[-37.7966,-11.01127],[-37.79184,-11.01816],[-37.78415,-11.00674],[-37.77987,-11.00974],[-37.7756,-11.00457],[-37.77059,-11.01837],[-37.76476,-11.0087],[-37.75918,-11.01067],[-37.75343,-11.00278],[-37.74973,-11.00874],[-37.74059,-11.00899],[-37.74217,-10.99088],[-37.70279,-11.0057],[-37.69204,-11.02509],[-37.67334,-11.02127],[-37.66959,-11.03107],[-37.65578,-11.03826],[-37.65262,-11.04536],[-37.64301,-11.04658],[-37.63529,-11.06253],[-37.62262,-11.06687],[-37.61537,-11.06874],[-37.61209,-11.07883],[-37.62306,-11.08784],[-37.63351,-11.08172],[-37.66643,-11.13968],[-37.7041,-11.17812],[-37.71818,-11.16326],[-37.72885,-11.16462],[-37.73932,-11.1499],[-37.74652,-11.15362],[-37.74793,-11.14796],[-37.76229,-11.14253],[-37.77204,-11.13262],[-37.79024,-11.13386],[-37.83988,-11.10637],[-37.89632,-11.04093],[-37.92924,-11.01252],[-37.93094,-11.00339],[-37.94649,-10.99707],[-37.94821,-10.98535],[-37.94504,-10.98116],[-37.94105,-10.98497],[-37.93254,-10.97145],[-37.94365,-10.94804],[-37.95671,-10.93356],[-37.97202,-10.88033]]]},"properties":{"CD_MUN":"2805802","NM_MUN":"Riachão do Dantas","SIGLA_UF":"SE"}},{"type":"Feature","geometry":{"type":"Polygon","coordinates":[[[-36.86562,-10.2298],[-36.86456,-10.20938],[-36.85467,-10.19394],[-36.85947,-10.17821],[-36.84656,-10.18342],[-36.83781,-10.20232],[-36.82042,-10.21492],[-36.8012,-10.22196],[-36.77134,-10.22038],[-36.7608,-10.22951],[-36.74591,-10.23355],[-36.73653,-10.25056],[-36.722,-10.26317],[-36.70272,-10.27026],[-36.70822,-10.28445],[-36.73211,-10.2803],[-36.73798,-10.28333],[-36.74156,-10.27236],[-36.75164,-10.26259],[-36.7602,-10.26214],[-36.7615,-10.25601],[-36.77892,-10.26642],[-36.78992,-10.26437],[-36.80362,-10.28545],[-36.81261,-10.29845],[-36.82142,-10.29855],[-36.83817,-10.29163],[-36.84612,-10.26295],[-36.86562,-10.2298]]]},"properties":{"CD_MUN":"2805703","NM_MUN":"Propriá","SIGLA_UF":"SE"}}]}