{"type":"FeatureCollection","features":[{"type":"Feature","geometry":{"type":"Polygon","coordinates":[[[-52.8669,2.02507],[-52.8581,2.04023],[-52.84399,2.0347],[-52.83618,2.03668],[-52.82782,2.05212],[-52.83084,2.05836],[-52.82762,2.06657],[-52.83776,2.06939],[-52.83523,2.07851],[-52.82831,2.08374],[-52.81179,2.0848],[-52.79562,2.07168],[-52.75917,2.07804],[-52.75623,2.06801],[-52.72792,2.07312],[-52.71428,2.06298],[-52.69739,2.06702],[-52.69067,2.06313],[-52.67998,2.06953],[-52.68162,2.05417],[-52.66706,2.05704],[-52.65576,2.04492],[-52.64948,2.05195],[-52.64426,2.05113],[-52.63351,2.03332],[-52.61565,2.02507],[-52.60912,2.01006],[-52.5927,2.0038],[-52.58784,2.00578],[-52.59089,2.01491],[-52.56464,2.01659],[-52.55712,2.022],[-52.55136,2.00988],[-52.5335,2.01537],[-52.52736,2.02457],[-52.51023,2.02861],[-52.49594,2.04179],[-52.4638,2.03551],[-52.45697,2.03698],[-52.45652,2.04233],[-52.43839,2.04534],[-52.42689,2.03628],[-52.41711,2.03825],[-52.40836,2.03051],[-52.4133,2.08795],[-52.37068,2.11942],[-52.36393,2.11944],[-52.35438,2.14187],[-52.34624,2.14028],[-52.33363,2.15588],[-52.3181,2.15866],[-52.29868,2.15499],[-52.26787,2.16028],[-52.25135,2.16906],[-52.24121,2.1934],[-52.21948,2.1856],[-52.23046,2.20191],[-52.24532,2.20339],[-52.24245,2.22671],[-52.24773,2.24185],[-52.2359,2.25064],[-52.23026,2.26432],[-52.2147,2.2603],[-52.20479,2.26553],[-52.19267,2.26156],[-52.18881,2.27947],[-52.17906,2.27853],[-52.18339,2.29115],[-52.17487,2.30324],[-52.15912,2.29815],[-52.1502,2.30336],[-52.15064,2.32029],[-52.13214,2.3301],[-52.1183,2.3545],[-52.1233,2.37516],[-52.11847,2.38285],[-52.11069,2.38506],[-52.1182,2.3939],[-52.11219,2.40134],[-52.09441,2.39926],[-52.09072,2.41001],[-52.07175,2.39455],[-52.05883,2.39168],[-52.05016,2.40205],[-52.0438,2.43838],[-52.01477,2.43685],[-52.01821,2.42747],[-52.04091,2.42203],[-52.04425,2.40459],[-52.03772,2.38974],[-52.04128,2.38598],[-52.03697,2.3422],[-52.05361,2.30081],[-52.06406,2.28887],[-52.06564,2.27499],[-52.06284,2.26281],[-52.04475,2.25096],[-52.03581,2.23316],[-52.04334,2.20659],[-52.03856,2.19508],[-52.03731,2.15515],[-52.03386,2.15598],[-52.02965,2.14359],[-52.02651,2.11546],[-52.00837,2.09039],[-52.00965,2.06673],[-52.0017,2.05952],[-52.00396,2.04852],[-51.99623,2.03888],[-52.0091,1.9991],[-52.02057,1.98512],[-52.01424,1.98214],[-52.02237,1.96788],[-52.01838,1.91927],[-52.02971,1.90975],[-52.03402,1.88829],[-52.04379,1.88402],[-52.06452,1.85849],[-52.05913,1.85916],[-52.05435,1.84064],[-52.0533,1.81056],[-52.05941,1.79576],[-52.05386,1.79525],[-52.05505,1.78412],[-52.05041,1.77526],[-52.05744,1.75563],[-52.05044,1.72673],[-52.05653,1.70364],[-52.05416,1.68748],[-52.04683,1.67869],[-52.04725,1.66085],[-52.03645,1.6556],[-52.03311,1.6412],[-52.02644,1.64181],[-52.02272,1.63047],[-52.03359,1.58855],[-52.04225,1.58297],[-52.03964,1.51792],[-52.03037,1.51472],[-52.03045,1.50661],[-52.02139,1.50017],[-52.0284,1.4862],[-52.03934,1.48365],[-52.04031,1.4775],[-52.03107,1.47643],[-52.02684,1.46813],[-52.03376,1.46495],[-52.03392,1.45953],[-52.04234,1.45771],[-52.04565,1.4474],[-52.03635,1.42185],[-52.04379,1.41217],[-52.03723,1.40884],[-52.03182,1.39304],[-52.00501,1.37466],[-52.01112,1.3292],[-51.98859,1.32327],[-51.98593,1.32327],[-51.98076,1.31696],[-51.98515,1.29307],[-52.0001,1.28606],[-52.00321,1.2768],[-51.99607,1.26068],[-51.99857,1.23542],[-51.98693,1.23467],[-51.98274,1.22993],[-52.00293,1.21419],[-52.00835,1.19014],[-52.00232,1.18266],[-51.98777,1.17986],[-51.99469,1.16909],[-51.99313,1.16339],[-51.97935,1.15909],[-51.99452,1.15013],[-51.99274,1.13918],[-51.98015,1.13372],[-51.98549,1.12168],[-51.98013,1.11142],[-51.9803,1.09327],[-51.98613,1.0778],[-51.97991,1.07033],[-51.98927,1.05923],[-51.98549,1.05314],[-51.95402,1.05922],[-51.93933,1.04028],[-51.93044,1.04895],[-51.92472,1.04826],[-51.92149,1.05463],[-51.9286,1.06265],[-51.9216,1.07125],[-51.91088,1.06554],[-51.91374,1.05753],[-51.90516,1.04642],[-51.89713,1.043],[-51.88882,1.05546],[-51.88266,1.05278],[-51.88641,1.03954],[-51.87372,1.03498],[-51.86782,1.03944],[-51.85927,1.03456],[-51.85702,1.02623],[-51.84316,1.03945],[-51.83621,1.03414],[-51.83721,1.02286],[-51.82972,1.01113],[-51.81758,1.00504],[-51.81628,0.97613],[-51.82563,0.97705],[-51.84013,0.96892],[-51.84428,0.95699],[-51.9146,0.9356],[-51.92509,0.91599],[-51.92467,0.9054],[-51.93483,0.89425],[-51.93289,0.88247],[-51.9464,0.85213],[-51.96598,0.84147],[-51.97601,0.8514],[-51.99938,0.86208],[-52.00784,0.8692],[-52.01357,0.8573],[-52.02519,0.85363],[-52.04906,0.86588],[-52.05696,0.8771],[-52.05033,0.88789],[-52.03798,0.89564],[-52.04763,0.9061],[-52.04862,0.9178],[-52.04408,0.93115],[-52.04632,0.9391],[-52.03225,0.95548],[-52.02617,0.98361],[-52.03192,0.99837],[-52.05709,0.99807],[-52.0833,1.00462],[-52.09936,0.99986],[-52.11188,0.98604],[-52.14495,1.00508],[-52.1621,0.99573],[-52.16467,1.00003],[-52.16196,1.01021],[-52.16669,1.01348],[-52.19732,1.00621],[-52.19823,1.02403],[-52.20918,1.0284],[-52.20835,1.03543],[-52.20049,1.04003],[-52.20337,1.04984],[-52.19645,1.05842],[-52.20393,1.06779],[-52.21123,1.06833],[-52.22316,1.05622],[-52.24168,1.05495],[-52.25935,1.06413],[-52.27634,1.06495],[-52.29637,1.10564],[-52.3087,1.11595],[-52.31017,1.13263],[-52.32297,1.13786],[-52.3286,1.13521],[-52.33597,1.14387],[-52.35127,1.13846],[-52.3576,1.14108],[-52.3637,1.15794],[-52.35864,1.1672],[-52.36772,1.1705],[-52.36881,1.17946],[-52.35928,1.19604],[-52.36861,1.20072],[-52.37515,1.19763],[-52.38782,1.20669],[-52.38218,1.22172],[-52.38922,1.21611],[-52.40602,1.22433],[-52.41233,1.23122],[-52.40688,1.2332],[-52.41101,1.23913],[-52.44621,1.26389],[-52.45333,1.26267],[-52.44738,1.27141],[-52.45008,1.28233],[-52.46198,1.27859],[-52.49465,1.28447],[-52.48034,1.30383],[-52.47877,1.32729],[-52.46423,1.33408],[-52.46451,1.34279],[-52.45035,1.36838],[-52.47027,1.3922],[-52.47772,1.38959],[-52.47112,1.40624],[-52.46588,1.40277],[-52.47078,1.41768],[-52.45812,1.43498],[-52.47092,1.43977],[-52.46847,1.44568],[-52.47282,1.45658],[-52.48484,1.4554],[-52.47815,1.47978],[-52.48508,1.48151],[-52.48779,1.49981],[-52.49389,1.50668],[-52.49709,1.52275],[-52.48149,1.533],[-52.49518,1.54172],[-52.50522,1.56292],[-52.49346,1.57466],[-52.4821,1.57803],[-52.49245,1.59123],[-52.49035,1.60515],[-52.4992,1.6042],[-52.50379,1.6223],[-52.52168,1.62308],[-52.52231,1.63422],[-52.51514,1.64],[-52.52001,1.64921],[-52.52584,1.64829],[-52.53829,1.65866],[-52.54977,1.67485],[-52.54819,1.68283],[-52.55839,1.68363],[-52.55898,1.69285],[-52.55281,1.69891],[-52.56094,1.70213],[-52.5554,1.7134],[-52.55811,1.72057],[-52.57152,1.73008],[-52.57387,1.73829],[-52.57778,1.73187],[-52.59028,1.73188],[-52.61516,1.76805],[-52.63988,1.78804],[-52.64175,1.78331],[-52.65058,1.7846],[-52.65554,1.7979],[-52.66312,1.80062],[-52.66783,1.80329],[-52.66166,1.80903],[-52.66626,1.81978],[-52.6842,1.82897],[-52.68423,1.83516],[-52.69264,1.8391],[-52.69835,1.8319],[-52.71018,1.83872],[-52.72572,1.85123],[-52.73595,1.86972],[-52.73991,1.86059],[-52.75645,1.86844],[-52.77087,1.88752],[-52.78599,1.92567],[-52.78025,1.93439],[-52.77996,1.95124],[-52.79463,1.97733],[-52.81086,1.98078],[-52.8669,2.02507]]]},"properties":{"CD_MUN":"1600055","NM_MUN":"Serra do Navio","SIGLA_UF":"AP"}},{"type":"Feature","geometry":{"type":"Polygon","coordinates":[[[-51.78543,0.99412],[-51.77797,0.99696],[-51.76541,0.98683],[-51.75485,0.98777],[-51.75535,0.96998],[-51.7134,0.99334],[-51.70382,0.98738],[-51.69818,0.97414],[-51.69018,0.97988],[-51.68593,1.00861],[-51.67318,1.01019],[-51.66235,0.98405],[-51.6683,0.97859],[-51.65885,0.9562],[-51.63493,0.95101],[-51.59302,0.91946],[-51.59165,0.9132],[-51.60082,0.90691],[-51.60238,0.88512],[-51.62435,0.87272],[-51.61513,0.83527],[-51.61013,0.834],[-51.60127,0.84694],[-51.58444,0.84741],[-51.54854,0.86596],[-51.53594,0.87834],[-51.51557,0.88246],[-51.50218,0.87392],[-51.5052,0.86133],[-51.4994,0.84124],[-51.49585,0.81246],[-51.48615,0.79157],[-51.47576,0.78655],[-51.45933,0.76268],[-51.44164,0.76021],[-51.4309,0.7449],[-51.40319,0.73144],[-51.38493,0.73595],[-51.37425,0.74397],[-51.3707,0.75529],[-51.3762,0.7683],[-51.3694,0.77705],[-51.36014,0.77696],[-51.34183,0.7321],[-51.36342,0.71697],[-51.36768,0.69714],[-51.37696,0.6875],[-51.36957,0.6827],[-51.35741,0.65123],[-51.27985,0.62808],[-51.25663,0.6108],[-51.20157,0.60078],[-51.19838,0.59453],[-51.16979,0.57828],[-51.15274,0.57551],[-51.14271,0.55042],[-51.1246,0.54089],[-51.13005,0.52366],[-51.10104,0.48375],[-51.0929,0.47711],[-51.07896,0.4773],[-51.07302,0.46204],[-51.05635,0.45718],[-51.03943,0.44318],[-51.04295,0.433],[-51.05093,0.42923],[-51.04999,0.44025],[-51.05851,0.44895],[-51.07887,0.44361],[-51.09446,0.43069],[-51.11449,0.40172],[-51.11405,0.3817],[-51.13381,0.34156],[-51.12771,0.32173],[-51.13092,0.31618],[-51.13702,0.31341],[-51.14285,0.31993],[-51.15896,0.32241],[-51.17442,0.31297],[-51.1873,0.32225],[-51.20434,0.3219],[-51.20699,0.33968],[-51.21093,0.35018],[-51.20429,0.36766],[-51.20674,0.39088],[-51.21571,0.40286],[-51.23639,0.40838],[-51.24449,0.43218],[-51.25108,0.43304],[-51.25198,0.44014],[-51.25956,0.445],[-51.25758,0.45378],[-51.27293,0.45236],[-51.28596,0.46277],[-51.29951,0.46517],[-51.30876,0.47587],[-51.31963,0.47572],[-51.33072,0.46842],[-51.36154,0.48822],[-51.38249,0.49166],[-51.40939,0.4861],[-51.41988,0.49995],[-51.42802,0.50795],[-51.44734,0.51288],[-51.45263,0.50299],[-51.46837,0.50006],[-51.46809,0.48825],[-51.48103,0.48191],[-51.49425,0.4828],[-51.50014,0.47357],[-51.51559,0.46578],[-51.51253,0.45422],[-51.51776,0.43118],[-51.53828,0.4188],[-51.53639,0.40545],[-51.52776,0.39997],[-51.53362,0.38882],[-51.53295,0.36551],[-51.53823,0.35626],[-51.53271,0.33406],[-51.54132,0.32077],[-51.53243,0.31285],[-51.53112,0.29742],[-51.53843,0.27949],[-51.53657,0.2723],[-51.55001,0.2609],[-51.5466,0.24852],[-51.55001,0.23416],[-51.5726,0.21655],[-51.57721,0.21571],[-51.57646,0.23038],[-51.59224,0.24177],[-51.6076,0.24518],[-51.60946,0.255],[-51.62513,0.27499],[-51.62996,0.27025],[-51.64674,0.28881],[-51.67393,0.30064],[-51.68249,0.31808],[-51.69071,0.32182],[-51.69499,0.32969],[-51.69099,0.33887],[-51.6966,0.34462],[-51.6911,0.34399],[-51.68021,0.35561],[-51.68993,0.36201],[-51.69732,0.38551],[-51.69329,0.39035],[-51.70071,0.40143],[-51.71282,0.40433],[-51.72032,0.41424],[-51.72999,0.41275],[-51.73649,0.40587],[-51.74638,0.41291],[-51.76337,0.4128],[-51.76649,0.42146],[-51.78143,0.42876],[-51.79301,0.45449],[-51.80404,0.45774],[-51.81765,0.45822],[-51.83007,0.45188],[-51.83696,0.45488],[-51.83524,0.45023],[-51.84051,0.44587],[-51.85627,0.44756],[-51.85732,0.4425],[-51.8731,0.44681],[-51.88896,0.45811],[-51.89899,0.44947],[-51.9091,0.45569],[-51.91238,0.45194],[-51.93452,0.45245],[-51.94499,0.45787],[-51.95191,0.45271],[-51.95607,0.4641],[-51.99558,0.47711],[-52.01621,0.48113],[-52.02866,0.47146],[-52.07049,0.50616],[-52.07955,0.51096],[-52.09746,0.51058],[-52.10836,0.49941],[-52.14277,0.48876],[-52.1635,0.46902],[-52.19939,0.45799],[-52.20095,0.44245],[-52.23311,0.40255],[-52.23742,0.39146],[-52.23365,0.36928],[-52.24148,0.3641],[-52.27206,0.37083],[-52.27981,0.36827],[-52.29587,0.39708],[-52.29967,0.38894],[-52.31456,0.37856],[-52.32312,0.3864],[-52.32801,0.38164],[-52.33598,0.38432],[-52.33765,0.40187],[-52.34656,0.40944],[-52.33723,0.42266],[-52.33617,0.43975],[-52.34713,0.43278],[-52.34865,0.44204],[-52.32807,0.45222],[-52.31303,0.4771],[-52.30971,0.49776],[-52.30425,0.50017],[-52.29044,0.50426],[-52.26976,0.5223],[-52.25692,0.54726],[-52.25432,0.56594],[-52.23008,0.60007],[-52.22414,0.60247],[-52.20612,0.59577],[-52.1925,0.60402],[-52.18366,0.61852],[-52.18352,0.62864],[-52.17627,0.63576],[-52.17774,0.64124],[-52.16997,0.63788],[-52.16371,0.64492],[-52.13969,0.63546],[-52.12822,0.64033],[-52.11495,0.63386],[-52.11364,0.64124],[-52.10384,0.64882],[-52.10772,0.66067],[-52.10103,0.67475],[-52.08945,0.67414],[-52.0899,0.66309],[-52.08503,0.6613],[-52.05908,0.66449],[-52.01844,0.69321],[-51.98067,0.69709],[-51.96252,0.69315],[-51.9517,0.6994],[-51.92918,0.69546],[-51.92124,0.70063],[-51.89624,0.69862],[-51.8849,0.70083],[-51.87745,0.70819],[-51.85255,0.67285],[-51.84375,0.68019],[-51.82536,0.6827],[-51.81406,0.6921],[-51.80209,0.69447],[-51.79659,0.68139],[-51.79862,0.66225],[-51.78568,0.64788],[-51.76548,0.66365],[-51.75686,0.66219],[-51.75203,0.6555],[-51.75834,0.62102],[-51.75358,0.618],[-51.73921,0.62334],[-51.72213,0.6513],[-51.72938,0.66605],[-51.72283,0.68317],[-51.70564,0.69694],[-51.71159,0.72704],[-51.73427,0.76517],[-51.75017,0.7698],[-51.74641,0.77774],[-51.75296,0.80068],[-51.76024,0.80592],[-51.77152,0.81364],[-51.77114,0.83172],[-51.79199,0.85675],[-51.79361,0.87419],[-51.80197,0.87423],[-51.80898,0.88536],[-51.82026,0.8855],[-51.82175,0.89425],[-51.83816,0.90368],[-51.83121,0.91584],[-51.83909,0.92175],[-51.83661,0.93183],[-51.82674,0.93026],[-51.80921,0.94197],[-51.80818,0.95202],[-51.79892,0.95716],[-51.80039,0.96505],[-51.77734,0.96864],[-51.77618,0.97604],[-51.78622,0.98639],[-51.78543,0.99412]]]},"properties":{"CD_MUN":"1600535","NM_MUN":"Porto Grande","SIGLA_UF":"AP"}},{"type":"Feature","geometry":{"type":"Polygon","coordinates":[[[-50.55951,1.47274],[-50.85988,1.59265],[-50.8901,1.58208],[-50.90838,1.5842],[-50.9251,1.61213],[-50.93533,1.61637],[-50.95137,1.60199],[-50.98083,1.59664],[-50.9902,1.60864],[-50.99934,1.60123],[-51.01602,1.6119],[-51.0116,1.6332],[-51.02467,1.64801],[-51.05328,1.61657],[-51.08851,1.59933],[-51.11349,1.60545],[-51.13207,1.60373],[-51.13781,1.61012],[-51.15028,1.60414],[-51.16063,1.61025],[-51.16885,1.63351],[-51.18529,1.6392],[-51.19711,1.63162],[-51.20718,1.65059],[-51.23379,1.65299],[-51.25477,1.68001],[-51.30192,1.68665],[-51.31351,1.69253],[-51.36834,1.67038],[-51.40603,1.64524],[-51.42439,1.63997],[-51.42504,1.61041],[-51.44934,1.58952],[-51.43601,1.57364],[-51.43446,1.52343],[-51.41109,1.51776],[-51.40601,1.50664],[-51.4104,1.50371],[-51.39137,1.48617],[-51.39332,1.47078],[-51.3796,1.45254],[-51.36743,1.4557],[-51.3624,1.43861],[-51.36476,1.42692],[-51.35568,1.4256],[-51.35554,1.41124],[-51.37154,1.40504],[-51.37452,1.39307],[-51.36899,1.38438],[-51.37071,1.37839],[-51.38207,1.37543],[-51.37746,1.36763],[-51.38113,1.32302],[-51.98593,1.32327],[-51.98859,1.32327],[-51.97107,1.3369],[-51.97028,1.36868],[-51.96251,1.3816],[-51.9647,1.38614],[-51.95634,1.38876],[-51.95193,1.40019],[-51.92492,1.39078],[-51.91137,1.40031],[-51.90954,1.41103],[-51.90634,1.40847],[-51.89173,1.41744],[-51.89598,1.42019],[-51.87856,1.43157],[-51.87387,1.442],[-51.86747,1.44319],[-51.86509,1.468],[-51.85775,1.47325],[-51.85144,1.49224],[-51.83795,1.50029],[-51.81955,1.525],[-51.79966,1.53704],[-51.77908,1.57303],[-51.76311,1.57351],[-51.7613,1.58041],[-51.74975,1.58881],[-51.73872,1.58935],[-51.73141,1.59558],[-51.71827,1.61992],[-51.71963,1.6366],[-51.71163,1.64645],[-51.71016,1.67168],[-51.70449,1.67435],[-51.70665,1.68703],[-51.69965,1.70544],[-51.70482,1.71498],[-51.70324,1.73172],[-51.69206,1.74861],[-51.68009,1.80417],[-51.66084,1.8282],[-51.646,1.87661],[-51.62536,1.88371],[-51.59282,1.88505],[-51.57959,1.86736],[-51.57257,1.86725],[-51.56179,1.85546],[-51.53112,1.85057],[-51.49966,1.82423],[-51.44595,1.77303],[-51.44713,1.75625],[-51.4407,1.75555],[-51.43454,1.76441],[-51.4273,1.76853],[-51.42001,1.76643],[-51.40378,1.78354],[-51.38138,1.79472],[-51.38034,1.80593],[-51.36746,1.81658],[-51.36476,1.82643],[-51.37114,1.85037],[-51.35947,1.84759],[-51.34237,1.85615],[-51.33178,1.8544],[-51.31442,1.86597],[-51.29877,1.86381],[-51.30141,1.87218],[-51.29655,1.88069],[-51.2841,1.89474],[-51.27155,1.89703],[-51.2458,1.88476],[-51.23474,1.87347],[-51.20896,1.8893],[-51.19531,1.8828],[-51.17944,1.89248],[-51.16672,1.89212],[-51.15174,1.88456],[-51.14964,1.87591],[-51.13732,1.87293],[-51.13415,1.86463],[-51.11631,1.85425],[-51.11343,1.84529],[-51.07841,1.8593],[-51.06205,1.8578],[-51.05425,1.86723],[-51.04171,1.86356],[-51.03447,1.86908],[-51.01046,1.85136],[-51.00179,1.85047],[-50.98995,1.83862],[-50.96621,1.83927],[-50.94401,1.82781],[-50.92399,1.83037],[-50.90858,1.82318],[-50.88079,1.82856],[-50.87449,1.82314],[-50.86713,1.83033],[-50.85406,1.8303],[-50.84441,1.82635],[-50.83747,1.81658],[-50.80752,1.80873],[-50.7978,1.79644],[-50.7994,1.79105],[-50.80892,1.78907],[-50.80841,1.7812],[-50.78647,1.79709],[-50.77688,1.79244],[-50.77844,1.81469],[-50.76833,1.81772],[-50.76652,1.82277],[-50.77421,1.82912],[-50.76997,1.83959],[-50.75871,1.82581],[-50.74404,1.83021],[-50.71991,1.8146],[-50.71013,1.81632],[-50.70142,1.82675],[-50.69036,1.83067],[-50.63959,1.82978],[-50.64125,1.82274],[-50.63179,1.79451],[-50.6129,1.76286],[-50.61439,1.74067],[-50.60617,1.73537],[-50.59828,1.74086],[-50.59692,1.73299],[-50.58296,1.73256],[-50.56703,1.71356],[-50.57243,1.69419],[-50.57984,1.68522],[-50.5663,1.65328],[-50.54927,1.64753],[-50.55254,1.62732],[-50.54658,1.61854],[-50.5479,1.60661],[-50.53793,1.59247],[-50.54213,1.56886],[-50.53574,1.54831],[-50.53869,1.52784],[-50.52696,1.51552],[-50.54184,1.50603],[-50.53699,1.49985],[-50.53553,1.49049],[-50.55684,1.48228],[-50.55951,1.47274]]]},"properties":{"CD_MUN":"1600550","NM_MUN":"Pracuúba","SIGLA_UF":"AP"}},{"type":"Feature","geometry":{"type":"Polygon","coordinates":[[[-51.16559,3.93634],[-51.17627,3.7721],[-51.18875,3.72445],[-51.1965,3.66661],[-51.18739,3.6277],[-51.18209,3.53948],[-51.18534,3.47018],[-51.1932,3.43698],[-51.1924,3.40594],[-51.1836,3.40066],[-51.17579,3.37696],[-51.17638,3.35291],[-51.16998,3.34023],[-51.17065,3.29694],[-51.18076,3.2725],[-51.18379,3.23889],[-51.1909,3.22958],[-51.22065,3.21968],[-51.2164,3.20646],[-51.22571,3.19825],[-51.23424,3.21721],[-51.23958,3.21614],[-51.23674,3.20682],[-51.2508,3.19188],[-51.24266,3.18172],[-51.24911,3.17578],[-51.24174,3.16838],[-51.24538,3.1613],[-51.23911,3.15288],[-51.22719,3.16136],[-51.22424,3.15836],[-51.25455,3.12236],[-51.26752,3.11889],[-51.2876,3.12427],[-51.28339,3.09697],[-51.29169,3.08251],[-51.30242,3.07706],[-51.30361,3.07092],[-51.31681,3.07942],[-51.32028,3.06696],[-51.33547,3.05732],[-51.35592,3.05278],[-51.37558,3.03242],[-51.36556,3.02802],[-51.3637,3.02135],[-51.38448,3.02834],[-51.39547,3.0226],[-51.39256,3.01257],[-51.38762,3.0149],[-51.38586,3.01065],[-51.40087,2.99124],[-51.39831,2.98255],[-51.4197,2.95621],[-51.422,2.94591],[-51.43767,2.93655],[-51.43537,2.93048],[-51.42656,2.9291],[-51.42837,2.92404],[-51.42112,2.9147],[-51.43526,2.90597],[-51.43354,2.88553],[-51.45168,2.87021],[-51.46165,2.87296],[-51.46734,2.86456],[-51.45568,2.85982],[-51.47224,2.85427],[-51.47102,2.84748],[-51.47868,2.83928],[-51.50088,2.83135],[-51.51915,2.82381],[-51.51221,2.80395],[-51.51138,2.79573],[-51.51718,2.78819],[-51.5131,2.78035],[-51.52441,2.77713],[-51.52096,2.77244],[-51.54652,2.73589],[-51.55635,2.70365],[-51.5643,2.69385],[-51.56889,2.69609],[-51.58077,2.6774],[-51.59128,2.67482],[-51.59692,2.65391],[-51.62281,2.63172],[-51.625,2.62032],[-51.63389,2.61874],[-51.63659,2.60236],[-51.6507,2.58186],[-51.64092,2.56952],[-51.64775,2.54671],[-51.65639,2.53518],[-51.66889,2.53431],[-51.67192,2.52869],[-51.68189,2.52638],[-51.69034,2.50409],[-51.68398,2.4995],[-51.69765,2.47283],[-51.72021,2.451],[-51.72971,2.43298],[-51.74779,2.42412],[-51.75182,2.40337],[-51.7689,2.38096],[-51.78093,2.37849],[-51.79604,2.38849],[-51.80519,2.37598],[-51.82035,2.37235],[-51.84577,2.39575],[-51.86218,2.39402],[-51.86418,2.38988],[-51.85436,2.38198],[-51.85074,2.36625],[-51.86171,2.35943],[-51.86544,2.3488],[-51.8863,2.3404],[-51.89222,2.34467],[-51.89494,2.35723],[-51.91405,2.35614],[-51.92619,2.37624],[-51.93322,2.37014],[-51.9398,2.37856],[-51.94905,2.3786],[-51.95683,2.4087],[-51.98355,2.41613],[-51.99447,2.40561],[-52.002,2.42102],[-51.99302,2.42484],[-51.99391,2.43061],[-52.0096,2.44019],[-52.01477,2.43685],[-52.0438,2.43838],[-52.05016,2.40205],[-52.05883,2.39168],[-52.07175,2.39455],[-52.09072,2.41001],[-52.09441,2.39926],[-52.11219,2.40134],[-52.1182,2.3939],[-52.11069,2.38506],[-52.11847,2.38285],[-52.1233,2.37516],[-52.1183,2.3545],[-52.13214,2.3301],[-52.15064,2.32029],[-52.1502,2.30336],[-52.15912,2.29815],[-52.17487,2.30324],[-52.18339,2.29115],[-52.17906,2.27853],[-52.18881,2.27947],[-52.19267,2.26156],[-52.20479,2.26553],[-52.2147,2.2603],[-52.23026,2.26432],[-52.2359,2.25064],[-52.24773,2.24185],[-52.24245,2.22671],[-52.24532,2.20339],[-52.23046,2.20191],[-52.21948,2.1856],[-52.24121,2.1934],[-52.25135,2.16906],[-52.26787,2.16028],[-52.29868,2.15499],[-52.3181,2.15866],[-52.33363,2.15588],[-52.34624,2.14028],[-52.35438,2.14187],[-52.36393,2.11944],[-52.37068,2.11942],[-52.4133,2.08795],[-52.40836,2.03051],[-52.41711,2.03825],[-52.42689,2.03628],[-52.43839,2.04534],[-52.45652,2.04233],[-52.45697,2.03698],[-52.4638,2.03551],[-52.49594,2.04179],[-52.51023,2.02861],[-52.52736,2.02457],[-52.5335,2.01537],[-52.55136,2.00988],[-52.55712,2.022],[-52.56464,2.01659],[-52.59089,2.01491],[-52.58784,2.00578],[-52.5927,2.0038],[-52.60912,2.01006],[-52.61565,2.02507],[-52.63351,2.03332],[-52.64426,2.05113],[-52.64948,2.05195],[-52.65576,2.04492],[-52.66706,2.05704],[-52.68162,2.05417],[-52.67998,2.06953],[-52.69067,2.06313],[-52.69739,2.06702],[-52.71428,2.06298],[-52.72792,2.07312],[-52.75623,2.06801],[-52.75917,2.07804],[-52.79562,2.07168],[-52.81179,2.0848],[-52.82831,2.08374],[-52.83523,2.07851],[-52.83776,2.06939],[-52.82762,2.06657],[-52.83084,2.05836],[-52.82782,2.05212],[-52.83618,2.03668],[-52.84399,2.0347],[-52.8581,2.04023],[-52.8669,2.02507],[-52.88846,2.03206],[-52.90274,2.01672],[-52.90329,2.00922],[-52.90768,2.00896],[-52.90246,1.99959],[-52.9066,1.99223],[-52.89946,1.96287],[-52.92021,1.94193],[-52.92799,1.95043],[-52.94566,1.94544],[-52.96069,1.95106],[-52.99344,1.95233],[-53.00757,1.97865],[-53.02446,1.98124],[-53.04691,1.97228],[-53.05788,1.94686],[-53.07247,1.94516],[-53.08994,1.97551],[-53.10947,1.98084],[-53.11519,2.00734],[-53.13202,2.01929],[-53.13794,2.06664],[-53.1341,2.09191],[-53.13813,2.10125],[-53.16527,2.11148],[-53.20152,2.13399],[-53.23566,2.14489],[-53.26888,2.17088],[-53.27816,2.18629],[-53.27491,2.19444],[-53.26032,2.18961],[-53.25458,2.19801],[-53.24554,2.19926],[-53.24174,2.20789],[-53.21446,2.1941],[-53.20735,2.19955],[-53.18416,2.19955],[-53.13763,2.2122],[-53.09851,2.21458],[-53.07851,2.21078],[-53.03949,2.17371],[-53.00681,2.16962],[-52.98754,2.15764],[-52.94326,2.16904],[-52.93476,2.19327],[-52.90495,2.18583],[-52.89037,2.21481],[-52.88398,2.2185],[-52.88664,2.23458],[-52.8747,2.23782],[-52.87081,2.25724],[-52.85295,2.25957],[-52.85061,2.26652],[-52.85634,2.27773],[-52.84044,2.27726],[-52.83684,2.27942],[-52.83908,2.28729],[-52.79891,2.29862],[-52.78041,2.30754],[-52.7768,2.31494],[-52.77286,2.31114],[-52.73683,2.33169],[-52.71516,2.33591],[-52.71596,2.34368],[-52.66058,2.38174],[-52.65663,2.39492],[-52.65982,2.40459],[-52.64176,2.42201],[-52.64129,2.43601],[-52.6333,2.44485],[-52.62707,2.44855],[-52.61235,2.44637],[-52.60443,2.45259],[-52.61396,2.46389],[-52.60954,2.47536],[-52.58635,2.47371],[-52.5847,2.49449],[-52.56432,2.51259],[-52.55378,2.51528],[-52.5517,2.52759],[-52.55637,2.52702],[-52.56251,2.54489],[-52.55179,2.55681],[-52.53882,2.55471],[-52.53531,2.57128],[-52.52656,2.58002],[-52.53481,2.59571],[-52.55181,2.60692],[-52.54475,2.61926],[-52.55683,2.6371],[-52.54692,2.64938],[-52.53225,2.64738],[-52.52289,2.67891],[-52.51111,2.69391],[-52.49911,2.72352],[-52.48514,2.74762],[-52.48794,2.75538],[-52.4805,2.76273],[-52.48266,2.77687],[-52.47733,2.79054],[-52.42602,2.88663],[-52.41021,2.89538],[-52.39582,2.89342],[-52.3806,2.91379],[-52.39232,2.91375],[-52.40043,2.9246],[-52.3939,2.93618],[-52.39729,2.94096],[-52.38407,2.95414],[-52.36435,3.02219],[-52.3552,3.02765],[-52.32798,3.08046],[-52.34637,3.10095],[-52.34034,3.12431],[-52.34951,3.12403],[-52.35317,3.12861],[-52.34981,3.13803],[-52.33812,3.14004],[-52.34003,3.14944],[-52.33333,3.1592],[-52.33217,3.17255],[-52.30553,3.17608],[-52.30933,3.20464],[-52.29211,3.23423],[-52.26805,3.24457],[-52.2613,3.25659],[-52.25058,3.25149],[-52.24847,3.24336],[-52.23511,3.24491],[-52.20124,3.2945],[-52.19102,3.30167],[-52.1921,3.31443],[-52.16168,3.35446],[-52.1129,3.45287],[-52.09798,3.46581],[-52.09304,3.48974],[-52.07606,3.50409],[-52.07484,3.51903],[-52.06029,3.52328],[-52.02403,3.59196],[-52.0033,3.61235],[-51.99922,3.62232],[-51.99333,3.63187],[-51.98814,3.67533],[-51.97919,3.68541],[-51.97091,3.71923],[-51.95661,3.73186],[-51.92718,3.72924],[-51.92041,3.74714],[-51.92813,3.77259],[-51.92321,3.78376],[-51.90552,3.79143],[-51.90069,3.79912],[-51.88968,3.79949],[-51.87504,3.80769],[-51.84732,3.84433],[-51.82726,3.85472],[-51.81971,3.87019],[-51.80126,3.88164],[-51.77881,3.92519],[-51.77648,3.95741],[-51.75462,3.98844],[-51.74245,3.99677],[-51.70734,4.00135],[-51.68442,4.02555],[-51.66483,4.02879],[-51.64539,4.04486],[-51.64347,4.07411],[-51.63502,4.08721],[-51.6186,4.14245],[-51.59435,4.19173],[-51.59668,4.2301],[-51.59099,4.23561],[-51.5824,4.27151],[-51.57268,4.34474],[-51.55298,4.41505],[-51.53928,4.43049],[-51.51287,4.43707],[-51.4265,4.37392],[-51.34492,4.2956],[-51.25084,4.19173],[-51.22976,4.15909],[-51.22573,4.14384],[-51.20912,4.1235],[-51.18851,4.06374],[-51.18959,4.05631],[-51.18373,4.0511],[-51.17562,3.98746],[-51.17785,3.94515],[-51.16559,3.93634]]]},"properties":{"CD_MUN":"1600501","NM_MUN":"Oiapoque","SIGLA_UF":"AP"}},{"type":"Feature","geometry":{"type":"Polygon","coordinates":[[[-52.73639,0.8156],[-52.72106,0.82671],[-52.67442,0.82662],[-52.66217,0.83423],[-52.65942,0.82807],[-52.66492,0.80869],[-52.6607,0.79223],[-52.64375,0.77651],[-52.6312,0.77481],[-52.61775,0.75983],[-52.61381,0.74066],[-52.58286,0.74201],[-52.56787,0.72522],[-52.54556,0.7212],[-52.53206,0.69764],[-52.5,0.67252],[-52.49711,0.65995],[-52.5057,0.64826],[-52.50247,0.64237],[-52.48064,0.63216],[-52.47981,0.61661],[-52.46822,0.60211],[-52.46292,0.57743],[-52.43739,0.5701],[-52.41378,0.54923],[-52.41589,0.5109],[-52.39487,0.49902],[-52.39297,0.48544],[-52.38311,0.48492],[-52.38584,0.46822],[-52.37581,0.45169],[-52.36414,0.44908],[-52.34713,0.43278],[-52.33617,0.43975],[-52.33723,0.42266],[-52.34656,0.40944],[-52.33765,0.40187],[-52.33598,0.38432],[-52.32801,0.38164],[-52.32312,0.3864],[-52.31456,0.37856],[-52.29967,0.38894],[-52.29587,0.39708],[-52.27981,0.36827],[-52.27206,0.37083],[-52.24148,0.3641],[-52.23365,0.36928],[-52.23742,0.39146],[-52.23311,0.40255],[-52.20095,0.44245],[-52.19939,0.45799],[-52.1635,0.46902],[-52.14277,0.48876],[-52.10836,0.49941],[-52.09746,0.51058],[-52.07955,0.51096],[-52.07049,0.50616],[-52.02866,0.47146],[-52.01621,0.48113],[-51.99558,0.47711],[-51.95607,0.4641],[-51.95191,0.45271],[-51.94499,0.45787],[-51.93452,0.45245],[-51.91238,0.45194],[-51.9091,0.45569],[-51.89899,0.44947],[-51.88896,0.45811],[-51.8731,0.44681],[-51.85732,0.4425],[-51.85627,0.44756],[-51.84051,0.44587],[-51.83524,0.45023],[-51.83696,0.45488],[-51.83007,0.45188],[-51.81765,0.45822],[-51.80404,0.45774],[-51.79301,0.45449],[-51.78143,0.42876],[-51.76649,0.42146],[-51.76337,0.4128],[-51.74638,0.41291],[-51.73649,0.40587],[-51.72999,0.41275],[-51.72032,0.41424],[-51.71282,0.40433],[-51.70071,0.40143],[-51.69329,0.39035],[-51.69732,0.38551],[-51.68993,0.36201],[-51.68021,0.35561],[-51.6911,0.34399],[-51.6966,0.34462],[-51.69099,0.33887],[-51.69499,0.32969],[-51.69071,0.32182],[-51.68249,0.31808],[-51.67393,0.30064],[-51.64674,0.28881],[-51.62996,0.27025],[-51.62513,0.27499],[-51.60946,0.255],[-51.6076,0.24518],[-51.59224,0.24177],[-51.57646,0.23038],[-51.57721,0.21571],[-51.5726,0.21655],[-51.56807,0.20034],[-51.57338,0.2006],[-51.57646,0.19421],[-51.57274,0.1636],[-51.57921,0.15953],[-51.57794,0.14935],[-51.57433,0.14005],[-51.56891,0.14631],[-51.56508,0.13909],[-51.56782,0.13088],[-51.55908,0.11616],[-51.56216,0.10913],[-51.53427,0.08088],[-51.53402,0.05767],[-51.52855,0.04788],[-51.48944,0.0373],[-51.48702,0.0251],[-51.45566,0.01247],[-51.4383,-0.03525],[-51.42016,-0.05094],[-51.40841,-0.05485],[-51.39891,-0.0723],[-51.36549,-0.07351],[-51.32782,-0.08336],[-51.3146,-0.07977],[-51.2851,-0.08814],[-51.2726,-0.099],[-51.25091,-0.08671],[-51.22843,-0.08934],[-51.21949,-0.09571],[-51.21538,-0.11837],[-51.3015,-0.25239],[-51.32205,-0.26353],[-51.33803,-0.28433],[-51.35348,-0.31828],[-51.36154,-0.36786],[-51.41976,-0.42875],[-51.43151,-0.4731],[-51.45682,-0.513],[-51.48366,-0.54319],[-51.51416,-0.5658],[-51.59458,-0.6502],[-51.68264,-0.79721],[-51.71207,-0.8043],[-51.73893,-0.8283],[-51.71973,-0.83382],[-51.73654,-0.84192],[-51.72901,-0.84546],[-51.72573,-0.85851],[-51.74021,-0.85853],[-51.73935,-0.86725],[-51.75084,-0.86423],[-51.77037,-0.87051],[-51.78315,-0.85728],[-51.79154,-0.86879],[-51.80679,-0.86495],[-51.80518,-0.87207],[-51.80871,-0.87378],[-51.82237,-0.86201],[-51.82404,-0.88131],[-51.81543,-0.89003],[-51.82388,-0.91231],[-51.83391,-0.90872],[-51.83427,-0.92141],[-51.8464,-0.90494],[-51.8591,-0.90426],[-51.86313,-0.89297],[-51.87974,-0.88292],[-51.88752,-0.89207],[-51.89624,-0.88187],[-51.90246,-0.88662],[-51.90313,-0.87598],[-51.90866,-0.87411],[-51.91293,-0.88435],[-51.92238,-0.87311],[-51.92399,-0.88223],[-51.92941,-0.88198],[-51.94407,-0.86075],[-51.95311,-0.85925],[-51.95757,-0.84913],[-51.95533,-0.83721],[-51.93965,-0.81154],[-51.94076,-0.79927],[-51.94663,-0.80063],[-51.94221,-0.77444],[-51.93791,-0.77069],[-51.94421,-0.75566],[-51.9591,-0.74741],[-51.96818,-0.74827],[-51.97929,-0.72475],[-51.97977,-0.70304],[-51.98495,-0.69055],[-52.0054,-0.68323],[-52.01773,-0.68595],[-52.04404,-0.64605],[-52.05449,-0.64216],[-52.0609,-0.56943],[-52.08329,-0.5637],[-52.0734,-0.54972],[-52.07156,-0.52924],[-52.07695,-0.52722],[-52.07493,-0.51988],[-52.08123,-0.51356],[-52.06254,-0.48203],[-52.06617,-0.4647],[-52.07387,-0.46249],[-52.07978,-0.44939],[-52.08481,-0.39632],[-52.08014,-0.34077],[-52.12722,-0.2869],[-52.17528,-0.27036],[-52.19667,-0.25653],[-52.23994,-0.25882],[-52.25223,-0.25225],[-52.29592,-0.20391],[-52.30689,-0.17316],[-52.33125,-0.14644],[-52.36414,-0.14008],[-52.43528,-0.10746],[-52.46181,-0.10564],[-52.49745,-0.11383],[-52.53362,-0.15034],[-52.53801,-0.14288],[-52.55612,-0.14299],[-52.5574,-0.11728],[-52.5507,-0.11004],[-52.54693,-0.11128],[-52.54831,-0.10742],[-52.55951,-0.09689],[-52.55345,-0.09257],[-52.5452,-0.09671],[-52.53178,-0.08191],[-52.53056,-0.06998],[-52.53489,-0.06754],[-52.52547,-0.02256],[-52.5067,-0.01834],[-52.50297,-0.0066],[-52.50289,0.00801],[-52.51075,0.01814],[-52.50228,0.03394],[-52.51367,0.04267],[-52.50069,0.05281],[-52.51175,0.06236],[-52.50755,0.069],[-52.51147,0.07249],[-52.49892,0.08517],[-52.50555,0.10037],[-52.49702,0.12025],[-52.50352,0.13778],[-52.49327,0.14514],[-52.49475,0.17226],[-52.48722,0.18161],[-52.48516,0.19434],[-52.49738,0.21951],[-52.48535,0.2182],[-52.48469,0.22489],[-52.49885,0.23706],[-52.49451,0.24515],[-52.49669,0.25411],[-52.48885,0.25538],[-52.48974,0.2684],[-52.48335,0.27053],[-52.48563,0.27723],[-52.49388,0.28064],[-52.49513,0.29757],[-52.50808,0.31644],[-52.53435,0.34387],[-52.5386,0.35621],[-52.55752,0.36402],[-52.55573,0.378],[-52.56335,0.37737],[-52.56907,0.38277],[-52.56538,0.40909],[-52.57571,0.43749],[-52.58373,0.43984],[-52.57026,0.45233],[-52.57177,0.46678],[-52.58715,0.48519],[-52.59221,0.50149],[-52.60976,0.52721],[-52.63148,0.54035],[-52.66415,0.60132],[-52.66029,0.61647],[-52.66682,0.66817],[-52.65442,0.74423],[-52.66492,0.76128],[-52.66678,0.78414],[-52.73639,0.8156]]]},"properties":{"CD_MUN":"1600402","NM_MUN":"Mazagão","SIGLA_UF":"AP"}},{"type":"Feature","geometry":{"type":"Polygon","coordinates":[[[-53.27816,2.18629],[-53.26888,2.17088],[-53.23566,2.14489],[-53.20152,2.13399],[-53.16527,2.11148],[-53.13813,2.10125],[-53.1341,2.09191],[-53.13794,2.06664],[-53.13202,2.01929],[-53.11519,2.00734],[-53.10947,1.98084],[-53.08994,1.97551],[-53.07247,1.94516],[-53.05788,1.94686],[-53.05133,1.91404],[-53.04139,1.90758],[-53.04089,1.89829],[-53.02608,1.87501],[-53.0248,1.85237],[-52.99847,1.82639],[-52.99411,1.81522],[-53.00947,1.79708],[-53.01003,1.77682],[-53.0035,1.76266],[-52.98778,1.75388],[-52.96967,1.70585],[-52.98439,1.68085],[-52.99326,1.62939],[-52.97598,1.57432],[-52.96628,1.56109],[-52.95112,1.55455],[-52.91478,1.56001],[-52.87822,1.54767],[-52.86612,1.53367],[-52.86198,1.51528],[-52.8702,1.46513],[-52.86834,1.44174],[-52.88937,1.3892],[-52.91388,1.35797],[-52.91613,1.33702],[-52.92907,1.30786],[-52.92749,1.27084],[-52.93135,1.26515],[-52.95244,1.26579],[-52.96391,1.23989],[-52.97149,1.20639],[-52.96292,1.13604],[-52.95905,1.12701],[-52.93628,1.12031],[-52.9118,1.09654],[-52.89181,1.08623],[-52.8905,1.05183],[-52.87803,1.04081],[-52.87311,1.02455],[-52.87078,1.01054],[-52.87675,0.99585],[-52.86711,0.9696],[-52.84533,0.9516],[-52.83789,0.95129],[-52.82905,0.95981],[-52.82314,0.95707],[-52.8232,0.93052],[-52.83672,0.90504],[-52.83445,0.89537],[-52.82345,0.88537],[-52.82234,0.87588],[-52.81528,0.87431],[-52.78803,0.88625],[-52.77112,0.8764],[-52.76061,0.86108],[-52.7472,0.85595],[-52.75461,0.82582],[-52.74626,0.81666],[-52.73639,0.8156],[-52.66678,0.78414],[-52.66492,0.76128],[-52.65442,0.74423],[-52.66682,0.66817],[-52.66029,0.61647],[-52.66415,0.60132],[-52.63148,0.54035],[-52.60976,0.52721],[-52.59221,0.50149],[-52.58715,0.48519],[-52.57177,0.46678],[-52.57026,0.45233],[-52.58373,0.43984],[-52.57571,0.43749],[-52.56538,0.40909],[-52.56907,0.38277],[-52.56335,0.37737],[-52.55573,0.378],[-52.55752,0.36402],[-52.5386,0.35621],[-52.53435,0.34387],[-52.50808,0.31644],[-52.49513,0.29757],[-52.49388,0.28064],[-52.48563,0.27723],[-52.48335,0.27053],[-52.48974,0.2684],[-52.48885,0.25538],[-52.49669,0.25411],[-52.49451,0.24515],[-52.49885,0.23706],[-52.48469,0.22489],[-52.48535,0.2182],[-52.49738,0.21951],[-52.48516,0.19434],[-52.48722,0.18161],[-52.49475,0.17226],[-52.49327,0.14514],[-52.50352,0.13778],[-52.49702,0.12025],[-52.50555,0.10037],[-52.49892,0.08517],[-52.51147,0.07249],[-52.50755,0.069],[-52.51175,0.06236],[-52.50069,0.05281],[-52.51367,0.04267],[-52.50228,0.03394],[-52.51075,0.01814],[-52.50289,0.00801],[-52.50297,-0.0066],[-52.5067,-0.01834],[-52.52547,-0.02256],[-52.53489,-0.06754],[-52.53056,-0.06998],[-52.53178,-0.08191],[-52.5452,-0.09671],[-52.55345,-0.09257],[-52.55951,-0.09689],[-52.54831,-0.10742],[-52.54693,-0.11128],[-52.5507,-0.11004],[-52.5574,-0.11728],[-52.55612,-0.14299],[-52.53801,-0.14288],[-52.53362,-0.15034],[-52.49745,-0.11383],[-52.46181,-0.10564],[-52.43528,-0.10746],[-52.36414,-0.14008],[-52.33125,-0.14644],[-52.30689,-0.17316],[-52.29592,-0.20391],[-52.25223,-0.25225],[-52.23994,-0.25882],[-52.19667,-0.25653],[-52.17528,-0.27036],[-52.12722,-0.2869],[-52.08014,-0.34077],[-52.08481,-0.39632],[-52.07978,-0.44939],[-52.07387,-0.46249],[-52.06617,-0.4647],[-52.06254,-0.48203],[-52.08123,-0.51356],[-52.07493,-0.51988],[-52.07695,-0.52722],[-52.07156,-0.52924],[-52.0734,-0.54972],[-52.08329,-0.5637],[-52.0609,-0.56943],[-52.05449,-0.64216],[-52.04404,-0.64605],[-52.01773,-0.68595],[-52.0054,-0.68323],[-51.98495,-0.69055],[-51.97977,-0.70304],[-51.97929,-0.72475],[-51.96818,-0.74827],[-51.9591,-0.74741],[-51.94421,-0.75566],[-51.93791,-0.77069],[-51.94221,-0.77444],[-51.94663,-0.80063],[-51.94076,-0.79927],[-51.93965,-0.81154],[-51.95533,-0.83721],[-51.95757,-0.84913],[-51.95311,-0.85925],[-51.94407,-0.86075],[-51.92941,-0.88198],[-51.92399,-0.88223],[-51.92238,-0.87311],[-51.91293,-0.88435],[-51.90866,-0.87411],[-51.90313,-0.87598],[-51.90246,-0.88662],[-51.89624,-0.88187],[-51.88752,-0.89207],[-51.87974,-0.88292],[-51.86313,-0.89297],[-51.8591,-0.90426],[-51.8464,-0.90494],[-51.83427,-0.92141],[-51.83391,-0.90872],[-51.82388,-0.91231],[-51.81543,-0.89003],[-51.82404,-0.88131],[-51.82237,-0.86201],[-51.80871,-0.87378],[-51.80518,-0.87207],[-51.80679,-0.86495],[-51.79154,-0.86879],[-51.78315,-0.85728],[-51.77037,-0.87051],[-51.75084,-0.86423],[-51.73935,-0.86725],[-51.74021,-0.85853],[-51.72573,-0.85851],[-51.72901,-0.84546],[-51.73654,-0.84192],[-51.71973,-0.83382],[-51.73893,-0.8283],[-51.71207,-0.8043],[-51.68264,-0.79721],[-51.69465,-0.92448],[-51.68471,-1.01263],[-51.6863,-1.03577],[-51.70338,-1.06748],[-51.77747,-1.14018],[-51.80817,-1.15686],[-51.88636,-1.16616],[-51.89622,-1.16184],[-51.92503,-1.13208],[-51.93245,-1.13725],[-51.94597,-1.16577],[-51.95495,-1.16944],[-51.965,-1.15936],[-51.96103,-1.1342],[-51.96467,-1.12557],[-51.98445,-1.12121],[-51.99247,-1.12873],[-51.98612,-1.1566],[-51.9902,-1.17158],[-52.01042,-1.16736],[-52.03998,-1.1699],[-52.06307,-1.18569],[-52.04614,-1.21907],[-52.05059,-1.23035],[-52.05932,-1.23594],[-52.09787,-1.22768],[-52.10896,-1.21788],[-52.10584,-1.18281],[-52.11934,-1.14596],[-52.14582,-1.14855],[-52.16148,-1.1338],[-52.17265,-1.12989],[-52.21817,-1.13463],[-52.23773,-1.126],[-52.2724,-1.12829],[-52.30007,-1.11566],[-52.33207,-1.11565],[-52.35724,-1.06234],[-52.39927,-1.04339],[-52.41915,-1.05246],[-52.42613,-1.05055],[-52.42832,-1.04239],[-52.41587,-1.02537],[-52.41354,-1.00903],[-52.41901,-0.96571],[-52.43468,-0.94992],[-52.43862,-0.9345],[-52.42843,-0.92008],[-52.4039,-0.91317],[-52.40223,-0.8769],[-52.41892,-0.85445],[-52.4434,-0.83392],[-52.45459,-0.83002],[-52.46748,-0.84084],[-52.51601,-0.85836],[-52.53773,-0.85456],[-52.53412,-0.84179],[-52.50893,-0.8132],[-52.52026,-0.80088],[-52.52184,-0.79171],[-52.5009,-0.74651],[-52.49622,-0.72269],[-52.50081,-0.6925],[-52.51492,-0.66332],[-52.50914,-0.65118],[-52.51106,-0.62635],[-52.52409,-0.58509],[-52.53905,-0.57285],[-52.58211,-0.5775],[-52.61206,-0.59464],[-52.62825,-0.59359],[-52.63906,-0.58469],[-52.66684,-0.54388],[-52.66636,-0.52485],[-52.68125,-0.51601],[-52.6945,-0.49614],[-52.69008,-0.4769],[-52.70175,-0.45897],[-52.67822,-0.42341],[-52.69764,-0.3869],[-52.68091,-0.33971],[-52.68788,-0.30387],[-52.69996,-0.29258],[-52.7153,-0.29244],[-52.73927,-0.27635],[-52.75349,-0.26192],[-52.75949,-0.23732],[-52.83516,-0.18588],[-52.8506,-0.1499],[-52.87588,-0.14249],[-52.90308,-0.15467],[-52.9318,-0.14204],[-52.95908,-0.06295],[-52.96807,-0.04952],[-52.97641,-9e-05],[-52.97491,0.01872],[-52.9789,0.02835],[-52.98855,0.03904],[-53.00274,0.04414],[-53.01402,0.05999],[-53.01018,0.09533],[-53.02832,0.105],[-53.05118,0.15759],[-53.09334,0.19555],[-53.10546,0.23202],[-53.09393,0.26251],[-53.11096,0.28679],[-53.1334,0.30042],[-53.13784,0.33078],[-53.14757,0.34867],[-53.16331,0.36028],[-53.17409,0.37738],[-53.15898,0.40329],[-53.15828,0.42063],[-53.16678,0.446],[-53.15417,0.48045],[-53.16881,0.49402],[-53.15867,0.51408],[-53.16175,0.52274],[-53.14742,0.54196],[-53.1472,0.55235],[-53.15389,0.5636],[-53.14928,0.59136],[-53.11952,0.63423],[-53.10533,0.68426],[-53.12316,0.69762],[-53.13588,0.69322],[-53.14291,0.69653],[-53.15644,0.72933],[-53.18363,0.74779],[-53.1893,0.76862],[-53.20146,0.77606],[-53.20602,0.77359],[-53.21344,0.78602],[-53.27386,0.82526],[-53.28652,0.84605],[-53.30132,0.85924],[-53.35397,0.88858],[-53.41052,0.92963],[-53.40983,0.98237],[-53.42586,0.99276],[-53.42757,0.99955],[-53.42896,1.02007],[-53.42038,1.02922],[-53.42135,1.034],[-53.43371,1.04833],[-53.43499,1.05988],[-53.45485,1.07767],[-53.45857,1.12782],[-53.45446,1.14123],[-53.43879,1.15394],[-53.42029,1.14769],[-53.40343,1.15147],[-53.39509,1.17955],[-53.40201,1.1942],[-53.41645,1.20304],[-53.42432,1.22175],[-53.42554,1.24303],[-53.4419,1.23213],[-53.47276,1.23962],[-53.49204,1.22699],[-53.5289,1.21053],[-53.53801,1.21277],[-53.54434,1.22183],[-53.54535,1.22878],[-53.5296,1.24562],[-53.52234,1.26161],[-53.53334,1.27649],[-53.55173,1.28058],[-53.56106,1.30139],[-53.56026,1.31112],[-53.5324,1.32273],[-53.53537,1.33691],[-53.54465,1.34778],[-53.56287,1.34998],[-53.56448,1.34008],[-53.5697,1.33759],[-53.59423,1.35849],[-53.63226,1.34767],[-53.6409,1.33529],[-53.66038,1.34525],[-53.6621,1.34976],[-53.64254,1.36422],[-53.64415,1.38053],[-53.63946,1.39266],[-53.64585,1.40793],[-53.65679,1.40431],[-53.66387,1.37554],[-53.66957,1.37233],[-53.67948,1.37285],[-53.68207,1.38467],[-53.68651,1.38614],[-53.70048,1.37823],[-53.71048,1.38426],[-53.71246,1.3967],[-53.69482,1.41845],[-53.69584,1.42323],[-53.71621,1.43204],[-53.72307,1.4285],[-53.71504,1.41825],[-53.71443,1.40564],[-53.73038,1.39604],[-53.73135,1.38659],[-53.75412,1.39492],[-53.76149,1.4087],[-53.76707,1.39623],[-53.77363,1.3972],[-53.79071,1.41702],[-53.80302,1.42381],[-53.81468,1.4222],[-53.82179,1.41418],[-53.80652,1.40234],[-53.80607,1.39212],[-53.84938,1.39211],[-53.8501,1.39884],[-53.84062,1.40238],[-53.84332,1.40661],[-53.85399,1.40192],[-53.87232,1.40824],[-53.88466,1.40276],[-53.88677,1.40811],[-53.87577,1.43578],[-53.89226,1.44372],[-53.89502,1.45539],[-53.91655,1.45722],[-53.92152,1.44261],[-53.93732,1.43573],[-53.93949,1.4436],[-53.92941,1.45025],[-53.92491,1.46579],[-53.92776,1.46953],[-53.9531,1.46825],[-53.95493,1.48017],[-53.9661,1.4847],[-53.97516,1.47256],[-53.98518,1.47938],[-53.99649,1.47612],[-54.00249,1.48967],[-53.99854,1.50509],[-54.00807,1.51999],[-54.0266,1.51714],[-54.02018,1.50713],[-54.0236,1.50012],[-54.03902,1.50644],[-54.05496,1.49383],[-54.06818,1.50124],[-54.07846,1.49525],[-54.07699,1.48603],[-54.08549,1.48861],[-54.08805,1.51396],[-54.0836,1.52667],[-54.0978,1.55081],[-54.11354,1.55153],[-54.11655,1.55852],[-54.10102,1.59092],[-54.11757,1.58179],[-54.12185,1.59119],[-54.12738,1.59167],[-54.13041,1.59718],[-54.1216,1.60213],[-54.1221,1.60775],[-54.13252,1.61742],[-54.12882,1.62424],[-54.14138,1.62885],[-54.14269,1.6409],[-54.16793,1.64434],[-54.18124,1.65838],[-54.19013,1.62525],[-54.20197,1.64935],[-54.22738,1.6656],[-54.22915,1.67631],[-54.24346,1.67643],[-54.24835,1.68408],[-54.26268,1.68045],[-54.26177,1.68865],[-54.26827,1.69454],[-54.26469,1.69609],[-54.2686,1.70515],[-54.26582,1.70837],[-54.29138,1.70909],[-54.28197,1.71658],[-54.28066,1.72421],[-54.28891,1.72088],[-54.29221,1.72636],[-54.29947,1.72414],[-54.31226,1.73433],[-54.3048,1.7372],[-54.30833,1.74137],[-54.31591,1.73712],[-54.32857,1.74412],[-54.34369,1.74097],[-54.34322,1.74696],[-54.34985,1.74775],[-54.35071,1.7544],[-54.37674,1.76398],[-54.38646,1.7455],[-54.40297,1.76007],[-54.41691,1.75689],[-54.42369,1.76079],[-54.43363,1.75439],[-54.46383,1.75948],[-54.4703,1.7518],[-54.48375,1.75576],[-54.49019,1.74763],[-54.50086,1.7514],[-54.50758,1.74855],[-54.523,1.75635],[-54.53602,1.77061],[-54.57011,1.77788],[-54.56994,1.7848],[-54.58008,1.77801],[-54.60095,1.78486],[-54.61075,1.77964],[-54.62492,1.781],[-54.64267,1.76894],[-54.65058,1.77197],[-54.67022,1.76596],[-54.6912,1.76817],[-54.69953,1.77608],[-54.71756,1.7714],[-54.74381,1.7761],[-54.75345,1.79817],[-54.74595,1.80611],[-54.7497,1.81459],[-54.73306,1.83235],[-54.73964,1.83239],[-54.73881,1.83963],[-54.74758,1.84268],[-54.75222,1.8513],[-54.75211,1.87608],[-54.76255,1.89284],[-54.76089,1.90596],[-54.76494,1.90798],[-54.7706,1.94082],[-54.76405,1.94427],[-54.75347,1.97091],[-54.76302,1.97913],[-54.77116,1.97876],[-54.76805,1.99655],[-54.78999,2.00758],[-54.80283,2.02617],[-54.81036,2.03977],[-54.80499,2.05409],[-54.81186,2.06318],[-54.80519,2.07671],[-54.81285,2.10112],[-54.80371,2.10824],[-54.80824,2.1231],[-54.8026,2.1326],[-54.80527,2.13926],[-54.78866,2.15657],[-54.79039,2.1617],[-54.78082,2.16694],[-54.78224,2.1745],[-54.76691,2.18128],[-54.76212,2.20267],[-54.81043,2.26673],[-54.8081,2.28674],[-54.80193,2.29036],[-54.80624,2.2982],[-54.80104,2.30807],[-54.79484,2.30985],[-54.79518,2.31831],[-54.80865,2.34563],[-54.8737,2.41563],[-54.87126,2.4341],[-54.7964,2.43936],[-54.74303,2.47183],[-54.68392,2.44713],[-54.69109,2.36174],[-54.66126,2.32735],[-54.6007,2.33752],[-54.43559,2.21024],[-54.18808,2.17912],[-54.00024,2.23029],[-53.98896,2.23771],[-53.9739,2.23272],[-53.96618,2.24334],[-53.94134,2.24275],[-53.94173,2.2528],[-53.93468,2.25974],[-53.94106,2.27836],[-53.93529,2.2973],[-53.92856,2.29099],[-53.91501,2.29106],[-53.91535,2.27752],[-53.90679,2.27432],[-53.89767,2.28845],[-53.89162,2.28414],[-53.8882,2.28659],[-53.89179,2.29139],[-53.8829,2.3167],[-53.87028,2.31658],[-53.86489,2.3119],[-53.85856,2.32031],[-53.8514,2.31055],[-53.84106,2.30797],[-53.82303,2.31792],[-53.81384,2.31737],[-53.81961,2.33001],[-53.83245,2.32978],[-53.83398,2.34001],[-53.81353,2.34277],[-53.81078,2.35703],[-53.76981,2.37862],[-53.74061,2.37529],[-53.74264,2.36692],[-53.75256,2.36426],[-53.74381,2.35922],[-53.7375,2.36259],[-53.72697,2.35144],[-53.72244,2.35437],[-53.72744,2.34306],[-53.7387,2.33565],[-53.73558,2.32431],[-53.74975,2.31991],[-53.74776,2.31311],[-53.7352,2.30938],[-53.72595,2.31474],[-53.70664,2.30944],[-53.6945,2.31257],[-53.68514,2.29487],[-53.6795,2.29736],[-53.6812,2.30149],[-53.66286,2.30573],[-53.66016,2.30006],[-53.65231,2.30278],[-53.65528,2.28486],[-53.6252,2.28487],[-53.61397,2.27876],[-53.61125,2.2867],[-53.60025,2.28648],[-53.58322,2.26927],[-53.56661,2.27178],[-53.55383,2.26115],[-53.53992,2.25754],[-53.5305,2.258],[-53.51922,2.26684],[-53.49436,2.26137],[-53.48436,2.26519],[-53.47205,2.25709],[-53.45766,2.26144],[-53.45341,2.27039],[-53.46455,2.27725],[-53.46863,2.28916],[-53.4603,2.29132],[-53.43936,2.28059],[-53.41424,2.29749],[-53.40405,2.29783],[-53.39791,2.30855],[-53.38474,2.30873],[-53.3666,2.32098],[-53.35896,2.33403],[-53.35899,2.3496],[-53.34288,2.35536],[-53.33716,2.3539],[-53.33251,2.34478],[-53.31907,2.34438],[-53.31401,2.32701],[-53.30499,2.3158],[-53.29379,2.30931],[-53.28179,2.31004],[-53.27649,2.29927],[-53.26107,2.29046],[-53.26104,2.27666],[-53.23368,2.27574],[-53.22974,2.26917],[-53.22849,2.2627],[-53.24885,2.24842],[-53.2604,2.25122],[-53.25971,2.23612],[-53.26638,2.22405],[-53.27877,2.22366],[-53.27896,2.20509],[-53.28599,2.19689],[-53.27816,2.18629]]]},"properties":{"CD_MUN":"1600279","NM_MUN":"Laranjal do Jari","SIGLA_UF":"AP"}},{"type":"Feature","geometry":{"type":"Polygon","coordinates":[[[-50.06728,1.20897],[-49.98231,1.22353],[-49.95425,1.23724],[-49.90561,1.2741],[-49.89083,1.20277],[-49.91698,1.13716],[-49.94476,1.10851],[-49.94087,1.10275],[-49.9479,1.04007],[-49.94262,1.03251],[-49.9397,0.9938],[-49.9449,0.9832],[-49.96951,0.95938],[-49.97557,0.95886],[-49.98532,0.94468],[-50.02366,0.86922],[-50.04141,0.85665],[-50.04272,0.8512],[-50.05313,0.855],[-50.05224,0.84658],[-50.05752,0.83951],[-50.05222,0.83563],[-50.06074,0.82579],[-50.05314,0.82168],[-50.05246,0.80641],[-50.05635,0.80335],[-50.06447,0.80889],[-50.06747,0.79246],[-50.09202,0.78242],[-50.09286,0.70231],[-50.15592,0.70541],[-50.19681,0.70116],[-50.31946,0.67703],[-50.35015,0.66484],[-50.40893,0.6236],[-50.4419,0.66356],[-50.43563,0.69298],[-50.45451,0.71254],[-50.45401,0.72724],[-50.47614,0.72427],[-50.47815,0.73179],[-50.49936,0.73846],[-50.49218,0.75004],[-50.50933,0.75104],[-50.51332,0.75692],[-50.516,0.7504],[-50.52153,0.75547],[-50.52484,0.75214],[-50.52655,0.75949],[-50.56322,0.7678],[-50.56138,0.76156],[-50.56747,0.75523],[-50.56636,0.7472],[-50.56159,0.74976],[-50.56221,0.74012],[-50.57297,0.73104],[-50.57665,0.74207],[-50.59078,0.74393],[-50.59748,0.75045],[-50.61042,0.74693],[-50.61557,0.70611],[-50.60884,0.69856],[-50.61194,0.6877],[-50.62057,0.68608],[-50.61706,0.66939],[-50.62265,0.65341],[-50.62038,0.63233],[-50.62869,0.62248],[-50.63669,0.6208],[-50.63806,0.61244],[-50.64587,0.60525],[-50.63984,0.59924],[-50.6506,0.59152],[-50.65534,0.60708],[-50.66375,0.61175],[-50.66469,0.62639],[-50.67563,0.62694],[-50.6743,0.61698],[-50.69481,0.60722],[-50.70701,0.64098],[-50.71698,0.64506],[-50.72311,0.63757],[-50.72904,0.64304],[-50.74,0.64381],[-50.74236,0.65341],[-50.7463,0.65257],[-50.7469,0.65778],[-50.75748,0.66174],[-50.75651,0.66631],[-50.76409,0.67047],[-50.76003,0.67314],[-50.77162,0.69393],[-50.78459,0.70832],[-50.79592,0.71343],[-50.8109,0.73639],[-50.82792,0.75059],[-50.85001,0.7535],[-50.89006,0.67933],[-50.91364,0.68773],[-50.92294,0.67393],[-50.92204,0.6499],[-50.91293,0.63728],[-50.91344,0.62137],[-50.90482,0.60162],[-50.90304,0.58294],[-50.90741,0.57725],[-50.89186,0.55951],[-50.88374,0.57566],[-50.87419,0.5802],[-50.83859,0.57691],[-50.82531,0.58055],[-50.81734,0.59176],[-50.80136,0.58907],[-50.7854,0.57518],[-50.77628,0.54387],[-50.7613,0.54064],[-50.75595,0.51044],[-50.74546,0.50932],[-50.74997,0.49936],[-50.75234,0.49128],[-50.74484,0.47698],[-50.73313,0.48034],[-50.72905,0.46309],[-50.71859,0.4592],[-50.72298,0.45162],[-50.71955,0.4462],[-50.70974,0.45114],[-50.71168,0.43817],[-50.69813,0.43823],[-50.70637,0.43282],[-50.6999,0.43212],[-50.70844,0.42003],[-50.69368,0.4166],[-50.69083,0.42187],[-50.68571,0.41579],[-50.69175,0.41106],[-50.68297,0.41348],[-50.69072,0.39855],[-50.69995,0.39809],[-50.71566,0.38393],[-50.70898,0.3817],[-50.70492,0.38687],[-50.68423,0.37952],[-50.67988,0.3702],[-50.68478,0.36984],[-50.68649,0.35775],[-50.68131,0.35215],[-50.6878,0.33898],[-50.69867,0.33647],[-50.70415,0.34059],[-50.70913,0.33702],[-50.70853,0.32863],[-50.71773,0.32519],[-50.71807,0.31655],[-50.71149,0.31985],[-50.70435,0.2994],[-50.69643,0.30142],[-50.6341,0.21995],[-50.66707,0.18537],[-50.74685,0.12825],[-50.7943,0.10904],[-50.92005,0.07639],[-50.9565,0.05569],[-50.97917,0.03679],[-50.99592,0.00367],[-51.01634,-0.01048],[-51.06467,-0.07598],[-51.07984,-0.08619],[-51.09604,-0.08811],[-51.11451,-0.06592],[-51.14781,-0.0008],[-51.19165,-0.00161],[-51.19154,0.00471],[-51.1971,0.00858],[-51.22013,0.00955],[-51.21565,0.02868],[-51.23596,0.02836],[-51.22707,0.05635],[-51.21426,0.0628],[-51.21687,0.07573],[-51.20384,0.08048],[-51.20568,0.09036],[-51.19848,0.0895],[-51.19112,0.09999],[-51.19809,0.10761],[-51.19037,0.10693],[-51.18759,0.11928],[-51.18875,0.15501],[-51.22814,0.17606],[-51.25231,0.17562],[-51.26239,0.16721],[-51.27309,0.16768],[-51.27362,0.18001],[-51.29298,0.19919],[-51.29081,0.20654],[-51.30992,0.21537],[-51.33976,0.24214],[-51.34498,0.26592],[-51.36392,0.30172],[-51.38289,0.3136],[-51.39267,0.34631],[-51.41256,0.3678],[-51.43078,0.36486],[-51.44645,0.37262],[-51.45773,0.39435],[-51.46242,0.42572],[-51.46648,0.43004],[-51.48923,0.43277],[-51.49072,0.44081],[-51.48548,0.44945],[-51.48842,0.46364],[-51.50014,0.47357],[-51.49425,0.4828],[-51.48103,0.48191],[-51.46809,0.48825],[-51.46837,0.50006],[-51.45263,0.50299],[-51.44734,0.51288],[-51.42802,0.50795],[-51.41988,0.49995],[-51.40939,0.4861],[-51.38249,0.49166],[-51.36154,0.48822],[-51.33072,0.46842],[-51.31963,0.47572],[-51.30876,0.47587],[-51.29951,0.46517],[-51.28596,0.46277],[-51.27293,0.45236],[-51.25758,0.45378],[-51.25956,0.445],[-51.25198,0.44014],[-51.25108,0.43304],[-51.24449,0.43218],[-51.23639,0.40838],[-51.21571,0.40286],[-51.20674,0.39088],[-51.20429,0.36766],[-51.21093,0.35018],[-51.20699,0.33968],[-51.20434,0.3219],[-51.1873,0.32225],[-51.17442,0.31297],[-51.15896,0.32241],[-51.14285,0.31993],[-51.13702,0.31341],[-51.13092,0.31618],[-51.12771,0.32173],[-51.13381,0.34156],[-51.11405,0.3817],[-51.11449,0.40172],[-51.09446,0.43069],[-51.07887,0.44361],[-51.05851,0.44895],[-51.04999,0.44025],[-51.05093,0.42923],[-51.04295,0.433],[-51.02457,0.43849],[-51.02862,0.4648],[-51.01163,0.46493],[-51.0081,0.48677],[-50.99757,0.50309],[-50.93698,0.50118],[-50.92593,0.50973],[-50.92704,0.51862],[-50.95201,0.53146],[-50.95332,0.53927],[-50.96006,0.53759],[-50.96468,0.54858],[-50.96981,0.54798],[-50.97607,0.55836],[-50.98317,0.55713],[-50.98823,0.57284],[-50.99665,0.5816],[-50.9964,0.59266],[-50.98723,0.60258],[-50.98609,0.61517],[-50.99673,0.64361],[-50.99053,0.67005],[-50.97378,0.69706],[-50.90816,0.72141],[-50.90273,0.72827],[-50.90005,0.73714],[-50.90686,0.74389],[-50.91144,0.76069],[-50.90027,0.77776],[-50.88536,0.76915],[-50.88581,0.7983],[-50.84719,0.81926],[-50.82773,0.82407],[-50.79633,0.84777],[-50.76086,0.82115],[-50.74384,0.82373],[-50.73215,0.81671],[-50.70409,0.81551],[-50.65904,0.84154],[-50.65324,0.87089],[-50.64395,0.87696],[-50.63788,0.87157],[-50.63468,0.8782],[-50.63349,0.86298],[-50.62297,0.87039],[-50.60791,0.86325],[-50.60865,0.88967],[-50.60292,0.89091],[-50.59546,0.88241],[-50.59387,0.86178],[-50.58896,0.85761],[-50.57726,0.86226],[-50.57271,0.8717],[-50.57431,0.88143],[-50.56579,0.88005],[-50.56649,0.87247],[-50.5544,0.86445],[-50.54402,0.87003],[-50.53091,0.86547],[-50.52873,0.87343],[-50.52049,0.87703],[-50.51257,0.89228],[-50.49913,0.90437],[-50.49599,0.91213],[-50.50097,0.91741],[-50.49238,0.925],[-50.47592,0.92424],[-50.46239,0.91653],[-50.44322,0.92823],[-50.4363,0.92605],[-50.42997,0.947],[-50.42159,0.95259],[-50.40306,0.92314],[-50.38378,0.93061],[-50.38221,0.92193],[-50.37195,0.92344],[-50.36259,0.92982],[-50.36475,0.93567],[-50.35652,0.93911],[-50.34842,0.92891],[-50.33371,0.92395],[-50.32147,0.94189],[-50.30731,0.9436],[-50.18483,1.05062],[-50.18775,1.06571],[-50.17512,1.09148],[-50.16669,1.10015],[-50.14251,1.10155],[-50.12905,1.13258],[-50.10436,1.14007],[-50.08463,1.15851],[-50.07935,1.17178],[-50.08229,1.18047],[-50.06998,1.18953],[-50.06728,1.20897]]]},"properties":{"CD_MUN":"1600303","NM_MUN":"Macapá","SIGLA_UF":"AP"}},{"type":"Feature","geometry":{"type":"Polygon","coordinates":[[[-51.16559,3.93634],[-51.12191,3.91074],[-51.09326,3.91023],[-51.07445,3.89093],[-51.07346,3.85123],[-51.07868,3.83227],[-51.0788,3.78419],[-51.08354,3.7727],[-51.08116,3.76173],[-51.08358,3.7324],[-51.08896,3.72075],[-51.08969,3.68024],[-51.08013,3.61851],[-51.06983,3.48783],[-51.07789,3.45964],[-51.0822,3.46006],[-51.0892,3.45033],[-51.08648,3.39207],[-51.02093,3.20839],[-51.02529,3.18526],[-51.03288,3.17524],[-51.03055,3.15602],[-51.03468,3.13743],[-51.02671,3.11715],[-51.00599,3.09407],[-51.01371,3.04576],[-50.9878,3.00363],[-50.98363,2.97504],[-50.98702,2.96127],[-50.9801,2.93729],[-50.94324,2.88448],[-50.9413,2.85452],[-50.94641,2.83644],[-50.94019,2.81596],[-50.94283,2.80801],[-50.94114,2.80366],[-50.92583,2.80857],[-50.90086,2.7949],[-50.90217,2.75663],[-50.89005,2.75242],[-50.88072,2.7417],[-50.88158,2.68605],[-50.86755,2.67975],[-50.85208,2.65987],[-50.84936,2.64438],[-50.83992,2.63901],[-50.84033,2.60173],[-50.84497,2.59442],[-50.83373,2.57093],[-50.83037,2.53345],[-50.83606,2.5085],[-50.84992,2.50621],[-50.85245,2.50151],[-50.85098,2.48642],[-50.84709,2.49759],[-50.83571,2.49295],[-50.81453,2.50905],[-50.79531,2.50526],[-50.78384,2.49027],[-50.78206,2.47666],[-50.76742,2.45788],[-50.76284,2.42902],[-50.76946,2.41204],[-50.75532,2.38096],[-50.75907,2.3661],[-50.7482,2.35838],[-50.74326,2.34507],[-50.74148,2.31157],[-50.72137,2.27669],[-50.72116,2.23748],[-50.7074,2.23106],[-50.69221,2.20876],[-50.68157,2.17565],[-50.68368,2.15213],[-50.70118,2.14423],[-50.70143,2.13848],[-50.7156,2.13347],[-50.72796,2.14469],[-50.73713,2.14548],[-50.7408,2.1242],[-50.74782,2.1185],[-50.77749,2.14766],[-50.7786,2.1565],[-50.78707,2.15929],[-50.78782,2.17003],[-50.79422,2.16931],[-50.79949,2.17566],[-50.81407,2.17692],[-50.8171,2.17543],[-50.81327,2.17133],[-50.83074,2.16695],[-50.82755,2.15479],[-50.83632,2.15368],[-50.84305,2.13887],[-50.86016,2.14091],[-50.85239,2.15682],[-50.86799,2.14885],[-50.87019,2.15768],[-50.86347,2.16563],[-50.87957,2.1684],[-50.88227,2.15952],[-50.91344,2.14855],[-50.92455,2.15979],[-50.92366,2.16749],[-50.92905,2.15974],[-50.93872,2.15645],[-50.94808,2.16275],[-50.94977,2.17032],[-50.96444,2.1629],[-50.96383,2.17204],[-50.97258,2.16605],[-50.97522,2.16864],[-50.98436,2.15922],[-50.98775,2.14379],[-50.99945,2.14787],[-51.00008,2.15619],[-51.00464,2.1538],[-51.02577,2.16495],[-51.03603,2.16206],[-51.04483,2.17105],[-51.05525,2.16943],[-51.06106,2.17572],[-51.06786,2.17277],[-51.07744,2.17939],[-51.09117,2.17395],[-51.09308,2.16352],[-51.11989,2.16268],[-51.13345,2.14954],[-51.16234,2.15094],[-51.17431,2.13782],[-51.18401,2.13674],[-51.19939,2.12603],[-51.20251,2.11949],[-51.21795,2.11865],[-51.22765,2.12509],[-51.23523,2.11842],[-51.23792,2.10636],[-51.24843,2.1042],[-51.24668,2.09743],[-51.28493,2.07829],[-51.29896,2.06588],[-51.31326,2.06323],[-51.31751,2.05514],[-51.33915,2.04022],[-51.34269,2.0306],[-51.37363,2.01858],[-51.39318,2.02169],[-51.40954,2.04409],[-51.44541,2.06462],[-51.46396,2.05388],[-51.46877,2.04751],[-51.46638,2.04092],[-51.47466,2.03063],[-51.49358,2.02423],[-51.50383,2.02679],[-51.52488,2.03989],[-51.56985,2.11451],[-51.58005,2.10245],[-51.58238,2.07953],[-51.59655,2.06515],[-51.60086,2.04864],[-51.58805,2.02023],[-51.62056,2.00211],[-51.64339,1.99255],[-51.64364,1.96897],[-51.65914,1.94935],[-51.64181,1.91861],[-51.646,1.87661],[-51.66084,1.8282],[-51.68009,1.80417],[-51.69206,1.74861],[-51.70324,1.73172],[-51.70482,1.71498],[-51.69965,1.70544],[-51.70665,1.68703],[-51.70449,1.67435],[-51.71016,1.67168],[-51.71163,1.64645],[-51.71963,1.6366],[-51.71827,1.61992],[-51.73141,1.59558],[-51.73872,1.58935],[-51.74975,1.58881],[-51.7613,1.58041],[-51.76311,1.57351],[-51.77908,1.57303],[-51.79966,1.53704],[-51.81955,1.525],[-51.83795,1.50029],[-51.85144,1.49224],[-51.85775,1.47325],[-51.86509,1.468],[-51.86747,1.44319],[-51.87387,1.442],[-51.87856,1.43157],[-51.89598,1.42019],[-51.89173,1.41744],[-51.90634,1.40847],[-51.90954,1.41103],[-51.91137,1.40031],[-51.92492,1.39078],[-51.95193,1.40019],[-51.95634,1.38876],[-51.9647,1.38614],[-51.96251,1.3816],[-51.97028,1.36868],[-51.97107,1.3369],[-51.98859,1.32327],[-52.01112,1.3292],[-52.00501,1.37466],[-52.03182,1.39304],[-52.03723,1.40884],[-52.04379,1.41217],[-52.03635,1.42185],[-52.04565,1.4474],[-52.04234,1.45771],[-52.03392,1.45953],[-52.03376,1.46495],[-52.02684,1.46813],[-52.03107,1.47643],[-52.04031,1.4775],[-52.03934,1.48365],[-52.0284,1.4862],[-52.02139,1.50017],[-52.03045,1.50661],[-52.03037,1.51472],[-52.03964,1.51792],[-52.04225,1.58297],[-52.03359,1.58855],[-52.02272,1.63047],[-52.02644,1.64181],[-52.03311,1.6412],[-52.03645,1.6556],[-52.04725,1.66085],[-52.04683,1.67869],[-52.05416,1.68748],[-52.05653,1.70364],[-52.05044,1.72673],[-52.05744,1.75563],[-52.05041,1.77526],[-52.05505,1.78412],[-52.05386,1.79525],[-52.05941,1.79576],[-52.0533,1.81056],[-52.05435,1.84064],[-52.05913,1.85916],[-52.06452,1.85849],[-52.04379,1.88402],[-52.03402,1.88829],[-52.02971,1.90975],[-52.01838,1.91927],[-52.02237,1.96788],[-52.01424,1.98214],[-52.02057,1.98512],[-52.0091,1.9991],[-51.99623,2.03888],[-52.00396,2.04852],[-52.0017,2.05952],[-52.00965,2.06673],[-52.00837,2.09039],[-52.02651,2.11546],[-52.02965,2.14359],[-52.03386,2.15598],[-52.03731,2.15515],[-52.03856,2.19508],[-52.04334,2.20659],[-52.03581,2.23316],[-52.04475,2.25096],[-52.06284,2.26281],[-52.06564,2.27499],[-52.06406,2.28887],[-52.05361,2.30081],[-52.03697,2.3422],[-52.04128,2.38598],[-52.03772,2.38974],[-52.04425,2.40459],[-52.04091,2.42203],[-52.01821,2.42747],[-52.01477,2.43685],[-52.0096,2.44019],[-51.99391,2.43061],[-51.99302,2.42484],[-52.002,2.42102],[-51.99447,2.40561],[-51.98355,2.41613],[-51.95683,2.4087],[-51.94905,2.3786],[-51.9398,2.37856],[-51.93322,2.37014],[-51.92619,2.37624],[-51.91405,2.35614],[-51.89494,2.35723],[-51.89222,2.34467],[-51.8863,2.3404],[-51.86544,2.3488],[-51.86171,2.35943],[-51.85074,2.36625],[-51.85436,2.38198],[-51.86418,2.38988],[-51.86218,2.39402],[-51.84577,2.39575],[-51.82035,2.37235],[-51.80519,2.37598],[-51.79604,2.38849],[-51.78093,2.37849],[-51.7689,2.38096],[-51.75182,2.40337],[-51.74779,2.42412],[-51.72971,2.43298],[-51.72021,2.451],[-51.69765,2.47283],[-51.68398,2.4995],[-51.69034,2.50409],[-51.68189,2.52638],[-51.67192,2.52869],[-51.66889,2.53431],[-51.65639,2.53518],[-51.64775,2.54671],[-51.64092,2.56952],[-51.6507,2.58186],[-51.63659,2.60236],[-51.63389,2.61874],[-51.625,2.62032],[-51.62281,2.63172],[-51.59692,2.65391],[-51.59128,2.67482],[-51.58077,2.6774],[-51.56889,2.69609],[-51.5643,2.69385],[-51.55635,2.70365],[-51.54652,2.73589],[-51.52096,2.77244],[-51.52441,2.77713],[-51.5131,2.78035],[-51.51718,2.78819],[-51.51138,2.79573],[-51.51221,2.80395],[-51.51915,2.82381],[-51.50088,2.83135],[-51.47868,2.83928],[-51.47102,2.84748],[-51.47224,2.85427],[-51.45568,2.85982],[-51.46734,2.86456],[-51.46165,2.87296],[-51.45168,2.87021],[-51.43354,2.88553],[-51.43526,2.90597],[-51.42112,2.9147],[-51.42837,2.92404],[-51.42656,2.9291],[-51.43537,2.93048],[-51.43767,2.93655],[-51.422,2.94591],[-51.4197,2.95621],[-51.39831,2.98255],[-51.40087,2.99124],[-51.38586,3.01065],[-51.38762,3.0149],[-51.39256,3.01257],[-51.39547,3.0226],[-51.38448,3.02834],[-51.3637,3.02135],[-51.36556,3.02802],[-51.37558,3.03242],[-51.35592,3.05278],[-51.33547,3.05732],[-51.32028,3.06696],[-51.31681,3.07942],[-51.30361,3.07092],[-51.30242,3.07706],[-51.29169,3.08251],[-51.28339,3.09697],[-51.2876,3.12427],[-51.26752,3.11889],[-51.25455,3.12236],[-51.22424,3.15836],[-51.22719,3.16136],[-51.23911,3.15288],[-51.24538,3.1613],[-51.24174,3.16838],[-51.24911,3.17578],[-51.24266,3.18172],[-51.2508,3.19188],[-51.23674,3.20682],[-51.23958,3.21614],[-51.23424,3.21721],[-51.22571,3.19825],[-51.2164,3.20646],[-51.22065,3.21968],[-51.1909,3.22958],[-51.18379,3.23889],[-51.18076,3.2725],[-51.17065,3.29694],[-51.16998,3.34023],[-51.17638,3.35291],[-51.17579,3.37696],[-51.1836,3.40066],[-51.1924,3.40594],[-51.1932,3.43698],[-51.18534,3.47018],[-51.18209,3.53948],[-51.18739,3.6277],[-51.1965,3.66661],[-51.18875,3.72445],[-51.17627,3.7721],[-51.16559,3.93634]]]},"properties":{"CD_MUN":"1600204","NM_MUN":"Calçoene","SIGLA_UF":"AP"}},{"type":"Feature","geometry":{"type":"Polygon","coordinates":[[[-50.41485,1.17842],[-50.38577,1.18376],[-50.3641,1.16139],[-50.34346,1.15799],[-50.3131,1.16567],[-50.29532,1.1761],[-50.28063,1.19394],[-50.27412,1.21398],[-50.29876,1.26328],[-50.29915,1.28044],[-50.29245,1.30102],[-50.27742,1.31624],[-50.21159,1.33357],[-50.16601,1.32821],[-50.14428,1.33474],[-50.13675,1.33047],[-50.12756,1.30949],[-50.1364,1.23247],[-50.13373,1.22198],[-50.12648,1.2142],[-50.10425,1.20745],[-50.06728,1.20897],[-50.06998,1.18953],[-50.08229,1.18047],[-50.07935,1.17178],[-50.08463,1.15851],[-50.10436,1.14007],[-50.12905,1.13258],[-50.14251,1.10155],[-50.16669,1.10015],[-50.17512,1.09148],[-50.18775,1.06571],[-50.18483,1.05062],[-50.30731,0.9436],[-50.32147,0.94189],[-50.33371,0.92395],[-50.34842,0.92891],[-50.35652,0.93911],[-50.36475,0.93567],[-50.36259,0.92982],[-50.37195,0.92344],[-50.38221,0.92193],[-50.38378,0.93061],[-50.40306,0.92314],[-50.42159,0.95259],[-50.42997,0.947],[-50.4363,0.92605],[-50.44322,0.92823],[-50.46239,0.91653],[-50.47592,0.92424],[-50.49238,0.925],[-50.50097,0.91741],[-50.49599,0.91213],[-50.49913,0.90437],[-50.51257,0.89228],[-50.52049,0.87703],[-50.52873,0.87343],[-50.53091,0.86547],[-50.54402,0.87003],[-50.5544,0.86445],[-50.56649,0.87247],[-50.56579,0.88005],[-50.57431,0.88143],[-50.57271,0.8717],[-50.57726,0.86226],[-50.58896,0.85761],[-50.59387,0.86178],[-50.59546,0.88241],[-50.60292,0.89091],[-50.60865,0.88967],[-50.60791,0.86325],[-50.62297,0.87039],[-50.63349,0.86298],[-50.63468,0.8782],[-50.63788,0.87157],[-50.64395,0.87696],[-50.65324,0.87089],[-50.65904,0.84154],[-50.70409,0.81551],[-50.73215,0.81671],[-50.74384,0.82373],[-50.76086,0.82115],[-50.79633,0.84777],[-50.82773,0.82407],[-50.84719,0.81926],[-50.88581,0.7983],[-50.91521,0.80385],[-50.95063,0.82929],[-50.94614,0.87327],[-50.93081,0.88973],[-50.91742,0.88998],[-50.90969,0.90037],[-50.908,0.92341],[-50.91898,0.93592],[-50.91126,0.95865],[-50.89715,0.96745],[-50.88482,0.99318],[-50.87541,0.98551],[-50.86774,0.96134],[-50.85013,0.95326],[-50.82074,0.95798],[-50.80226,0.9721],[-50.80496,1.00217],[-50.7954,1.01886],[-50.78585,1.02459],[-50.73965,1.03488],[-50.71565,1.03174],[-50.68289,1.04964],[-50.66545,1.03857],[-50.65173,1.01757],[-50.62656,1.01668],[-50.61828,1.02749],[-50.62984,1.04947],[-50.63045,1.06876],[-50.62175,1.07748],[-50.59509,1.08491],[-50.58483,1.0814],[-50.57364,1.06413],[-50.54536,1.08232],[-50.5275,1.06121],[-50.52517,1.03602],[-50.52086,1.03147],[-50.50961,1.03266],[-50.48314,1.04925],[-50.45847,1.0761],[-50.45089,1.09396],[-50.45344,1.13995],[-50.41485,1.17842]]]},"properties":{"CD_MUN":"1600212","NM_MUN":"Cutias","SIGLA_UF":"AP"}},{"type":"Feature","geometry":{"type":"Polygon","coordinates":[[[-50.40893,0.6236],[-50.43552,0.60036],[-50.44846,0.57703],[-50.46624,0.53118],[-50.47516,0.48177],[-50.48675,0.45606],[-50.50297,0.43534],[-50.52286,0.37263],[-50.55512,0.30697],[-50.57873,0.27025],[-50.59865,0.24961],[-50.6341,0.21995],[-50.69643,0.30142],[-50.70435,0.2994],[-50.71149,0.31985],[-50.71807,0.31655],[-50.71773,0.32519],[-50.70853,0.32863],[-50.70913,0.33702],[-50.70415,0.34059],[-50.69867,0.33647],[-50.6878,0.33898],[-50.68131,0.35215],[-50.68649,0.35775],[-50.68478,0.36984],[-50.67988,0.3702],[-50.68423,0.37952],[-50.70492,0.38687],[-50.70898,0.3817],[-50.71566,0.38393],[-50.69995,0.39809],[-50.69072,0.39855],[-50.68297,0.41348],[-50.69175,0.41106],[-50.68571,0.41579],[-50.69083,0.42187],[-50.69368,0.4166],[-50.70844,0.42003],[-50.6999,0.43212],[-50.70637,0.43282],[-50.69813,0.43823],[-50.71168,0.43817],[-50.70974,0.45114],[-50.71955,0.4462],[-50.72298,0.45162],[-50.71859,0.4592],[-50.72905,0.46309],[-50.73313,0.48034],[-50.74484,0.47698],[-50.75234,0.49128],[-50.74997,0.49936],[-50.74546,0.50932],[-50.75595,0.51044],[-50.7613,0.54064],[-50.77628,0.54387],[-50.7854,0.57518],[-50.80136,0.58907],[-50.81734,0.59176],[-50.82531,0.58055],[-50.83859,0.57691],[-50.87419,0.5802],[-50.88374,0.57566],[-50.89186,0.55951],[-50.90741,0.57725],[-50.90304,0.58294],[-50.90482,0.60162],[-50.91344,0.62137],[-50.91293,0.63728],[-50.92204,0.6499],[-50.92294,0.67393],[-50.91364,0.68773],[-50.89006,0.67933],[-50.85001,0.7535],[-50.82792,0.75059],[-50.8109,0.73639],[-50.79592,0.71343],[-50.78459,0.70832],[-50.77162,0.69393],[-50.76003,0.67314],[-50.76409,0.67047],[-50.75651,0.66631],[-50.75748,0.66174],[-50.7469,0.65778],[-50.7463,0.65257],[-50.74236,0.65341],[-50.74,0.64381],[-50.72904,0.64304],[-50.72311,0.63757],[-50.71698,0.64506],[-50.70701,0.64098],[-50.69481,0.60722],[-50.6743,0.61698],[-50.67563,0.62694],[-50.66469,0.62639],[-50.66375,0.61175],[-50.65534,0.60708],[-50.6506,0.59152],[-50.63984,0.59924],[-50.64587,0.60525],[-50.63806,0.61244],[-50.63669,0.6208],[-50.62869,0.62248],[-50.62038,0.63233],[-50.62265,0.65341],[-50.61706,0.66939],[-50.62057,0.68608],[-50.61194,0.6877],[-50.60884,0.69856],[-50.61557,0.70611],[-50.61042,0.74693],[-50.59748,0.75045],[-50.59078,0.74393],[-50.57665,0.74207],[-50.57297,0.73104],[-50.56221,0.74012],[-50.56159,0.74976],[-50.56636,0.7472],[-50.56747,0.75523],[-50.56138,0.76156],[-50.56322,0.7678],[-50.52655,0.75949],[-50.52484,0.75214],[-50.52153,0.75547],[-50.516,0.7504],[-50.51332,0.75692],[-50.50933,0.75104],[-50.49218,0.75004],[-50.49936,0.73846],[-50.47815,0.73179],[-50.47614,0.72427],[-50.45401,0.72724],[-50.45451,0.71254],[-50.43563,0.69298],[-50.4419,0.66356],[-50.40893,0.6236]]]},"properties":{"CD_MUN":"1600253","NM_MUN":"Itaubal","SIGLA_UF":"AP"}},{"type":"Feature","geometry":{"type":"Polygon","coordinates":[[[-51.98593,1.32327],[-51.38113,1.32302],[-51.3953,1.28468],[-51.39175,1.27488],[-51.39741,1.26983],[-51.41955,1.26671],[-51.42302,1.25807],[-51.44189,1.24704],[-51.43461,1.24064],[-51.42828,1.19392],[-51.43833,1.18781],[-51.4405,1.14432],[-51.44867,1.13218],[-51.445,1.12672],[-51.45081,1.111],[-51.46581,1.10689],[-51.47831,1.08864],[-51.45909,1.06922],[-51.42453,1.0634],[-51.40472,1.05438],[-51.41695,1.00024],[-51.37184,0.94755],[-51.3642,0.94746],[-51.35895,0.95754],[-51.3492,0.96346],[-51.34292,0.97971],[-51.30703,0.98282],[-51.28892,0.97348],[-51.27931,0.97714],[-51.25628,0.97289],[-51.24786,0.97733],[-51.24447,0.96366],[-51.23553,0.95328],[-51.22839,0.95924],[-51.22711,0.97095],[-51.216,0.98731],[-51.20289,0.99513],[-51.1853,1.02821],[-51.17339,1.03661],[-51.14538,1.03105],[-51.12038,1.00991],[-51.07796,1.02534],[-51.04877,1.01871],[-51.0446,1.00965],[-51.02822,1.00582],[-51.03085,0.99138],[-51.01269,0.98755],[-51.02038,0.97787],[-51.01005,0.96635],[-51.01294,0.96063],[-51.00602,0.95975],[-51.00957,0.95379],[-51.00591,0.94576],[-50.99582,0.9428],[-50.99327,0.9339],[-50.98091,0.95386],[-50.9828,0.96993],[-50.9758,0.9775],[-50.95635,0.97938],[-50.93799,0.99151],[-50.92558,0.98789],[-50.88482,0.99318],[-50.89715,0.96745],[-50.91126,0.95865],[-50.91898,0.93592],[-50.908,0.92341],[-50.90969,0.90037],[-50.91742,0.88998],[-50.93081,0.88973],[-50.94614,0.87327],[-50.95063,0.82929],[-50.91521,0.80385],[-50.88581,0.7983],[-50.88536,0.76915],[-50.90027,0.77776],[-50.91144,0.76069],[-50.90686,0.74389],[-50.90005,0.73714],[-50.90273,0.72827],[-50.90816,0.72141],[-50.97378,0.69706],[-50.99053,0.67005],[-50.99673,0.64361],[-50.98609,0.61517],[-50.98723,0.60258],[-50.9964,0.59266],[-50.99665,0.5816],[-50.98823,0.57284],[-50.98317,0.55713],[-50.97607,0.55836],[-50.96981,0.54798],[-50.96468,0.54858],[-50.96006,0.53759],[-50.95332,0.53927],[-50.95201,0.53146],[-50.92704,0.51862],[-50.92593,0.50973],[-50.93698,0.50118],[-50.99757,0.50309],[-51.0081,0.48677],[-51.01163,0.46493],[-51.02862,0.4648],[-51.02457,0.43849],[-51.04295,0.433],[-51.03943,0.44318],[-51.05635,0.45718],[-51.07302,0.46204],[-51.07896,0.4773],[-51.0929,0.47711],[-51.10104,0.48375],[-51.13005,0.52366],[-51.1246,0.54089],[-51.14271,0.55042],[-51.15274,0.57551],[-51.16979,0.57828],[-51.19838,0.59453],[-51.20157,0.60078],[-51.25663,0.6108],[-51.27985,0.62808],[-51.35741,0.65123],[-51.36957,0.6827],[-51.37696,0.6875],[-51.36768,0.69714],[-51.36342,0.71697],[-51.34183,0.7321],[-51.36014,0.77696],[-51.3694,0.77705],[-51.3762,0.7683],[-51.3707,0.75529],[-51.37425,0.74397],[-51.38493,0.73595],[-51.40319,0.73144],[-51.4309,0.7449],[-51.44164,0.76021],[-51.45933,0.76268],[-51.47576,0.78655],[-51.48615,0.79157],[-51.49585,0.81246],[-51.4994,0.84124],[-51.5052,0.86133],[-51.50218,0.87392],[-51.51557,0.88246],[-51.53594,0.87834],[-51.54854,0.86596],[-51.58444,0.84741],[-51.60127,0.84694],[-51.61013,0.834],[-51.61513,0.83527],[-51.62435,0.87272],[-51.60238,0.88512],[-51.60082,0.90691],[-51.59165,0.9132],[-51.59302,0.91946],[-51.63493,0.95101],[-51.65885,0.9562],[-51.6683,0.97859],[-51.66235,0.98405],[-51.67318,1.01019],[-51.68593,1.00861],[-51.69018,0.97988],[-51.69818,0.97414],[-51.70382,0.98738],[-51.7134,0.99334],[-51.75535,0.96998],[-51.75485,0.98777],[-51.76541,0.98683],[-51.77797,0.99696],[-51.78543,0.99412],[-51.79671,0.996],[-51.80144,0.97438],[-51.81216,0.97227],[-51.81628,0.97613],[-51.81758,1.00504],[-51.82972,1.01113],[-51.83721,1.02286],[-51.83621,1.03414],[-51.84316,1.03945],[-51.85702,1.02623],[-51.85927,1.03456],[-51.86782,1.03944],[-51.87372,1.03498],[-51.88641,1.03954],[-51.88266,1.05278],[-51.88882,1.05546],[-51.89713,1.043],[-51.90516,1.04642],[-51.91374,1.05753],[-51.91088,1.06554],[-51.9216,1.07125],[-51.9286,1.06265],[-51.92149,1.05463],[-51.92472,1.04826],[-51.93044,1.04895],[-51.93933,1.04028],[-51.95402,1.05922],[-51.98549,1.05314],[-51.98927,1.05923],[-51.97991,1.07033],[-51.98613,1.0778],[-51.9803,1.09327],[-51.98013,1.11142],[-51.98549,1.12168],[-51.98015,1.13372],[-51.99274,1.13918],[-51.99452,1.15013],[-51.97935,1.15909],[-51.99313,1.16339],[-51.99469,1.16909],[-51.98777,1.17986],[-52.00232,1.18266],[-52.00835,1.19014],[-52.00293,1.21419],[-51.98274,1.22993],[-51.98693,1.23467],[-51.99857,1.23542],[-51.99607,1.26068],[-52.00321,1.2768],[-52.0001,1.28606],[-51.98515,1.29307],[-51.98076,1.31696],[-51.98593,1.32327]]]},"properties":{"CD_MUN":"1600238","NM_MUN":"Ferreira Gomes","SIGLA_UF":"AP"}},{"type":"Feature","geometry":{"type":"Polygon","coordinates":[[[-53.05788,1.94686],[-53.04691,1.97228],[-53.02446,1.98124],[-53.00757,1.97865],[-52.99344,1.95233],[-52.96069,1.95106],[-52.94566,1.94544],[-52.92799,1.95043],[-52.92021,1.94193],[-52.89946,1.96287],[-52.9066,1.99223],[-52.90246,1.99959],[-52.90768,2.00896],[-52.90329,2.00922],[-52.90274,2.01672],[-52.88846,2.03206],[-52.8669,2.02507],[-52.81086,1.98078],[-52.79463,1.97733],[-52.77996,1.95124],[-52.78025,1.93439],[-52.78599,1.92567],[-52.77087,1.88752],[-52.75645,1.86844],[-52.73991,1.86059],[-52.73595,1.86972],[-52.72572,1.85123],[-52.71018,1.83872],[-52.69835,1.8319],[-52.69264,1.8391],[-52.68423,1.83516],[-52.6842,1.82897],[-52.66626,1.81978],[-52.66166,1.80903],[-52.66783,1.80329],[-52.66312,1.80062],[-52.65554,1.7979],[-52.65058,1.7846],[-52.64175,1.78331],[-52.63988,1.78804],[-52.61516,1.76805],[-52.59028,1.73188],[-52.57778,1.73187],[-52.57387,1.73829],[-52.57152,1.73008],[-52.55811,1.72057],[-52.5554,1.7134],[-52.56094,1.70213],[-52.55281,1.69891],[-52.55898,1.69285],[-52.55839,1.68363],[-52.54819,1.68283],[-52.54977,1.67485],[-52.53829,1.65866],[-52.52584,1.64829],[-52.52001,1.64921],[-52.51514,1.64],[-52.52231,1.63422],[-52.52168,1.62308],[-52.50379,1.6223],[-52.4992,1.6042],[-52.49035,1.60515],[-52.49245,1.59123],[-52.4821,1.57803],[-52.49346,1.57466],[-52.50522,1.56292],[-52.49518,1.54172],[-52.48149,1.533],[-52.49709,1.52275],[-52.49389,1.50668],[-52.48779,1.49981],[-52.48508,1.48151],[-52.47815,1.47978],[-52.48484,1.4554],[-52.47282,1.45658],[-52.46847,1.44568],[-52.47092,1.43977],[-52.45812,1.43498],[-52.47078,1.41768],[-52.46588,1.40277],[-52.47112,1.40624],[-52.47772,1.38959],[-52.47027,1.3922],[-52.45035,1.36838],[-52.46451,1.34279],[-52.46423,1.33408],[-52.47877,1.32729],[-52.48034,1.30383],[-52.49465,1.28447],[-52.46198,1.27859],[-52.45008,1.28233],[-52.44738,1.27141],[-52.45333,1.26267],[-52.44621,1.26389],[-52.41101,1.23913],[-52.40688,1.2332],[-52.41233,1.23122],[-52.40602,1.22433],[-52.38922,1.21611],[-52.38218,1.22172],[-52.38782,1.20669],[-52.37515,1.19763],[-52.36861,1.20072],[-52.35928,1.19604],[-52.36881,1.17946],[-52.36772,1.1705],[-52.35864,1.1672],[-52.3637,1.15794],[-52.3576,1.14108],[-52.35127,1.13846],[-52.33597,1.14387],[-52.3286,1.13521],[-52.32297,1.13786],[-52.31017,1.13263],[-52.3087,1.11595],[-52.29637,1.10564],[-52.27634,1.06495],[-52.25935,1.06413],[-52.24168,1.05495],[-52.22316,1.05622],[-52.21123,1.06833],[-52.20393,1.06779],[-52.19645,1.05842],[-52.20337,1.04984],[-52.20049,1.04003],[-52.20835,1.03543],[-52.20918,1.0284],[-52.19823,1.02403],[-52.19732,1.00621],[-52.16669,1.01348],[-52.16196,1.01021],[-52.16467,1.00003],[-52.1621,0.99573],[-52.14495,1.00508],[-52.11188,0.98604],[-52.09936,0.99986],[-52.0833,1.00462],[-52.05709,0.99807],[-52.03192,0.99837],[-52.02617,0.98361],[-52.03225,0.95548],[-52.04632,0.9391],[-52.04408,0.93115],[-52.04862,0.9178],[-52.04763,0.9061],[-52.03798,0.89564],[-52.05033,0.88789],[-52.05696,0.8771],[-52.04906,0.86588],[-52.02519,0.85363],[-52.01357,0.8573],[-52.00784,0.8692],[-51.99938,0.86208],[-51.97601,0.8514],[-51.96598,0.84147],[-51.9464,0.85213],[-51.93289,0.88247],[-51.93483,0.89425],[-51.92467,0.9054],[-51.92509,0.91599],[-51.9146,0.9356],[-51.84428,0.95699],[-51.84013,0.96892],[-51.82563,0.97705],[-51.81628,0.97613],[-51.81216,0.97227],[-51.80144,0.97438],[-51.79671,0.996],[-51.78543,0.99412],[-51.78622,0.98639],[-51.77618,0.97604],[-51.77734,0.96864],[-51.80039,0.96505],[-51.79892,0.95716],[-51.80818,0.95202],[-51.80921,0.94197],[-51.82674,0.93026],[-51.83661,0.93183],[-51.83909,0.92175],[-51.83121,0.91584],[-51.83816,0.90368],[-51.82175,0.89425],[-51.82026,0.8855],[-51.80898,0.88536],[-51.80197,0.87423],[-51.79361,0.87419],[-51.79199,0.85675],[-51.77114,0.83172],[-51.77152,0.81364],[-51.76024,0.80592],[-51.75296,0.80068],[-51.74641,0.77774],[-51.75017,0.7698],[-51.73427,0.76517],[-51.71159,0.72704],[-51.70564,0.69694],[-51.72283,0.68317],[-51.72938,0.66605],[-51.72213,0.6513],[-51.73921,0.62334],[-51.75358,0.618],[-51.75834,0.62102],[-51.75203,0.6555],[-51.75686,0.66219],[-51.76548,0.66365],[-51.78568,0.64788],[-51.79862,0.66225],[-51.79659,0.68139],[-51.80209,0.69447],[-51.81406,0.6921],[-51.82536,0.6827],[-51.84375,0.68019],[-51.85255,0.67285],[-51.87745,0.70819],[-51.8849,0.70083],[-51.89624,0.69862],[-51.92124,0.70063],[-51.92918,0.69546],[-51.9517,0.6994],[-51.96252,0.69315],[-51.98067,0.69709],[-52.01844,0.69321],[-52.05908,0.66449],[-52.08503,0.6613],[-52.0899,0.66309],[-52.08945,0.67414],[-52.10103,0.67475],[-52.10772,0.66067],[-52.10384,0.64882],[-52.11364,0.64124],[-52.11495,0.63386],[-52.12822,0.64033],[-52.13969,0.63546],[-52.16371,0.64492],[-52.16997,0.63788],[-52.17774,0.64124],[-52.17627,0.63576],[-52.18352,0.62864],[-52.18366,0.61852],[-52.1925,0.60402],[-52.20612,0.59577],[-52.22414,0.60247],[-52.23008,0.60007],[-52.25432,0.56594],[-52.25692,0.54726],[-52.26976,0.5223],[-52.29044,0.50426],[-52.30425,0.50017],[-52.30971,0.49776],[-52.31303,0.4771],[-52.32807,0.45222],[-52.34865,0.44204],[-52.34713,0.43278],[-52.36414,0.44908],[-52.37581,0.45169],[-52.38584,0.46822],[-52.38311,0.48492],[-52.39297,0.48544],[-52.39487,0.49902],[-52.41589,0.5109],[-52.41378,0.54923],[-52.43739,0.5701],[-52.46292,0.57743],[-52.46822,0.60211],[-52.47981,0.61661],[-52.48064,0.63216],[-52.50247,0.64237],[-52.5057,0.64826],[-52.49711,0.65995],[-52.5,0.67252],[-52.53206,0.69764],[-52.54556,0.7212],[-52.56787,0.72522],[-52.58286,0.74201],[-52.61381,0.74066],[-52.61775,0.75983],[-52.6312,0.77481],[-52.64375,0.77651],[-52.6607,0.79223],[-52.66492,0.80869],[-52.65942,0.82807],[-52.66217,0.83423],[-52.67442,0.82662],[-52.72106,0.82671],[-52.73639,0.8156],[-52.74626,0.81666],[-52.75461,0.82582],[-52.7472,0.85595],[-52.76061,0.86108],[-52.77112,0.8764],[-52.78803,0.88625],[-52.81528,0.87431],[-52.82234,0.87588],[-52.82345,0.88537],[-52.83445,0.89537],[-52.83672,0.90504],[-52.8232,0.93052],[-52.82314,0.95707],[-52.82905,0.95981],[-52.83789,0.95129],[-52.84533,0.9516],[-52.86711,0.9696],[-52.87675,0.99585],[-52.87078,1.01054],[-52.87311,1.02455],[-52.87803,1.04081],[-52.8905,1.05183],[-52.89181,1.08623],[-52.9118,1.09654],[-52.93628,1.12031],[-52.95905,1.12701],[-52.96292,1.13604],[-52.97149,1.20639],[-52.96391,1.23989],[-52.95244,1.26579],[-52.93135,1.26515],[-52.92749,1.27084],[-52.92907,1.30786],[-52.91613,1.33702],[-52.91388,1.35797],[-52.88937,1.3892],[-52.86834,1.44174],[-52.8702,1.46513],[-52.86198,1.51528],[-52.86612,1.53367],[-52.87822,1.54767],[-52.91478,1.56001],[-52.95112,1.55455],[-52.96628,1.56109],[-52.97598,1.57432],[-52.99326,1.62939],[-52.98439,1.68085],[-52.96967,1.70585],[-52.98778,1.75388],[-53.0035,1.76266],[-53.01003,1.77682],[-53.00947,1.79708],[-52.99411,1.81522],[-52.99847,1.82639],[-53.0248,1.85237],[-53.02608,1.87501],[-53.04089,1.89829],[-53.04139,1.90758],[-53.05133,1.91404],[-53.05788,1.94686]]]},"properties":{"CD_MUN":"1600154","NM_MUN":"Pedra Branca do Amapari","SIGLA_UF":"AP"}},{"type":"Feature","geometry":{"type":"Polygon","coordinates":[[[-50.70143,2.13848],[-50.52892,2.208],[-50.46195,2.20484],[-50.44503,2.19951],[-50.44242,2.18973],[-50.43709,2.19347],[-50.42134,2.18012],[-50.37087,2.10119],[-50.36492,2.10158],[-50.35134,2.08708],[-50.34884,2.07748],[-50.35478,2.0658],[-50.34817,2.06248],[-50.33254,2.02032],[-50.31604,2.00804],[-50.31157,1.9776],[-50.29932,1.95846],[-50.23704,1.80345],[-50.17212,1.81508],[-50.10479,1.79223],[-50.09065,1.79167],[-50.0552,1.77482],[-50.02545,1.76777],[-49.92065,1.70421],[-49.9122,1.6877],[-49.9214,1.67455],[-49.90709,1.67043],[-49.89429,1.62426],[-49.89282,1.57566],[-49.87513,1.48107],[-49.88074,1.39036],[-49.9093,1.29678],[-49.90561,1.2741],[-49.95425,1.23724],[-49.98231,1.22353],[-50.06728,1.20897],[-50.10425,1.20745],[-50.12648,1.2142],[-50.13373,1.22198],[-50.1364,1.23247],[-50.12756,1.30949],[-50.13675,1.33047],[-50.14428,1.33474],[-50.16601,1.32821],[-50.21159,1.33357],[-50.27742,1.31624],[-50.29245,1.30102],[-50.29915,1.28044],[-50.29876,1.26328],[-50.27412,1.21398],[-50.28063,1.19394],[-50.29532,1.1761],[-50.3131,1.16567],[-50.34346,1.15799],[-50.3641,1.16139],[-50.38577,1.18376],[-50.41485,1.17842],[-50.42316,1.18919],[-50.41515,1.19829],[-50.41832,1.22395],[-50.43318,1.23745],[-50.55951,1.47274],[-50.55684,1.48228],[-50.53553,1.49049],[-50.53699,1.49985],[-50.54184,1.50603],[-50.52696,1.51552],[-50.53869,1.52784],[-50.53574,1.54831],[-50.54213,1.56886],[-50.53793,1.59247],[-50.5479,1.60661],[-50.54658,1.61854],[-50.55254,1.62732],[-50.54927,1.64753],[-50.5663,1.65328],[-50.57984,1.68522],[-50.57243,1.69419],[-50.56703,1.71356],[-50.58296,1.73256],[-50.59692,1.73299],[-50.59828,1.74086],[-50.60617,1.73537],[-50.61439,1.74067],[-50.6129,1.76286],[-50.63179,1.79451],[-50.64125,1.82274],[-50.63959,1.82978],[-50.69036,1.83067],[-50.70142,1.82675],[-50.71013,1.81632],[-50.71991,1.8146],[-50.74404,1.83021],[-50.75871,1.82581],[-50.76997,1.83959],[-50.77421,1.82912],[-50.76652,1.82277],[-50.76833,1.81772],[-50.77844,1.81469],[-50.77688,1.79244],[-50.78647,1.79709],[-50.80841,1.7812],[-50.80892,1.78907],[-50.7994,1.79105],[-50.7978,1.79644],[-50.80752,1.80873],[-50.83747,1.81658],[-50.84441,1.82635],[-50.85406,1.8303],[-50.86713,1.83033],[-50.87449,1.82314],[-50.88079,1.82856],[-50.90858,1.82318],[-50.92399,1.83037],[-50.94401,1.82781],[-50.96621,1.83927],[-50.98995,1.83862],[-51.00179,1.85047],[-51.01046,1.85136],[-51.03447,1.86908],[-51.04171,1.86356],[-51.05425,1.86723],[-51.06205,1.8578],[-51.07841,1.8593],[-51.11343,1.84529],[-51.11631,1.85425],[-51.13415,1.86463],[-51.13732,1.87293],[-51.14964,1.87591],[-51.15174,1.88456],[-51.16672,1.89212],[-51.17944,1.89248],[-51.19531,1.8828],[-51.20896,1.8893],[-51.23474,1.87347],[-51.2458,1.88476],[-51.27155,1.89703],[-51.2841,1.89474],[-51.29655,1.88069],[-51.30141,1.87218],[-51.29877,1.86381],[-51.31442,1.86597],[-51.33178,1.8544],[-51.34237,1.85615],[-51.35947,1.84759],[-51.37114,1.85037],[-51.36476,1.82643],[-51.36746,1.81658],[-51.38034,1.80593],[-51.38138,1.79472],[-51.40378,1.78354],[-51.42001,1.76643],[-51.4273,1.76853],[-51.43454,1.76441],[-51.4407,1.75555],[-51.44713,1.75625],[-51.44595,1.77303],[-51.49966,1.82423],[-51.53112,1.85057],[-51.56179,1.85546],[-51.57257,1.86725],[-51.57959,1.86736],[-51.59282,1.88505],[-51.62536,1.88371],[-51.646,1.87661],[-51.64181,1.91861],[-51.65914,1.94935],[-51.64364,1.96897],[-51.64339,1.99255],[-51.62056,2.00211],[-51.58805,2.02023],[-51.60086,2.04864],[-51.59655,2.06515],[-51.58238,2.07953],[-51.58005,2.10245],[-51.56985,2.11451],[-51.52488,2.03989],[-51.50383,2.02679],[-51.49358,2.02423],[-51.47466,2.03063],[-51.46638,2.04092],[-51.46877,2.04751],[-51.46396,2.05388],[-51.44541,2.06462],[-51.40954,2.04409],[-51.39318,2.02169],[-51.37363,2.01858],[-51.34269,2.0306],[-51.33915,2.04022],[-51.31751,2.05514],[-51.31326,2.06323],[-51.29896,2.06588],[-51.28493,2.07829],[-51.24668,2.09743],[-51.24843,2.1042],[-51.23792,2.10636],[-51.23523,2.11842],[-51.22765,2.12509],[-51.21795,2.11865],[-51.20251,2.11949],[-51.19939,2.12603],[-51.18401,2.13674],[-51.17431,2.13782],[-51.16234,2.15094],[-51.13345,2.14954],[-51.11989,2.16268],[-51.09308,2.16352],[-51.09117,2.17395],[-51.07744,2.17939],[-51.06786,2.17277],[-51.06106,2.17572],[-51.05525,2.16943],[-51.04483,2.17105],[-51.03603,2.16206],[-51.02577,2.16495],[-51.00464,2.1538],[-51.00008,2.15619],[-50.99945,2.14787],[-50.98775,2.14379],[-50.98436,2.15922],[-50.97522,2.16864],[-50.97258,2.16605],[-50.96383,2.17204],[-50.96444,2.1629],[-50.94977,2.17032],[-50.94808,2.16275],[-50.93872,2.15645],[-50.92905,2.15974],[-50.92366,2.16749],[-50.92455,2.15979],[-50.91344,2.14855],[-50.88227,2.15952],[-50.87957,2.1684],[-50.86347,2.16563],[-50.87019,2.15768],[-50.86799,2.14885],[-50.85239,2.15682],[-50.86016,2.14091],[-50.84305,2.13887],[-50.83632,2.15368],[-50.82755,2.15479],[-50.83074,2.16695],[-50.81327,2.17133],[-50.8171,2.17543],[-50.81407,2.17692],[-50.79949,2.17566],[-50.79422,2.16931],[-50.78782,2.17003],[-50.78707,2.15929],[-50.7786,2.1565],[-50.77749,2.14766],[-50.74782,2.1185],[-50.7408,2.1242],[-50.73713,2.14548],[-50.72796,2.14469],[-50.7156,2.13347],[-50.70143,2.13848]]]},"properties":{"CD_MUN":"1600105","NM_MUN":"Amapá","SIGLA_UF":"AP"}},{"type":"Feature","geometry":{"type":"Polygon","coordinates":[[[-50.55951,1.47274],[-50.43318,1.23745],[-50.41832,1.22395],[-50.41515,1.19829],[-50.42316,1.18919],[-50.41485,1.17842],[-50.45344,1.13995],[-50.45089,1.09396],[-50.45847,1.0761],[-50.48314,1.04925],[-50.50961,1.03266],[-50.52086,1.03147],[-50.52517,1.03602],[-50.5275,1.06121],[-50.54536,1.08232],[-50.57364,1.06413],[-50.58483,1.0814],[-50.59509,1.08491],[-50.62175,1.07748],[-50.63045,1.06876],[-50.62984,1.04947],[-50.61828,1.02749],[-50.62656,1.01668],[-50.65173,1.01757],[-50.66545,1.03857],[-50.68289,1.04964],[-50.71565,1.03174],[-50.73965,1.03488],[-50.78585,1.02459],[-50.7954,1.01886],[-50.80496,1.00217],[-50.80226,0.9721],[-50.82074,0.95798],[-50.85013,0.95326],[-50.86774,0.96134],[-50.87541,0.98551],[-50.88482,0.99318],[-50.92558,0.98789],[-50.93799,0.99151],[-50.95635,0.97938],[-50.9758,0.9775],[-50.9828,0.96993],[-50.98091,0.95386],[-50.99327,0.9339],[-50.99582,0.9428],[-51.00591,0.94576],[-51.00957,0.95379],[-51.00602,0.95975],[-51.01294,0.96063],[-51.01005,0.96635],[-51.02038,0.97787],[-51.01269,0.98755],[-51.03085,0.99138],[-51.02822,1.00582],[-51.0446,1.00965],[-51.04877,1.01871],[-51.07796,1.02534],[-51.12038,1.00991],[-51.14538,1.03105],[-51.17339,1.03661],[-51.1853,1.02821],[-51.20289,0.99513],[-51.216,0.98731],[-51.22711,0.97095],[-51.22839,0.95924],[-51.23553,0.95328],[-51.24447,0.96366],[-51.24786,0.97733],[-51.25628,0.97289],[-51.27931,0.97714],[-51.28892,0.97348],[-51.30703,0.98282],[-51.34292,0.97971],[-51.3492,0.96346],[-51.35895,0.95754],[-51.3642,0.94746],[-51.37184,0.94755],[-51.41695,1.00024],[-51.40472,1.05438],[-51.42453,1.0634],[-51.45909,1.06922],[-51.47831,1.08864],[-51.46581,1.10689],[-51.45081,1.111],[-51.445,1.12672],[-51.44867,1.13218],[-51.4405,1.14432],[-51.43833,1.18781],[-51.42828,1.19392],[-51.43461,1.24064],[-51.44189,1.24704],[-51.42302,1.25807],[-51.41955,1.26671],[-51.39741,1.26983],[-51.39175,1.27488],[-51.3953,1.28468],[-51.38113,1.32302],[-51.37746,1.36763],[-51.38207,1.37543],[-51.37071,1.37839],[-51.36899,1.38438],[-51.37452,1.39307],[-51.37154,1.40504],[-51.35554,1.41124],[-51.35568,1.4256],[-51.36476,1.42692],[-51.3624,1.43861],[-51.36743,1.4557],[-51.3796,1.45254],[-51.39332,1.47078],[-51.39137,1.48617],[-51.4104,1.50371],[-51.40601,1.50664],[-51.41109,1.51776],[-51.43446,1.52343],[-51.43601,1.57364],[-51.44934,1.58952],[-51.42504,1.61041],[-51.42439,1.63997],[-51.40603,1.64524],[-51.36834,1.67038],[-51.31351,1.69253],[-51.30192,1.68665],[-51.25477,1.68001],[-51.23379,1.65299],[-51.20718,1.65059],[-51.19711,1.63162],[-51.18529,1.6392],[-51.16885,1.63351],[-51.16063,1.61025],[-51.15028,1.60414],[-51.13781,1.61012],[-51.13207,1.60373],[-51.11349,1.60545],[-51.08851,1.59933],[-51.05328,1.61657],[-51.02467,1.64801],[-51.0116,1.6332],[-51.01602,1.6119],[-50.99934,1.60123],[-50.9902,1.60864],[-50.98083,1.59664],[-50.95137,1.60199],[-50.93533,1.61637],[-50.9251,1.61213],[-50.90838,1.5842],[-50.8901,1.58208],[-50.85988,1.59265],[-50.55951,1.47274]]]},"properties":{"CD_MUN":"1600709","NM_MUN":"Tartarugalzinho","SIGLA_UF":"AP"}},{"type":"Feature","geometry":{"type":"Polygon","coordinates":[[[-51.5726,0.21655],[-51.55001,0.23416],[-51.5466,0.24852],[-51.55001,0.2609],[-51.53657,0.2723],[-51.53843,0.27949],[-51.53112,0.29742],[-51.53243,0.31285],[-51.54132,0.32077],[-51.53271,0.33406],[-51.53823,0.35626],[-51.53295,0.36551],[-51.53362,0.38882],[-51.52776,0.39997],[-51.53639,0.40545],[-51.53828,0.4188],[-51.51776,0.43118],[-51.51253,0.45422],[-51.51559,0.46578],[-51.50014,0.47357],[-51.48842,0.46364],[-51.48548,0.44945],[-51.49072,0.44081],[-51.48923,0.43277],[-51.46648,0.43004],[-51.46242,0.42572],[-51.45773,0.39435],[-51.44645,0.37262],[-51.43078,0.36486],[-51.41256,0.3678],[-51.39267,0.34631],[-51.38289,0.3136],[-51.36392,0.30172],[-51.34498,0.26592],[-51.33976,0.24214],[-51.30992,0.21537],[-51.29081,0.20654],[-51.29298,0.19919],[-51.27362,0.18001],[-51.27309,0.16768],[-51.26239,0.16721],[-51.25231,0.17562],[-51.22814,0.17606],[-51.18875,0.15501],[-51.18759,0.11928],[-51.19037,0.10693],[-51.19809,0.10761],[-51.19112,0.09999],[-51.19848,0.0895],[-51.20568,0.09036],[-51.20384,0.08048],[-51.21687,0.07573],[-51.21426,0.0628],[-51.22707,0.05635],[-51.23596,0.02836],[-51.21565,0.02868],[-51.22013,0.00955],[-51.1971,0.00858],[-51.19154,0.00471],[-51.19165,-0.00161],[-51.14781,-0.0008],[-51.11451,-0.06592],[-51.09604,-0.08811],[-51.11221,-0.09637],[-51.1739,-0.10429],[-51.21538,-0.11837],[-51.21949,-0.09571],[-51.22843,-0.08934],[-51.25091,-0.08671],[-51.2726,-0.099],[-51.2851,-0.08814],[-51.3146,-0.07977],[-51.32782,-0.08336],[-51.36549,-0.07351],[-51.39891,-0.0723],[-51.40841,-0.05485],[-51.42016,-0.05094],[-51.4383,-0.03525],[-51.45566,0.01247],[-51.48702,0.0251],[-51.48944,0.0373],[-51.52855,0.04788],[-51.53402,0.05767],[-51.53427,0.08088],[-51.56216,0.10913],[-51.55908,0.11616],[-51.56782,0.13088],[-51.56508,0.13909],[-51.56891,0.14631],[-51.57433,0.14005],[-51.57794,0.14935],[-51.57921,0.15953],[-51.57274,0.1636],[-51.57646,0.19421],[-51.57338,0.2006],[-51.56807,0.20034],[-51.5726,0.21655]]]},"properties":{"CD_MUN":"1600600","NM_MUN":"Santana","SIGLA_UF":"AP"}}]}