{"type":"FeatureCollection","features":[{"type":"Feature","geometry":{"type":"Polygon","coordinates":[[[-68.18366,-9.23446],[-67.93991,-9.3369],[-67.9507,-9.33772],[-67.96637,-9.3504],[-67.98727,-9.35455],[-67.98883,-9.36078],[-68.00731,-9.35247],[-68.02074,-9.35652],[-68.02016,-9.34993],[-68.03123,-9.34542],[-68.03278,-9.3499],[-68.03968,-9.34847],[-68.04866,-9.35452],[-68.05968,-9.38661],[-68.06036,-9.4113],[-68.02689,-9.44691],[-68.01842,-9.46645],[-68.03097,-9.4948],[-68.04197,-9.50016],[-68.07209,-9.52208],[-68.0876,-9.52066],[-68.09979,-9.55113],[-68.09348,-9.57817],[-68.10213,-9.59172],[-67.91289,-9.6724],[-67.90456,-9.68363],[-67.90262,-9.72204],[-67.89062,-9.73202],[-67.87326,-9.7606],[-67.85315,-9.77112],[-67.83337,-9.78897],[-67.82829,-9.80313],[-67.83463,-9.82289],[-67.82614,-9.84993],[-67.82909,-9.86984],[-67.85267,-9.85787],[-67.85953,-9.84473],[-67.86749,-9.84077],[-67.90055,-9.84244],[-67.92693,-9.85333],[-67.935,-9.84933],[-67.96729,-9.85322],[-67.97651,-9.84442],[-68.00008,-9.85504],[-68.02314,-9.86437],[-68.0482,-9.88924],[-68.05392,-9.88724],[-68.06743,-9.89466],[-68.09855,-9.92947],[-68.12131,-9.93628],[-68.14956,-9.93645],[-68.15476,-9.93005],[-68.16248,-9.93806],[-68.2558,-9.83533],[-68.29145,-9.80747],[-68.30126,-9.79419],[-68.36491,-9.77981],[-68.38783,-9.78655],[-68.40884,-9.80297],[-68.42341,-9.69067],[-68.43503,-9.66426],[-68.44295,-9.65893],[-68.44064,-9.6411],[-68.45497,-9.6236],[-68.42739,-9.5984],[-68.42527,-9.56034],[-68.41908,-9.54476],[-68.48124,-9.52675],[-68.49928,-9.53345],[-68.53128,-9.50749],[-68.5653,-9.50243],[-68.58593,-9.5064],[-68.59523,-9.52404],[-68.61172,-9.53699],[-68.60442,-9.52273],[-68.60984,-9.51517],[-68.60806,-9.50337],[-68.59644,-9.4945],[-68.58528,-9.46553],[-68.57139,-9.45449],[-68.55136,-9.44866],[-68.55622,-9.42543],[-68.55194,-9.4183],[-68.48802,-9.36033],[-68.43713,-9.35329],[-68.40552,-9.35627],[-68.40177,-9.32461],[-68.3661,-9.29776],[-68.34143,-9.28891],[-68.31621,-9.29236],[-68.28832,-9.28457],[-68.27654,-9.27647],[-68.2702,-9.26486],[-68.25198,-9.26444],[-68.24209,-9.25223],[-68.22756,-9.2481],[-68.21529,-9.23759],[-68.18366,-9.23446]]]},"properties":{"CD_MUN":"1200138","NM_MUN":"Bujari","SIGLA_UF":"AC"}},{"type":"Feature","geometry":{"type":"Polygon","coordinates":[[[-67.63779,-10.3634],[-67.64659,-10.38967],[-67.65848,-10.39797],[-67.66784,-10.391],[-67.68017,-10.39061],[-67.6877,-10.41171],[-67.69637,-10.41686],[-67.70623,-10.4335],[-67.69651,-10.43956],[-67.69679,-10.45289],[-67.68798,-10.45277],[-67.65915,-10.48031],[-67.62407,-10.47994],[-67.60626,-10.50391],[-67.58793,-10.50997],[-67.61248,-10.56361],[-67.63405,-10.57909],[-67.63946,-10.59674],[-67.66058,-10.6163],[-67.67677,-10.60487],[-67.70758,-10.71048],[-67.71422,-10.70768],[-67.72136,-10.71181],[-67.72622,-10.70684],[-67.72916,-10.7133],[-67.7363,-10.71282],[-67.74422,-10.7077],[-67.74458,-10.69655],[-67.75622,-10.69551],[-67.75925,-10.68617],[-67.76891,-10.68799],[-67.78777,-10.67468],[-67.79206,-10.67773],[-67.80822,-10.66756],[-67.81069,-10.66096],[-67.8185,-10.66377],[-67.82364,-10.65214],[-67.85503,-10.65],[-67.86433,-10.64069],[-67.877,-10.64431],[-67.87628,-10.63964],[-67.89208,-10.64053],[-67.89019,-10.64393],[-67.89533,-10.64737],[-67.90853,-10.64143],[-67.91339,-10.64992],[-67.92939,-10.65601],[-67.96136,-10.65005],[-67.97661,-10.66262],[-68.00314,-10.64878],[-68.00999,-10.63367],[-68.01026,-10.61474],[-67.98442,-10.59244],[-68.01685,-10.56753],[-68.01913,-10.55005],[-68.03292,-10.53297],[-68.03032,-10.51633],[-68.03765,-10.48876],[-68.07454,-10.45065],[-68.07483,-10.42577],[-68.05502,-10.42126],[-68.05731,-10.41382],[-68.04102,-10.38828],[-68.02666,-10.37864],[-68.02524,-10.3722],[-68.03485,-10.36398],[-68.03888,-10.35133],[-68.02746,-10.34359],[-68.02938,-10.34043],[-68.01535,-10.33494],[-68.00935,-10.32309],[-67.99954,-10.31628],[-67.95988,-10.31411],[-67.95216,-10.30713],[-67.947,-10.28891],[-67.84868,-10.28851],[-67.84412,-10.28086],[-67.85596,-10.28417],[-67.84659,-10.27084],[-67.835,-10.27416],[-67.81993,-10.26766],[-67.82146,-10.26085],[-67.82764,-10.26072],[-67.83263,-10.25494],[-67.83212,-10.24537],[-67.82473,-10.24344],[-67.81624,-10.23219],[-67.81722,-10.22524],[-67.81302,-10.22505],[-67.82658,-10.20964],[-67.80583,-10.20332],[-67.80388,-10.19656],[-67.80037,-10.20851],[-67.78378,-10.21429],[-67.78412,-10.23136],[-67.7653,-10.25143],[-67.75633,-10.27068],[-67.71662,-10.29159],[-67.69571,-10.32453],[-67.69551,-10.3408],[-67.68879,-10.35435],[-67.63779,-10.3634]]]},"properties":{"CD_MUN":"1200179","NM_MUN":"Capixaba","SIGLA_UF":"AC"}},{"type":"Feature","geometry":{"type":"Polygon","coordinates":[[[-68.64537,-10.92355],[-68.65359,-10.92639],[-68.65828,-10.93932],[-68.66929,-10.93236],[-68.67293,-10.94594],[-68.67903,-10.93709],[-68.68654,-10.93851],[-68.68436,-10.95676],[-68.68857,-10.97067],[-68.71684,-10.98108],[-68.72497,-10.97465],[-68.72713,-10.98519],[-68.71717,-10.99287],[-68.72393,-10.99614],[-68.72677,-11.00449],[-68.73426,-10.98896],[-68.74102,-10.99411],[-68.73726,-11.01441],[-68.74896,-11.02154],[-68.74993,-11.00992],[-68.76396,-11.01735],[-68.7573,-11.00961],[-68.75818,-11.0008],[-68.77046,-11.00797],[-68.77982,-11.00517],[-68.78149,-10.99951],[-68.78843,-11.01549],[-68.78974,-11.00081],[-68.79877,-10.9986],[-68.79282,-10.99035],[-68.8124,-10.9951],[-68.80438,-11.00206],[-68.82366,-11.00366],[-68.82897,-11.00821],[-68.83155,-11.00169],[-68.82718,-10.99706],[-68.83463,-10.99446],[-68.84129,-11.00295],[-68.84499,-10.99888],[-68.84258,-10.99416],[-68.84816,-10.99336],[-68.86005,-11.00533],[-68.86096,-11.01791],[-68.87449,-11.00989],[-68.88468,-11.01077],[-68.88458,-11.01813],[-68.88052,-11.01256],[-68.87685,-11.01658],[-68.87899,-11.02258],[-68.88786,-11.01864],[-68.89588,-11.00668],[-68.91096,-11.02197],[-68.9216,-11.01463],[-68.92519,-11.01797],[-68.93605,-11.00502],[-68.94772,-11.01262],[-68.94791,-11.00501],[-68.95683,-11.00156],[-68.95327,-10.9895],[-68.96102,-10.99318],[-68.97385,-10.98925],[-68.98816,-10.99831],[-68.98469,-11.00897],[-68.99039,-11.0113],[-68.99508,-11.01083],[-68.99511,-11.00371],[-69.00538,-11.00734],[-69.01558,-11.00007],[-69.01225,-10.99163],[-69.02511,-10.99144],[-69.02611,-10.98335],[-69.03372,-10.98527],[-69.03919,-10.97688],[-69.04727,-10.9813],[-69.04955,-10.97431],[-69.06291,-10.98384],[-69.07286,-10.96594],[-69.07844,-10.97464],[-69.08714,-10.97032],[-69.10189,-10.98006],[-69.11036,-10.97131],[-69.12114,-10.98031],[-69.12308,-10.96677],[-69.13711,-10.97332],[-69.13833,-10.96464],[-69.14997,-10.97066],[-69.14464,-10.96319],[-69.15469,-10.9642],[-69.153,-10.95508],[-69.16311,-10.96526],[-69.18144,-10.95589],[-69.18619,-10.94845],[-69.19925,-10.94806],[-69.21539,-10.95694],[-69.23242,-10.93988],[-69.24236,-10.95117],[-69.25756,-10.94617],[-69.25125,-10.93965],[-69.27106,-10.9419],[-69.27447,-10.95434],[-69.28225,-10.94375],[-69.28892,-10.95011],[-69.3049,-10.94798],[-69.31981,-10.94394],[-69.32431,-10.93643],[-69.3277,-10.94905],[-69.33415,-10.94764],[-69.33695,-10.94081],[-69.3432,-10.95212],[-69.34559,-10.93906],[-69.35567,-10.93689],[-69.35728,-10.94444],[-69.37281,-10.93919],[-69.37476,-10.95356],[-69.37906,-10.94102],[-69.38581,-10.94204],[-69.38809,-10.93385],[-69.39484,-10.93457],[-69.39528,-10.94384],[-69.40295,-10.92912],[-69.41345,-10.93847],[-69.41615,-10.92718],[-69.42301,-10.92689],[-69.41992,-10.9148],[-69.43595,-10.90293],[-69.44978,-10.90513],[-69.4554,-10.89835],[-69.4862,-10.90107],[-69.50706,-10.89119],[-69.52228,-10.89814],[-69.53729,-10.89037],[-69.5424,-10.87728],[-69.56843,-10.85629],[-69.59273,-10.86297],[-69.63784,-10.84533],[-69.65499,-10.86165],[-69.66529,-10.8594],[-69.66296,-10.84526],[-69.66871,-10.83736],[-69.67793,-10.83512],[-69.69529,-10.81492],[-69.71471,-10.80564],[-69.72115,-10.79685],[-69.71948,-10.73417],[-69.69601,-10.73689],[-69.66223,-10.72498],[-69.64131,-10.68451],[-69.62739,-10.67445],[-69.61851,-10.66076],[-69.58608,-10.63775],[-69.567,-10.63934],[-69.53897,-10.62224],[-69.54008,-10.60544],[-69.53419,-10.59471],[-69.53633,-10.56602],[-69.50972,-10.55575],[-69.50158,-10.53507],[-69.48877,-10.52043],[-69.48816,-10.50995],[-69.47235,-10.49208],[-69.45741,-10.48912],[-69.42897,-10.49452],[-69.42082,-10.48865],[-69.47902,-10.61254],[-69.47066,-10.61607],[-69.45724,-10.60207],[-69.43786,-10.59714],[-69.42941,-10.58971],[-69.39752,-10.56059],[-69.3916,-10.54167],[-69.37857,-10.54065],[-69.3549,-10.55033],[-69.34599,-10.54344],[-69.33424,-10.55533],[-69.31393,-10.54947],[-69.28135,-10.56706],[-69.25809,-10.55759],[-69.23901,-10.53784],[-69.23046,-10.53502],[-69.21674,-10.5422],[-69.20951,-10.55199],[-69.2019,-10.55326],[-69.19887,-10.54798],[-69.18706,-10.55141],[-69.18848,-10.56224],[-69.18002,-10.57041],[-69.16729,-10.56628],[-69.15026,-10.5774],[-69.11554,-10.57008],[-69.09926,-10.58159],[-69.08218,-10.57585],[-69.06693,-10.58926],[-69.06087,-10.59026],[-69.05551,-10.58372],[-69.03673,-10.58353],[-69.02612,-10.58987],[-69.02259,-10.58502],[-69.00156,-10.58632],[-68.99573,-10.57817],[-68.97761,-10.57373],[-68.97017,-10.58291],[-68.96475,-10.57795],[-68.95753,-10.58306],[-68.95523,-10.57926],[-68.94364,-10.58118],[-68.93867,-10.57598],[-68.93106,-10.57957],[-68.92881,-10.57478],[-68.9185,-10.57993],[-68.91508,-10.57572],[-68.90689,-10.58271],[-68.88314,-10.56637],[-68.86964,-10.56813],[-68.86461,-10.5734],[-68.84163,-10.55809],[-68.8295,-10.55407],[-68.81925,-10.55781],[-68.81125,-10.54912],[-68.80767,-10.55442],[-68.8028,-10.55347],[-68.80514,-10.55714],[-68.79958,-10.56135],[-68.79517,-10.55799],[-68.78119,-10.56199],[-68.77964,-10.56635],[-68.77247,-10.56031],[-68.77161,-10.55279],[-68.76431,-10.55881],[-68.76022,-10.55214],[-68.74811,-10.55694],[-68.74869,-10.56511],[-68.74405,-10.56409],[-68.73891,-10.57105],[-68.72802,-10.55898],[-68.71419,-10.56007],[-68.707,-10.55551],[-68.68341,-10.57417],[-68.67408,-10.55915],[-68.67211,-10.56836],[-68.66488,-10.55853],[-68.65863,-10.56778],[-68.66311,-10.56933],[-68.65469,-10.57495],[-68.64811,-10.57534],[-68.6448,-10.57027],[-68.64502,-10.57584],[-68.63952,-10.57499],[-68.63675,-10.57993],[-68.63124,-10.57501],[-68.63121,-10.58609],[-68.62566,-10.58807],[-68.62839,-10.59364],[-68.62339,-10.59294],[-68.61541,-10.60137],[-68.62533,-10.62506],[-68.63597,-10.62632],[-68.63611,-10.61889],[-68.64825,-10.61421],[-68.65455,-10.62136],[-68.67292,-10.62312],[-68.67263,-10.61919],[-68.68358,-10.63117],[-68.70991,-10.63597],[-68.71111,-10.64619],[-68.72219,-10.64885],[-68.73106,-10.64496],[-68.73845,-10.65616],[-68.74975,-10.65818],[-68.75661,-10.67286],[-68.78397,-10.66304],[-68.79273,-10.66959],[-68.80689,-10.67127],[-68.80331,-10.68162],[-68.8134,-10.69214],[-68.80498,-10.70837],[-68.80642,-10.71642],[-68.82409,-10.72405],[-68.85757,-10.7627],[-68.84445,-10.79592],[-68.86523,-10.82988],[-68.87188,-10.84849],[-68.70287,-10.84925],[-68.68181,-10.83199],[-68.65223,-10.83409],[-68.64117,-10.82423],[-68.63378,-10.80801],[-68.62161,-10.8098],[-68.59386,-10.79509],[-68.58531,-10.78616],[-68.5855,-10.77544],[-68.57122,-10.77813],[-68.56094,-10.77336],[-68.5495,-10.78788],[-68.56131,-10.79287],[-68.55647,-10.78341],[-68.56503,-10.78286],[-68.57931,-10.80259],[-68.56403,-10.81792],[-68.56989,-10.82583],[-68.57614,-10.82243],[-68.57159,-10.83755],[-68.57628,-10.84888],[-68.584,-10.84699],[-68.58817,-10.8509],[-68.58376,-10.87059],[-68.59606,-10.87206],[-68.60459,-10.89388],[-68.62201,-10.88934],[-68.63003,-10.90132],[-68.64292,-10.89697],[-68.64132,-10.90562],[-68.65354,-10.91744],[-68.64537,-10.92355]]]},"properties":{"CD_MUN":"1200104","NM_MUN":"Brasiléia","SIGLA_UF":"AC"}},{"type":"Feature","geometry":{"type":"Polygon","coordinates":[[[-67.10475,-9.68707],[-66.80612,-9.81413],[-66.61973,-9.8937],[-66.62659,-9.89931],[-66.6244,-9.90699],[-66.63565,-9.91296],[-66.62631,-9.92116],[-66.6357,-9.92622],[-66.62701,-9.93162],[-66.63801,-9.95179],[-66.6504,-9.94516],[-66.65185,-9.93634],[-66.65581,-9.94173],[-66.65748,-9.93597],[-66.66507,-9.94127],[-66.67001,-9.95989],[-66.67654,-9.95702],[-66.67618,-9.96786],[-66.69568,-9.9674],[-66.69446,-9.97102],[-66.71232,-9.97808],[-66.71788,-9.9743],[-66.72265,-9.97941],[-66.72054,-9.98315],[-66.73393,-9.98265],[-66.74149,-9.9965],[-66.75082,-9.99455],[-66.75602,-10.00012],[-66.76435,-9.99971],[-66.76435,-10.00622],[-66.77282,-10.01124],[-66.77205,-10.02058],[-66.7798,-10.01711],[-66.79041,-10.02186],[-66.80672,-10.03737],[-66.80241,-10.04301],[-66.80758,-10.0482],[-66.83599,-10.06249],[-66.835,-10.06745],[-66.84022,-10.07109],[-66.83849,-10.08312],[-66.85186,-10.08655],[-66.85233,-10.0809],[-66.86666,-10.08433],[-66.87316,-10.08057],[-66.87325,-10.10064],[-66.88044,-10.09689],[-66.88358,-10.10785],[-66.88756,-10.09913],[-66.88903,-10.11432],[-66.8983,-10.11084],[-66.89714,-10.11809],[-66.92045,-10.11],[-66.92915,-10.11191],[-66.96041,-10.0968],[-66.9784,-10.09794],[-66.98679,-10.08864],[-66.99938,-10.087],[-67.04347,-10.09293],[-67.0562,-10.1064],[-67.15995,-10.10532],[-67.16054,-9.98277],[-67.0785,-9.87139],[-67.08118,-9.8391],[-67.06626,-9.80804],[-67.06913,-9.80212],[-67.07992,-9.79925],[-67.09972,-9.75555],[-67.12695,-9.72811],[-67.11223,-9.71102],[-67.11082,-9.69602],[-67.10475,-9.68707]]]},"properties":{"CD_MUN":"1200013","NM_MUN":"Acrelândia","SIGLA_UF":"AC"}},{"type":"Feature","geometry":{"type":"Polygon","coordinates":[[[-70.62148,-10.70787],[-70.61843,-10.71296],[-70.61396,-10.7041],[-70.60579,-10.70411],[-70.60221,-10.69663],[-70.57848,-10.70358],[-70.57134,-10.69524],[-70.5727,-10.68974],[-70.56031,-10.69314],[-70.55679,-10.68756],[-70.52418,-10.70007],[-70.53387,-10.70411],[-70.53531,-10.71051],[-70.52679,-10.71884],[-70.51262,-10.7207],[-70.51312,-10.7255],[-70.50256,-10.72349],[-70.50198,-10.7142],[-70.48623,-10.72336],[-70.47345,-10.71388],[-70.46562,-10.71734],[-70.4659,-10.70333],[-70.45975,-10.7012],[-70.45647,-10.70167],[-70.46003,-10.71155],[-70.45679,-10.71407],[-70.44623,-10.71049],[-70.446,-10.72239],[-70.43714,-10.7148],[-70.42253,-10.72438],[-70.42576,-10.7174],[-70.4202,-10.70792],[-70.42059,-10.71548],[-70.40634,-10.71532],[-70.40462,-10.72228],[-70.39542,-10.72753],[-70.38506,-10.71959],[-70.38189,-10.731],[-70.36961,-10.73114],[-70.36597,-10.71429],[-70.35042,-10.71156],[-70.34998,-10.71669],[-70.34259,-10.71701],[-70.34353,-10.70559],[-70.33514,-10.70711],[-70.33145,-10.71627],[-70.31667,-10.7146],[-70.31114,-10.70067],[-70.30456,-10.70133],[-70.30064,-10.69521],[-70.2915,-10.69988],[-70.28242,-10.69186],[-70.27931,-10.70715],[-70.27583,-10.70732],[-70.27375,-10.69555],[-70.26627,-10.71312],[-70.26047,-10.70663],[-70.2575,-10.7137],[-70.25178,-10.69833],[-70.22869,-10.69221],[-70.23442,-10.68442],[-70.22277,-10.68599],[-70.22336,-10.67744],[-70.22063,-10.68199],[-70.21294,-10.68158],[-70.21822,-10.68666],[-70.21458,-10.69704],[-70.20822,-10.69518],[-70.20764,-10.70442],[-70.20141,-10.68968],[-70.19191,-10.69301],[-70.18361,-10.68939],[-70.1793,-10.69459],[-70.18578,-10.696],[-70.18224,-10.70269],[-70.18827,-10.70784],[-70.18141,-10.74169],[-70.20567,-10.77561],[-70.20086,-10.7876],[-70.20522,-10.8211],[-70.2217,-10.8567],[-69.71948,-10.73417],[-69.72115,-10.79685],[-69.71471,-10.80564],[-69.69529,-10.81492],[-69.67793,-10.83512],[-69.66871,-10.83736],[-69.66296,-10.84526],[-69.66529,-10.8594],[-69.65499,-10.86165],[-69.63784,-10.84533],[-69.59273,-10.86297],[-69.56843,-10.85629],[-69.5424,-10.87728],[-69.53729,-10.89037],[-69.52228,-10.89814],[-69.50706,-10.89119],[-69.4862,-10.90107],[-69.4554,-10.89835],[-69.44978,-10.90513],[-69.43595,-10.90293],[-69.41992,-10.9148],[-69.42301,-10.92689],[-69.42901,-10.93735],[-69.4502,-10.93609],[-69.45459,-10.9498],[-69.46076,-10.94393],[-69.46381,-10.95026],[-69.47496,-10.94456],[-69.48045,-10.95457],[-69.49618,-10.94943],[-69.50073,-10.93684],[-69.50796,-10.94156],[-69.52757,-10.93454],[-69.54223,-10.93711],[-69.54343,-10.95158],[-69.58056,-10.93991],[-69.5891,-10.94047],[-69.58679,-10.94754],[-69.60138,-10.94159],[-69.61212,-10.9468],[-69.61182,-10.95539],[-69.62054,-10.95019],[-69.63566,-10.95716],[-69.65952,-10.95201],[-69.66971,-10.96197],[-69.69191,-10.96346],[-69.69927,-10.97191],[-69.7026,-10.96564],[-69.71477,-10.97462],[-69.72338,-10.96476],[-69.7341,-10.97334],[-69.74111,-10.97315],[-69.73952,-10.96467],[-69.74663,-10.9619],[-69.76038,-10.93981],[-69.76466,-10.9391],[-69.76113,-10.9448],[-69.77372,-10.939],[-69.77052,-10.92944],[-69.78163,-10.93437],[-69.81199,-10.92533],[-69.81446,-10.93015],[-69.83152,-10.93359],[-69.83291,-10.92808],[-69.85208,-10.92433],[-69.85852,-10.93351],[-69.86347,-10.92617],[-69.87525,-10.92906],[-69.87958,-10.92389],[-69.90039,-10.92009],[-69.91469,-10.92301],[-69.91966,-10.93234],[-69.92436,-10.93157],[-69.92527,-10.92415],[-69.93313,-10.92198],[-69.95136,-10.92592],[-69.95511,-10.93511],[-69.96261,-10.9345],[-69.95914,-10.93986],[-69.97589,-10.94792],[-69.98278,-10.94236],[-69.98581,-10.95417],[-69.99444,-10.9508],[-70.00078,-10.96297],[-70.00405,-10.9598],[-70.022,-10.96847],[-70.02842,-10.97723],[-70.03703,-10.97024],[-70.0377,-10.97776],[-70.048,-10.9785],[-70.04422,-10.98282],[-70.05034,-10.97957],[-70.0527,-10.98539],[-70.06581,-10.98654],[-70.06778,-10.9925],[-70.07987,-10.99079],[-70.081,-10.98402],[-70.08681,-10.98903],[-70.09248,-10.98596],[-70.09848,-10.99767],[-70.10564,-10.99736],[-70.09887,-10.99207],[-70.10895,-10.99455],[-70.10756,-11.00697],[-70.11173,-11.00266],[-70.11703,-11.00539],[-70.11462,-11.00867],[-70.12312,-11.01015],[-70.13253,-11.02144],[-70.13948,-11.02144],[-70.1424,-11.0296],[-70.1564,-11.0339],[-70.15926,-11.04095],[-70.17726,-11.03882],[-70.20048,-11.0536],[-70.22893,-11.04876],[-70.23099,-11.05249],[-70.24193,-11.04602],[-70.26463,-11.05081],[-70.2721,-11.05976],[-70.2864,-11.0577],[-70.30729,-11.06983],[-70.34426,-11.06645],[-70.35393,-11.05863],[-70.3746,-11.06044],[-70.38599,-11.04731],[-70.40668,-11.04749],[-70.4108,-11.04182],[-70.43732,-11.03923],[-70.44127,-11.01516],[-70.45393,-10.99649],[-70.46974,-10.98863],[-70.48696,-10.96429],[-70.49502,-10.96344],[-70.53091,-10.93465],[-70.62161,-10.99981],[-70.62148,-10.70787]]]},"properties":{"CD_MUN":"1200054","NM_MUN":"Assis Brasil","SIGLA_UF":"AC"}},{"type":"Feature","geometry":{"type":"Polygon","coordinates":[[[-68.04102,-10.38828],[-68.05731,-10.41382],[-68.05502,-10.42126],[-68.07483,-10.42577],[-68.07454,-10.45065],[-68.03765,-10.48876],[-68.03032,-10.51633],[-68.03292,-10.53297],[-68.01913,-10.55005],[-68.01685,-10.56753],[-67.98442,-10.59244],[-68.01026,-10.61474],[-68.00999,-10.63367],[-68.00314,-10.64878],[-68.0217,-10.65049],[-68.02706,-10.65706],[-68.03337,-10.65487],[-68.03131,-10.66489],[-68.05512,-10.67003],[-68.06595,-10.68416],[-68.07584,-10.68368],[-68.07945,-10.69335],[-68.09681,-10.70445],[-68.09532,-10.70884],[-68.10565,-10.71622],[-68.14472,-10.69394],[-68.15293,-10.70169],[-68.18911,-10.70037],[-68.26891,-10.66241],[-68.35203,-10.68164],[-68.3734,-10.69497],[-68.42735,-10.71529],[-68.43454,-10.73967],[-68.43328,-10.75224],[-68.45222,-10.78438],[-68.45756,-10.81367],[-68.48204,-10.83817],[-68.50077,-10.87436],[-68.50701,-10.88224],[-68.50754,-10.89459],[-68.52955,-10.90418],[-68.54028,-10.91456],[-68.54267,-10.94431],[-68.55478,-10.97097],[-68.55315,-11.02057],[-68.52388,-11.02758],[-68.59026,-11.0277],[-68.60095,-11.00202],[-68.59581,-10.98396],[-68.60332,-10.97865],[-68.60276,-10.97376],[-68.62087,-10.97466],[-68.61703,-10.97116],[-68.62251,-10.95008],[-68.62745,-10.9458],[-68.63662,-10.94719],[-68.64537,-10.92355],[-68.65354,-10.91744],[-68.64132,-10.90562],[-68.64292,-10.89697],[-68.63003,-10.90132],[-68.62201,-10.88934],[-68.60459,-10.89388],[-68.59606,-10.87206],[-68.58376,-10.87059],[-68.58817,-10.8509],[-68.584,-10.84699],[-68.57628,-10.84888],[-68.57159,-10.83755],[-68.57614,-10.82243],[-68.56989,-10.82583],[-68.56403,-10.81792],[-68.57931,-10.80259],[-68.56503,-10.78286],[-68.55647,-10.78341],[-68.56131,-10.79287],[-68.5495,-10.78788],[-68.56094,-10.77336],[-68.57122,-10.77813],[-68.5855,-10.77544],[-68.58531,-10.78616],[-68.59386,-10.79509],[-68.62161,-10.8098],[-68.63378,-10.80801],[-68.64117,-10.82423],[-68.65223,-10.83409],[-68.68181,-10.83199],[-68.70287,-10.84925],[-68.87188,-10.84849],[-68.86523,-10.82988],[-68.84445,-10.79592],[-68.85757,-10.7627],[-68.82409,-10.72405],[-68.80642,-10.71642],[-68.80498,-10.70837],[-68.8134,-10.69214],[-68.80331,-10.68162],[-68.80689,-10.67127],[-68.79273,-10.66959],[-68.78397,-10.66304],[-68.75661,-10.67286],[-68.74975,-10.65818],[-68.73845,-10.65616],[-68.73106,-10.64496],[-68.72219,-10.64885],[-68.71111,-10.64619],[-68.70991,-10.63597],[-68.68358,-10.63117],[-68.67263,-10.61919],[-68.67292,-10.62312],[-68.65455,-10.62136],[-68.64825,-10.61421],[-68.63611,-10.61889],[-68.63597,-10.62632],[-68.62533,-10.62506],[-68.61541,-10.60137],[-68.62339,-10.59294],[-68.62839,-10.59364],[-68.62566,-10.58807],[-68.63121,-10.58609],[-68.63124,-10.57501],[-68.63675,-10.57993],[-68.63952,-10.57499],[-68.64502,-10.57584],[-68.6448,-10.57027],[-68.64811,-10.57534],[-68.65469,-10.57495],[-68.66311,-10.56933],[-68.65863,-10.56778],[-68.66488,-10.55853],[-68.67211,-10.56836],[-68.67408,-10.55915],[-68.68341,-10.57417],[-68.707,-10.55551],[-68.71419,-10.56007],[-68.72802,-10.55898],[-68.73891,-10.57105],[-68.74405,-10.56409],[-68.74869,-10.56511],[-68.74811,-10.55694],[-68.76022,-10.55214],[-68.76431,-10.55881],[-68.77161,-10.55279],[-68.77247,-10.56031],[-68.77964,-10.56635],[-68.78119,-10.56199],[-68.79517,-10.55799],[-68.79958,-10.56135],[-68.80514,-10.55714],[-68.8028,-10.55347],[-68.80767,-10.55442],[-68.81125,-10.54912],[-68.81925,-10.55781],[-68.8295,-10.55407],[-68.84163,-10.55809],[-68.86461,-10.5734],[-68.86964,-10.56813],[-68.88314,-10.56637],[-68.90689,-10.58271],[-68.91508,-10.57572],[-68.9185,-10.57993],[-68.92881,-10.57478],[-68.93106,-10.57957],[-68.93867,-10.57598],[-68.94364,-10.58118],[-68.95523,-10.57926],[-68.95753,-10.58306],[-68.96475,-10.57795],[-68.97017,-10.58291],[-68.97761,-10.57373],[-68.99573,-10.57817],[-69.00156,-10.58632],[-69.02259,-10.58502],[-69.02612,-10.58987],[-69.03673,-10.58353],[-69.05551,-10.58372],[-69.06087,-10.59026],[-69.06693,-10.58926],[-69.08218,-10.57585],[-69.09926,-10.58159],[-69.11554,-10.57008],[-69.15026,-10.5774],[-69.16729,-10.56628],[-69.18002,-10.57041],[-69.18848,-10.56224],[-69.18706,-10.55141],[-69.19887,-10.54798],[-69.2019,-10.55326],[-69.20951,-10.55199],[-69.21674,-10.5422],[-69.23046,-10.53502],[-69.23901,-10.53784],[-69.25809,-10.55759],[-69.28135,-10.56706],[-69.31393,-10.54947],[-69.33424,-10.55533],[-69.34599,-10.54344],[-69.3549,-10.55033],[-69.37857,-10.54065],[-69.3916,-10.54167],[-69.39752,-10.56059],[-69.42941,-10.58971],[-69.43786,-10.59714],[-69.45724,-10.60207],[-69.47066,-10.61607],[-69.47902,-10.61254],[-69.42082,-10.48865],[-69.39619,-10.48649],[-69.34252,-10.48645],[-69.32343,-10.47298],[-69.29007,-10.47077],[-69.27007,-10.45906],[-69.24915,-10.45499],[-69.24765,-10.45054],[-69.0005,-10.45065],[-68.84736,-10.45135],[-68.84833,-10.4428],[-68.82672,-10.42078],[-68.81252,-10.4148],[-68.78755,-10.413],[-68.76577,-10.40159],[-68.75849,-10.40634],[-68.73354,-10.40109],[-68.72971,-10.39312],[-68.71271,-10.38314],[-68.70696,-10.36364],[-68.69479,-10.35556],[-68.68799,-10.35912],[-68.68385,-10.35505],[-68.68565,-10.33941],[-68.68143,-10.33077],[-68.66232,-10.32862],[-68.64109,-10.30528],[-68.61823,-10.30687],[-68.59167,-10.29342],[-68.5814,-10.29426],[-68.58004,-10.28436],[-68.5694,-10.28013],[-68.56629,-10.27298],[-68.55348,-10.27917],[-68.53623,-10.2752],[-68.52895,-10.27013],[-68.52692,-10.25628],[-68.50744,-10.25901],[-68.50053,-10.25503],[-68.49206,-10.2482],[-68.48939,-10.22742],[-68.47156,-10.2173],[-68.47195,-10.19527],[-68.46542,-10.18534],[-68.45116,-10.18357],[-68.43961,-10.19162],[-68.42541,-10.18232],[-68.4163,-10.16697],[-68.41498,-10.49129],[-68.41182,-10.4964],[-68.39737,-10.49202],[-68.38265,-10.4673],[-68.36851,-10.46472],[-68.36395,-10.45588],[-68.35423,-10.4547],[-68.3432,-10.44141],[-68.31889,-10.43233],[-68.31323,-10.41766],[-68.28581,-10.40473],[-68.27295,-10.38888],[-68.25658,-10.39085],[-68.23341,-10.38506],[-68.23039,-10.39018],[-68.20786,-10.37529],[-68.1863,-10.38254],[-68.1518,-10.37072],[-68.12428,-10.37523],[-68.11694,-10.3675],[-68.10347,-10.36885],[-68.09772,-10.36426],[-68.0893,-10.36483],[-68.0698,-10.3831],[-68.06252,-10.37948],[-68.04102,-10.38828]]]},"properties":{"CD_MUN":"1200708","NM_MUN":"Xapuri","SIGLA_UF":"AC"}},{"type":"Feature","geometry":{"type":"Polygon","coordinates":[[[-72.17269,-7.73624],[-72.00057,-7.77896],[-71.50953,-7.88069],[-71.50051,-7.89061],[-71.24042,-7.95028],[-70.57557,-8.09555],[-70.57784,-8.11631],[-70.5556,-8.15772],[-70.57988,-8.19651],[-70.57451,-8.20603],[-70.56554,-8.21042],[-70.56655,-8.21838],[-70.77958,-8.37181],[-70.78592,-8.36709],[-70.79603,-8.37289],[-70.79809,-8.38339],[-70.80286,-8.38268],[-70.80598,-8.38822],[-70.80428,-8.40073],[-70.79798,-8.40421],[-70.80345,-8.40575],[-70.80926,-8.41875],[-70.80695,-8.42714],[-70.84056,-8.4296],[-70.83645,-8.44734],[-70.84767,-8.45218],[-70.84662,-8.46044],[-70.86309,-8.4655],[-70.8557,-8.48826],[-70.85985,-8.50003],[-70.86768,-8.4947],[-70.88654,-8.50403],[-70.88473,-8.51067],[-70.87499,-8.50829],[-70.87685,-8.51789],[-70.87121,-8.51201],[-70.86735,-8.51743],[-70.87634,-8.52067],[-70.88526,-8.51707],[-70.8881,-8.52315],[-70.89437,-8.52393],[-70.89624,-8.54508],[-70.9063,-8.54967],[-70.89785,-8.5659],[-70.90696,-8.55929],[-70.92446,-8.56901],[-70.92393,-8.57982],[-70.91585,-8.58008],[-70.91307,-8.58634],[-70.91899,-8.58446],[-70.91938,-8.59171],[-70.92569,-8.58887],[-70.92424,-8.59715],[-70.93202,-8.60193],[-70.93482,-8.61107],[-70.93835,-8.60837],[-70.9466,-8.61683],[-70.94305,-8.62315],[-70.95171,-8.62079],[-70.96033,-8.62913],[-70.96424,-8.64867],[-70.96813,-8.64059],[-70.9695,-8.64647],[-70.97991,-8.64669],[-70.97874,-8.66516],[-70.99224,-8.67095],[-70.998,-8.68407],[-71.00811,-8.68821],[-71.01419,-8.68202],[-71.00649,-8.709],[-71.01089,-8.71422],[-71.01872,-8.71294],[-71.01364,-8.72166],[-71.02399,-8.71497],[-71.03253,-8.73152],[-71.03889,-8.72573],[-71.04297,-8.73389],[-71.05722,-8.7369],[-71.05786,-8.75331],[-71.06308,-8.74884],[-71.07789,-8.7498],[-71.08092,-8.75361],[-71.07442,-8.76399],[-71.07895,-8.77362],[-71.08122,-8.76221],[-71.08872,-8.75698],[-71.10056,-8.77156],[-71.1025,-8.76242],[-71.11659,-8.76859],[-71.1217,-8.76174],[-71.1315,-8.77482],[-71.12614,-8.77907],[-71.13684,-8.77396],[-71.14664,-8.78013],[-71.1477,-8.78889],[-71.15909,-8.79413],[-71.16887,-8.78372],[-71.1752,-8.78443],[-71.18495,-8.79791],[-71.1837,-8.80834],[-71.19473,-8.80045],[-71.20831,-8.80952],[-71.21759,-8.8089],[-71.22109,-8.81859],[-71.22459,-8.81589],[-71.22662,-8.83466],[-71.2371,-8.82808],[-71.23746,-8.84172],[-71.24271,-8.84732],[-71.25548,-8.83799],[-71.26095,-8.84545],[-71.26951,-8.84546],[-71.26532,-8.83301],[-71.27807,-8.84355],[-71.28318,-8.83596],[-71.28973,-8.83865],[-71.29329,-8.83465],[-71.29607,-8.84356],[-71.3006,-8.84282],[-71.31215,-8.85785],[-71.31535,-8.84802],[-71.32085,-8.86035],[-71.33504,-8.85887],[-71.33115,-8.86543],[-71.34521,-8.86135],[-71.34379,-8.8672],[-71.34982,-8.87154],[-71.36574,-8.87439],[-71.36383,-8.88127],[-71.37313,-8.88942],[-71.37571,-8.88497],[-71.38407,-8.8894],[-71.38074,-8.87784],[-71.39088,-8.88269],[-71.39802,-8.87077],[-71.41113,-8.87061],[-71.42508,-8.88266],[-71.42971,-8.86953],[-71.43435,-8.87264],[-71.44199,-8.86405],[-71.45591,-8.87123],[-71.45983,-8.86383],[-71.46894,-8.86495],[-71.48261,-8.8808],[-71.48541,-8.89203],[-71.49532,-8.88669],[-71.50155,-8.8929],[-71.50083,-8.8997],[-71.50588,-8.8946],[-71.50891,-8.90089],[-71.52661,-8.90452],[-71.53311,-8.91875],[-71.54281,-8.91121],[-71.55046,-8.91686],[-71.56158,-8.91302],[-71.56758,-8.91749],[-71.58656,-8.91048],[-71.58971,-8.90493],[-71.59969,-8.9025],[-71.60439,-8.89013],[-71.6121,-8.88753],[-71.62163,-8.87121],[-71.61534,-8.85447],[-71.6203,-8.84577],[-71.61979,-8.82458],[-71.60858,-8.81504],[-71.58012,-8.77667],[-71.58225,-8.77188],[-71.5749,-8.75698],[-71.55659,-8.74215],[-71.54311,-8.73827],[-71.54266,-8.73356],[-71.54562,-8.70972],[-71.55446,-8.70297],[-71.56066,-8.67974],[-71.55657,-8.67401],[-71.56009,-8.65609],[-71.55599,-8.64813],[-71.56685,-8.64719],[-71.57624,-8.65771],[-71.58504,-8.65317],[-71.60435,-8.66151],[-71.6019,-8.67364],[-71.6057,-8.6777],[-71.61052,-8.67623],[-71.60907,-8.6686],[-71.61553,-8.66649],[-71.6273,-8.67703],[-71.62066,-8.69012],[-71.6354,-8.68702],[-71.64233,-8.69799],[-71.64927,-8.6948],[-71.66141,-8.70675],[-71.67208,-8.6988],[-71.68273,-8.70044],[-71.67532,-8.71674],[-71.69399,-8.71951],[-71.69512,-8.72904],[-71.70819,-8.73004],[-71.71283,-8.72286],[-71.71776,-8.72351],[-71.71813,-8.73543],[-71.71322,-8.74143],[-71.71867,-8.74086],[-71.72923,-8.75534],[-71.73913,-8.75424],[-71.74147,-8.76348],[-71.7516,-8.76361],[-71.75023,-8.77687],[-71.76501,-8.7845],[-71.76679,-8.80008],[-71.78414,-8.81465],[-71.78658,-8.80519],[-71.79695,-8.80558],[-71.79571,-8.81641],[-71.8136,-8.82114],[-71.81299,-8.83002],[-71.82862,-8.82272],[-71.83173,-8.8277],[-71.84234,-8.82122],[-71.849,-8.82532],[-71.854,-8.81385],[-71.86149,-8.82022],[-71.8878,-8.80769],[-71.89381,-8.81115],[-71.89845,-8.80338],[-71.91021,-8.80569],[-71.91834,-8.78894],[-71.92658,-8.79357],[-71.93595,-8.78667],[-71.94589,-8.78838],[-71.96938,-8.77749],[-71.98384,-8.78451],[-71.99097,-8.79668],[-72.00435,-8.80248],[-72.03286,-8.80809],[-72.04188,-8.80455],[-72.07343,-8.80623],[-72.09023,-8.79048],[-72.15198,-8.77359],[-72.15762,-8.76108],[-72.15962,-8.72016],[-72.16515,-8.70379],[-72.21534,-8.70488],[-72.22551,-8.68463],[-72.25618,-8.67555],[-72.24698,-8.64933],[-72.25748,-8.62822],[-72.25017,-8.59558],[-72.28406,-8.46653],[-72.28975,-8.41849],[-72.28836,-8.40165],[-72.23945,-8.23454],[-72.24077,-8.21433],[-72.26563,-8.16816],[-72.25443,-8.10895],[-72.27887,-8.05545],[-72.24912,-8.00212],[-72.24523,-7.98156],[-72.22664,-7.94257],[-72.21687,-7.93055],[-72.19798,-7.92845],[-72.18842,-7.91097],[-72.1905,-7.88215],[-72.17456,-7.8693],[-72.17403,-7.84553],[-72.18056,-7.81888],[-72.17894,-7.76064],[-72.17269,-7.73624]]]},"properties":{"CD_MUN":"1200609","NM_MUN":"Tarauacá","SIGLA_UF":"AC"}},{"type":"Feature","geometry":{"type":"Polygon","coordinates":[[[-68.99749,-8.87265],[-68.73465,-9.00008],[-68.18366,-9.23446],[-68.21529,-9.23759],[-68.22756,-9.2481],[-68.24209,-9.25223],[-68.25198,-9.26444],[-68.2702,-9.26486],[-68.27654,-9.27647],[-68.28832,-9.28457],[-68.31621,-9.29236],[-68.34143,-9.28891],[-68.3661,-9.29776],[-68.40177,-9.32461],[-68.40552,-9.35627],[-68.43713,-9.35329],[-68.48802,-9.36033],[-68.55194,-9.4183],[-68.55622,-9.42543],[-68.55136,-9.44866],[-68.57139,-9.45449],[-68.58528,-9.46553],[-68.59644,-9.4945],[-68.60806,-9.50337],[-68.60984,-9.51517],[-68.60442,-9.52273],[-68.61172,-9.53699],[-68.60654,-9.54571],[-68.61109,-9.55871],[-68.60709,-9.57467],[-68.64251,-9.57656],[-68.65162,-9.58185],[-68.68335,-9.63698],[-68.67568,-9.6599],[-68.68351,-9.67697],[-68.68393,-9.70527],[-68.67549,-9.73571],[-68.68727,-9.75494],[-68.68118,-9.76521],[-68.66813,-9.79155],[-68.65891,-9.7955],[-68.65838,-9.80568],[-68.64905,-9.81848],[-68.65138,-9.83592],[-68.64694,-9.86595],[-68.65916,-9.87358],[-68.66521,-9.89189],[-68.68514,-9.89756],[-68.70325,-9.89249],[-68.71511,-9.90092],[-68.71836,-9.9105],[-68.73989,-9.90826],[-68.74719,-9.93226],[-68.76936,-9.96734],[-68.78683,-9.96802],[-68.82811,-9.98455],[-68.8467,-9.98068],[-68.85717,-9.98798],[-68.86512,-9.98691],[-68.87173,-10.00391],[-68.87781,-10.00252],[-68.90376,-10.02905],[-68.90412,-10.05459],[-68.91118,-10.069],[-68.92012,-10.07572],[-68.91868,-10.0819],[-68.94471,-10.10066],[-68.94915,-10.09795],[-68.95901,-10.1098],[-68.99243,-10.11625],[-69.00049,-10.13575],[-69.01196,-10.14097],[-69.01727,-10.16437],[-69.02899,-10.17988],[-69.03985,-10.17975],[-69.05269,-10.19264],[-69.04849,-10.20749],[-69.05808,-10.22221],[-69.06911,-10.22484],[-69.07933,-10.23436],[-69.08002,-10.25368],[-69.10755,-10.26308],[-69.11247,-10.27485],[-69.12336,-10.27261],[-69.14091,-10.28934],[-69.14747,-10.28807],[-69.15219,-10.27919],[-69.16561,-10.2813],[-69.1703,-10.29835],[-69.18631,-10.29802],[-69.18764,-10.31141],[-69.19203,-10.31671],[-69.19864,-10.31575],[-69.20201,-10.32675],[-69.21175,-10.3275],[-69.21678,-10.33775],[-69.22973,-10.3382],[-69.24489,-10.35701],[-69.25456,-10.35955],[-69.26584,-10.38567],[-69.28432,-10.38792],[-69.28912,-10.39719],[-69.29418,-10.40746],[-69.30746,-10.40796],[-69.30962,-10.41361],[-69.31829,-10.40795],[-69.32651,-10.41613],[-69.32651,-10.42933],[-69.33323,-10.43439],[-69.3389,-10.45377],[-69.33326,-10.46283],[-69.34268,-10.47466],[-69.36304,-10.479],[-69.37149,-10.47509],[-69.39619,-10.48649],[-69.42082,-10.48865],[-69.42897,-10.49452],[-69.45741,-10.48912],[-69.47235,-10.49208],[-69.48816,-10.50995],[-69.48877,-10.52043],[-69.50158,-10.53507],[-69.50972,-10.55575],[-69.53633,-10.56602],[-69.53419,-10.59471],[-69.54008,-10.60544],[-69.53897,-10.62224],[-69.567,-10.63934],[-69.58608,-10.63775],[-69.61851,-10.66076],[-69.62739,-10.67445],[-69.64131,-10.68451],[-69.66223,-10.72498],[-69.69601,-10.73689],[-69.71948,-10.73417],[-70.2217,-10.8567],[-70.20522,-10.8211],[-70.20086,-10.7876],[-70.20567,-10.77561],[-70.18141,-10.74169],[-70.18827,-10.70784],[-70.18224,-10.70269],[-70.18578,-10.696],[-70.1793,-10.69459],[-70.18361,-10.68939],[-70.19191,-10.69301],[-70.20141,-10.68968],[-70.20764,-10.70442],[-70.20822,-10.69518],[-70.21458,-10.69704],[-70.21822,-10.68666],[-70.21294,-10.68158],[-70.22063,-10.68199],[-70.22336,-10.67744],[-70.22277,-10.68599],[-70.23442,-10.68442],[-70.22869,-10.69221],[-70.25178,-10.69833],[-70.2575,-10.7137],[-70.26047,-10.70663],[-70.26627,-10.71312],[-70.27375,-10.69555],[-70.27583,-10.70732],[-70.27931,-10.70715],[-70.28242,-10.69186],[-70.2915,-10.69988],[-70.30064,-10.69521],[-70.30456,-10.70133],[-70.31114,-10.70067],[-70.31667,-10.7146],[-70.33145,-10.71627],[-70.33514,-10.70711],[-70.34353,-10.70559],[-70.34259,-10.71701],[-70.34998,-10.71669],[-70.35042,-10.71156],[-70.36597,-10.71429],[-70.36961,-10.73114],[-70.38189,-10.731],[-70.38506,-10.71959],[-70.39542,-10.72753],[-70.40462,-10.72228],[-70.40634,-10.71532],[-70.42059,-10.71548],[-70.4202,-10.70792],[-70.42576,-10.7174],[-70.42253,-10.72438],[-70.43714,-10.7148],[-70.446,-10.72239],[-70.44623,-10.71049],[-70.45679,-10.71407],[-70.46003,-10.71155],[-70.45647,-10.70167],[-70.45975,-10.7012],[-70.4659,-10.70333],[-70.46562,-10.71734],[-70.47345,-10.71388],[-70.48623,-10.72336],[-70.50198,-10.7142],[-70.50256,-10.72349],[-70.51312,-10.7255],[-70.51262,-10.7207],[-70.52679,-10.71884],[-70.53531,-10.71051],[-70.53387,-10.70411],[-70.52418,-10.70007],[-70.55679,-10.68756],[-70.56031,-10.69314],[-70.5727,-10.68974],[-70.57134,-10.69524],[-70.57848,-10.70358],[-70.60221,-10.69663],[-70.60579,-10.70411],[-70.61396,-10.7041],[-70.61843,-10.71296],[-70.62148,-10.70787],[-70.62174,-10.36324],[-70.24829,-10.40199],[-70.25657,-10.39669],[-70.25668,-10.3706],[-70.24148,-10.34378],[-70.23768,-10.33332],[-70.21568,-10.30822],[-70.2272,-10.29634],[-70.22692,-10.29064],[-70.19912,-10.26093],[-70.17459,-10.24743],[-70.16859,-10.22748],[-70.15986,-10.22172],[-70.15214,-10.20619],[-70.13255,-10.19691],[-70.13366,-10.17858],[-70.11178,-10.15839],[-70.11114,-10.14564],[-70.09302,-10.13893],[-70.08103,-10.14536],[-70.06011,-10.14272],[-70.03558,-10.13495],[-70.02244,-10.12191],[-70.02077,-10.09271],[-70.03074,-10.08482],[-70.02369,-10.06845],[-70.0351,-10.05874],[-70.03316,-10.02863],[-70.04457,-10.00003],[-70.04938,-9.98916],[-70.04049,-9.97909],[-70.03757,-9.95877],[-70.04876,-9.93217],[-70.04429,-9.92043],[-70.04782,-9.91091],[-70.03904,-9.89008],[-70.03162,-9.88538],[-70.03923,-9.8747],[-70.03273,-9.8624],[-70.02898,-9.82122],[-69.99056,-9.81037],[-69.98378,-9.8031],[-69.98095,-9.78492],[-69.97359,-9.77617],[-69.98062,-9.75716],[-69.97725,-9.73274],[-69.98078,-9.71217],[-69.976,-9.70734],[-69.96925,-9.70912],[-69.95694,-9.68429],[-69.94325,-9.6711],[-69.93067,-9.6364],[-69.9355,-9.61469],[-69.92619,-9.60438],[-69.92844,-9.59527],[-69.92469,-9.59096],[-69.93211,-9.57403],[-69.90522,-9.57319],[-69.89621,-9.56239],[-69.89483,-9.54967],[-69.87691,-9.54282],[-69.86316,-9.5017],[-69.87321,-9.48221],[-69.86765,-9.44151],[-69.84977,-9.41893],[-69.83724,-9.42295],[-69.82421,-9.44608],[-69.81576,-9.44041],[-69.81113,-9.42798],[-69.81646,-9.38121],[-69.80668,-9.36612],[-69.77254,-9.35279],[-69.76618,-9.36675],[-69.75362,-9.36223],[-69.74826,-9.34996],[-69.74367,-9.30437],[-69.73887,-9.29738],[-69.71253,-9.28056],[-69.70989,-9.26863],[-69.69312,-9.25582],[-69.68164,-9.24857],[-69.67242,-9.25212],[-69.65591,-9.22185],[-69.6495,-9.22403],[-69.62205,-9.1981],[-69.60805,-9.20183],[-69.57119,-9.19402],[-69.56811,-9.18088],[-69.55983,-9.17931],[-69.5495,-9.19309],[-69.50549,-9.18568],[-69.48694,-9.19727],[-69.46585,-9.16796],[-69.43466,-9.14129],[-69.40743,-9.13508],[-69.35593,-9.0891],[-69.33051,-9.059],[-69.26106,-9.06348],[-69.23753,-9.03866],[-69.21464,-9.02499],[-69.1765,-8.98196],[-69.15653,-8.98383],[-69.15086,-8.97473],[-69.11967,-8.95983],[-69.10663,-8.93987],[-69.09411,-8.93941],[-69.08011,-8.95675],[-69.07328,-8.9564],[-69.06283,-8.94224],[-69.0293,-8.92141],[-68.99749,-8.87265]]]},"properties":{"CD_MUN":"1200500","NM_MUN":"Sena Madureira","SIGLA_UF":"AC"}},{"type":"Feature","geometry":{"type":"Polygon","coordinates":[[[-73.32976,-8.47684],[-73.23339,-8.45672],[-73.16792,-8.45937],[-73.11447,-8.45167],[-73.08695,-8.46755],[-73.0794,-8.48978],[-73.04159,-8.49562],[-73.01945,-8.48989],[-73.01043,-8.47409],[-72.99449,-8.46333],[-72.9773,-8.4339],[-72.93628,-8.41172],[-72.93313,-8.40039],[-72.93616,-8.35717],[-72.93124,-8.33737],[-72.93944,-8.32202],[-72.9426,-8.29491],[-72.95515,-8.25472],[-72.94191,-8.19709],[-72.92779,-8.20073],[-72.90223,-8.18174],[-72.88719,-8.17804],[-72.86746,-8.16273],[-72.86277,-8.15245],[-72.85355,-8.15498],[-72.85182,-8.14297],[-72.8337,-8.13881],[-72.82628,-8.12831],[-72.80724,-8.11596],[-72.80363,-8.15759],[-72.79247,-8.16076],[-72.79471,-8.18888],[-72.78851,-8.19846],[-72.76914,-8.19488],[-72.75375,-8.19767],[-72.74778,-8.21032],[-72.73809,-8.20283],[-72.7247,-8.20265],[-72.69382,-8.21186],[-72.68744,-8.22188],[-72.67627,-8.22346],[-72.63967,-8.18126],[-72.55034,-8.18664],[-72.53621,-8.21132],[-72.53451,-8.20626],[-72.52539,-8.21134],[-72.51081,-8.22567],[-72.48545,-8.23273],[-72.45406,-8.23127],[-72.40192,-8.25711],[-72.37635,-8.24123],[-72.36393,-8.2457],[-72.32263,-8.23019],[-72.29689,-8.20583],[-72.28111,-8.20898],[-72.27337,-8.20155],[-72.26249,-8.19981],[-72.25377,-8.20636],[-72.23945,-8.23454],[-72.28836,-8.40165],[-72.28975,-8.41849],[-72.28406,-8.46653],[-72.25017,-8.59558],[-72.25748,-8.62822],[-72.24698,-8.64933],[-72.25618,-8.67555],[-72.28911,-8.68248],[-72.28976,-8.7197],[-72.31414,-8.76514],[-72.32491,-8.77343],[-72.40713,-8.76715],[-72.4611,-8.75424],[-72.49544,-8.77619],[-72.52922,-8.77276],[-72.55832,-8.762],[-72.56831,-8.76716],[-72.59084,-8.76557],[-72.60488,-8.77112],[-72.64129,-8.76961],[-72.65378,-8.75621],[-72.67712,-8.75227],[-72.68681,-8.73517],[-72.6908,-8.70305],[-72.70084,-8.6913],[-72.71567,-8.685],[-72.72571,-8.66994],[-72.82424,-8.7919],[-72.84742,-8.80367],[-72.8581,-8.81765],[-72.8564,-8.82699],[-72.8612,-8.83432],[-72.88556,-8.83726],[-72.91456,-8.83023],[-72.93775,-8.84633],[-72.96241,-8.84362],[-72.97486,-8.84974],[-72.9983,-8.88639],[-73.02353,-8.8863],[-73.03096,-8.8931],[-73.02113,-8.91272],[-73.0443,-8.91561],[-73.05729,-8.90723],[-73.07854,-8.86124],[-73.07905,-8.84318],[-73.09532,-8.83754],[-73.11104,-8.8209],[-73.11268,-8.79226],[-73.13235,-8.76792],[-73.14344,-8.72302],[-73.17885,-8.68571],[-73.19582,-8.68734],[-73.21743,-8.67927],[-73.24868,-8.68595],[-73.29135,-8.66198],[-73.29847,-8.65124],[-73.30066,-8.63253],[-73.31421,-8.6314],[-73.31563,-8.61549],[-73.34252,-8.61606],[-73.34465,-8.59684],[-73.32904,-8.5174],[-73.32976,-8.47684]]]},"properties":{"CD_MUN":"1200393","NM_MUN":"Porto Walter","SIGLA_UF":"AC"}},{"type":"Feature","geometry":{"type":"Polygon","coordinates":[[[-68.61172,-9.53699],[-68.59523,-9.52404],[-68.58593,-9.5064],[-68.5653,-9.50243],[-68.53128,-9.50749],[-68.49928,-9.53345],[-68.48124,-9.52675],[-68.41908,-9.54476],[-68.42527,-9.56034],[-68.42739,-9.5984],[-68.45497,-9.6236],[-68.44064,-9.6411],[-68.44295,-9.65893],[-68.43503,-9.66426],[-68.42341,-9.69067],[-68.40884,-9.80297],[-68.38783,-9.78655],[-68.36491,-9.77981],[-68.30126,-9.79419],[-68.29145,-9.80747],[-68.2558,-9.83533],[-68.16248,-9.93806],[-68.15476,-9.93005],[-68.14956,-9.93645],[-68.12131,-9.93628],[-68.09855,-9.92947],[-68.06743,-9.89466],[-68.05392,-9.88724],[-68.0482,-9.88924],[-68.02314,-9.86437],[-68.00008,-9.85504],[-67.97651,-9.84442],[-67.96729,-9.85322],[-67.935,-9.84933],[-67.92693,-9.85333],[-67.90055,-9.84244],[-67.86749,-9.84077],[-67.85953,-9.84473],[-67.85267,-9.85787],[-67.82909,-9.86984],[-67.82614,-9.84993],[-67.83463,-9.82289],[-67.82829,-9.80313],[-67.78487,-9.74466],[-67.72239,-9.80447],[-67.71945,-9.81445],[-67.7287,-9.83743],[-67.70334,-9.8619],[-67.68274,-9.86524],[-67.64064,-9.85687],[-67.62734,-9.84895],[-67.59827,-9.84825],[-67.59145,-9.83898],[-67.59407,-9.82532],[-67.58037,-9.82261],[-67.59047,-9.80723],[-67.58123,-9.79434],[-67.59062,-9.79392],[-67.59453,-9.7874],[-67.58294,-9.77583],[-67.59567,-9.76339],[-67.59026,-9.75854],[-67.58078,-9.76302],[-67.58396,-9.75084],[-67.57605,-9.74216],[-67.56569,-9.777],[-67.55661,-9.7746],[-67.55072,-9.78403],[-67.55076,-9.80385],[-67.53487,-9.82232],[-67.5291,-9.82328],[-67.51032,-9.85682],[-67.48143,-9.87061],[-67.47517,-9.898],[-67.44733,-9.91489],[-67.44667,-9.8992],[-67.43778,-9.88061],[-67.44221,-9.85867],[-67.43835,-9.83652],[-67.42031,-9.82506],[-67.40547,-9.80364],[-67.36664,-9.78013],[-67.3615,-9.76463],[-67.33264,-9.72345],[-67.336,-9.68293],[-67.32471,-9.66222],[-67.32677,-9.64268],[-67.33825,-9.62274],[-67.32645,-9.59471],[-67.32577,-9.595],[-67.13438,-9.67448],[-67.14049,-9.6852],[-67.15563,-9.68659],[-67.1586,-9.69349],[-67.16238,-9.68694],[-67.16724,-9.68982],[-67.17166,-9.6858],[-67.17332,-9.69256],[-67.18891,-9.6943],[-67.19341,-9.70674],[-67.19032,-9.70899],[-67.20102,-9.71191],[-67.2073,-9.73634],[-67.22602,-9.74381],[-67.23444,-9.76332],[-67.25447,-9.77383],[-67.25252,-9.7791],[-67.26425,-9.78719],[-67.26747,-9.80336],[-67.28353,-9.81472],[-67.28909,-9.82627],[-67.2872,-9.83359],[-67.30875,-9.84896],[-67.31534,-9.84641],[-67.31611,-9.85263],[-67.32972,-9.8514],[-67.33751,-9.86211],[-67.34669,-9.86319],[-67.35811,-9.87444],[-67.35648,-9.89561],[-67.38304,-9.90709],[-67.39545,-9.90048],[-67.41545,-9.9073],[-67.42162,-9.92276],[-67.4189,-9.93526],[-67.45295,-9.95701],[-67.44787,-9.98274],[-67.47473,-9.99615],[-67.4736,-10.00886],[-67.49132,-10.01686],[-67.50043,-10.02771],[-67.50971,-10.03253],[-67.50707,-10.04697],[-67.51927,-10.05934],[-67.51874,-10.0662],[-67.5443,-10.07799],[-67.5598,-10.07175],[-67.57521,-10.07399],[-67.66141,-10.01375],[-67.78705,-10.01117],[-67.787,-10.0222],[-67.77236,-10.04259],[-67.77106,-10.05647],[-67.75239,-10.06258],[-67.752,-10.09789],[-67.75797,-10.11079],[-67.754,-10.12628],[-67.73725,-10.15549],[-67.70039,-10.1925],[-67.69503,-10.21845],[-67.675,-10.25379],[-67.65987,-10.25962],[-67.64861,-10.28558],[-67.61209,-10.30203],[-67.61303,-10.31481],[-67.62442,-10.32098],[-67.62126,-10.32837],[-67.62775,-10.3342],[-67.62684,-10.34333],[-67.63806,-10.35143],[-67.63779,-10.3634],[-67.68879,-10.35435],[-67.69551,-10.3408],[-67.69571,-10.32453],[-67.71662,-10.29159],[-67.75633,-10.27068],[-67.7653,-10.25143],[-67.78412,-10.23136],[-67.78378,-10.21429],[-67.80037,-10.20851],[-67.80388,-10.19656],[-67.80583,-10.20332],[-67.82658,-10.20964],[-67.81302,-10.22505],[-67.81722,-10.22524],[-67.81624,-10.23219],[-67.82473,-10.24344],[-67.83212,-10.24537],[-67.83263,-10.25494],[-67.82764,-10.26072],[-67.82146,-10.26085],[-67.81993,-10.26766],[-67.835,-10.27416],[-67.84659,-10.27084],[-67.85596,-10.28417],[-67.84412,-10.28086],[-67.84868,-10.28851],[-67.947,-10.28891],[-67.95216,-10.30713],[-67.95988,-10.31411],[-67.99954,-10.31628],[-68.00935,-10.32309],[-68.01535,-10.33494],[-68.02938,-10.34043],[-68.02746,-10.34359],[-68.03888,-10.35133],[-68.03485,-10.36398],[-68.02524,-10.3722],[-68.02666,-10.37864],[-68.04102,-10.38828],[-68.06252,-10.37948],[-68.0698,-10.3831],[-68.0893,-10.36483],[-68.09772,-10.36426],[-68.10347,-10.36885],[-68.11694,-10.3675],[-68.12428,-10.37523],[-68.1518,-10.37072],[-68.1863,-10.38254],[-68.20786,-10.37529],[-68.23039,-10.39018],[-68.23341,-10.38506],[-68.25658,-10.39085],[-68.27295,-10.38888],[-68.28581,-10.40473],[-68.31323,-10.41766],[-68.31889,-10.43233],[-68.3432,-10.44141],[-68.35423,-10.4547],[-68.36395,-10.45588],[-68.36851,-10.46472],[-68.38265,-10.4673],[-68.39737,-10.49202],[-68.41182,-10.4964],[-68.41498,-10.49129],[-68.4163,-10.16697],[-68.42541,-10.18232],[-68.43961,-10.19162],[-68.45116,-10.18357],[-68.46542,-10.18534],[-68.47195,-10.19527],[-68.47156,-10.2173],[-68.48939,-10.22742],[-68.49206,-10.2482],[-68.50053,-10.25503],[-68.50744,-10.25901],[-68.52692,-10.25628],[-68.52895,-10.27013],[-68.53623,-10.2752],[-68.55348,-10.27917],[-68.56629,-10.27298],[-68.5694,-10.28013],[-68.58004,-10.28436],[-68.5814,-10.29426],[-68.59167,-10.29342],[-68.61823,-10.30687],[-68.64109,-10.30528],[-68.66232,-10.32862],[-68.68143,-10.33077],[-68.68565,-10.33941],[-68.68385,-10.35505],[-68.68799,-10.35912],[-68.69479,-10.35556],[-68.70696,-10.36364],[-68.71271,-10.38314],[-68.72971,-10.39312],[-68.73354,-10.40109],[-68.75849,-10.40634],[-68.76577,-10.40159],[-68.78755,-10.413],[-68.81252,-10.4148],[-68.82672,-10.42078],[-68.84833,-10.4428],[-68.84736,-10.45135],[-69.0005,-10.45065],[-69.24765,-10.45054],[-69.24915,-10.45499],[-69.27007,-10.45906],[-69.29007,-10.47077],[-69.32343,-10.47298],[-69.34252,-10.48645],[-69.39619,-10.48649],[-69.37149,-10.47509],[-69.36304,-10.479],[-69.34268,-10.47466],[-69.33326,-10.46283],[-69.3389,-10.45377],[-69.33323,-10.43439],[-69.32651,-10.42933],[-69.32651,-10.41613],[-69.31829,-10.40795],[-69.30962,-10.41361],[-69.30746,-10.40796],[-69.29418,-10.40746],[-69.28912,-10.39719],[-69.28432,-10.38792],[-69.26584,-10.38567],[-69.25456,-10.35955],[-69.24489,-10.35701],[-69.22973,-10.3382],[-69.21678,-10.33775],[-69.21175,-10.3275],[-69.20201,-10.32675],[-69.19864,-10.31575],[-69.19203,-10.31671],[-69.18764,-10.31141],[-69.18631,-10.29802],[-69.1703,-10.29835],[-69.16561,-10.2813],[-69.15219,-10.27919],[-69.14747,-10.28807],[-69.14091,-10.28934],[-69.12336,-10.27261],[-69.11247,-10.27485],[-69.10755,-10.26308],[-69.08002,-10.25368],[-69.07933,-10.23436],[-69.06911,-10.22484],[-69.05808,-10.22221],[-69.04849,-10.20749],[-69.05269,-10.19264],[-69.03985,-10.17975],[-69.02899,-10.17988],[-69.01727,-10.16437],[-69.01196,-10.14097],[-69.00049,-10.13575],[-68.99243,-10.11625],[-68.95901,-10.1098],[-68.94915,-10.09795],[-68.94471,-10.10066],[-68.91868,-10.0819],[-68.92012,-10.07572],[-68.91118,-10.069],[-68.90412,-10.05459],[-68.90376,-10.02905],[-68.87781,-10.00252],[-68.87173,-10.00391],[-68.86512,-9.98691],[-68.85717,-9.98798],[-68.8467,-9.98068],[-68.82811,-9.98455],[-68.78683,-9.96802],[-68.76936,-9.96734],[-68.74719,-9.93226],[-68.73989,-9.90826],[-68.71836,-9.9105],[-68.71511,-9.90092],[-68.70325,-9.89249],[-68.68514,-9.89756],[-68.66521,-9.89189],[-68.65916,-9.87358],[-68.64694,-9.86595],[-68.65138,-9.83592],[-68.64905,-9.81848],[-68.65838,-9.80568],[-68.65891,-9.7955],[-68.66813,-9.79155],[-68.68118,-9.76521],[-68.68727,-9.75494],[-68.67549,-9.73571],[-68.68393,-9.70527],[-68.68351,-9.67697],[-68.67568,-9.6599],[-68.68335,-9.63698],[-68.65162,-9.58185],[-68.64251,-9.57656],[-68.60709,-9.57467],[-68.61109,-9.55871],[-68.60654,-9.54571],[-68.61172,-9.53699]]]},"properties":{"CD_MUN":"1200401","NM_MUN":"Rio Branco","SIGLA_UF":"AC"}},{"type":"Feature","geometry":{"type":"Polygon","coordinates":[[[-67.13438,-9.67448],[-67.10475,-9.68707],[-67.11082,-9.69602],[-67.11223,-9.71102],[-67.12695,-9.72811],[-67.09972,-9.75555],[-67.07992,-9.79925],[-67.06913,-9.80212],[-67.06626,-9.80804],[-67.08118,-9.8391],[-67.0785,-9.87139],[-67.16054,-9.98277],[-67.2469,-10.02602],[-67.29818,-10.0621],[-67.34709,-10.06205],[-67.42646,-10.09594],[-67.42918,-10.12737],[-67.44366,-10.16439],[-67.45994,-10.17848],[-67.47244,-10.20791],[-67.50044,-10.23908],[-67.50222,-10.26009],[-67.51002,-10.26831],[-67.53319,-10.27439],[-67.59658,-10.30591],[-67.61084,-10.29853],[-67.61209,-10.30203],[-67.64861,-10.28558],[-67.65987,-10.25962],[-67.675,-10.25379],[-67.69503,-10.21845],[-67.70039,-10.1925],[-67.73725,-10.15549],[-67.754,-10.12628],[-67.75797,-10.11079],[-67.752,-10.09789],[-67.75239,-10.06258],[-67.77106,-10.05647],[-67.77236,-10.04259],[-67.787,-10.0222],[-67.78705,-10.01117],[-67.66141,-10.01375],[-67.57521,-10.07399],[-67.5598,-10.07175],[-67.5443,-10.07799],[-67.51874,-10.0662],[-67.51927,-10.05934],[-67.50707,-10.04697],[-67.50971,-10.03253],[-67.50043,-10.02771],[-67.49132,-10.01686],[-67.4736,-10.00886],[-67.47473,-9.99615],[-67.44787,-9.98274],[-67.45295,-9.95701],[-67.4189,-9.93526],[-67.42162,-9.92276],[-67.41545,-9.9073],[-67.39545,-9.90048],[-67.38304,-9.90709],[-67.35648,-9.89561],[-67.35811,-9.87444],[-67.34669,-9.86319],[-67.33751,-9.86211],[-67.32972,-9.8514],[-67.31611,-9.85263],[-67.31534,-9.84641],[-67.30875,-9.84896],[-67.2872,-9.83359],[-67.28909,-9.82627],[-67.28353,-9.81472],[-67.26747,-9.80336],[-67.26425,-9.78719],[-67.25252,-9.7791],[-67.25447,-9.77383],[-67.23444,-9.76332],[-67.22602,-9.74381],[-67.2073,-9.73634],[-67.20102,-9.71191],[-67.19032,-9.70899],[-67.19341,-9.70674],[-67.18891,-9.6943],[-67.17332,-9.69256],[-67.17166,-9.6858],[-67.16724,-9.68982],[-67.16238,-9.68694],[-67.1586,-9.69349],[-67.15563,-9.68659],[-67.14049,-9.6852],[-67.13438,-9.67448]]]},"properties":{"CD_MUN":"1200450","NM_MUN":"Senador Guiomard","SIGLA_UF":"AC"}},{"type":"Feature","geometry":{"type":"Polygon","coordinates":[[[-73.6881,-7.77231],[-73.67945,-7.76841],[-73.67913,-7.73811],[-73.66852,-7.72936],[-73.63593,-7.732],[-73.57902,-7.72471],[-73.5502,-7.72604],[-73.53744,-7.71033],[-73.53081,-7.71174],[-73.52626,-7.7042],[-73.51951,-7.70549],[-73.51262,-7.69425],[-73.48681,-7.71158],[-73.45871,-7.70466],[-73.43169,-7.67689],[-73.41421,-7.67638],[-73.39469,-7.66816],[-73.36621,-7.69686],[-73.32155,-7.70382],[-73.31631,-7.70107],[-73.31361,-7.68512],[-73.30284,-7.67528],[-73.30478,-7.65809],[-73.30102,-7.65574],[-73.19123,-7.66328],[-73.18688,-7.6476],[-73.16943,-7.63666],[-73.08908,-7.64481],[-73.07704,-7.65575],[-73.03107,-7.66631],[-72.99588,-7.66603],[-72.94553,-7.68493],[-72.91455,-7.6607],[-72.80832,-7.68598],[-72.78319,-7.69126],[-72.73615,-7.72358],[-72.65455,-7.69196],[-72.64987,-7.67742],[-72.64174,-7.6817],[-72.63988,-7.7006],[-72.64606,-7.73432],[-72.6262,-7.75385],[-72.64213,-7.76999],[-72.61818,-7.76974],[-72.60965,-7.77385],[-72.61117,-7.78097],[-72.62186,-7.77881],[-72.64513,-7.78492],[-72.6386,-7.78978],[-72.63216,-7.81011],[-72.62553,-7.79932],[-72.61715,-7.80707],[-72.61929,-7.81312],[-72.63654,-7.81429],[-72.66109,-7.83071],[-72.67597,-7.82572],[-72.68708,-7.83238],[-72.69449,-7.84859],[-72.70806,-7.84325],[-72.71857,-7.84462],[-72.7191,-7.8535],[-72.72848,-7.85036],[-72.73714,-7.85838],[-72.7291,-7.86499],[-72.74375,-7.87247],[-72.74422,-7.88226],[-72.75235,-7.87992],[-72.74725,-7.86986],[-72.75584,-7.8677],[-72.76521,-7.88032],[-72.7694,-7.87511],[-72.78829,-7.89393],[-72.80517,-7.90273],[-72.80891,-7.89694],[-72.83276,-7.90771],[-72.85785,-7.90709],[-72.8776,-7.91641],[-72.90479,-7.90402],[-72.90421,-7.89348],[-72.92674,-7.86308],[-72.93786,-7.86186],[-72.95428,-7.85145],[-72.9912,-7.85938],[-73.00461,-7.84739],[-73.02403,-7.86099],[-73.0527,-7.87087],[-73.06378,-7.87014],[-73.08234,-7.88203],[-73.09326,-7.88254],[-73.12901,-7.89935],[-73.16301,-7.89921],[-73.16712,-7.89507],[-73.1819,-7.90382],[-73.1984,-7.9034],[-73.20181,-7.91004],[-73.21337,-7.91295],[-73.22874,-7.92636],[-73.23793,-7.94132],[-73.24462,-7.93524],[-73.2573,-7.95213],[-73.2621,-7.95073],[-73.29321,-7.98159],[-73.32282,-7.99279],[-73.32816,-7.98656],[-73.33188,-7.98918],[-73.34266,-7.98304],[-73.38202,-7.99017],[-73.39694,-8.02475],[-73.40796,-8.02571],[-73.41945,-8.01598],[-73.43723,-8.016],[-73.50269,-8.08038],[-73.5174,-8.08071],[-73.53377,-8.06809],[-73.55711,-8.03613],[-73.58391,-8.02175],[-73.59989,-8.03227],[-73.60847,-8.04497],[-73.63283,-8.05782],[-73.6245,-8.03967],[-73.62794,-8.0218],[-73.647,-8.00332],[-73.66445,-8.0085],[-73.67906,-8.00472],[-73.68973,-7.97167],[-73.69866,-7.9605],[-73.71845,-7.96005],[-73.73231,-7.96831],[-73.74756,-7.95286],[-73.75197,-7.92368],[-73.77306,-7.90229],[-73.77114,-7.89715],[-73.7537,-7.89224],[-73.76717,-7.87051],[-73.76219,-7.85795],[-73.74308,-7.873],[-73.71405,-7.87577],[-73.705,-7.87291],[-73.69206,-7.85676],[-73.68439,-7.84194],[-73.68794,-7.82092],[-73.68294,-7.78996],[-73.6881,-7.77231]]]},"properties":{"CD_MUN":"1200427","NM_MUN":"Rodrigues Alves","SIGLA_UF":"AC"}},{"type":"Feature","geometry":{"type":"Polygon","coordinates":[[[-70.00003,-8.94022],[-69.92112,-9.00095],[-69.84161,-9.04295],[-69.83505,-9.04231],[-69.82471,-9.09165],[-69.81408,-9.09544],[-69.79271,-9.09145],[-69.77636,-9.10797],[-69.8006,-9.1167],[-69.80734,-9.13443],[-69.82982,-9.15249],[-69.84083,-9.14386],[-69.85411,-9.14607],[-69.83325,-9.16184],[-69.85656,-9.18429],[-69.85381,-9.19533],[-69.88155,-9.20422],[-69.88532,-9.2224],[-69.90829,-9.21739],[-69.89843,-9.23542],[-69.91326,-9.23603],[-69.91393,-9.24958],[-69.92081,-9.24356],[-69.94901,-9.24135],[-69.95863,-9.23568],[-69.97059,-9.23935],[-69.98886,-9.25784],[-70.00042,-9.25589],[-70.01203,-9.25411],[-70.02189,-9.27518],[-70.02805,-9.28163],[-70.03344,-9.27833],[-70.03984,-9.28905],[-70.08214,-9.2859],[-70.08908,-9.27901],[-70.10838,-9.28291],[-70.11726,-9.29112],[-70.12809,-9.2838],[-70.14524,-9.28628],[-70.15108,-9.27172],[-70.15762,-9.26776],[-70.18606,-9.27218],[-70.21016,-9.28151],[-70.2184,-9.29397],[-70.23459,-9.30158],[-70.24586,-9.31678],[-70.26401,-9.31894],[-70.27181,-9.34084],[-70.29536,-9.33709],[-70.29969,-9.34388],[-70.29671,-9.3636],[-70.33233,-9.39849],[-70.33286,-9.42476],[-70.32523,-9.43204],[-70.29273,-9.41385],[-70.27655,-9.42332],[-70.26067,-9.41574],[-70.24635,-9.417],[-70.22085,-9.43563],[-70.19962,-9.43883],[-70.19199,-9.44538],[-70.17941,-9.44387],[-70.14865,-9.487],[-70.13177,-9.4902],[-70.12284,-9.47771],[-70.11731,-9.48117],[-70.10934,-9.47613],[-70.08633,-9.48492],[-70.07351,-9.49961],[-70.07107,-9.50701],[-70.05618,-9.50941],[-70.03408,-9.5261],[-70.0372,-9.53373],[-70.04913,-9.5266],[-70.06184,-9.5313],[-70.06549,-9.5252],[-70.0753,-9.53093],[-70.07845,-9.54111],[-70.10055,-9.53355],[-70.10326,-9.54108],[-70.11294,-9.53614],[-70.1118,-9.54532],[-70.1241,-9.53716],[-70.13401,-9.54318],[-70.14261,-9.56349],[-70.14919,-9.55592],[-70.1598,-9.56844],[-70.16383,-9.58369],[-70.17574,-9.58522],[-70.18309,-9.60106],[-70.18949,-9.60241],[-70.18541,-9.61268],[-70.19307,-9.62097],[-70.19104,-9.62862],[-70.20032,-9.62653],[-70.20543,-9.63106],[-70.2076,-9.62708],[-70.21589,-9.6366],[-70.21713,-9.6461],[-70.22793,-9.65514],[-70.22502,-9.66278],[-70.23898,-9.67269],[-70.24495,-9.66969],[-70.2437,-9.68219],[-70.24716,-9.6787],[-70.24896,-9.68431],[-70.26195,-9.68798],[-70.27602,-9.707],[-70.27215,-9.71179],[-70.27584,-9.71707],[-70.29052,-9.7205],[-70.29173,-9.72889],[-70.29816,-9.73341],[-70.30094,-9.74837],[-70.30544,-9.74574],[-70.32503,-9.75865],[-70.33333,-9.79031],[-70.33079,-9.80489],[-70.35551,-9.82206],[-70.36129,-9.83784],[-70.37341,-9.84713],[-70.38142,-9.86165],[-70.43521,-9.90875],[-70.44893,-9.9408],[-70.47452,-9.95932],[-70.4879,-9.95771],[-70.50423,-9.96367],[-70.51149,-9.98189],[-70.51872,-9.98135],[-70.5283,-9.99423],[-70.52839,-10.00608],[-70.55393,-10.02297],[-70.56929,-10.01951],[-70.57875,-10.02638],[-70.62161,-10.08187],[-70.62159,-9.82481],[-70.61361,-9.80494],[-70.60378,-9.79915],[-70.5915,-9.80196],[-70.58233,-9.78033],[-70.57713,-9.77853],[-70.56286,-9.78924],[-70.54894,-9.77783],[-70.53953,-9.76506],[-70.54189,-9.75334],[-70.53374,-9.73636],[-70.53664,-9.73292],[-70.52822,-9.7219],[-70.5281,-9.71254],[-70.54277,-9.68025],[-70.54822,-9.68149],[-70.55572,-9.66643],[-70.56749,-9.66652],[-70.59135,-9.63209],[-70.59885,-9.60908],[-70.58929,-9.59852],[-70.58627,-9.58857],[-70.59138,-9.58613],[-70.58663,-9.57642],[-70.6006,-9.56315],[-70.60038,-9.55811],[-70.59613,-9.55186],[-70.58766,-9.55094],[-70.58949,-9.56544],[-70.57883,-9.56363],[-70.55985,-9.5739],[-70.55613,-9.56271],[-70.56299,-9.56279],[-70.56957,-9.55443],[-70.56499,-9.54337],[-70.56982,-9.53202],[-70.56446,-9.53118],[-70.5574,-9.53937],[-70.54323,-9.53721],[-70.54029,-9.52963],[-70.54796,-9.52853],[-70.54849,-9.51961],[-70.54499,-9.51528],[-70.53448,-9.51693],[-70.53443,-9.50695],[-70.52521,-9.50518],[-70.51593,-9.49371],[-70.50649,-9.50653],[-70.50526,-9.49537],[-70.52171,-9.47878],[-70.5224,-9.46902],[-70.53118,-9.47073],[-70.52135,-9.45762],[-70.51809,-9.46668],[-70.50851,-9.46435],[-70.51345,-9.44739],[-70.50045,-9.44442],[-70.49629,-9.42699],[-70.51057,-9.42381],[-70.52443,-9.43029],[-70.52224,-9.43486],[-70.52979,-9.43926],[-70.52909,-9.42859],[-70.54176,-9.43787],[-70.53965,-9.43307],[-70.54862,-9.42741],[-70.55273,-9.43707],[-70.57232,-9.43003],[-70.5719,-9.43911],[-70.57634,-9.43646],[-70.58976,-9.44492],[-70.59724,-9.44047],[-70.60068,-9.46148],[-70.61448,-9.45803],[-70.61771,-9.47581],[-70.62191,-9.47207],[-70.63782,-9.48874],[-70.63363,-9.49633],[-70.63796,-9.50088],[-70.64504,-9.49631],[-70.65313,-9.5011],[-70.65499,-9.52003],[-70.66421,-9.52479],[-70.66621,-9.52069],[-70.67232,-9.52635],[-70.66891,-9.5265],[-70.67108,-9.53147],[-70.67532,-9.52875],[-70.71494,-9.54684],[-70.73019,-9.56509],[-70.73766,-9.55825],[-70.74855,-9.55971],[-70.75877,-9.58319],[-70.75752,-9.6017],[-70.78708,-9.61036],[-70.79533,-9.63539],[-70.8055,-9.63998],[-70.8297,-9.63963],[-70.83875,-9.6438],[-70.84239,-9.65405],[-70.84998,-9.65169],[-70.86753,-9.66083],[-70.92601,-9.73935],[-70.95195,-9.73919],[-70.97234,-9.75294],[-70.99793,-9.79993],[-70.99979,-9.81397],[-71.01741,-9.81448],[-71.0249,-9.80996],[-71.02862,-9.81564],[-71.05249,-9.81448],[-71.06618,-9.82457],[-71.11833,-9.83176],[-71.11094,-9.79981],[-71.10782,-9.73877],[-71.04956,-9.67378],[-71.04248,-9.62333],[-70.94122,-9.5376],[-70.89606,-9.48649],[-70.86805,-9.46357],[-70.83997,-9.45682],[-70.8008,-9.46513],[-70.76191,-9.43439],[-70.73102,-9.41859],[-70.64807,-9.39114],[-70.63526,-9.36196],[-70.63209,-9.32988],[-70.64423,-9.27403],[-70.63417,-9.24214],[-70.60725,-9.22236],[-70.56094,-9.16351],[-70.50155,-9.10457],[-70.47694,-9.10326],[-70.47194,-9.09687],[-70.46158,-9.10928],[-70.46138,-9.10502],[-70.45338,-9.10601],[-70.43641,-9.08367],[-70.42286,-9.08221],[-70.42263,-9.06556],[-70.4146,-9.05503],[-70.41041,-9.05673],[-70.41216,-9.0504],[-70.40002,-9.03815],[-70.39946,-9.02509],[-70.40557,-9.01715],[-70.38946,-8.99519],[-70.37796,-8.99129],[-70.36921,-8.98083],[-70.35412,-8.97719],[-70.3464,-8.98796],[-70.3336,-8.98939],[-70.30907,-8.97937],[-70.29815,-8.99104],[-70.27312,-8.99867],[-70.25937,-8.99115],[-70.23818,-9.03189],[-70.22884,-9.02847],[-70.21596,-9.03212],[-70.21037,-9.01639],[-70.19479,-9.02161],[-70.18629,-9.0108],[-70.17673,-9.00923],[-70.1704,-8.99384],[-70.13304,-8.97352],[-70.08498,-8.98749],[-70.07601,-8.97698],[-70.05889,-8.97432],[-70.05234,-8.95662],[-70.03353,-8.94965],[-70.02406,-8.93886],[-70.00003,-8.94022]]]},"properties":{"CD_MUN":"1200435","NM_MUN":"Santa Rosa do Purus","SIGLA_UF":"AC"}},{"type":"Feature","geometry":{"type":"Polygon","coordinates":[[[-69.55005,-8.57949],[-69.43461,-8.64158],[-68.99749,-8.87265],[-69.0293,-8.92141],[-69.06283,-8.94224],[-69.07328,-8.9564],[-69.08011,-8.95675],[-69.09411,-8.93941],[-69.10663,-8.93987],[-69.11967,-8.95983],[-69.15086,-8.97473],[-69.15653,-8.98383],[-69.1765,-8.98196],[-69.21464,-9.02499],[-69.23753,-9.03866],[-69.26106,-9.06348],[-69.33051,-9.059],[-69.35593,-9.0891],[-69.40743,-9.13508],[-69.43466,-9.14129],[-69.46585,-9.16796],[-69.48694,-9.19727],[-69.50549,-9.18568],[-69.5495,-9.19309],[-69.55983,-9.17931],[-69.56811,-9.18088],[-69.57119,-9.19402],[-69.60805,-9.20183],[-69.62205,-9.1981],[-69.6495,-9.22403],[-69.65591,-9.22185],[-69.67242,-9.25212],[-69.68164,-9.24857],[-69.69312,-9.25582],[-69.70989,-9.26863],[-69.71253,-9.28056],[-69.73887,-9.29738],[-69.74367,-9.30437],[-69.74826,-9.34996],[-69.75362,-9.36223],[-69.76618,-9.36675],[-69.77254,-9.35279],[-69.80668,-9.36612],[-69.81646,-9.38121],[-69.81113,-9.42798],[-69.81576,-9.44041],[-69.82421,-9.44608],[-69.83724,-9.42295],[-69.84977,-9.41893],[-69.86765,-9.44151],[-69.87321,-9.48221],[-69.86316,-9.5017],[-69.87691,-9.54282],[-69.89483,-9.54967],[-69.89621,-9.56239],[-69.90522,-9.57319],[-69.93211,-9.57403],[-69.92469,-9.59096],[-69.92844,-9.59527],[-69.92619,-9.60438],[-69.9355,-9.61469],[-69.93067,-9.6364],[-69.94325,-9.6711],[-69.95694,-9.68429],[-69.96925,-9.70912],[-69.976,-9.70734],[-69.98078,-9.71217],[-69.97725,-9.73274],[-69.98062,-9.75716],[-69.97359,-9.77617],[-69.98095,-9.78492],[-69.98378,-9.8031],[-69.99056,-9.81037],[-70.02898,-9.82122],[-70.03273,-9.8624],[-70.03923,-9.8747],[-70.03162,-9.88538],[-70.03904,-9.89008],[-70.04782,-9.91091],[-70.04429,-9.92043],[-70.04876,-9.93217],[-70.03757,-9.95877],[-70.04049,-9.97909],[-70.04938,-9.98916],[-70.04457,-10.00003],[-70.03316,-10.02863],[-70.0351,-10.05874],[-70.02369,-10.06845],[-70.03074,-10.08482],[-70.02077,-10.09271],[-70.02244,-10.12191],[-70.03558,-10.13495],[-70.06011,-10.14272],[-70.08103,-10.14536],[-70.09302,-10.13893],[-70.11114,-10.14564],[-70.11178,-10.15839],[-70.13366,-10.17858],[-70.13255,-10.19691],[-70.15214,-10.20619],[-70.15986,-10.22172],[-70.16859,-10.22748],[-70.17459,-10.24743],[-70.19912,-10.26093],[-70.22692,-10.29064],[-70.2272,-10.29634],[-70.21568,-10.30822],[-70.23768,-10.33332],[-70.24148,-10.34378],[-70.25668,-10.3706],[-70.25657,-10.39669],[-70.24829,-10.40199],[-70.62174,-10.36324],[-70.62161,-10.08187],[-70.57875,-10.02638],[-70.56929,-10.01951],[-70.55393,-10.02297],[-70.52839,-10.00608],[-70.5283,-9.99423],[-70.51872,-9.98135],[-70.51149,-9.98189],[-70.50423,-9.96367],[-70.4879,-9.95771],[-70.47452,-9.95932],[-70.44893,-9.9408],[-70.43521,-9.90875],[-70.38142,-9.86165],[-70.37341,-9.84713],[-70.36129,-9.83784],[-70.35551,-9.82206],[-70.33079,-9.80489],[-70.33333,-9.79031],[-70.32503,-9.75865],[-70.30544,-9.74574],[-70.30094,-9.74837],[-70.29816,-9.73341],[-70.29173,-9.72889],[-70.29052,-9.7205],[-70.27584,-9.71707],[-70.27215,-9.71179],[-70.27602,-9.707],[-70.26195,-9.68798],[-70.24896,-9.68431],[-70.24716,-9.6787],[-70.2437,-9.68219],[-70.24495,-9.66969],[-70.23898,-9.67269],[-70.22502,-9.66278],[-70.22793,-9.65514],[-70.21713,-9.6461],[-70.21589,-9.6366],[-70.2076,-9.62708],[-70.20543,-9.63106],[-70.20032,-9.62653],[-70.19104,-9.62862],[-70.19307,-9.62097],[-70.18541,-9.61268],[-70.18949,-9.60241],[-70.18309,-9.60106],[-70.17574,-9.58522],[-70.16383,-9.58369],[-70.1598,-9.56844],[-70.14919,-9.55592],[-70.14261,-9.56349],[-70.13401,-9.54318],[-70.1241,-9.53716],[-70.1118,-9.54532],[-70.11294,-9.53614],[-70.10326,-9.54108],[-70.10055,-9.53355],[-70.07845,-9.54111],[-70.0753,-9.53093],[-70.06549,-9.5252],[-70.06184,-9.5313],[-70.04913,-9.5266],[-70.0372,-9.53373],[-70.03408,-9.5261],[-70.05618,-9.50941],[-70.07107,-9.50701],[-70.07351,-9.49961],[-70.08633,-9.48492],[-70.10934,-9.47613],[-70.11731,-9.48117],[-70.12284,-9.47771],[-70.13177,-9.4902],[-70.14865,-9.487],[-70.17941,-9.44387],[-70.19199,-9.44538],[-70.19962,-9.43883],[-70.22085,-9.43563],[-70.24635,-9.417],[-70.26067,-9.41574],[-70.27655,-9.42332],[-70.29273,-9.41385],[-70.32523,-9.43204],[-70.33286,-9.42476],[-70.33233,-9.39849],[-70.29671,-9.3636],[-70.29969,-9.34388],[-70.29536,-9.33709],[-70.27181,-9.34084],[-70.26401,-9.31894],[-70.24586,-9.31678],[-70.23459,-9.30158],[-70.2184,-9.29397],[-70.21016,-9.28151],[-70.18606,-9.27218],[-70.15762,-9.26776],[-70.15108,-9.27172],[-70.14524,-9.28628],[-70.12809,-9.2838],[-70.11726,-9.29112],[-70.10838,-9.28291],[-70.08908,-9.27901],[-70.08214,-9.2859],[-70.03984,-9.28905],[-70.03344,-9.27833],[-70.02805,-9.28163],[-70.02189,-9.27518],[-70.01203,-9.25411],[-70.00042,-9.25589],[-69.98886,-9.25784],[-69.97059,-9.23935],[-69.95863,-9.23568],[-69.94901,-9.24135],[-69.92081,-9.24356],[-69.91393,-9.24958],[-69.91326,-9.23603],[-69.89843,-9.23542],[-69.90829,-9.21739],[-69.88532,-9.2224],[-69.88155,-9.20422],[-69.85381,-9.19533],[-69.85656,-9.18429],[-69.83325,-9.16184],[-69.85411,-9.14607],[-69.84083,-9.14386],[-69.82982,-9.15249],[-69.80734,-9.13443],[-69.8006,-9.1167],[-69.77636,-9.10797],[-69.79271,-9.09145],[-69.81408,-9.09544],[-69.82471,-9.09165],[-69.83505,-9.04231],[-69.84161,-9.04295],[-69.92112,-9.00095],[-70.00003,-8.94022],[-69.992,-8.93746],[-69.98356,-8.95098],[-69.9622,-8.96297],[-69.92903,-8.95774],[-69.9303,-8.9744],[-69.91741,-8.98698],[-69.90175,-8.98638],[-69.887,-8.97891],[-69.85753,-8.94917],[-69.84738,-8.91724],[-69.82694,-8.90693],[-69.81316,-8.87346],[-69.79382,-8.86764],[-69.79419,-8.84695],[-69.75738,-8.82545],[-69.76657,-8.78526],[-69.7329,-8.76159],[-69.72465,-8.76484],[-69.71184,-8.73672],[-69.66642,-8.69982],[-69.6647,-8.71273],[-69.64295,-8.71742],[-69.63459,-8.71254],[-69.62928,-8.70043],[-69.6195,-8.69601],[-69.60306,-8.67755],[-69.59811,-8.66203],[-69.58586,-8.65539],[-69.57456,-8.64108],[-69.57047,-8.62073],[-69.55005,-8.57949]]]},"properties":{"CD_MUN":"1200344","NM_MUN":"Manoel Urbano","SIGLA_UF":"AC"}},{"type":"Feature","geometry":{"type":"Polygon","coordinates":[[[-72.25618,-8.67555],[-72.22551,-8.68463],[-72.21534,-8.70488],[-72.16515,-8.70379],[-72.15962,-8.72016],[-72.15762,-8.76108],[-72.15198,-8.77359],[-72.09023,-8.79048],[-72.07343,-8.80623],[-72.07312,-8.81678],[-72.08348,-8.83103],[-72.18271,-8.9043],[-72.18763,-8.91386],[-72.18279,-8.92683],[-72.17346,-8.93166],[-72.10326,-8.92772],[-72.08121,-8.93556],[-72.06685,-8.96777],[-72.06535,-9.00038],[-72.05783,-9.02453],[-72.02852,-9.07037],[-72.02696,-9.09346],[-72.0593,-9.13141],[-72.07144,-9.16983],[-72.07447,-9.22025],[-72.08478,-9.25855],[-72.11364,-9.30541],[-72.12776,-9.34787],[-72.13551,-9.3554],[-72.15612,-9.36171],[-72.1724,-9.3941],[-72.26815,-9.42567],[-72.2824,-9.43822],[-72.28918,-9.474],[-72.35397,-9.4961],[-72.3643,-9.49499],[-72.36816,-9.4889],[-72.37588,-9.49393],[-72.38549,-9.49139],[-72.40899,-9.47698],[-72.42688,-9.48281],[-72.44258,-9.47571],[-72.45711,-9.4869],[-72.48983,-9.47962],[-72.51286,-9.48531],[-72.51702,-9.49112],[-72.52761,-9.48206],[-72.52533,-9.47825],[-72.53586,-9.47525],[-72.53603,-9.46987],[-72.53897,-9.47261],[-72.54392,-9.46578],[-72.55264,-9.46968],[-72.55528,-9.46562],[-72.55941,-9.4721],[-72.56094,-9.46509],[-72.5758,-9.46325],[-72.57458,-9.45627],[-72.58186,-9.45983],[-72.61253,-9.45043],[-72.61925,-9.45273],[-72.62261,-9.44595],[-72.64191,-9.44277],[-72.65578,-9.45168],[-72.66945,-9.44236],[-72.66797,-9.43827],[-72.68031,-9.43805],[-72.6825,-9.43302],[-72.68625,-9.43803],[-72.6897,-9.43465],[-72.69561,-9.43819],[-72.70067,-9.43046],[-72.71175,-9.42865],[-72.71889,-9.41044],[-73.21171,-9.41271],[-73.21071,-9.40579],[-73.19463,-9.39314],[-73.18904,-9.36155],[-73.15777,-9.35123],[-73.14854,-9.33368],[-73.13932,-9.32927],[-73.12912,-9.3128],[-73.10187,-9.30453],[-73.11254,-9.27975],[-73.09617,-9.26642],[-73.0805,-9.2387],[-73.05728,-9.22563],[-73.04603,-9.2372],[-73.041,-9.23655],[-73.00869,-9.21499],[-72.99478,-9.19249],[-73.01225,-9.18792],[-73.01744,-9.1769],[-73.00267,-9.16481],[-72.96544,-9.14731],[-72.94783,-9.11494],[-72.94722,-9.07719],[-72.94091,-9.06198],[-72.94941,-9.02598],[-72.95799,-9.011],[-72.94027,-8.99718],[-72.93738,-8.98982],[-72.9673,-8.97944],[-72.99588,-8.92017],[-73.02113,-8.91272],[-73.03096,-8.8931],[-73.02353,-8.8863],[-72.9983,-8.88639],[-72.97486,-8.84974],[-72.96241,-8.84362],[-72.93775,-8.84633],[-72.91456,-8.83023],[-72.88556,-8.83726],[-72.8612,-8.83432],[-72.8564,-8.82699],[-72.8581,-8.81765],[-72.84742,-8.80367],[-72.82424,-8.7919],[-72.72571,-8.66994],[-72.71567,-8.685],[-72.70084,-8.6913],[-72.6908,-8.70305],[-72.68681,-8.73517],[-72.67712,-8.75227],[-72.65378,-8.75621],[-72.64129,-8.76961],[-72.60488,-8.77112],[-72.59084,-8.76557],[-72.56831,-8.76716],[-72.55832,-8.762],[-72.52922,-8.77276],[-72.49544,-8.77619],[-72.4611,-8.75424],[-72.40713,-8.76715],[-72.32491,-8.77343],[-72.31414,-8.76514],[-72.28976,-8.7197],[-72.28911,-8.68248],[-72.25618,-8.67555]]]},"properties":{"CD_MUN":"1200351","NM_MUN":"Marechal Thaumaturgo","SIGLA_UF":"AC"}},{"type":"Feature","geometry":{"type":"Polygon","coordinates":[[[-71.53311,-8.91875],[-71.53727,-8.93466],[-71.54324,-8.92926],[-71.54317,-8.93368],[-71.54736,-8.93187],[-71.54822,-8.94153],[-71.56191,-8.94351],[-71.57336,-8.95864],[-71.56666,-8.9654],[-71.56714,-8.97644],[-71.58339,-8.98381],[-71.57692,-8.99362],[-71.58297,-8.99575],[-71.58303,-9.00845],[-71.59278,-9.00786],[-71.59317,-9.0192],[-71.59706,-9.0196],[-71.60006,-9.04661],[-71.59067,-9.06035],[-71.59651,-9.06968],[-71.60414,-9.06867],[-71.61042,-9.07606],[-71.60495,-9.08057],[-71.60984,-9.08339],[-71.60256,-9.0899],[-71.60831,-9.08886],[-71.60923,-9.09258],[-71.60459,-9.09259],[-71.60531,-9.10988],[-71.61465,-9.11287],[-71.60401,-9.12397],[-71.61142,-9.12358],[-71.61486,-9.1322],[-71.62687,-9.13822],[-71.62484,-9.14755],[-71.61776,-9.14776],[-71.62262,-9.17662],[-71.61329,-9.1856],[-71.63038,-9.19148],[-71.62681,-9.19374],[-71.63185,-9.20178],[-71.63309,-9.1941],[-71.63801,-9.19346],[-71.63857,-9.20134],[-71.64318,-9.19952],[-71.64546,-9.20346],[-71.63923,-9.20695],[-71.64812,-9.23507],[-71.65223,-9.23109],[-71.6589,-9.23349],[-71.65798,-9.2415],[-71.67062,-9.24382],[-71.67201,-9.25156],[-71.68549,-9.25506],[-71.69205,-9.26273],[-71.69818,-9.26043],[-71.70293,-9.26603],[-71.69585,-9.27669],[-71.69974,-9.2975],[-71.70366,-9.29563],[-71.70685,-9.30431],[-71.71516,-9.30595],[-71.71966,-9.33895],[-71.72708,-9.3461],[-71.7323,-9.3724],[-71.72477,-9.38096],[-71.72291,-9.42052],[-71.72877,-9.42333],[-71.73383,-9.43686],[-71.73822,-9.43617],[-71.73908,-9.44416],[-71.74786,-9.44216],[-71.75819,-9.46135],[-71.79711,-9.49339],[-71.79614,-9.51966],[-71.81006,-9.52632],[-71.80642,-9.53545],[-71.80903,-9.55713],[-71.82506,-9.58911],[-71.81823,-9.59398],[-71.82116,-10.00033],[-72.1817,-9.99972],[-72.18176,-9.98514],[-72.16345,-9.97447],[-72.15678,-9.964],[-72.16178,-9.93985],[-72.17359,-9.93631],[-72.17551,-9.92466],[-72.14175,-9.87786],[-72.15617,-9.86087],[-72.15614,-9.84252],[-72.16655,-9.82838],[-72.15205,-9.79928],[-72.17639,-9.78224],[-72.21558,-9.77436],[-72.22808,-9.76227],[-72.24428,-9.76607],[-72.25269,-9.75417],[-72.26975,-9.7497],[-72.27181,-9.74258],[-72.26297,-9.72644],[-72.265,-9.71348],[-72.25194,-9.69051],[-72.25283,-9.6759],[-72.24577,-9.65716],[-72.25988,-9.64061],[-72.25296,-9.6144],[-72.25905,-9.61092],[-72.27111,-9.61497],[-72.28858,-9.60087],[-72.28377,-9.53984],[-72.29694,-9.53398],[-72.31355,-9.54394],[-72.32096,-9.54196],[-72.33541,-9.52823],[-72.33677,-9.52053],[-72.34391,-9.51843],[-72.34213,-9.50595],[-72.35152,-9.50307],[-72.35397,-9.4961],[-72.28918,-9.474],[-72.2824,-9.43822],[-72.26815,-9.42567],[-72.1724,-9.3941],[-72.15612,-9.36171],[-72.13551,-9.3554],[-72.12776,-9.34787],[-72.11364,-9.30541],[-72.08478,-9.25855],[-72.07447,-9.22025],[-72.07144,-9.16983],[-72.0593,-9.13141],[-72.02696,-9.09346],[-72.02852,-9.07037],[-72.05783,-9.02453],[-72.06535,-9.00038],[-72.06685,-8.96777],[-72.08121,-8.93556],[-72.10326,-8.92772],[-72.17346,-8.93166],[-72.18279,-8.92683],[-72.18763,-8.91386],[-72.18271,-8.9043],[-72.08348,-8.83103],[-72.07312,-8.81678],[-72.07343,-8.80623],[-72.04188,-8.80455],[-72.03286,-8.80809],[-72.00435,-8.80248],[-71.99097,-8.79668],[-71.98384,-8.78451],[-71.96938,-8.77749],[-71.94589,-8.78838],[-71.93595,-8.78667],[-71.92658,-8.79357],[-71.91834,-8.78894],[-71.91021,-8.80569],[-71.89845,-8.80338],[-71.89381,-8.81115],[-71.8878,-8.80769],[-71.86149,-8.82022],[-71.854,-8.81385],[-71.849,-8.82532],[-71.84234,-8.82122],[-71.83173,-8.8277],[-71.82862,-8.82272],[-71.81299,-8.83002],[-71.8136,-8.82114],[-71.79571,-8.81641],[-71.79695,-8.80558],[-71.78658,-8.80519],[-71.78414,-8.81465],[-71.76679,-8.80008],[-71.76501,-8.7845],[-71.75023,-8.77687],[-71.7516,-8.76361],[-71.74147,-8.76348],[-71.73913,-8.75424],[-71.72923,-8.75534],[-71.71867,-8.74086],[-71.71322,-8.74143],[-71.71813,-8.73543],[-71.71776,-8.72351],[-71.71283,-8.72286],[-71.70819,-8.73004],[-71.69512,-8.72904],[-71.69399,-8.71951],[-71.67532,-8.71674],[-71.68273,-8.70044],[-71.67208,-8.6988],[-71.66141,-8.70675],[-71.64927,-8.6948],[-71.64233,-8.69799],[-71.6354,-8.68702],[-71.62066,-8.69012],[-71.6273,-8.67703],[-71.61553,-8.66649],[-71.60907,-8.6686],[-71.61052,-8.67623],[-71.6057,-8.6777],[-71.6019,-8.67364],[-71.60435,-8.66151],[-71.58504,-8.65317],[-71.57624,-8.65771],[-71.56685,-8.64719],[-71.55599,-8.64813],[-71.56009,-8.65609],[-71.55657,-8.67401],[-71.56066,-8.67974],[-71.55446,-8.70297],[-71.54562,-8.70972],[-71.54266,-8.73356],[-71.54311,-8.73827],[-71.55659,-8.74215],[-71.5749,-8.75698],[-71.58225,-8.77188],[-71.58012,-8.77667],[-71.60858,-8.81504],[-71.61979,-8.82458],[-71.6203,-8.84577],[-71.61534,-8.85447],[-71.62163,-8.87121],[-71.6121,-8.88753],[-71.60439,-8.89013],[-71.59969,-8.9025],[-71.58971,-8.90493],[-71.58656,-8.91048],[-71.56758,-8.91749],[-71.56158,-8.91302],[-71.55046,-8.91686],[-71.54281,-8.91121],[-71.53311,-8.91875]]]},"properties":{"CD_MUN":"1200328","NM_MUN":"Jordão","SIGLA_UF":"AC"}},{"type":"Feature","geometry":{"type":"Polygon","coordinates":[[[-73.74136,-7.14309],[-72.86809,-7.52874],[-72.86796,-7.53549],[-72.84779,-7.54924],[-72.82971,-7.59339],[-72.81585,-7.60043],[-72.81704,-7.60987],[-72.80765,-7.60812],[-72.80396,-7.61794],[-72.79212,-7.6132],[-72.7797,-7.62203],[-72.77335,-7.61471],[-72.7684,-7.61826],[-72.75668,-7.61284],[-72.74785,-7.61872],[-72.73926,-7.61619],[-72.75137,-7.66606],[-72.76368,-7.67427],[-72.77818,-7.67042],[-72.79968,-7.67594],[-72.80832,-7.68598],[-72.91455,-7.6607],[-72.94553,-7.68493],[-72.99588,-7.66603],[-73.03107,-7.66631],[-73.07704,-7.65575],[-73.08908,-7.64481],[-73.16943,-7.63666],[-73.18688,-7.6476],[-73.19123,-7.66328],[-73.30102,-7.65574],[-73.30478,-7.65809],[-73.30284,-7.67528],[-73.31361,-7.68512],[-73.31631,-7.70107],[-73.32155,-7.70382],[-73.36621,-7.69686],[-73.39469,-7.66816],[-73.41421,-7.67638],[-73.43169,-7.67689],[-73.45871,-7.70466],[-73.48681,-7.71158],[-73.51262,-7.69425],[-73.51951,-7.70549],[-73.52626,-7.7042],[-73.53081,-7.71174],[-73.53744,-7.71033],[-73.5502,-7.72604],[-73.57902,-7.72471],[-73.63593,-7.732],[-73.66852,-7.72936],[-73.67913,-7.73811],[-73.67945,-7.76841],[-73.6881,-7.77231],[-73.74108,-7.73401],[-73.82272,-7.71779],[-73.84322,-7.67805],[-73.8653,-7.6753],[-73.88616,-7.65559],[-73.88935,-7.63156],[-73.90958,-7.62469],[-73.93333,-7.60832],[-73.96939,-7.56764],[-73.98439,-7.56649],[-73.99113,-7.54125],[-73.98866,-7.53156],[-73.94855,-7.52652],[-73.93024,-7.47788],[-73.92036,-7.46559],[-73.92846,-7.45195],[-73.9324,-7.4231],[-73.96818,-7.36009],[-73.96448,-7.34755],[-73.95182,-7.34737],[-73.94466,-7.36125],[-73.93193,-7.35221],[-73.91054,-7.37798],[-73.87068,-7.37873],[-73.86093,-7.36911],[-73.85329,-7.3472],[-73.83062,-7.33683],[-73.81815,-7.33529],[-73.79398,-7.34222],[-73.76698,-7.33172],[-73.76017,-7.33515],[-73.76493,-7.34776],[-73.75642,-7.34679],[-73.71831,-7.3282],[-73.70217,-7.30649],[-73.70044,-7.29306],[-73.71673,-7.26751],[-73.71483,-7.23415],[-73.72492,-7.22123],[-73.75433,-7.20132],[-73.75964,-7.17118],[-73.79411,-7.13299],[-73.79311,-7.12417],[-73.79955,-7.11662],[-73.74136,-7.14309]]]},"properties":{"CD_MUN":"1200336","NM_MUN":"Mâncio Lima","SIGLA_UF":"AC"}},{"type":"Feature","geometry":{"type":"Polygon","coordinates":[[[-67.16054,-9.98277],[-67.15995,-10.10532],[-67.0562,-10.1064],[-67.04347,-10.09293],[-66.99938,-10.087],[-66.98679,-10.08864],[-66.9784,-10.09794],[-66.96041,-10.0968],[-66.92915,-10.11191],[-66.92045,-10.11],[-66.89714,-10.11809],[-66.90258,-10.1265],[-66.91055,-10.12573],[-66.90998,-10.13191],[-66.91828,-10.13108],[-66.91122,-10.1388],[-66.91153,-10.14741],[-66.92314,-10.14294],[-66.93375,-10.14753],[-66.93289,-10.15499],[-66.94292,-10.15546],[-66.94672,-10.16058],[-66.95253,-10.18758],[-66.95806,-10.19141],[-66.96086,-10.18285],[-66.97056,-10.19199],[-66.97576,-10.19005],[-66.97442,-10.18529],[-66.98125,-10.18998],[-66.97503,-10.19617],[-66.98156,-10.19569],[-66.99206,-10.20367],[-66.99611,-10.19934],[-66.99376,-10.21021],[-66.99979,-10.21723],[-66.98867,-10.22096],[-66.99826,-10.23237],[-66.99976,-10.22872],[-67.00534,-10.23122],[-67.00495,-10.24424],[-67.01453,-10.25676],[-67.02267,-10.25511],[-67.03598,-10.26429],[-67.04846,-10.26531],[-67.05265,-10.27106],[-67.04818,-10.27562],[-67.07965,-10.28945],[-67.08837,-10.29049],[-67.08832,-10.28581],[-67.09854,-10.28235],[-67.11465,-10.29253],[-67.13104,-10.29292],[-67.13938,-10.30863],[-67.12843,-10.31597],[-67.1401,-10.31636],[-67.14265,-10.32352],[-67.16371,-10.32971],[-67.16932,-10.33706],[-67.18746,-10.34031],[-67.19615,-10.3242],[-67.21924,-10.3241],[-67.22416,-10.31585],[-67.23588,-10.31708],[-67.26508,-10.33324],[-67.27891,-10.32165],[-67.29491,-10.32487],[-67.31494,-10.31904],[-67.32177,-10.32228],[-67.32741,-10.33455],[-67.31594,-10.34698],[-67.31861,-10.35997],[-67.312,-10.37718],[-67.32847,-10.38329],[-67.33861,-10.37646],[-67.35111,-10.37904],[-67.35405,-10.38668],[-67.35086,-10.39202],[-67.35528,-10.39324],[-67.36772,-10.3767],[-67.37808,-10.38316],[-67.39602,-10.37766],[-67.39842,-10.37229],[-67.40761,-10.37389],[-67.42317,-10.39396],[-67.41344,-10.40433],[-67.41369,-10.42723],[-67.43025,-10.42991],[-67.43672,-10.43932],[-67.43523,-10.4471],[-67.44406,-10.45495],[-67.49126,-10.47318],[-67.50276,-10.47095],[-67.51431,-10.47838],[-67.5189,-10.49103],[-67.54706,-10.48955],[-67.58793,-10.50997],[-67.60626,-10.50391],[-67.62407,-10.47994],[-67.65915,-10.48031],[-67.68798,-10.45277],[-67.69679,-10.45289],[-67.69651,-10.43956],[-67.70623,-10.4335],[-67.69637,-10.41686],[-67.6877,-10.41171],[-67.68017,-10.39061],[-67.66784,-10.391],[-67.65848,-10.39797],[-67.64659,-10.38967],[-67.63779,-10.3634],[-67.63806,-10.35143],[-67.62684,-10.34333],[-67.62775,-10.3342],[-67.62126,-10.32837],[-67.62442,-10.32098],[-67.61303,-10.31481],[-67.61209,-10.30203],[-67.61084,-10.29853],[-67.59658,-10.30591],[-67.53319,-10.27439],[-67.51002,-10.26831],[-67.50222,-10.26009],[-67.50044,-10.23908],[-67.47244,-10.20791],[-67.45994,-10.17848],[-67.44366,-10.16439],[-67.42918,-10.12737],[-67.42646,-10.09594],[-67.34709,-10.06205],[-67.29818,-10.0621],[-67.2469,-10.02602],[-67.16054,-9.98277]]]},"properties":{"CD_MUN":"1200385","NM_MUN":"Plácido de Castro","SIGLA_UF":"AC"}},{"type":"Feature","geometry":{"type":"Polygon","coordinates":[[[-70.57557,-8.09555],[-70.36951,-8.14],[-69.76052,-8.46596],[-69.55005,-8.57949],[-69.57047,-8.62073],[-69.57456,-8.64108],[-69.58586,-8.65539],[-69.59811,-8.66203],[-69.60306,-8.67755],[-69.6195,-8.69601],[-69.62928,-8.70043],[-69.63459,-8.71254],[-69.64295,-8.71742],[-69.6647,-8.71273],[-69.66642,-8.69982],[-69.71184,-8.73672],[-69.72465,-8.76484],[-69.7329,-8.76159],[-69.76657,-8.78526],[-69.75738,-8.82545],[-69.79419,-8.84695],[-69.79382,-8.86764],[-69.81316,-8.87346],[-69.82694,-8.90693],[-69.84738,-8.91724],[-69.85753,-8.94917],[-69.887,-8.97891],[-69.90175,-8.98638],[-69.91741,-8.98698],[-69.9303,-8.9744],[-69.92903,-8.95774],[-69.9622,-8.96297],[-69.98356,-8.95098],[-69.992,-8.93746],[-70.00003,-8.94022],[-70.02406,-8.93886],[-70.03353,-8.94965],[-70.05234,-8.95662],[-70.05889,-8.97432],[-70.07601,-8.97698],[-70.08498,-8.98749],[-70.13304,-8.97352],[-70.1704,-8.99384],[-70.17673,-9.00923],[-70.18629,-9.0108],[-70.19479,-9.02161],[-70.21037,-9.01639],[-70.21596,-9.03212],[-70.22884,-9.02847],[-70.23818,-9.03189],[-70.25937,-8.99115],[-70.27312,-8.99867],[-70.29815,-8.99104],[-70.30907,-8.97937],[-70.3336,-8.98939],[-70.3464,-8.98796],[-70.35412,-8.97719],[-70.36921,-8.98083],[-70.37796,-8.99129],[-70.38946,-8.99519],[-70.40557,-9.01715],[-70.39946,-9.02509],[-70.40002,-9.03815],[-70.41216,-9.0504],[-70.41041,-9.05673],[-70.4146,-9.05503],[-70.42263,-9.06556],[-70.42286,-9.08221],[-70.43641,-9.08367],[-70.45338,-9.10601],[-70.46138,-9.10502],[-70.46158,-9.10928],[-70.47194,-9.09687],[-70.47694,-9.10326],[-70.50155,-9.10457],[-70.56094,-9.16351],[-70.60725,-9.22236],[-70.63417,-9.24214],[-70.64423,-9.27403],[-70.63209,-9.32988],[-70.63526,-9.36196],[-70.64807,-9.39114],[-70.73102,-9.41859],[-70.76191,-9.43439],[-70.8008,-9.46513],[-70.83997,-9.45682],[-70.86805,-9.46357],[-70.89606,-9.48649],[-70.94122,-9.5376],[-71.04248,-9.62333],[-71.04956,-9.67378],[-71.10782,-9.73877],[-71.11094,-9.79981],[-71.11833,-9.83176],[-71.12641,-9.83824],[-71.13341,-9.85522],[-71.16405,-9.87569],[-71.18241,-9.91787],[-71.19058,-9.92388],[-71.19494,-9.93857],[-71.20675,-9.94754],[-71.21189,-9.96676],[-71.2285,-9.9697],[-71.25414,-9.96385],[-71.26017,-9.97846],[-71.27214,-9.97864],[-71.30901,-9.99236],[-71.31878,-9.9916],[-71.33992,-9.97236],[-71.35395,-9.97693],[-71.35848,-9.98986],[-71.36507,-9.9854],[-71.37615,-10.0008],[-71.82116,-10.00033],[-71.81823,-9.59398],[-71.82506,-9.58911],[-71.80903,-9.55713],[-71.80642,-9.53545],[-71.81006,-9.52632],[-71.79614,-9.51966],[-71.79711,-9.49339],[-71.75819,-9.46135],[-71.74786,-9.44216],[-71.73908,-9.44416],[-71.73822,-9.43617],[-71.73383,-9.43686],[-71.72877,-9.42333],[-71.72291,-9.42052],[-71.72477,-9.38096],[-71.7323,-9.3724],[-71.72708,-9.3461],[-71.71966,-9.33895],[-71.71516,-9.30595],[-71.70685,-9.30431],[-71.70366,-9.29563],[-71.69974,-9.2975],[-71.69585,-9.27669],[-71.70293,-9.26603],[-71.69818,-9.26043],[-71.69205,-9.26273],[-71.68549,-9.25506],[-71.67201,-9.25156],[-71.67062,-9.24382],[-71.65798,-9.2415],[-71.6589,-9.23349],[-71.65223,-9.23109],[-71.64812,-9.23507],[-71.63923,-9.20695],[-71.64546,-9.20346],[-71.64318,-9.19952],[-71.63857,-9.20134],[-71.63801,-9.19346],[-71.63309,-9.1941],[-71.63185,-9.20178],[-71.62681,-9.19374],[-71.63038,-9.19148],[-71.61329,-9.1856],[-71.62262,-9.17662],[-71.61776,-9.14776],[-71.62484,-9.14755],[-71.62687,-9.13822],[-71.61486,-9.1322],[-71.61142,-9.12358],[-71.60401,-9.12397],[-71.61465,-9.11287],[-71.60531,-9.10988],[-71.60459,-9.09259],[-71.60923,-9.09258],[-71.60831,-9.08886],[-71.60256,-9.0899],[-71.60984,-9.08339],[-71.60495,-9.08057],[-71.61042,-9.07606],[-71.60414,-9.06867],[-71.59651,-9.06968],[-71.59067,-9.06035],[-71.60006,-9.04661],[-71.59706,-9.0196],[-71.59317,-9.0192],[-71.59278,-9.00786],[-71.58303,-9.00845],[-71.58297,-8.99575],[-71.57692,-8.99362],[-71.58339,-8.98381],[-71.56714,-8.97644],[-71.56666,-8.9654],[-71.57336,-8.95864],[-71.56191,-8.94351],[-71.54822,-8.94153],[-71.54736,-8.93187],[-71.54317,-8.93368],[-71.54324,-8.92926],[-71.53727,-8.93466],[-71.53311,-8.91875],[-71.52661,-8.90452],[-71.50891,-8.90089],[-71.50588,-8.8946],[-71.50083,-8.8997],[-71.50155,-8.8929],[-71.49532,-8.88669],[-71.48541,-8.89203],[-71.48261,-8.8808],[-71.46894,-8.86495],[-71.45983,-8.86383],[-71.45591,-8.87123],[-71.44199,-8.86405],[-71.43435,-8.87264],[-71.42971,-8.86953],[-71.42508,-8.88266],[-71.41113,-8.87061],[-71.39802,-8.87077],[-71.39088,-8.88269],[-71.38074,-8.87784],[-71.38407,-8.8894],[-71.37571,-8.88497],[-71.37313,-8.88942],[-71.36383,-8.88127],[-71.36574,-8.87439],[-71.34982,-8.87154],[-71.34379,-8.8672],[-71.34521,-8.86135],[-71.33115,-8.86543],[-71.33504,-8.85887],[-71.32085,-8.86035],[-71.31535,-8.84802],[-71.31215,-8.85785],[-71.3006,-8.84282],[-71.29607,-8.84356],[-71.29329,-8.83465],[-71.28973,-8.83865],[-71.28318,-8.83596],[-71.27807,-8.84355],[-71.26532,-8.83301],[-71.26951,-8.84546],[-71.26095,-8.84545],[-71.25548,-8.83799],[-71.24271,-8.84732],[-71.23746,-8.84172],[-71.2371,-8.82808],[-71.22662,-8.83466],[-71.22459,-8.81589],[-71.22109,-8.81859],[-71.21759,-8.8089],[-71.20831,-8.80952],[-71.19473,-8.80045],[-71.1837,-8.80834],[-71.18495,-8.79791],[-71.1752,-8.78443],[-71.16887,-8.78372],[-71.15909,-8.79413],[-71.1477,-8.78889],[-71.14664,-8.78013],[-71.13684,-8.77396],[-71.12614,-8.77907],[-71.1315,-8.77482],[-71.1217,-8.76174],[-71.11659,-8.76859],[-71.1025,-8.76242],[-71.10056,-8.77156],[-71.08872,-8.75698],[-71.08122,-8.76221],[-71.07895,-8.77362],[-71.07442,-8.76399],[-71.08092,-8.75361],[-71.07789,-8.7498],[-71.06308,-8.74884],[-71.05786,-8.75331],[-71.05722,-8.7369],[-71.04297,-8.73389],[-71.03889,-8.72573],[-71.03253,-8.73152],[-71.02399,-8.71497],[-71.01364,-8.72166],[-71.01872,-8.71294],[-71.01089,-8.71422],[-71.00649,-8.709],[-71.01419,-8.68202],[-71.00811,-8.68821],[-70.998,-8.68407],[-70.99224,-8.67095],[-70.97874,-8.66516],[-70.97991,-8.64669],[-70.9695,-8.64647],[-70.96813,-8.64059],[-70.96424,-8.64867],[-70.96033,-8.62913],[-70.95171,-8.62079],[-70.94305,-8.62315],[-70.9466,-8.61683],[-70.93835,-8.60837],[-70.93482,-8.61107],[-70.93202,-8.60193],[-70.92424,-8.59715],[-70.92569,-8.58887],[-70.91938,-8.59171],[-70.91899,-8.58446],[-70.91307,-8.58634],[-70.91585,-8.58008],[-70.92393,-8.57982],[-70.92446,-8.56901],[-70.90696,-8.55929],[-70.89785,-8.5659],[-70.9063,-8.54967],[-70.89624,-8.54508],[-70.89437,-8.52393],[-70.8881,-8.52315],[-70.88526,-8.51707],[-70.87634,-8.52067],[-70.86735,-8.51743],[-70.87121,-8.51201],[-70.87685,-8.51789],[-70.87499,-8.50829],[-70.88473,-8.51067],[-70.88654,-8.50403],[-70.86768,-8.4947],[-70.85985,-8.50003],[-70.8557,-8.48826],[-70.86309,-8.4655],[-70.84662,-8.46044],[-70.84767,-8.45218],[-70.83645,-8.44734],[-70.84056,-8.4296],[-70.80695,-8.42714],[-70.80926,-8.41875],[-70.80345,-8.40575],[-70.79798,-8.40421],[-70.80428,-8.40073],[-70.80598,-8.38822],[-70.80286,-8.38268],[-70.79809,-8.38339],[-70.79603,-8.37289],[-70.78592,-8.36709],[-70.77958,-8.37181],[-70.56655,-8.21838],[-70.56554,-8.21042],[-70.57451,-8.20603],[-70.57988,-8.19651],[-70.5556,-8.15772],[-70.57784,-8.11631],[-70.57557,-8.09555]]]},"properties":{"CD_MUN":"1200302","NM_MUN":"Feijó","SIGLA_UF":"AC"}},{"type":"Feature","geometry":{"type":"Polygon","coordinates":[[[-72.80832,-7.68598],[-72.79968,-7.67594],[-72.77818,-7.67042],[-72.76368,-7.67427],[-72.75137,-7.66606],[-72.73926,-7.61619],[-72.74785,-7.61872],[-72.75668,-7.61284],[-72.7684,-7.61826],[-72.77335,-7.61471],[-72.7797,-7.62203],[-72.79212,-7.6132],[-72.80396,-7.61794],[-72.80765,-7.60812],[-72.81704,-7.60987],[-72.81585,-7.60043],[-72.82971,-7.59339],[-72.84779,-7.54924],[-72.86796,-7.53549],[-72.86809,-7.52874],[-72.65795,-7.6247],[-72.17269,-7.73624],[-72.17894,-7.76064],[-72.18056,-7.81888],[-72.17403,-7.84553],[-72.17456,-7.8693],[-72.1905,-7.88215],[-72.18842,-7.91097],[-72.19798,-7.92845],[-72.21687,-7.93055],[-72.22664,-7.94257],[-72.24523,-7.98156],[-72.24912,-8.00212],[-72.27887,-8.05545],[-72.25443,-8.10895],[-72.26563,-8.16816],[-72.24077,-8.21433],[-72.23945,-8.23454],[-72.25377,-8.20636],[-72.26249,-8.19981],[-72.27337,-8.20155],[-72.28111,-8.20898],[-72.29689,-8.20583],[-72.32263,-8.23019],[-72.36393,-8.2457],[-72.37635,-8.24123],[-72.40192,-8.25711],[-72.45406,-8.23127],[-72.48545,-8.23273],[-72.51081,-8.22567],[-72.52539,-8.21134],[-72.53451,-8.20626],[-72.53621,-8.21132],[-72.55034,-8.18664],[-72.63967,-8.18126],[-72.67627,-8.22346],[-72.68744,-8.22188],[-72.69382,-8.21186],[-72.7247,-8.20265],[-72.73809,-8.20283],[-72.74778,-8.21032],[-72.75375,-8.19767],[-72.76914,-8.19488],[-72.78851,-8.19846],[-72.79471,-8.18888],[-72.79247,-8.16076],[-72.80363,-8.15759],[-72.80724,-8.11596],[-72.82628,-8.12831],[-72.8337,-8.13881],[-72.85182,-8.14297],[-72.85355,-8.15498],[-72.86277,-8.15245],[-72.86746,-8.16273],[-72.88719,-8.17804],[-72.90223,-8.18174],[-72.92779,-8.20073],[-72.94191,-8.19709],[-72.95515,-8.25472],[-72.9426,-8.29491],[-72.93944,-8.32202],[-72.93124,-8.33737],[-72.93616,-8.35717],[-72.93313,-8.40039],[-72.93628,-8.41172],[-72.9773,-8.4339],[-72.99449,-8.46333],[-73.01043,-8.47409],[-73.01945,-8.48989],[-73.04159,-8.49562],[-73.0794,-8.48978],[-73.08695,-8.46755],[-73.11447,-8.45167],[-73.16792,-8.45937],[-73.23339,-8.45672],[-73.32976,-8.47684],[-73.33643,-8.46747],[-73.34823,-8.47089],[-73.36612,-8.46369],[-73.37571,-8.46713],[-73.37784,-8.46268],[-73.39013,-8.46871],[-73.40277,-8.4477],[-73.41343,-8.41091],[-73.44357,-8.40759],[-73.48307,-8.39207],[-73.48695,-8.3784],[-73.50756,-8.37759],[-73.53802,-8.34579],[-73.53073,-8.31246],[-73.54117,-8.29532],[-73.53746,-8.27019],[-73.55915,-8.24557],[-73.56131,-8.23561],[-73.5727,-8.23011],[-73.57885,-8.21091],[-73.59482,-8.2057],[-73.58639,-8.17306],[-73.59232,-8.14262],[-73.58398,-8.12758],[-73.59501,-8.09771],[-73.60811,-8.0868],[-73.61662,-8.0699],[-73.63283,-8.05782],[-73.60847,-8.04497],[-73.59989,-8.03227],[-73.58391,-8.02175],[-73.55711,-8.03613],[-73.53377,-8.06809],[-73.5174,-8.08071],[-73.50269,-8.08038],[-73.43723,-8.016],[-73.41945,-8.01598],[-73.40796,-8.02571],[-73.39694,-8.02475],[-73.38202,-7.99017],[-73.34266,-7.98304],[-73.33188,-7.98918],[-73.32816,-7.98656],[-73.32282,-7.99279],[-73.29321,-7.98159],[-73.2621,-7.95073],[-73.2573,-7.95213],[-73.24462,-7.93524],[-73.23793,-7.94132],[-73.22874,-7.92636],[-73.21337,-7.91295],[-73.20181,-7.91004],[-73.1984,-7.9034],[-73.1819,-7.90382],[-73.16712,-7.89507],[-73.16301,-7.89921],[-73.12901,-7.89935],[-73.09326,-7.88254],[-73.08234,-7.88203],[-73.06378,-7.87014],[-73.0527,-7.87087],[-73.02403,-7.86099],[-73.00461,-7.84739],[-72.9912,-7.85938],[-72.95428,-7.85145],[-72.93786,-7.86186],[-72.92674,-7.86308],[-72.90421,-7.89348],[-72.90479,-7.90402],[-72.8776,-7.91641],[-72.85785,-7.90709],[-72.83276,-7.90771],[-72.80891,-7.89694],[-72.80517,-7.90273],[-72.78829,-7.89393],[-72.7694,-7.87511],[-72.76521,-7.88032],[-72.75584,-7.8677],[-72.74725,-7.86986],[-72.75235,-7.87992],[-72.74422,-7.88226],[-72.74375,-7.87247],[-72.7291,-7.86499],[-72.73714,-7.85838],[-72.72848,-7.85036],[-72.7191,-7.8535],[-72.71857,-7.84462],[-72.70806,-7.84325],[-72.69449,-7.84859],[-72.68708,-7.83238],[-72.67597,-7.82572],[-72.66109,-7.83071],[-72.63654,-7.81429],[-72.61929,-7.81312],[-72.61715,-7.80707],[-72.62553,-7.79932],[-72.63216,-7.81011],[-72.6386,-7.78978],[-72.64513,-7.78492],[-72.62186,-7.77881],[-72.61117,-7.78097],[-72.60965,-7.77385],[-72.61818,-7.76974],[-72.64213,-7.76999],[-72.6262,-7.75385],[-72.64606,-7.73432],[-72.63988,-7.7006],[-72.64174,-7.6817],[-72.64987,-7.67742],[-72.65455,-7.69196],[-72.73615,-7.72358],[-72.78319,-7.69126],[-72.80832,-7.68598]]]},"properties":{"CD_MUN":"1200203","NM_MUN":"Cruzeiro do Sul","SIGLA_UF":"AC"}},{"type":"Feature","geometry":{"type":"Polygon","coordinates":[[[-68.10565,-10.71622],[-68.10545,-10.73919],[-68.09762,-10.74739],[-68.10718,-10.76345],[-68.10382,-10.77457],[-68.11857,-10.78369],[-68.14326,-10.8145],[-68.17421,-10.84014],[-68.17877,-10.85316],[-68.19582,-10.85898],[-68.19999,-10.87596],[-68.20574,-10.87951],[-68.20746,-10.90289],[-68.22375,-10.91133],[-68.23861,-10.95726],[-68.27075,-10.97876],[-68.27853,-10.98977],[-68.30494,-10.99142],[-68.3207,-10.9998],[-68.33253,-11.01301],[-68.34164,-11.00514],[-68.35428,-11.00409],[-68.38522,-11.0178],[-68.39114,-11.02886],[-68.3897,-11.04284],[-68.40212,-11.05287],[-68.4067,-11.05273],[-68.41517,-11.04032],[-68.42609,-11.03953],[-68.43192,-11.03148],[-68.44553,-11.04597],[-68.48795,-11.05077],[-68.50621,-11.06573],[-68.50845,-11.07677],[-68.51898,-11.08895],[-68.54021,-11.09502],[-68.54412,-11.11034],[-68.71655,-11.14451],[-68.71155,-11.12838],[-68.7231,-11.11308],[-68.72163,-11.10238],[-68.73435,-11.09287],[-68.74305,-11.09584],[-68.74933,-11.088],[-68.75844,-11.0857],[-68.75674,-11.07699],[-68.76588,-11.06912],[-68.76035,-11.05772],[-68.76735,-11.05167],[-68.75968,-11.04105],[-68.75182,-11.03842],[-68.74896,-11.02154],[-68.73726,-11.01441],[-68.74102,-10.99411],[-68.73426,-10.98896],[-68.72677,-11.00449],[-68.72393,-10.99614],[-68.71717,-10.99287],[-68.72713,-10.98519],[-68.72497,-10.97465],[-68.71684,-10.98108],[-68.68857,-10.97067],[-68.68436,-10.95676],[-68.68654,-10.93851],[-68.67903,-10.93709],[-68.67293,-10.94594],[-68.66929,-10.93236],[-68.65828,-10.93932],[-68.65359,-10.92639],[-68.64537,-10.92355],[-68.63662,-10.94719],[-68.62745,-10.9458],[-68.62251,-10.95008],[-68.61703,-10.97116],[-68.62087,-10.97466],[-68.60276,-10.97376],[-68.60332,-10.97865],[-68.59581,-10.98396],[-68.60095,-11.00202],[-68.59026,-11.0277],[-68.52388,-11.02758],[-68.55315,-11.02057],[-68.55478,-10.97097],[-68.54267,-10.94431],[-68.54028,-10.91456],[-68.52955,-10.90418],[-68.50754,-10.89459],[-68.50701,-10.88224],[-68.50077,-10.87436],[-68.48204,-10.83817],[-68.45756,-10.81367],[-68.45222,-10.78438],[-68.43328,-10.75224],[-68.43454,-10.73967],[-68.42735,-10.71529],[-68.3734,-10.69497],[-68.35203,-10.68164],[-68.26891,-10.66241],[-68.18911,-10.70037],[-68.15293,-10.70169],[-68.14472,-10.69394],[-68.10565,-10.71622]]]},"properties":{"CD_MUN":"1200252","NM_MUN":"Epitaciolândia","SIGLA_UF":"AC"}},{"type":"Feature","geometry":{"type":"Polygon","coordinates":[[[-67.93991,-9.3369],[-67.32645,-9.59471],[-67.33825,-9.62274],[-67.32677,-9.64268],[-67.32471,-9.66222],[-67.336,-9.68293],[-67.33264,-9.72345],[-67.3615,-9.76463],[-67.36664,-9.78013],[-67.40547,-9.80364],[-67.42031,-9.82506],[-67.43835,-9.83652],[-67.44221,-9.85867],[-67.43778,-9.88061],[-67.44667,-9.8992],[-67.44733,-9.91489],[-67.47517,-9.898],[-67.48143,-9.87061],[-67.51032,-9.85682],[-67.5291,-9.82328],[-67.53487,-9.82232],[-67.55076,-9.80385],[-67.55072,-9.78403],[-67.55661,-9.7746],[-67.56569,-9.777],[-67.57605,-9.74216],[-67.58396,-9.75084],[-67.58078,-9.76302],[-67.59026,-9.75854],[-67.59567,-9.76339],[-67.58294,-9.77583],[-67.59453,-9.7874],[-67.59062,-9.79392],[-67.58123,-9.79434],[-67.59047,-9.80723],[-67.58037,-9.82261],[-67.59407,-9.82532],[-67.59145,-9.83898],[-67.59827,-9.84825],[-67.62734,-9.84895],[-67.64064,-9.85687],[-67.68274,-9.86524],[-67.70334,-9.8619],[-67.7287,-9.83743],[-67.71945,-9.81445],[-67.72239,-9.80447],[-67.78487,-9.74466],[-67.82829,-9.80313],[-67.83337,-9.78897],[-67.85315,-9.77112],[-67.87326,-9.7606],[-67.89062,-9.73202],[-67.90262,-9.72204],[-67.90456,-9.68363],[-67.91289,-9.6724],[-68.10213,-9.59172],[-68.09348,-9.57817],[-68.09979,-9.55113],[-68.0876,-9.52066],[-68.07209,-9.52208],[-68.04197,-9.50016],[-68.03097,-9.4948],[-68.01842,-9.46645],[-68.02689,-9.44691],[-68.06036,-9.4113],[-68.05968,-9.38661],[-68.04866,-9.35452],[-68.03968,-9.34847],[-68.03278,-9.3499],[-68.03123,-9.34542],[-68.02016,-9.34993],[-68.02074,-9.35652],[-68.00731,-9.35247],[-67.98883,-9.36078],[-67.98727,-9.35455],[-67.96637,-9.3504],[-67.9507,-9.33772],[-67.93991,-9.3369]]]},"properties":{"CD_MUN":"1200807","NM_MUN":"Porto Acre","SIGLA_UF":"AC"}}]}