{"type":"FeatureCollection","features":[{"type":"Feature","geometry":{"type":"Polygon","coordinates":[[[-48.0528,-15.50017],[-47.49551,-15.50031],[-47.41689,-15.50033],[-47.41728,-15.54684],[-47.40436,-15.54646],[-47.38917,-15.56744],[-47.38,-15.5674],[-47.37378,-15.57784],[-47.34722,-15.57982],[-47.31653,-15.58956],[-47.33267,-15.62993],[-47.32614,-15.64882],[-47.32653,-15.67362],[-47.33109,-15.6817],[-47.31159,-15.69659],[-47.31942,-15.72032],[-47.31306,-15.74526],[-47.32151,-15.75396],[-47.33829,-15.79465],[-47.34815,-15.80381],[-47.35343,-15.82226],[-47.35963,-15.82064],[-47.36551,-15.8282],[-47.37271,-15.87801],[-47.37899,-15.88177],[-47.37566,-15.89582],[-47.37074,-15.90018],[-47.37227,-15.90674],[-47.36324,-15.909],[-47.36713,-15.9177],[-47.35935,-15.92484],[-47.36035,-15.93171],[-47.37207,-15.93658],[-47.36674,-15.94666],[-47.37632,-15.96284],[-47.37316,-15.96673],[-47.37646,-15.97841],[-47.37108,-15.98044],[-47.37541,-15.98664],[-47.36813,-15.99409],[-47.36821,-16.00196],[-47.36363,-16.00077],[-47.35838,-16.00799],[-47.34735,-16.00603],[-47.34432,-16.01132],[-47.33691,-16.01203],[-47.3391,-16.01902],[-47.3348,-16.01687],[-47.32463,-16.02881],[-47.3214,-16.02622],[-47.31868,-16.03671],[-47.30858,-16.0361],[-47.30705,-16.05055],[-47.68298,-16.05061],[-47.93877,-16.05129],[-48.08627,-16.05177],[-48.27872,-16.05156],[-48.27122,-16.02872],[-48.27244,-16.00849],[-48.25997,-15.98223],[-48.25894,-15.96465],[-48.25213,-15.95411],[-48.25207,-15.93676],[-48.26143,-15.92865],[-48.2678,-15.93286],[-48.27635,-15.93055],[-48.27022,-15.9117],[-48.27694,-15.90633],[-48.27177,-15.88169],[-48.28669,-15.84315],[-48.27704,-15.81821],[-48.26749,-15.80689],[-48.24157,-15.79869],[-48.23785,-15.78474],[-48.2137,-15.76039],[-48.20648,-15.74617],[-48.20707,-15.71835],[-48.21771,-15.70804],[-48.24093,-15.7059],[-48.24226,-15.68916],[-48.23448,-15.65906],[-48.23526,-15.64513],[-48.22356,-15.6278],[-48.21854,-15.62264],[-48.19989,-15.62187],[-48.20011,-15.50018],[-48.0528,-15.50017]]]},"properties":{"CD_MUN":"5300108","NM_MUN":"Brasília","SIGLA_UF":"DF"}}]}