{"type":"FeatureCollection","features":[{"type":"Feature","geometry":{"type":"Polygon","coordinates":[[[-63.96008,2.47313],[-63.97662,2.46497],[-64.00008,2.47898],[-64.00786,2.48074],[-64.02295,2.46475],[-64.03153,2.47258],[-64.03434,2.48543],[-64.03924,2.48504],[-64.04302,2.496],[-64.05622,2.49643],[-64.06168,2.50438],[-64.0543,2.51687],[-64.0459,2.52054],[-64.04835,2.55213],[-64.04457,2.55364],[-64.04882,2.56739],[-64.04259,2.58011],[-64.02729,2.57732],[-64.02866,2.5857],[-64.01014,2.60466],[-64.011,2.61832],[-64.00773,2.62778],[-63.99714,2.63236],[-63.98615,2.64867],[-63.99092,2.6705],[-63.98856,2.68984],[-63.99797,2.69126],[-64.00696,2.70949],[-63.9871,2.71559],[-63.98349,2.72754],[-63.9914,2.73571],[-63.99806,2.73545],[-64.00584,2.7532],[-63.99698,2.76627],[-64.004,2.77331],[-64.01624,2.77761],[-64.01418,2.78587],[-64.01813,2.79515],[-64.01469,2.81217],[-64.03446,2.83074],[-64.04134,2.8316],[-64.05264,2.85555],[-64.06791,2.86968],[-64.07624,2.87028],[-64.07813,2.87991],[-64.06988,2.89074],[-64.07133,2.90287],[-64.07762,2.90587],[-64.07051,2.91754],[-64.0844,2.9313],[-64.09447,2.9351],[-64.101,2.95212],[-64.10788,2.95401],[-64.10702,2.96639],[-64.11218,2.97],[-64.11888,2.98564],[-64.13951,2.99063],[-64.14476,2.98585],[-64.1609,2.98717],[-64.14709,3.01061],[-64.15223,3.01625],[-64.14458,3.02573],[-64.14811,3.03636],[-64.15791,3.0465],[-64.17476,3.05063],[-64.17458,3.06198],[-64.18559,3.06782],[-64.19917,3.08158],[-64.20825,3.08224],[-64.21868,3.09061],[-64.21606,3.10146],[-64.22589,3.13216],[-64.22029,3.1511],[-64.21101,3.15423],[-64.20037,3.16455],[-64.19296,3.15909],[-64.18141,3.16516],[-64.17734,3.18257],[-64.16776,3.20442],[-64.15877,3.20669],[-64.15401,3.22787],[-64.15856,3.24368],[-64.15052,3.24921],[-64.15329,3.25386],[-64.13876,3.26728],[-64.13699,3.27247],[-64.11753,3.27837],[-64.12399,3.29191],[-64.11885,3.29866],[-64.11569,3.31469],[-64.12003,3.32101],[-64.11481,3.32984],[-64.11794,3.33743],[-64.12563,3.33874],[-64.12733,3.34593],[-64.13635,3.35104],[-64.13296,3.3638],[-64.14706,3.37132],[-64.13988,3.38466],[-64.14791,3.40381],[-64.1486,3.43991],[-64.16132,3.46501],[-64.1844,3.48931],[-64.15974,3.47889],[-64.14108,3.47351],[-64.12497,3.47739],[-64.10747,3.47545],[-64.0911,3.48211],[-64.07247,3.48073],[-64.06275,3.47545],[-64.04275,3.45934],[-64.0347,3.46018],[-64.02775,3.4524],[-64.01386,3.44851],[-64.00053,3.43351],[-63.98274,3.43601],[-63.96886,3.43434],[-63.96572,3.44437],[-63.95636,3.4474],[-63.93441,3.44517],[-63.92608,3.43684],[-63.89914,3.41963],[-63.88747,3.41907],[-63.88608,3.42573],[-63.87108,3.42851],[-63.87274,3.43545],[-63.85219,3.4474],[-63.8458,3.45573],[-63.83052,3.49546],[-63.83497,3.50073],[-63.82525,3.50907],[-63.82192,3.51907],[-63.81164,3.52268],[-63.8033,3.54156],[-63.79053,3.5299],[-63.78608,3.5449],[-63.7708,3.55073],[-63.76747,3.5599],[-63.75497,3.56268],[-63.7408,3.5699],[-63.74247,3.58518],[-63.73469,3.61434],[-63.72191,3.65018],[-63.71719,3.65934],[-63.71858,3.67934],[-63.71108,3.68629],[-63.71302,3.69795],[-63.69108,3.71628],[-63.67747,3.71462],[-63.6508,3.72518],[-63.63885,3.74018],[-63.63302,3.74212],[-63.61052,3.73712],[-63.59413,3.73907],[-63.56997,3.72823],[-63.56802,3.71712],[-63.57385,3.70712],[-63.55191,3.68323],[-63.52886,3.68101],[-63.51024,3.68712],[-63.50635,3.67851],[-63.48774,3.66712],[-63.45747,3.66295],[-63.44886,3.64768],[-63.43246,3.63823],[-63.42025,3.62768],[-63.39469,3.61573],[-63.37969,3.61712],[-63.36636,3.61407],[-63.35246,3.6249],[-63.34219,3.6099],[-63.34747,3.60434],[-63.34719,3.58851],[-63.32303,3.57462],[-63.30524,3.58129],[-63.29857,3.59017],[-63.28774,3.59462],[-63.27524,3.61046],[-63.28052,3.62796],[-63.27441,3.63712],[-63.27302,3.64879],[-63.27691,3.68156],[-63.27218,3.68795],[-63.26191,3.68684],[-63.24969,3.6799],[-63.2258,3.68185],[-63.22163,3.67601],[-63.20302,3.6824],[-63.18636,3.67323],[-63.1808,3.6574],[-63.18302,3.64601],[-63.16996,3.63712],[-63.1558,3.62268],[-63.15552,3.61296],[-63.14997,3.6024],[-63.16052,3.59379],[-63.15886,3.58628],[-63.16747,3.56518],[-63.16663,3.54962],[-63.17608,3.54073],[-63.17441,3.52351],[-63.16413,3.50851],[-63.15218,3.49962],[-63.14413,3.48156],[-63.14858,3.47906],[-63.12886,3.46546],[-63.11608,3.46462],[-63.10357,3.44268],[-63.0933,3.44018],[-63.06885,3.42574],[-63.06552,3.41712],[-63.05552,3.4199],[-63.02941,3.39545],[-63.02246,3.38462],[-63.02413,3.37962],[-63.01107,3.36768],[-63.01052,3.35379],[-63.00051,3.34436],[-62.97552,3.3424],[-62.96274,3.31963],[-62.94469,3.31157],[-62.93302,3.31296],[-62.91941,3.30795],[-62.90219,3.29351],[-62.87804,3.28435],[-62.86052,3.27101],[-62.83858,3.26463],[-62.8258,3.24767],[-62.81052,3.24824],[-62.79635,3.23851],[-62.77357,3.23712],[-62.76191,3.24101],[-62.73719,3.23879],[-62.69135,3.2199],[-62.64913,3.24018],[-62.64552,3.23768],[-62.63635,3.24851],[-62.6283,3.2399],[-62.62302,3.24379],[-62.60858,3.23574],[-62.56941,3.22907],[-62.55693,3.23323],[-62.54302,3.22796],[-62.52413,3.21574],[-62.50052,3.20684],[-62.47218,3.20101],[-62.46857,3.1899],[-62.4569,3.18601],[-62.44885,3.15934],[-62.45274,3.1524],[-62.44746,3.1324],[-62.43218,3.12434],[-62.4169,3.12935],[-62.41054,3.12575],[-62.39108,3.13296],[-62.38801,3.14046],[-62.37524,3.1399],[-62.35024,3.15518],[-62.3408,3.15157],[-62.32219,3.15434],[-62.31023,3.14546],[-62.29884,3.14601],[-62.28802,3.15212],[-62.27218,3.14823],[-62.26968,3.14212],[-62.2494,3.1374],[-62.24107,3.14463],[-62.24274,3.15213],[-62.23274,3.16018],[-62.22746,3.15824],[-62.21385,3.16295],[-62.21135,3.17018],[-62.20107,3.17545],[-62.19941,3.18406],[-62.18496,3.18684],[-62.18024,3.19407],[-62.16635,3.20018],[-62.16413,3.2074],[-62.14246,3.21963],[-62.13051,3.23463],[-62.11579,3.23657],[-62.09774,3.24379],[-62.08912,3.25046],[-62.08218,3.24741],[-62.07218,3.25157],[-62.0608,3.26352],[-62.05191,3.26462],[-62.04635,3.25851],[-62.0333,3.2574],[-62.01719,3.24907],[-62.00829,3.24851],[-61.99912,3.25546],[-61.96996,3.26129],[-61.96302,3.2524],[-61.94718,3.25657],[-61.94968,3.26379],[-61.9433,3.26712],[-61.94413,3.27824],[-61.93274,3.28851],[-61.92385,3.28045],[-61.91051,3.29046],[-61.89357,3.29129],[-61.88773,3.28213],[-61.87135,3.27629],[-61.86857,3.26824],[-61.84912,3.26379],[-61.84079,3.28213],[-61.83773,3.30073],[-61.8269,3.30435],[-61.83107,3.30907],[-61.82385,3.32212],[-61.79801,3.33018],[-61.77385,3.32768],[-61.75912,3.32018],[-61.73052,3.3199],[-61.71857,3.32212],[-61.71135,3.32852],[-61.7119,3.33518],[-61.69912,3.33129],[-61.6919,3.32101],[-61.6819,3.32212],[-61.63773,3.3474],[-61.62634,3.35713],[-61.62523,3.34962],[-61.61718,3.34074],[-61.61412,3.33045],[-61.59801,3.31157],[-61.57274,3.3124],[-61.56495,3.30657],[-61.55134,3.31296],[-61.54218,3.3024],[-61.53607,3.30185],[-61.53245,3.31045],[-61.51968,3.30712],[-61.50746,3.31435],[-61.50579,3.32185],[-61.49468,3.3349],[-61.48246,3.34129],[-61.47579,3.3374],[-61.45606,3.34824],[-61.40579,3.35018],[-61.38079,3.36491],[-61.36218,3.36073],[-61.3494,3.35379],[-61.33023,3.35935],[-61.31662,3.35685],[-61.30912,3.36907],[-61.29135,3.38434],[-61.2794,3.38963],[-61.26773,3.40018],[-61.2394,3.43962],[-61.21885,3.44962],[-61.20079,3.45102],[-61.18774,3.44879],[-61.17495,3.45268],[-61.15356,3.44962],[-61.13579,3.4349],[-61.09357,3.43546],[-61.06662,3.43795],[-61.05356,3.44185],[-61.04273,3.4388],[-61.02162,3.43851],[-61.0069,3.44351],[-60.99171,3.45222],[-60.98637,3.46037],[-60.94904,3.47918],[-60.9304,3.48001],[-60.91886,3.46618],[-60.90795,3.46364],[-60.89285,3.47691],[-60.87087,3.48233],[-60.85012,3.47756],[-60.83246,3.48391],[-60.80103,3.48487],[-60.78817,3.49563],[-60.76887,3.4994],[-60.74315,3.49832],[-60.72737,3.48124],[-60.70901,3.47452],[-60.69587,3.47335],[-60.66659,3.45441],[-60.65418,3.43663],[-60.6266,3.42709],[-60.61956,3.42194],[-60.60475,3.40313],[-60.59537,3.40022],[-60.60109,3.41053],[-60.60004,3.42978],[-60.6064,3.44846],[-60.59856,3.45725],[-60.57898,3.46983],[-60.57851,3.47893],[-60.55407,3.47803],[-60.54662,3.50148],[-60.55406,3.5072],[-60.55298,3.51864],[-60.53798,3.52589],[-60.52818,3.5543],[-60.51434,3.54284],[-60.51662,3.556],[-60.50829,3.57288],[-60.49209,3.58135],[-60.48497,3.5939],[-60.48343,3.60566],[-60.47579,3.60605],[-60.45379,3.59012],[-60.45062,3.5801],[-60.42732,3.58499],[-60.41831,3.57753],[-60.41023,3.58017],[-60.40856,3.56851],[-60.39579,3.57267],[-60.3769,3.56407],[-60.38161,3.5574],[-60.37273,3.54795],[-60.35884,3.54185],[-60.3519,3.55157],[-60.33856,3.54601],[-60.32385,3.53157],[-60.32106,3.52296],[-60.32995,3.5149],[-60.32246,3.50712],[-60.31078,3.50823],[-60.30828,3.49129],[-60.29939,3.48657],[-60.30189,3.47657],[-60.28912,3.46407],[-60.28578,3.44962],[-60.29967,3.43795],[-60.29717,3.43129],[-60.30245,3.42406],[-60.31884,3.41795],[-60.32579,3.39601],[-60.32134,3.36907],[-60.31495,3.37602],[-60.29523,3.38712],[-60.26412,3.39268],[-60.24245,3.39379],[-60.2269,3.40045],[-60.19717,3.40685],[-60.18579,3.41713],[-60.17745,3.44351],[-60.15606,3.46268],[-60.13939,3.46101],[-60.11995,3.47657],[-60.09773,3.48546],[-60.08328,3.49351],[-60.05245,3.52712],[-60.03689,3.52767],[-60.02745,3.5399],[-60.01579,3.54324],[-59.99984,3.55274],[-59.98438,3.5538],[-59.97217,3.55823],[-59.95828,3.57268],[-59.94856,3.5699],[-59.94356,3.56046],[-59.93606,3.55935],[-59.923,3.57851],[-59.9055,3.58629],[-59.89245,3.57518],[-59.88578,3.56379],[-59.8727,3.56384],[-59.86888,3.55899],[-59.84353,3.55348],[-59.84445,3.54325],[-59.83396,3.52295],[-59.81872,3.52133],[-59.80516,3.5098],[-59.80287,3.49083],[-59.82261,3.48431],[-59.82499,3.47625],[-59.81193,3.47627],[-59.81235,3.46845],[-59.82365,3.47138],[-59.82987,3.45399],[-59.84059,3.44187],[-59.84136,3.42523],[-59.82839,3.42325],[-59.81384,3.43012],[-59.8108,3.42607],[-59.82198,3.41236],[-59.81366,3.39205],[-59.81094,3.37859],[-59.80431,3.36977],[-59.80643,3.35394],[-59.82293,3.35631],[-59.83403,3.35296],[-59.82739,3.33307],[-59.83646,3.32098],[-59.84193,3.31957],[-59.84193,3.3085],[-59.85342,3.30205],[-59.85212,3.29553],[-59.85952,3.2779],[-59.87207,3.27685],[-59.88148,3.25792],[-59.87947,3.24522],[-59.88758,3.23895],[-59.87453,3.22845],[-59.87649,3.22247],[-59.88752,3.21639],[-59.89885,3.2166],[-59.90828,3.21194],[-59.91227,3.19552],[-59.90834,3.17354],[-59.90081,3.15921],[-59.9036,3.14909],[-59.9206,3.14878],[-59.91844,3.14383],[-59.90813,3.14445],[-59.91947,3.13208],[-59.91731,3.12559],[-59.90919,3.12511],[-59.9079,3.11328],[-59.91576,3.11064],[-59.91849,3.12116],[-59.92308,3.11085],[-59.92947,3.11023],[-59.93885,3.09992],[-59.93782,3.08931],[-59.95606,3.08106],[-59.95081,3.05502],[-59.95216,3.03991],[-59.9587,3.0293],[-59.96177,3.01531],[-59.9469,3.00174],[-59.95317,2.99274],[-59.96484,2.96385],[-59.95937,2.95645],[-59.9844,2.92883],[-59.98647,2.90822],[-59.97834,2.90286],[-59.97831,2.89535],[-59.98966,2.88163],[-59.98296,2.86796],[-59.98729,2.86273],[-59.98502,2.85164],[-59.99132,2.84102],[-59.98705,2.80291],[-59.99347,2.78606],[-59.9925,2.76676],[-59.98797,2.74451],[-59.99298,2.73394],[-59.98973,2.71736],[-59.99182,2.70796],[-59.98838,2.67982],[-59.97909,2.67401],[-59.97169,2.65787],[-59.97697,2.63925],[-59.96507,2.62694],[-59.96279,2.61407],[-59.97251,2.59891],[-59.96294,2.59242],[-59.94224,2.58413],[-59.92979,2.56656],[-59.93817,2.55521],[-59.91862,2.52381],[-59.91998,2.5073],[-59.91285,2.50257],[-59.91227,2.49487],[-59.89761,2.48225],[-59.89961,2.47014],[-59.89416,2.46368],[-59.89468,2.45314],[-59.901,2.43761],[-59.89154,2.42631],[-59.89908,2.4202],[-59.8957,2.41133],[-59.90922,2.38898],[-59.8989,2.36288],[-59.88205,2.35267],[-59.87501,2.36043],[-59.86921,2.34965],[-59.85665,2.34007],[-59.85291,2.33063],[-59.84386,2.3295],[-59.84437,2.32095],[-59.8322,2.32892],[-59.82397,2.3181],[-59.80475,2.30563],[-59.80444,2.29865],[-59.78819,2.28801],[-59.77992,2.28589],[-59.76977,2.29537],[-59.76024,2.28966],[-59.74038,2.29285],[-59.72323,2.27596],[-59.72894,2.26627],[-59.72145,2.24912],[-59.71982,2.23756],[-59.72965,2.23305],[-59.73108,2.2254],[-59.72744,2.20314],[-59.73672,2.18891],[-59.73561,2.18209],[-59.74176,2.16211],[-59.73912,2.14633],[-59.72547,2.13087],[-59.72893,2.12418],[-59.72179,2.11636],[-59.72179,2.10353],[-59.7365,2.08893],[-59.74234,2.0736],[-59.74096,2.06295],[-59.73285,2.04689],[-59.72972,2.0303],[-59.7209,2.02778],[-59.72601,2.01969],[-59.73368,2.01838],[-59.73444,1.99963],[-60.15664,1.99964],[-60.16706,1.96679],[-60.16611,1.95856],[-60.18345,1.93807],[-60.19787,1.92643],[-60.19675,1.92367],[-60.21131,1.90868],[-60.22286,1.90387],[-60.22337,1.89157],[-60.23004,1.88366],[-60.25635,1.8663],[-60.27531,1.84761],[-60.28022,1.83758],[-60.30212,1.82749],[-60.32464,1.79999],[-60.33245,1.7962],[-60.34384,1.77705],[-60.3583,1.77625],[-60.36809,1.76126],[-60.37633,1.75895],[-60.37875,1.74685],[-60.38398,1.74747],[-60.38912,1.73692],[-60.40066,1.7398],[-60.40565,1.74652],[-60.41639,1.74658],[-60.46517,1.7314],[-60.4857,1.7293],[-60.4926,1.71959],[-60.49106,1.71041],[-60.52775,1.723],[-60.53695,1.70869],[-60.55737,1.71261],[-60.58362,1.70978],[-60.57742,1.72142],[-60.57376,1.7195],[-60.56384,1.73236],[-60.55509,1.73697],[-60.54543,1.75221],[-60.55931,1.77886],[-60.56912,1.78073],[-60.57515,1.79048],[-60.57898,1.81047],[-60.57581,1.8226],[-60.57753,1.8335],[-60.58981,1.85121],[-60.61692,1.86411],[-60.62542,1.86372],[-60.63859,1.87029],[-60.65483,1.89777],[-60.66695,1.89584],[-60.70701,1.90223],[-60.72456,1.89656],[-60.73962,1.89731],[-60.75007,1.90581],[-60.76037,1.93562],[-60.76045,1.95771],[-60.74832,1.97738],[-60.7424,1.99948],[-60.78876,1.99924],[-60.79823,1.99244],[-60.80484,1.99497],[-60.82826,1.98665],[-60.83084,1.98331],[-60.87337,1.9845],[-60.89859,1.97954],[-60.91387,1.98504],[-60.92926,1.98354],[-60.93887,1.96651],[-60.95495,1.96455],[-60.96792,1.95694],[-60.97813,1.94579],[-60.99795,1.95799],[-61.02051,1.98151],[-61.02212,1.99963],[-61.03254,2.00822],[-61.0374,2.0251],[-61.04532,2.03584],[-61.05146,2.05092],[-61.05299,2.06294],[-61.0481,2.08331],[-61.04123,2.09975],[-61.01592,2.145],[-61.00263,2.15778],[-60.97993,2.17483],[-60.95712,2.19434],[-60.93827,2.21528],[-60.95402,2.23722],[-60.98303,2.24972],[-60.99404,2.25956],[-61.0302,2.28277],[-61.04578,2.29676],[-61.05106,2.29805],[-61.0731,2.289],[-61.10871,2.28084],[-61.19432,2.25519],[-61.20308,2.25634],[-61.21976,2.27461],[-61.22701,2.27946],[-61.25218,2.27951],[-61.26564,2.27086],[-61.27695,2.26836],[-61.30553,2.27855],[-61.32643,2.27517],[-61.33871,2.26367],[-61.39629,2.38718],[-61.41155,2.40909],[-61.50789,2.45017],[-61.5774,2.4469],[-61.62362,2.453],[-61.68846,2.44386],[-61.72102,2.43683],[-61.77645,2.40296],[-61.7842,2.39438],[-61.79633,2.37359],[-61.81106,2.35395],[-61.83062,2.34646],[-61.83935,2.33871],[-61.84034,2.32526],[-61.85044,2.32428],[-61.87071,2.30125],[-61.8953,2.29544],[-61.91743,2.27067],[-61.93149,2.26041],[-61.98545,2.24027],[-62.00217,2.23039],[-62.03107,2.22162],[-62.07316,2.22165],[-62.13473,2.23659],[-62.1466,2.236],[-62.1529,2.224],[-62.1739,2.2248],[-62.1973,2.2231],[-62.2127,2.2167],[-62.2523,2.2158],[-62.2752,2.202],[-62.2908,2.2051],[-62.3004,2.1915],[-62.3374,2.1897],[-62.34045,2.19286],[-62.4096,2.1182],[-62.4117,2.1235],[-62.423,2.1102],[-62.4439,2.1083],[-62.4474,2.1117],[-62.4657,2.1075],[-62.4762,2.1126],[-62.4909,2.1086],[-62.5018,2.1111],[-62.5084,2.1199],[-62.5166,2.1164],[-62.5211,2.1062],[-62.5464,2.1048],[-62.5518,2.1194],[-62.5488,2.1279],[-62.5636,2.1302],[-62.5663,2.1404],[-62.5718,2.1403],[-62.576,2.1517],[-62.5835,2.1519],[-62.5925,2.1686],[-62.5932,2.1835],[-62.604,2.2038],[-62.5949,2.211],[-62.5982,2.2244],[-62.6084,2.2301],[-62.6124,2.2425],[-62.6204,2.2408],[-62.6259,2.2466],[-62.6514,2.2478],[-62.6661,2.2549],[-62.6938,2.2542],[-62.7102,2.2507],[-62.7248,2.2519],[-62.7469,2.2495],[-62.7581,2.2611],[-62.7793,2.2548],[-62.8073,2.2678],[-62.8179,2.2672],[-62.8241,2.2782],[-62.8189,2.2838],[-62.8322,2.2934],[-62.8342,2.3039],[-62.8425,2.2987],[-62.8554,2.3049],[-62.8631,2.3167],[-62.8799,2.3134],[-62.876,2.3224],[-62.8817,2.3321],[-62.8907,2.3329],[-62.8922,2.3408],[-62.9057,2.3393],[-62.9052,2.3343],[-62.9223,2.3313],[-62.9222,2.3397],[-62.937,2.3412],[-62.9376,2.3502],[-62.9448,2.3497],[-62.942,2.3598],[-62.9523,2.3722],[-62.9602,2.3701],[-62.9689,2.375],[-62.9714,2.3691],[-63.0052,2.3738],[-63.0116,2.3677],[-63.0237,2.3693],[-63.0339,2.3785],[-63.0418,2.3796],[-63.0455,2.3907],[-63.0405,2.4167],[-63.0436,2.4415],[-63.0504,2.4544],[-63.0618,2.4623],[-63.0599,2.4672],[-63.082,2.4613],[-63.0721,2.4748],[-63.0732,2.4834],[-63.0599,2.5105],[-63.0495,2.5249],[-63.06009,2.54317],[-63.0698,2.5463],[-63.0731,2.5534],[-63.0703,2.591],[-63.0603,2.5987],[-63.0384,2.6253],[-63.0346,2.6244],[-63.0283,2.6464],[-63.0329,2.6608],[-63.0008,2.6794],[-62.9917,2.6722],[-62.9712,2.6862],[-62.9667,2.6943],[-62.9558,2.6938],[-62.9477,2.7008],[-62.9357,2.7003],[-62.9271,2.7103],[-62.922,2.7082],[-62.91,2.7218],[-62.9147,2.7383],[-62.9049,2.7538],[-62.9125,2.7617],[-62.9322,2.7607],[-62.9525,2.7747],[-62.9575,2.772],[-62.9723,2.7764],[-62.9795,2.7918],[-62.9915,2.7971],[-63.0097,2.7963],[-63.015,2.8022],[-63.0274,2.789],[-63.0438,2.7987],[-63.0601,2.7922],[-63.0741,2.7801],[-63.0861,2.7881],[-63.0883,2.7823],[-63.0997,2.791],[-63.1141,2.7857],[-63.1165,2.7916],[-63.125,2.7878],[-63.1314,2.7939],[-63.1468,2.7923],[-63.1635,2.8031],[-63.1668,2.7979],[-63.1816,2.8086],[-63.1804,2.8128],[-63.1936,2.8196],[-63.2038,2.812],[-63.2182,2.8109],[-63.2317,2.8204],[-63.2493,2.8139],[-63.2648,2.8021],[-63.2738,2.8016],[-63.2764,2.7914],[-63.3,2.7744],[-63.3216,2.7802],[-63.3314,2.7751],[-63.3406,2.777],[-63.3556,2.7745],[-63.3619,2.753],[-63.3692,2.7626],[-63.3883,2.7569],[-63.4092,2.7669],[-63.4251,2.7777],[-63.4319,2.7739],[-63.4441,2.7788],[-63.4515,2.7658],[-63.461,2.7614],[-63.4595,2.7512],[-63.4655,2.74],[-63.4591,2.7322],[-63.4681,2.7268],[-63.464,2.722],[-63.4711,2.7178],[-63.4745,2.7049],[-63.4657,2.6943],[-63.4711,2.6863],[-63.4663,2.6809],[-63.4672,2.6651],[-63.4714,2.6665],[-63.4827,2.6574],[-63.4756,2.6349],[-63.4777,2.625],[-63.4732,2.6179],[-63.4769,2.6099],[-63.4853,2.6066],[-63.4952,2.591],[-63.505,2.5878],[-63.5239,2.5725],[-63.5547,2.5877],[-63.5625,2.5842],[-63.5721,2.5916],[-63.601,2.5886],[-63.6108,2.5905],[-63.6437,2.6216],[-63.6642,2.6084],[-63.66987,2.59742],[-63.68808,2.58823],[-63.77361,2.55184],[-63.95784,2.47044],[-63.96008,2.47313]]]},"properties":{"CD_REG":"140001","NM_REG":"Boa Vista","SIGLA_UF":"RR"}},{"type":"Feature","geometry":{"type":"Polygon","coordinates":[[[-64.1844,3.48931],[-64.18746,3.55545],[-64.19625,3.5789],[-64.20997,3.59462],[-64.24691,3.62767],[-64.25775,3.64768],[-64.27581,3.66129],[-64.28108,3.66934],[-64.28914,3.69962],[-64.33109,3.72296],[-64.33608,3.73073],[-64.35775,3.74129],[-64.36477,3.74715],[-64.39664,3.76239],[-64.40914,3.76573],[-64.42858,3.7799],[-64.44386,3.78378],[-64.45915,3.78129],[-64.47858,3.78323],[-64.48886,3.79045],[-64.50914,3.81497],[-64.52447,3.84191],[-64.55806,3.86851],[-64.56836,3.88176],[-64.58025,3.92829],[-64.60273,3.94292],[-64.6147,3.94657],[-64.62448,3.95647],[-64.63403,3.97504],[-64.65073,3.9919],[-64.67387,4.00462],[-64.68081,4.01629],[-64.68386,4.04018],[-64.70858,4.06656],[-64.72304,4.10491],[-64.73219,4.12018],[-64.75331,4.13684],[-64.78359,4.15268],[-64.80387,4.16712],[-64.81053,4.17462],[-64.82192,4.21185],[-64.82525,4.23878],[-64.82164,4.25851],[-64.79969,4.28407],[-64.78053,4.28656],[-64.7508,4.27406],[-64.7247,4.2599],[-64.6997,4.25017],[-64.6847,4.23934],[-64.65859,4.21157],[-64.6547,4.20434],[-64.64108,4.16518],[-64.63109,4.14351],[-64.62358,4.1349],[-64.59303,4.11406],[-64.5605,4.10157],[-64.54442,4.11378],[-64.52109,4.11628],[-64.5033,4.11045],[-64.50025,4.11268],[-64.46636,4.11878],[-64.45247,4.12323],[-64.43164,4.13462],[-64.40386,4.13212],[-64.38637,4.13712],[-64.33552,4.12907],[-64.30636,4.13128],[-64.2897,4.14379],[-64.27636,4.14379],[-64.26913,4.12796],[-64.26414,4.12546],[-64.25081,4.12962],[-64.2322,4.12379],[-64.21886,4.11545],[-64.19081,4.11657],[-64.17191,4.12879],[-64.14747,4.11017],[-64.13331,4.10601],[-64.11497,4.09379],[-64.10886,4.08546],[-64.09636,4.05351],[-64.09469,4.04268],[-64.09998,4.03462],[-64.0758,3.99962],[-64.05135,3.95434],[-64.0508,3.95017],[-64.03608,3.94406],[-64.0357,3.93426],[-64.00191,3.93296],[-63.99719,3.90351],[-63.98886,3.8974],[-63.97886,3.90045],[-63.96581,3.86823],[-63.96136,3.86989],[-63.95941,3.8874],[-63.95275,3.88657],[-63.94692,3.89962],[-63.93802,3.90129],[-63.93719,3.91489],[-63.92608,3.92601],[-63.91441,3.926],[-63.90135,3.93379],[-63.89108,3.93046],[-63.87163,3.93712],[-63.8622,3.94684],[-63.85442,3.94462],[-63.85025,3.9499],[-63.83524,3.9399],[-63.82358,3.94101],[-63.79664,3.93267],[-63.76608,3.93573],[-63.75692,3.94045],[-63.73803,3.92851],[-63.74386,3.92101],[-63.73356,3.91323],[-63.72775,3.91518],[-63.71414,3.90378],[-63.71108,3.9124],[-63.69691,3.91323],[-63.68275,3.9074],[-63.66413,3.92045],[-63.67442,3.92212],[-63.68247,3.93573],[-63.6933,3.93601],[-63.70053,3.94434],[-63.69497,3.95657],[-63.69635,3.96629],[-63.68608,3.99212],[-63.68941,3.99906],[-63.68552,4.00906],[-63.68942,4.01545],[-63.67692,4.01906],[-63.6758,4.01519],[-63.6608,4.00991],[-63.64941,3.99712],[-63.64413,3.97934],[-63.63442,3.97462],[-63.61747,3.95962],[-63.60886,3.94434],[-63.59219,3.92823],[-63.58803,3.9174],[-63.5933,3.90545],[-63.58469,3.89573],[-63.59191,3.88545],[-63.57163,3.88323],[-63.55469,3.89101],[-63.55524,3.87435],[-63.55191,3.8649],[-63.53941,3.86518],[-63.53497,3.85851],[-63.52358,3.85601],[-63.51108,3.84712],[-63.50246,3.84879],[-63.49635,3.84101],[-63.49497,3.85045],[-63.50302,3.86518],[-63.49386,3.86712],[-63.49136,3.87351],[-63.4808,3.87323],[-63.46913,3.86184],[-63.4508,3.85851],[-63.43469,3.8649],[-63.43802,3.88184],[-63.42941,3.89323],[-63.41802,3.90101],[-63.41192,3.91184],[-63.42052,3.92379],[-63.41635,3.93268],[-63.43302,3.93434],[-63.44274,3.93962],[-63.43942,3.94851],[-63.45219,3.95545],[-63.42886,3.97712],[-63.41358,3.97518],[-63.3933,3.98045],[-63.36136,3.96267],[-63.33857,3.95684],[-63.32469,3.96379],[-63.31136,3.96129],[-63.31497,3.96851],[-63.31108,3.98185],[-63.29247,3.97045],[-63.28663,3.97267],[-63.28303,3.95629],[-63.25413,3.96156],[-63.24802,3.95462],[-63.20497,3.95128],[-63.21247,3.93157],[-63.2133,3.9224],[-63.22219,3.89851],[-63.23358,3.88156],[-63.23219,3.85073],[-63.22663,3.83545],[-63.20441,3.81156],[-63.19581,3.81517],[-63.17969,3.81296],[-63.1683,3.80546],[-63.14552,3.80545],[-63.13578,3.8024],[-63.1233,3.80462],[-63.1033,3.79323],[-63.08691,3.77851],[-63.08413,3.7699],[-63.06857,3.75239],[-63.0608,3.75184],[-63.05913,3.74045],[-63.06357,3.73379],[-63.06357,3.7049],[-63.07052,3.69629],[-63.08136,3.69323],[-63.07302,3.68546],[-63.03247,3.66573],[-63.02691,3.65018],[-63.01691,3.64656],[-63.00329,3.62462],[-62.98607,3.6099],[-62.96635,3.61101],[-62.96135,3.60767],[-62.95253,3.61181],[-62.93636,3.62795],[-62.92163,3.65518],[-62.91747,3.67379],[-62.90607,3.67212],[-62.8869,3.68351],[-62.87247,3.69906],[-62.85468,3.71018],[-62.8383,3.73601],[-62.83246,3.73851],[-62.82302,3.73267],[-62.81024,3.73268],[-62.7908,3.71851],[-62.78496,3.69962],[-62.77607,3.69713],[-62.7708,3.68823],[-62.74857,3.67267],[-62.73857,3.68657],[-62.73135,3.7099],[-62.73496,3.71934],[-62.73413,3.73406],[-62.73997,3.75629],[-62.73552,3.77518],[-62.74302,3.7849],[-62.73329,3.79462],[-62.72913,3.80462],[-62.7433,3.80823],[-62.74997,3.8174],[-62.77247,3.836],[-62.77163,3.83962],[-62.75386,3.84963],[-62.75859,3.86074],[-62.7683,3.86629],[-62.77524,3.87962],[-62.78885,3.89323],[-62.78746,3.91462],[-62.78274,3.92351],[-62.78663,3.92934],[-62.76469,3.9399],[-62.75829,3.94573],[-62.75023,3.96603],[-62.7433,3.97212],[-62.7633,3.98545],[-62.76774,3.9974],[-62.76663,4.01239],[-62.74968,4.02073],[-62.75247,4.0324],[-62.73607,4.0399],[-62.72107,4.0349],[-62.68941,4.0324],[-62.68052,4.03796],[-62.65774,4.03628],[-62.64635,4.04628],[-62.6283,4.03934],[-62.60969,4.04406],[-62.60191,4.03628],[-62.58858,4.0324],[-62.57496,4.01517],[-62.55579,4.01823],[-62.5608,4.0249],[-62.56163,4.03768],[-62.54691,4.04545],[-62.53302,4.0474],[-62.54246,4.05962],[-62.54385,4.07962],[-62.55413,4.08212],[-62.55163,4.09323],[-62.54468,4.09768],[-62.55274,4.10878],[-62.52635,4.11489],[-62.52218,4.12017],[-62.53163,4.13629],[-62.51024,4.12685],[-62.50857,4.13711],[-62.49885,4.1424],[-62.4783,4.13073],[-62.47163,4.13906],[-62.4608,4.14268],[-62.46274,4.15128],[-62.45524,4.15573],[-62.46413,4.1635],[-62.4708,4.16295],[-62.46274,4.17795],[-62.44886,4.17434],[-62.43774,4.18295],[-62.40635,4.17989],[-62.39274,4.17351],[-62.38969,4.17796],[-62.3772,4.16658],[-62.36552,4.16267],[-62.35358,4.16518],[-62.35052,4.15073],[-62.3419,4.14684],[-62.32746,4.13434],[-62.31801,4.14073],[-62.30274,4.13656],[-62.29441,4.14128],[-62.27996,4.12962],[-62.27079,4.13129],[-62.2483,4.12518],[-62.24746,4.1185],[-62.23496,4.11823],[-62.22885,4.11239],[-62.21551,4.10907],[-62.19718,4.11295],[-62.19385,4.09823],[-62.17746,4.09018],[-62.16191,4.09045],[-62.16163,4.086],[-62.14357,4.07517],[-62.14218,4.08211],[-62.1333,4.08712],[-62.11441,4.08796],[-62.11219,4.09239],[-62.11774,4.10435],[-62.11746,4.11739],[-62.10718,4.11489],[-62.09857,4.11906],[-62.09996,4.12462],[-62.09135,4.12907],[-62.07856,4.11936],[-62.07107,4.13045],[-62.08162,4.14462],[-62.07691,4.15378],[-62.06496,4.15851],[-62.04829,4.15018],[-62.03273,4.15795],[-62.02913,4.15018],[-62.0219,4.15712],[-62.01163,4.156],[-62.00663,4.16462],[-62.00052,4.16406],[-61.99329,4.1749],[-61.98302,4.18045],[-61.98107,4.16184],[-61.97524,4.151],[-61.96441,4.14267],[-61.94857,4.12157],[-61.94662,4.11267],[-61.93079,4.10323],[-61.93107,4.11545],[-61.92691,4.12046],[-61.92302,4.15572],[-61.90635,4.15657],[-61.89996,4.16073],[-61.88662,4.15351],[-61.8733,4.15128],[-61.86941,4.15824],[-61.87496,4.17017],[-61.85135,4.17406],[-61.84662,4.16434],[-61.83691,4.16018],[-61.81885,4.16767],[-61.81579,4.18851],[-61.82051,4.20045],[-61.80885,4.2024],[-61.80663,4.21628],[-61.80135,4.21879],[-61.80246,4.22823],[-61.78996,4.23156],[-61.78579,4.22407],[-61.76412,4.23212],[-61.77551,4.24657],[-61.75051,4.25518],[-61.73773,4.25684],[-61.73607,4.26324],[-61.72412,4.26934],[-61.7244,4.25796],[-61.73134,4.25101],[-61.72356,4.24434],[-61.70357,4.25462],[-61.68079,4.25406],[-61.67357,4.26129],[-61.65829,4.26156],[-61.64691,4.2524],[-61.64246,4.23795],[-61.6319,4.24101],[-61.62746,4.25379],[-61.62162,4.25017],[-61.60829,4.261],[-61.60107,4.24962],[-61.59079,4.24406],[-61.57357,4.25045],[-61.5619,4.25102],[-61.55496,4.26323],[-61.5419,4.27267],[-61.53246,4.28462],[-61.52496,4.28711],[-61.52635,4.29434],[-61.51302,4.30934],[-61.50829,4.32185],[-61.52107,4.32545],[-61.52746,4.34212],[-61.51746,4.34796],[-61.52079,4.35962],[-61.52079,4.38573],[-61.51579,4.38962],[-61.51829,4.39823],[-61.51357,4.40545],[-61.48635,4.41045],[-61.47246,4.42434],[-61.46273,4.4274],[-61.46218,4.43628],[-61.44829,4.43907],[-61.43579,4.43239],[-61.43913,4.42406],[-61.42829,4.42573],[-61.42218,4.43351],[-61.40802,4.43045],[-61.4044,4.42462],[-61.39219,4.42351],[-61.37246,4.42712],[-61.35162,4.41879],[-61.33857,4.42073],[-61.3369,4.42823],[-61.3194,4.43017],[-61.32523,4.4424],[-61.3144,4.45101],[-61.31329,4.45767],[-61.28829,4.45739],[-61.28857,4.46323],[-61.2794,4.46934],[-61.27884,4.47795],[-61.29579,4.48073],[-61.29718,4.49351],[-61.30635,4.49601],[-61.31023,4.50263],[-61.32315,4.50459],[-61.3297,4.51571],[-61.32321,4.53489],[-61.28532,4.53759],[-61.27604,4.52797],[-61.26979,4.53966],[-61.257,4.53658],[-61.25292,4.5254],[-61.24755,4.53316],[-61.22153,4.52173],[-61.21784,4.53326],[-61.20169,4.51591],[-61.19572,4.52006],[-61.17804,4.51191],[-61.16067,4.49512],[-61.15183,4.49587],[-61.14931,4.48316],[-61.13413,4.49018],[-61.12564,4.50567],[-61.10365,4.51261],[-61.094,4.52283],[-61.08339,4.51769],[-61.07282,4.51803],[-61.065,4.52317],[-61.04172,4.52308],[-61.0228,4.52013],[-61.01709,4.51487],[-61.00682,4.51875],[-60.99788,4.5156],[-60.99301,4.52174],[-60.99447,4.53264],[-60.98679,4.53169],[-60.98486,4.54267],[-60.97754,4.54133],[-60.95791,4.54516],[-60.953,4.55999],[-60.95628,4.58167],[-60.93934,4.57991],[-60.9337,4.58496],[-60.9379,4.60234],[-60.93334,4.61673],[-60.93921,4.63401],[-60.95074,4.63754],[-60.94758,4.65554],[-60.93399,4.65622],[-60.93095,4.66162],[-60.91959,4.66335],[-60.90992,4.68899],[-60.91329,4.69715],[-60.8994,4.71819],[-60.87797,4.71598],[-60.87126,4.70961],[-60.85107,4.70294],[-60.83394,4.72248],[-60.83593,4.72755],[-60.81945,4.72516],[-60.81516,4.7281],[-60.81054,4.74388],[-60.78511,4.75389],[-60.7751,4.75217],[-60.76567,4.7579],[-60.75093,4.75369],[-60.73958,4.76978],[-60.72088,4.77738],[-60.72705,4.78824],[-60.71968,4.79962],[-60.70523,4.80962],[-60.69607,4.81045],[-60.68606,4.82629],[-60.67635,4.83129],[-60.67245,4.84073],[-60.65912,4.84906],[-60.65634,4.86517],[-60.64829,4.86879],[-60.65245,4.88462],[-60.62884,4.88879],[-60.62578,4.90407],[-60.60884,4.92406],[-60.5919,4.92684],[-60.58968,4.94268],[-60.58412,4.95573],[-60.59329,4.97378],[-60.59579,4.99156],[-60.60384,5.00334],[-60.6137,5.00815],[-60.61151,5.01517],[-60.62606,5.03101],[-60.63199,5.05004],[-60.64496,5.05851],[-60.64176,5.06942],[-60.64129,5.0894],[-60.64524,5.09601],[-60.6409,5.10976],[-60.64878,5.119],[-60.6544,5.1124],[-60.65835,5.13389],[-60.65706,5.15598],[-60.66123,5.16373],[-60.6804,5.17937],[-60.68081,5.18859],[-60.69467,5.19709],[-60.70162,5.19434],[-60.71828,5.1956],[-60.73634,5.20184],[-60.72329,5.21989],[-60.7094,5.21851],[-60.69718,5.22878],[-60.6755,5.23184],[-60.65995,5.22684],[-60.65218,5.23046],[-60.63968,5.22045],[-60.62496,5.21517],[-60.61468,5.21823],[-60.60357,5.21517],[-60.59217,5.21739],[-60.5905,5.20739],[-60.57717,5.19795],[-60.54579,5.19406],[-60.53967,5.20267],[-60.51912,5.20795],[-60.5005,5.20268],[-60.46968,5.20295],[-60.46356,5.19906],[-60.44968,5.20018],[-60.44662,5.18406],[-60.4344,5.18129],[-60.41801,5.19545],[-60.41801,5.20573],[-60.4119,5.21406],[-60.40662,5.21072],[-60.38412,5.22184],[-60.37079,5.21323],[-60.36717,5.20434],[-60.35607,5.20962],[-60.34884,5.2049],[-60.33662,5.20795],[-60.32829,5.20545],[-60.31356,5.21045],[-60.30635,5.22489],[-60.28884,5.22795],[-60.27106,5.23434],[-60.26412,5.25101],[-60.24607,5.25185],[-60.23523,5.26268],[-60.22662,5.26379],[-60.21245,5.27184],[-60.20217,5.26656],[-60.19273,5.2499],[-60.19523,5.23823],[-60.17106,5.22656],[-60.15634,5.23296],[-60.13801,5.24878],[-60.13523,5.24823],[-60.13273,5.22489],[-60.12024,5.20741],[-60.10689,5.19407],[-60.10134,5.16074],[-60.09578,5.14073],[-60.08468,5.14156],[-60.07606,5.13735],[-60.06397,5.13774],[-60.04607,5.10656],[-60.03527,5.10782],[-60.01844,5.08904],[-59.99801,5.08226],[-59.99343,5.08648],[-59.97198,5.07488],[-59.97033,5.06367],[-59.97763,5.05412],[-59.97529,5.02896],[-59.98004,5.01627],[-59.98571,5.01815],[-59.98965,5.00062],[-59.98682,4.97895],[-59.99411,4.96475],[-59.98962,4.95397],[-59.99401,4.94999],[-59.9935,4.93411],[-60.0018,4.91676],[-60.0064,4.87726],[-60.0102,4.87306],[-60.0092,4.86096],[-60.0133,4.84376],[-60.0251,4.83226],[-60.0279,4.81716],[-60.02256,4.81344],[-60.031,4.80746],[-60.036,4.79096],[-60.0218,4.78286],[-60.0265,4.76356],[-60.0254,4.74306],[-60.03944,4.72442],[-60.02752,4.71446],[-60.02586,4.70565],[-60.04144,4.6954],[-60.0755,4.65536],[-60.0703,4.63796],[-60.0757,4.63526],[-60.0704,4.61696],[-60.0767,4.61616],[-60.0892,4.60576],[-60.1007,4.60376],[-60.1079,4.60786],[-60.113,4.60236],[-60.1229,4.60496],[-60.1311,4.59516],[-60.1269,4.57516],[-60.1394,4.57996],[-60.1363,4.56486],[-60.145,4.56636],[-60.1495,4.57496],[-60.156,4.57416],[-60.161,4.55556],[-60.1539,4.54856],[-60.1615,4.51776],[-60.1506,4.51146],[-60.1373,4.51456],[-60.1221,4.50176],[-60.1071,4.50446],[-60.0978,4.51366],[-60.1048,4.52336],[-60.091,4.53306],[-60.0831,4.52846],[-60.0869,4.51846],[-60.0781,4.52416],[-60.0665,4.52316],[-60.07137,4.49366],[-60.04527,4.49454],[-60.03429,4.49017],[-60.0238,4.49421],[-60.0191,4.48986],[-60.00236,4.49505],[-59.98942,4.48573],[-59.9817,4.48779],[-59.97433,4.48071],[-59.972,4.50926],[-59.95227,4.50024],[-59.9358,4.49925],[-59.92636,4.49101],[-59.92949,4.48028],[-59.91214,4.47863],[-59.91627,4.46752],[-59.90546,4.45958],[-59.8984,4.47836],[-59.88042,4.47482],[-59.87576,4.48686],[-59.87482,4.4783],[-59.86414,4.4731],[-59.87181,4.46227],[-59.8624,4.45256],[-59.8489,4.45276],[-59.833,4.45806],[-59.8318,4.45176],[-59.81261,4.44636],[-59.80716,4.45268],[-59.8032,4.46735],[-59.79403,4.46318],[-59.7966,4.45056],[-59.78543,4.45023],[-59.76626,4.43731],[-59.755,4.42056],[-59.73588,4.42375],[-59.7263,4.41006],[-59.7233,4.41126],[-59.71421,4.39626],[-59.69343,4.37977],[-59.68616,4.38535],[-59.66994,4.37511],[-59.68039,4.36841],[-59.6835,4.36036],[-59.67616,4.34693],[-59.69076,4.33516],[-59.70644,4.31458],[-59.70351,4.30853],[-59.71918,4.30206],[-59.7319,4.28647],[-59.73027,4.2681],[-59.72036,4.27444],[-59.71092,4.26621],[-59.71784,4.26277],[-59.73949,4.23553],[-59.73568,4.22786],[-59.73897,4.21539],[-59.72781,4.18659],[-59.73115,4.18106],[-59.71525,4.16646],[-59.70181,4.15999],[-59.6836,4.14636],[-59.66571,4.1437],[-59.6552,4.14636],[-59.6414,4.14366],[-59.6264,4.13696],[-59.62309,4.12942],[-59.63919,4.09437],[-59.65405,4.06924],[-59.64215,4.06722],[-59.6285,4.05206],[-59.6181,4.05161],[-59.61975,4.03783],[-59.60165,4.02888],[-59.60138,4.01598],[-59.61381,4.01747],[-59.6073,4.00699],[-59.59712,4.01691],[-59.59188,4.00792],[-59.59672,4.00321],[-59.58803,3.99391],[-59.5811,4.00253],[-59.57201,3.98662],[-59.5867,3.97526],[-59.58413,3.96829],[-59.56615,3.96945],[-59.55571,3.97943],[-59.5446,3.97806],[-59.54452,3.97275],[-59.52668,3.9685],[-59.51616,3.94617],[-59.52615,3.93915],[-59.52648,3.92462],[-59.53811,3.93197],[-59.53988,3.92403],[-59.54951,3.91852],[-59.56042,3.92075],[-59.56545,3.91631],[-59.56944,3.89012],[-59.59115,3.88817],[-59.59436,3.88245],[-59.59021,3.86784],[-59.5925,3.85893],[-59.58634,3.8344],[-59.5779,3.83156],[-59.57831,3.81626],[-59.58697,3.82224],[-59.59854,3.81185],[-59.5941,3.80756],[-59.59707,3.79382],[-59.612,3.80336],[-59.61799,3.79139],[-59.62935,3.78424],[-59.62982,3.79874],[-59.64024,3.78435],[-59.64748,3.78729],[-59.66458,3.78228],[-59.67324,3.76102],[-59.6797,3.75808],[-59.6731,3.75206],[-59.67518,3.74473],[-59.6642,3.7347],[-59.67172,3.72813],[-59.66263,3.715],[-59.66831,3.70361],[-59.67952,3.69669],[-59.68781,3.69948],[-59.69313,3.68855],[-59.7047,3.68914],[-59.71694,3.67676],[-59.72069,3.66589],[-59.7394,3.66156],[-59.75222,3.65286],[-59.75964,3.63318],[-59.7672,3.63326],[-59.76438,3.62624],[-59.77414,3.6261],[-59.78799,3.61679],[-59.79625,3.61955],[-59.81116,3.61696],[-59.81579,3.61172],[-59.82427,3.61338],[-59.8352,3.6073],[-59.85161,3.60318],[-59.85161,3.59435],[-59.85884,3.58064],[-59.86617,3.5755],[-59.8588,3.57162],[-59.8727,3.56384],[-59.88578,3.56379],[-59.89245,3.57518],[-59.9055,3.58629],[-59.923,3.57851],[-59.93606,3.55935],[-59.94356,3.56046],[-59.94856,3.5699],[-59.95828,3.57268],[-59.97217,3.55823],[-59.98438,3.5538],[-59.99984,3.55274],[-60.01579,3.54324],[-60.02745,3.5399],[-60.03689,3.52767],[-60.05245,3.52712],[-60.08328,3.49351],[-60.09773,3.48546],[-60.11995,3.47657],[-60.13939,3.46101],[-60.15606,3.46268],[-60.17745,3.44351],[-60.18579,3.41713],[-60.19717,3.40685],[-60.2269,3.40045],[-60.24245,3.39379],[-60.26412,3.39268],[-60.29523,3.38712],[-60.31495,3.37602],[-60.32134,3.36907],[-60.32579,3.39601],[-60.31884,3.41795],[-60.30245,3.42406],[-60.29717,3.43129],[-60.29967,3.43795],[-60.28578,3.44962],[-60.28912,3.46407],[-60.30189,3.47657],[-60.29939,3.48657],[-60.30828,3.49129],[-60.31078,3.50823],[-60.32246,3.50712],[-60.32995,3.5149],[-60.32106,3.52296],[-60.32385,3.53157],[-60.33856,3.54601],[-60.3519,3.55157],[-60.35884,3.54185],[-60.37273,3.54795],[-60.38161,3.5574],[-60.3769,3.56407],[-60.39579,3.57267],[-60.40856,3.56851],[-60.41023,3.58017],[-60.41831,3.57753],[-60.42732,3.58499],[-60.45062,3.5801],[-60.45379,3.59012],[-60.47579,3.60605],[-60.48343,3.60566],[-60.48497,3.5939],[-60.49209,3.58135],[-60.50829,3.57288],[-60.51662,3.556],[-60.51434,3.54284],[-60.52818,3.5543],[-60.53798,3.52589],[-60.55298,3.51864],[-60.55406,3.5072],[-60.54662,3.50148],[-60.55407,3.47803],[-60.57851,3.47893],[-60.57898,3.46983],[-60.59856,3.45725],[-60.6064,3.44846],[-60.60004,3.42978],[-60.60109,3.41053],[-60.59537,3.40022],[-60.60475,3.40313],[-60.61956,3.42194],[-60.6266,3.42709],[-60.65418,3.43663],[-60.66659,3.45441],[-60.69587,3.47335],[-60.70901,3.47452],[-60.72737,3.48124],[-60.74315,3.49832],[-60.76887,3.4994],[-60.78817,3.49563],[-60.80103,3.48487],[-60.83246,3.48391],[-60.85012,3.47756],[-60.87087,3.48233],[-60.89285,3.47691],[-60.90795,3.46364],[-60.91886,3.46618],[-60.9304,3.48001],[-60.94904,3.47918],[-60.98637,3.46037],[-60.99171,3.45222],[-61.0069,3.44351],[-61.02162,3.43851],[-61.04273,3.4388],[-61.05356,3.44185],[-61.06662,3.43795],[-61.09357,3.43546],[-61.13579,3.4349],[-61.15356,3.44962],[-61.17495,3.45268],[-61.18774,3.44879],[-61.20079,3.45102],[-61.21885,3.44962],[-61.2394,3.43962],[-61.26773,3.40018],[-61.2794,3.38963],[-61.29135,3.38434],[-61.30912,3.36907],[-61.31662,3.35685],[-61.33023,3.35935],[-61.3494,3.35379],[-61.36218,3.36073],[-61.38079,3.36491],[-61.40579,3.35018],[-61.45606,3.34824],[-61.47579,3.3374],[-61.48246,3.34129],[-61.49468,3.3349],[-61.50579,3.32185],[-61.50746,3.31435],[-61.51968,3.30712],[-61.53245,3.31045],[-61.53607,3.30185],[-61.54218,3.3024],[-61.55134,3.31296],[-61.56495,3.30657],[-61.57274,3.3124],[-61.59801,3.31157],[-61.61412,3.33045],[-61.61718,3.34074],[-61.62523,3.34962],[-61.62634,3.35713],[-61.63773,3.3474],[-61.6819,3.32212],[-61.6919,3.32101],[-61.69912,3.33129],[-61.7119,3.33518],[-61.71135,3.32852],[-61.71857,3.32212],[-61.73052,3.3199],[-61.75912,3.32018],[-61.77385,3.32768],[-61.79801,3.33018],[-61.82385,3.32212],[-61.83107,3.30907],[-61.8269,3.30435],[-61.83773,3.30073],[-61.84079,3.28213],[-61.84912,3.26379],[-61.86857,3.26824],[-61.87135,3.27629],[-61.88773,3.28213],[-61.89357,3.29129],[-61.91051,3.29046],[-61.92385,3.28045],[-61.93274,3.28851],[-61.94413,3.27824],[-61.9433,3.26712],[-61.94968,3.26379],[-61.94718,3.25657],[-61.96302,3.2524],[-61.96996,3.26129],[-61.99912,3.25546],[-62.00829,3.24851],[-62.01719,3.24907],[-62.0333,3.2574],[-62.04635,3.25851],[-62.05191,3.26462],[-62.0608,3.26352],[-62.07218,3.25157],[-62.08218,3.24741],[-62.08912,3.25046],[-62.09774,3.24379],[-62.11579,3.23657],[-62.13051,3.23463],[-62.14246,3.21963],[-62.16413,3.2074],[-62.16635,3.20018],[-62.18024,3.19407],[-62.18496,3.18684],[-62.19941,3.18406],[-62.20107,3.17545],[-62.21135,3.17018],[-62.21385,3.16295],[-62.22746,3.15824],[-62.23274,3.16018],[-62.24274,3.15213],[-62.24107,3.14463],[-62.2494,3.1374],[-62.26968,3.14212],[-62.27218,3.14823],[-62.28802,3.15212],[-62.29884,3.14601],[-62.31023,3.14546],[-62.32219,3.15434],[-62.3408,3.15157],[-62.35024,3.15518],[-62.37524,3.1399],[-62.38801,3.14046],[-62.39108,3.13296],[-62.41054,3.12575],[-62.4169,3.12935],[-62.43218,3.12434],[-62.44746,3.1324],[-62.45274,3.1524],[-62.44885,3.15934],[-62.4569,3.18601],[-62.46857,3.1899],[-62.47218,3.20101],[-62.50052,3.20684],[-62.52413,3.21574],[-62.54302,3.22796],[-62.55693,3.23323],[-62.56941,3.22907],[-62.60858,3.23574],[-62.62302,3.24379],[-62.6283,3.2399],[-62.63635,3.24851],[-62.64552,3.23768],[-62.64913,3.24018],[-62.69135,3.2199],[-62.73719,3.23879],[-62.76191,3.24101],[-62.77357,3.23712],[-62.79635,3.23851],[-62.81052,3.24824],[-62.8258,3.24767],[-62.83858,3.26463],[-62.86052,3.27101],[-62.87804,3.28435],[-62.90219,3.29351],[-62.91941,3.30795],[-62.93302,3.31296],[-62.94469,3.31157],[-62.96274,3.31963],[-62.97552,3.3424],[-63.00051,3.34436],[-63.01052,3.35379],[-63.01107,3.36768],[-63.02413,3.37962],[-63.02246,3.38462],[-63.02941,3.39545],[-63.05552,3.4199],[-63.06552,3.41712],[-63.06885,3.42574],[-63.0933,3.44018],[-63.10357,3.44268],[-63.11608,3.46462],[-63.12886,3.46546],[-63.14858,3.47906],[-63.14413,3.48156],[-63.15218,3.49962],[-63.16413,3.50851],[-63.17441,3.52351],[-63.17608,3.54073],[-63.16663,3.54962],[-63.16747,3.56518],[-63.15886,3.58628],[-63.16052,3.59379],[-63.14997,3.6024],[-63.15552,3.61296],[-63.1558,3.62268],[-63.16996,3.63712],[-63.18302,3.64601],[-63.1808,3.6574],[-63.18636,3.67323],[-63.20302,3.6824],[-63.22163,3.67601],[-63.2258,3.68185],[-63.24969,3.6799],[-63.26191,3.68684],[-63.27218,3.68795],[-63.27691,3.68156],[-63.27302,3.64879],[-63.27441,3.63712],[-63.28052,3.62796],[-63.27524,3.61046],[-63.28774,3.59462],[-63.29857,3.59017],[-63.30524,3.58129],[-63.32303,3.57462],[-63.34719,3.58851],[-63.34747,3.60434],[-63.34219,3.6099],[-63.35246,3.6249],[-63.36636,3.61407],[-63.37969,3.61712],[-63.39469,3.61573],[-63.42025,3.62768],[-63.43246,3.63823],[-63.44886,3.64768],[-63.45747,3.66295],[-63.48774,3.66712],[-63.50635,3.67851],[-63.51024,3.68712],[-63.52886,3.68101],[-63.55191,3.68323],[-63.57385,3.70712],[-63.56802,3.71712],[-63.56997,3.72823],[-63.59413,3.73907],[-63.61052,3.73712],[-63.63302,3.74212],[-63.63885,3.74018],[-63.6508,3.72518],[-63.67747,3.71462],[-63.69108,3.71628],[-63.71302,3.69795],[-63.71108,3.68629],[-63.71858,3.67934],[-63.71719,3.65934],[-63.72191,3.65018],[-63.73469,3.61434],[-63.74247,3.58518],[-63.7408,3.5699],[-63.75497,3.56268],[-63.76747,3.5599],[-63.7708,3.55073],[-63.78608,3.5449],[-63.79053,3.5299],[-63.8033,3.54156],[-63.81164,3.52268],[-63.82192,3.51907],[-63.82525,3.50907],[-63.83497,3.50073],[-63.83052,3.49546],[-63.8458,3.45573],[-63.85219,3.4474],[-63.87274,3.43545],[-63.87108,3.42851],[-63.88608,3.42573],[-63.88747,3.41907],[-63.89914,3.41963],[-63.92608,3.43684],[-63.93441,3.44517],[-63.95636,3.4474],[-63.96572,3.44437],[-63.96886,3.43434],[-63.98274,3.43601],[-64.00053,3.43351],[-64.01386,3.44851],[-64.02775,3.4524],[-64.0347,3.46018],[-64.04275,3.45934],[-64.06275,3.47545],[-64.07247,3.48073],[-64.0911,3.48211],[-64.10747,3.47545],[-64.12497,3.47739],[-64.14108,3.47351],[-64.15974,3.47889],[-64.1844,3.48931]]]},"properties":{"CD_REG":"140002","NM_REG":"Pacaraima","SIGLA_UF":"RR"}},{"type":"Feature","geometry":{"type":"Polygon","coordinates":[[[-59.41272,1.55158],[-59.39828,1.55713],[-59.39494,1.55352],[-59.39439,1.53714],[-59.37884,1.52074],[-59.38328,1.50796],[-59.373,1.5063],[-59.358,1.51185],[-59.35883,1.51797],[-59.33967,1.51825],[-59.32994,1.5138],[-59.33245,1.50575],[-59.32161,1.48214],[-59.328,1.47352],[-59.32494,1.4613],[-59.31412,1.46019],[-59.3105,1.46603],[-59.30161,1.46491],[-59.28411,1.44964],[-59.28856,1.44464],[-59.27522,1.41963],[-59.283,1.41047],[-59.27216,1.40658],[-59.26939,1.40047],[-59.25939,1.39685],[-59.25328,1.38825],[-59.23383,1.3863],[-59.2255,1.37686],[-59.20772,1.3713],[-59.19657,1.37823],[-59.18744,1.37463],[-59.17689,1.36048],[-59.16106,1.35908],[-59.15272,1.3488],[-59.14605,1.34713],[-59.13161,1.35241],[-59.11856,1.34268],[-59.10272,1.34824],[-59.08995,1.3463],[-59.08716,1.33853],[-59.07022,1.32963],[-59.06772,1.33464],[-59.05605,1.33353],[-59.04855,1.32269],[-59.02106,1.33102],[-59.01328,1.3238],[-58.99383,1.32713],[-58.97883,1.30158],[-58.973,1.30935],[-58.943,1.31603],[-58.92356,1.31797],[-58.9155,1.3138],[-58.91633,1.30408],[-58.92383,1.29352],[-58.91853,1.28491],[-58.89884,1.27936],[-58.88688,1.26019],[-58.9055,1.24991],[-58.90467,1.2413],[-58.91216,1.23824],[-58.8955,1.22769],[-58.89556,0.59222],[-58.89546,0.26351],[-59.26341,0.26353],[-60.03797,0.26355],[-60.04683,0.23213],[-60.04794,0.21657],[-60.05381,0.18125],[-60.05904,0.17296],[-60.05908,0.163],[-60.07325,0.14992],[-60.08102,0.14771],[-60.09784,0.13529],[-60.1105,0.13495],[-60.13361,0.10348],[-60.1338,0.09522],[-60.12139,0.08804],[-60.1231,0.07905],[-60.13224,0.06444],[-60.12784,0.0617],[-60.13107,0.05105],[-60.13996,0.04543],[-60.14065,0.03482],[-60.13258,0.02769],[-60.14001,0.0271],[-60.14881,0.01679],[-60.15697,0.01655],[-60.15951,0.00683],[-60.17275,-0.00515],[-60.18423,-0.0113],[-60.20422,-0.02992],[-60.20642,-0.04062],[-60.2136,-0.04673],[-60.2155,-0.05777],[-60.21067,-0.06295],[-60.2245,-0.07957],[-60.2393,-0.1123],[-60.23437,-0.11135],[-60.22761,-0.12171],[-60.22116,-0.14198],[-60.23558,-0.15014],[-60.243,-0.15888],[-60.25361,-0.16445],[-60.25752,-0.1731],[-60.2688,-0.17652],[-60.26685,-0.19563],[-60.2776,-0.19319],[-60.28126,-0.21009],[-60.29333,-0.21527],[-60.297,-0.20623],[-60.30052,-0.21195],[-60.29451,-0.22485],[-60.29651,-0.24953],[-60.30022,-0.2594],[-60.31043,-0.26213],[-60.30223,-0.27083],[-60.30144,-0.28143],[-60.29279,-0.29047],[-60.30428,-0.30376],[-60.30643,-0.31749],[-60.30301,-0.32394],[-60.31508,-0.32658],[-60.32636,-0.33899],[-60.31913,-0.34852],[-60.31947,-0.3582],[-60.325,-0.36255],[-60.32676,-0.38092],[-60.33716,-0.38175],[-60.33741,-0.39049],[-60.35177,-0.40931],[-60.34317,-0.41761],[-60.3465,-0.43794],[-60.36472,-0.45226],[-60.38266,-0.45924],[-60.38373,-0.47625],[-60.3914,-0.48939],[-60.38915,-0.49858],[-60.39771,-0.50215],[-60.40557,-0.51544],[-60.4001,-0.51749],[-60.39849,-0.54104],[-60.39433,-0.55081],[-60.38275,-0.55384],[-60.38173,-0.56547],[-60.37655,-0.56982],[-60.38915,-0.57612],[-60.38153,-0.58848],[-60.36785,-0.58179],[-60.36917,-0.58931],[-60.36032,-0.5984],[-60.35363,-0.61736],[-60.3443,-0.61878],[-60.32944,-0.63495],[-60.31527,-0.63647],[-60.31908,-0.64951],[-60.30535,-0.66647],[-60.31171,-0.682],[-60.3033,-0.68801],[-60.30413,-0.70042],[-60.31146,-0.71845],[-60.32368,-0.71713],[-60.34669,-0.73961],[-60.35676,-0.73375],[-60.36423,-0.74288],[-60.37142,-0.73184],[-60.38358,-0.73912],[-60.3852,-0.75358],[-60.39683,-0.74811],[-60.40567,-0.75158],[-60.42634,-0.77117],[-60.43054,-0.76599],[-60.4474,-0.76443],[-60.456,-0.76878],[-60.46753,-0.7614],[-60.47486,-0.7616],[-60.49783,-0.78065],[-60.4903,-0.79052],[-60.49323,-0.81143],[-60.50652,-0.8148],[-60.51835,-0.82668],[-60.50394,-0.83303],[-60.50286,-0.8407],[-60.51913,-0.85951],[-60.53621,-0.86948],[-60.5429,-0.86327],[-60.55707,-0.8619],[-60.5582,-0.85076],[-60.57388,-0.84988],[-60.58801,-0.84329],[-60.59358,-0.85052],[-60.59592,-0.86625],[-60.6207,-0.85155],[-60.62143,-0.86405],[-60.63281,-0.86146],[-60.63819,-0.87382],[-60.64708,-0.87192],[-60.6635,-0.8812],[-60.66912,-0.88794],[-60.67249,-0.87001],[-60.68427,-0.86547],[-60.69692,-0.86909],[-60.70494,-0.86088],[-60.72724,-0.86051],[-60.72851,-0.85304],[-60.73565,-0.85213],[-60.74122,-0.85848],[-60.75026,-0.8554],[-60.75165,-0.86251],[-60.76091,-0.86352],[-60.76592,-0.85711],[-60.76201,-0.84859],[-60.76329,-0.83433],[-60.76906,-0.82466],[-60.76319,-0.81264],[-60.76955,-0.80082],[-60.7565,-0.79119],[-60.76016,-0.78733],[-60.7779,-0.7889],[-60.78811,-0.78254],[-60.77766,-0.77434],[-60.77243,-0.7544],[-60.78342,-0.74663],[-60.80619,-0.74009],[-60.80903,-0.72523],[-60.80307,-0.72298],[-60.80434,-0.71184],[-60.8102,-0.70285],[-60.80717,-0.69425],[-60.81519,-0.69035],[-60.84274,-0.68595],[-60.85516,-0.68634],[-60.86141,-0.67041],[-60.8577,-0.65546],[-60.8618,-0.64549],[-60.87148,-0.63826],[-60.89151,-0.6453],[-60.91966,-0.62038],[-60.91741,-0.61256],[-60.92767,-0.60552],[-60.92699,-0.5894],[-60.92132,-0.57904],[-60.92415,-0.56301],[-60.93363,-0.54787],[-60.9477,-0.55803],[-60.96002,-0.55246],[-60.98367,-0.56174],[-60.99481,-0.56106],[-61.00468,-0.55441],[-61.0252,-0.54972],[-61.03048,-0.54249],[-61.03898,-0.54689],[-61.05687,-0.54386],[-61.06527,-0.53428],[-61.06586,-0.52148],[-61.07905,-0.50614],[-61.09752,-0.49901],[-61.1068,-0.4992],[-61.11794,-0.50663],[-61.13348,-0.49695],[-61.15039,-0.50204],[-61.15811,-0.49832],[-61.16134,-0.51259],[-61.16886,-0.5163],[-61.18489,-0.50673],[-61.19906,-0.50819],[-61.21147,-0.4991],[-61.2231,-0.49989],[-61.22926,-0.51679],[-61.22105,-0.52891],[-61.22945,-0.53868],[-61.22769,-0.55099],[-61.23405,-0.56194],[-61.27753,-0.57562],[-61.2919,-0.57357],[-61.3092,-0.57904],[-61.32894,-0.59722],[-61.34653,-0.59409],[-61.35953,-0.59692],[-61.37292,-0.60758],[-61.39236,-0.61422],[-61.40712,-0.62849],[-61.43351,-0.63303],[-61.42872,-0.64955],[-61.43869,-0.65649],[-61.45813,-0.65473],[-61.46517,-0.6602],[-61.47377,-0.67965],[-61.47827,-0.70476],[-61.48462,-0.71688],[-61.51052,-0.7415],[-61.53006,-0.74854],[-61.53563,-0.7544],[-61.53983,-0.77824],[-61.54736,-0.79515],[-61.54843,-0.83355],[-61.53778,-0.84391],[-61.55674,-0.86492],[-61.55234,-0.88945],[-61.56583,-0.89756],[-61.57648,-0.91114],[-61.57844,-0.92736],[-61.58274,-0.93694],[-61.5756,-0.95472],[-61.58078,-0.97798],[-61.56993,-0.98579],[-61.55098,-0.98315],[-61.54267,-0.99273],[-61.54384,-1.00358],[-61.5586,-1.01384],[-61.54404,-1.02957],[-61.54286,-1.0622],[-61.54961,-1.07237],[-61.57277,-1.07579],[-61.57922,-1.08663],[-61.56749,-1.09503],[-61.56769,-1.10354],[-61.57775,-1.10617],[-61.57863,-1.11379],[-61.56612,-1.12913],[-61.57052,-1.1435],[-61.58117,-1.15659],[-61.58147,-1.16841],[-61.57189,-1.18502],[-61.58713,-1.1944],[-61.59143,-1.2114],[-61.60834,-1.25244],[-61.60707,-1.27442],[-61.6102,-1.28117],[-61.6269,-1.29397],[-61.62885,-1.30147],[-61.61163,-1.30813],[-61.59746,-1.32674],[-61.58551,-1.33869],[-61.58218,-1.35341],[-61.58773,-1.36147],[-61.59996,-1.36758],[-61.61385,-1.38425],[-61.61912,-1.3948],[-61.61468,-1.40258],[-61.60301,-1.4073],[-61.5944,-1.40564],[-61.58191,-1.40952],[-61.57384,-1.42869],[-61.54801,-1.42952],[-61.53829,-1.4334],[-61.5394,-1.44396],[-61.52357,-1.49063],[-61.50984,-1.50696],[-61.48135,-1.51785],[-61.47329,-1.52785],[-61.47051,-1.54591],[-61.47551,-1.55313],[-61.47468,-1.57897],[-61.48274,-1.58063],[-61.50634,-1.56091],[-61.51301,-1.55202],[-61.54468,-1.52563],[-61.55745,-1.50341],[-61.55968,-1.49507],[-61.58523,-1.46424],[-61.60495,-1.44813],[-61.63551,-1.43396],[-61.65801,-1.43008],[-61.67996,-1.42313],[-61.69024,-1.41758],[-61.71801,-1.40979],[-61.74079,-1.39202],[-61.76968,-1.38286],[-61.79021,-1.37897],[-61.79801,-1.38063],[-61.81718,-1.39952],[-61.83994,-1.40106],[-61.85412,-1.38841],[-61.86912,-1.35619],[-61.87245,-1.33036],[-61.85385,-1.28868],[-61.83996,-1.26536],[-61.8444,-1.24341],[-61.84551,-1.21674],[-61.84996,-1.19869],[-61.86357,-1.16424],[-61.87857,-1.13841],[-61.88079,-1.11757],[-61.87496,-1.09868],[-61.86191,-1.08119],[-61.85884,-1.0573],[-61.86802,-1.04285],[-61.88357,-1.00869],[-61.88968,-1.00034],[-61.88788,-0.98726],[-61.87384,-0.95119],[-61.86969,-0.93175],[-61.87218,-0.91841],[-61.88385,-0.89368],[-61.88218,-0.87786],[-61.87496,-0.86036],[-61.85495,-0.84036],[-61.84802,-0.82174],[-61.84968,-0.79369],[-61.85857,-0.77508],[-61.86774,-0.72397],[-61.85163,-0.68619],[-61.83663,-0.66425],[-61.81857,-0.62897],[-61.81024,-0.60841],[-61.80912,-0.59508],[-61.81329,-0.55952],[-61.82346,-0.53957],[-61.82496,-0.52591],[-61.81885,-0.50425],[-61.80218,-0.47425],[-61.80163,-0.44978],[-61.80551,-0.44119],[-61.82313,-0.42334],[-61.83552,-0.40647],[-61.84468,-0.38869],[-61.84634,-0.36314],[-61.83496,-0.33758],[-61.82996,-0.31758],[-61.83801,-0.27174],[-61.8344,-0.24564],[-61.81829,-0.20092],[-61.8094,-0.16702],[-61.80774,-0.14564],[-61.79579,-0.12147],[-61.79079,-0.10647],[-61.79135,-0.0912],[-61.80913,-0.06453],[-61.81607,-0.03841],[-61.81301,-0.0273],[-61.80523,-0.01647],[-61.80274,-0.00035],[-61.79246,0.02103],[-61.78023,0.03909],[-61.77379,0.05843],[-61.76996,0.09742],[-61.77634,0.14547],[-61.77773,0.1677],[-61.77301,0.2088],[-61.77051,0.24325],[-61.76468,0.2663],[-61.75885,0.30964],[-61.74738,0.33271],[-61.73135,0.36019],[-61.72496,0.38685],[-61.71135,0.43575],[-61.69385,0.46714],[-61.68385,0.48963],[-61.65023,0.51547],[-61.63274,0.54658],[-61.62106,0.57852],[-61.61718,0.60158],[-61.61023,0.61325],[-61.59302,0.62825],[-61.58162,0.64463],[-61.57051,0.66602],[-61.5594,0.67935],[-61.52718,0.70603],[-61.50051,0.72353],[-61.49107,0.73769],[-61.45384,0.78548],[-61.4369,0.81964],[-61.42912,0.84186],[-61.4244,0.86991],[-61.39079,0.9113],[-61.37579,0.92547],[-61.3694,0.93742],[-61.36662,0.95408],[-61.34579,0.97963],[-61.3244,0.99324],[-61.31746,0.99519],[-61.30688,0.98546],[-61.28856,0.97853],[-61.27496,0.97658],[-61.2644,0.97881],[-61.26301,0.96714],[-61.25079,0.97213],[-61.24246,0.99103],[-61.23301,1.00102],[-61.21885,0.99964],[-61.20634,0.98297],[-61.19245,0.94991],[-61.18746,0.95963],[-61.1769,0.96241],[-61.17551,0.95463],[-61.1594,0.9563],[-61.1544,0.94769],[-61.15634,0.94019],[-61.14967,0.93602],[-61.14607,0.94796],[-61.14023,0.95158],[-61.12801,0.9438],[-61.11995,0.95714],[-61.12801,0.96436],[-61.11051,0.96158],[-61.11468,0.96714],[-61.1105,0.97602],[-61.11468,0.98241],[-61.10634,0.99047],[-61.10023,0.98602],[-61.08606,1.00297],[-61.09134,1.00713],[-61.08107,1.01547],[-61.06773,1.00936],[-61.06301,1.01408],[-61.06829,1.02186],[-61.05856,1.02519],[-61.06412,1.03769],[-61.04551,1.04769],[-61.0494,1.06047],[-61.03662,1.07241],[-61.04412,1.08241],[-61.04023,1.08741],[-61.02245,1.08408],[-61.02078,1.10047],[-61.01273,1.09797],[-61.0119,1.08436],[-61.00134,1.0888],[-60.99468,1.08352],[-60.98329,1.09186],[-60.97245,1.08464],[-60.96098,1.08848],[-60.9469,1.07935],[-60.94134,1.07186],[-60.9244,1.07353],[-60.91218,1.09324],[-60.90579,1.1088],[-60.90634,1.11797],[-60.89801,1.12547],[-60.88523,1.13019],[-60.87495,1.12381],[-60.86856,1.11491],[-60.85217,1.10269],[-60.84245,1.09019],[-60.83967,1.07519],[-60.8205,1.06408],[-60.81829,1.04824],[-60.82134,1.03935],[-60.81634,1.03074],[-60.81717,1.01824],[-60.82328,1.0063],[-60.82023,0.99713],[-60.80495,0.97824],[-60.79634,0.97714],[-60.77967,0.95853],[-60.78051,0.94935],[-60.77523,0.94074],[-60.76273,0.93547],[-60.72995,0.93435],[-60.72662,0.92102],[-60.73217,0.90658],[-60.74134,0.90491],[-60.73301,0.89658],[-60.73162,0.88297],[-60.7244,0.8813],[-60.71884,0.86797],[-60.71023,0.87936],[-60.708,0.8713],[-60.68968,0.88269],[-60.68856,0.87269],[-60.6844,0.88408],[-60.68078,0.87686],[-60.67579,0.8863],[-60.66911,0.8788],[-60.66106,0.89186],[-60.65495,0.89075],[-60.65079,0.90296],[-60.63579,0.89602],[-60.63134,0.90047],[-60.61967,0.89714],[-60.61189,0.9038],[-60.60273,0.90436],[-60.60495,0.90991],[-60.59717,0.92019],[-60.60246,0.92491],[-60.60078,0.93296],[-60.59328,0.92353],[-60.58384,0.93241],[-60.56884,0.93603],[-60.57023,0.94408],[-60.56134,0.93908],[-60.55468,0.95686],[-60.56106,0.95519],[-60.53912,0.97269],[-60.54162,0.98519],[-60.53384,0.99297],[-60.52273,0.98575],[-60.51384,0.99019],[-60.51051,1.0038],[-60.51217,1.01824],[-60.50551,1.03352],[-60.498,1.03963],[-60.48357,1.04463],[-60.48078,1.05908],[-60.46384,1.07241],[-60.46439,1.08269],[-60.45273,1.08047],[-60.45106,1.09796],[-60.43023,1.10741],[-60.42245,1.09936],[-60.41495,1.10408],[-60.41828,1.11713],[-60.4155,1.12352],[-60.39995,1.13158],[-60.38439,1.13408],[-60.37634,1.13935],[-60.36244,1.13519],[-60.35745,1.12991],[-60.34995,1.13742],[-60.34578,1.13297],[-60.33828,1.13741],[-60.32467,1.13797],[-60.32023,1.14797],[-60.31356,1.13214],[-60.30051,1.13714],[-60.29495,1.12936],[-60.29995,1.12214],[-60.29023,1.11547],[-60.27689,1.13158],[-60.24384,1.12019],[-60.23967,1.12936],[-60.21469,1.12908],[-60.19079,1.12075],[-60.16245,1.11297],[-60.14301,1.10492],[-60.13188,1.10296],[-60.12301,1.09575],[-60.11522,1.10324],[-60.0905,1.10074],[-60.06162,1.10991],[-60.03912,1.12186],[-60.01606,1.12491],[-60.01467,1.11769],[-60.003,1.1238],[-59.99703,1.1225],[-59.97495,1.13936],[-59.96828,1.15825],[-59.96967,1.16519],[-59.96133,1.17797],[-59.94633,1.17602],[-59.95134,1.18408],[-59.9405,1.19158],[-59.933,1.18853],[-59.92661,1.19408],[-59.91217,1.19186],[-59.90939,1.19963],[-59.89661,1.20242],[-59.89022,1.19686],[-59.88161,1.2013],[-59.8755,1.21103],[-59.86744,1.18769],[-59.85689,1.18963],[-59.84939,1.19936],[-59.84106,1.20268],[-59.84105,1.21242],[-59.83469,1.21574],[-59.83522,1.22487],[-59.82411,1.2563],[-59.8055,1.25492],[-59.80717,1.26296],[-59.78551,1.26519],[-59.77939,1.27603],[-59.78439,1.27797],[-59.78634,1.29242],[-59.77939,1.30519],[-59.78189,1.31852],[-59.78662,1.31853],[-59.79356,1.32935],[-59.78606,1.33436],[-59.79078,1.3388],[-59.78023,1.35325],[-59.7805,1.36268],[-59.77217,1.3663],[-59.77467,1.3838],[-59.7805,1.3938],[-59.77939,1.40186],[-59.78772,1.41407],[-59.79439,1.41213],[-59.79217,1.43074],[-59.81772,1.4513],[-59.81967,1.46241],[-59.8155,1.47352],[-59.81939,1.4763],[-59.81772,1.48963],[-59.80356,1.50908],[-59.81439,1.52463],[-59.813,1.53241],[-59.80551,1.52797],[-59.79716,1.53435],[-59.793,1.55047],[-59.78717,1.56046],[-59.76745,1.56352],[-59.76606,1.57741],[-59.77606,1.59157],[-59.76467,1.6063],[-59.74578,1.60963],[-59.72383,1.60796],[-59.71939,1.61047],[-59.70855,1.60435],[-59.69522,1.61325],[-59.67911,1.61713],[-59.67077,1.62492],[-59.65995,1.62158],[-59.66217,1.60991],[-59.64495,1.60825],[-59.6305,1.62407],[-59.61411,1.6263],[-59.61189,1.62074],[-59.59217,1.60852],[-59.58411,1.60852],[-59.56023,1.60019],[-59.53661,1.59741],[-59.51911,1.58991],[-59.50634,1.59047],[-59.49355,1.59602],[-59.47994,1.59103],[-59.46578,1.57213],[-59.46661,1.55935],[-59.45633,1.55797],[-59.44773,1.54574],[-59.41272,1.55158]]]},"properties":{"CD_REG":"140003","NM_REG":"Rorainópolis","SIGLA_UF":"RR"}},{"type":"Feature","geometry":{"type":"Polygon","coordinates":[[[-59.73444,1.99963],[-59.73508,1.98578],[-59.74273,1.97172],[-59.73717,1.96269],[-59.74605,1.94102],[-59.74578,1.9288],[-59.75495,1.92352],[-59.75411,1.91213],[-59.75939,1.90047],[-59.74689,1.87852],[-59.75356,1.86436],[-59.74606,1.85186],[-59.7255,1.8488],[-59.71328,1.8538],[-59.69189,1.85353],[-59.67384,1.83991],[-59.66522,1.85047],[-59.66911,1.85852],[-59.66245,1.86185],[-59.65272,1.84991],[-59.65023,1.84018],[-59.65828,1.82269],[-59.65439,1.81685],[-59.67884,1.80713],[-59.68855,1.77852],[-59.68522,1.77408],[-59.69161,1.76186],[-59.69022,1.7563],[-59.66634,1.75463],[-59.663,1.73685],[-59.65384,1.74296],[-59.633,1.74102],[-59.62995,1.72797],[-59.61745,1.71519],[-59.608,1.72241],[-59.58661,1.72713],[-59.58411,1.73214],[-59.56661,1.73574],[-59.5555,1.72379],[-59.5505,1.72825],[-59.54522,1.7213],[-59.53355,1.7163],[-59.53439,1.7088],[-59.52745,1.70435],[-59.52634,1.6913],[-59.51272,1.67824],[-59.51134,1.66852],[-59.49828,1.67713],[-59.49327,1.6735],[-59.49633,1.65408],[-59.483,1.62658],[-59.46522,1.61768],[-59.448,1.61935],[-59.43772,1.5938],[-59.42717,1.5863],[-59.43105,1.5663],[-59.423,1.55575],[-59.41272,1.55158],[-59.44773,1.54574],[-59.45633,1.55797],[-59.46661,1.55935],[-59.46578,1.57213],[-59.47994,1.59103],[-59.49355,1.59602],[-59.50634,1.59047],[-59.51911,1.58991],[-59.53661,1.59741],[-59.56023,1.60019],[-59.58411,1.60852],[-59.59217,1.60852],[-59.61189,1.62074],[-59.61411,1.6263],[-59.6305,1.62407],[-59.64495,1.60825],[-59.66217,1.60991],[-59.65995,1.62158],[-59.67077,1.62492],[-59.67911,1.61713],[-59.69522,1.61325],[-59.70855,1.60435],[-59.71939,1.61047],[-59.72383,1.60796],[-59.74578,1.60963],[-59.76467,1.6063],[-59.77606,1.59157],[-59.76606,1.57741],[-59.76745,1.56352],[-59.78717,1.56046],[-59.793,1.55047],[-59.79716,1.53435],[-59.80551,1.52797],[-59.813,1.53241],[-59.81439,1.52463],[-59.80356,1.50908],[-59.81772,1.48963],[-59.81939,1.4763],[-59.8155,1.47352],[-59.81967,1.46241],[-59.81772,1.4513],[-59.79217,1.43074],[-59.79439,1.41213],[-59.78772,1.41407],[-59.77939,1.40186],[-59.7805,1.3938],[-59.77467,1.3838],[-59.77217,1.3663],[-59.7805,1.36268],[-59.78023,1.35325],[-59.79078,1.3388],[-59.78606,1.33436],[-59.79356,1.32935],[-59.78662,1.31853],[-59.78189,1.31852],[-59.77939,1.30519],[-59.78634,1.29242],[-59.78439,1.27797],[-59.77939,1.27603],[-59.78551,1.26519],[-59.80717,1.26296],[-59.8055,1.25492],[-59.82411,1.2563],[-59.83522,1.22487],[-59.83469,1.21574],[-59.84105,1.21242],[-59.84106,1.20268],[-59.84939,1.19936],[-59.85689,1.18963],[-59.86744,1.18769],[-59.8755,1.21103],[-59.88161,1.2013],[-59.89022,1.19686],[-59.89661,1.20242],[-59.90939,1.19963],[-59.91217,1.19186],[-59.92661,1.19408],[-59.933,1.18853],[-59.9405,1.19158],[-59.95134,1.18408],[-59.94633,1.17602],[-59.96133,1.17797],[-59.96967,1.16519],[-59.96828,1.15825],[-59.97495,1.13936],[-59.99703,1.1225],[-60.003,1.1238],[-60.01467,1.11769],[-60.01606,1.12491],[-60.03912,1.12186],[-60.06162,1.10991],[-60.0905,1.10074],[-60.11522,1.10324],[-60.12301,1.09575],[-60.13188,1.10296],[-60.14301,1.10492],[-60.16245,1.11297],[-60.19079,1.12075],[-60.21469,1.12908],[-60.23967,1.12936],[-60.24384,1.12019],[-60.27689,1.13158],[-60.29023,1.11547],[-60.29995,1.12214],[-60.29495,1.12936],[-60.30051,1.13714],[-60.31356,1.13214],[-60.32023,1.14797],[-60.32467,1.13797],[-60.33828,1.13741],[-60.34578,1.13297],[-60.34995,1.13742],[-60.35745,1.12991],[-60.36244,1.13519],[-60.37634,1.13935],[-60.38439,1.13408],[-60.39995,1.13158],[-60.4155,1.12352],[-60.41828,1.11713],[-60.41495,1.10408],[-60.42245,1.09936],[-60.43023,1.10741],[-60.45106,1.09796],[-60.45273,1.08047],[-60.46439,1.08269],[-60.46384,1.07241],[-60.48078,1.05908],[-60.48357,1.04463],[-60.498,1.03963],[-60.50551,1.03352],[-60.51217,1.01824],[-60.51051,1.0038],[-60.51384,0.99019],[-60.52273,0.98575],[-60.53384,0.99297],[-60.54162,0.98519],[-60.53912,0.97269],[-60.56106,0.95519],[-60.55468,0.95686],[-60.56134,0.93908],[-60.57023,0.94408],[-60.56884,0.93603],[-60.58384,0.93241],[-60.59328,0.92353],[-60.60078,0.93296],[-60.60246,0.92491],[-60.59717,0.92019],[-60.60495,0.90991],[-60.60273,0.90436],[-60.61189,0.9038],[-60.61967,0.89714],[-60.63134,0.90047],[-60.63579,0.89602],[-60.65079,0.90296],[-60.65495,0.89075],[-60.66106,0.89186],[-60.66911,0.8788],[-60.67579,0.8863],[-60.68078,0.87686],[-60.6844,0.88408],[-60.68856,0.87269],[-60.68968,0.88269],[-60.708,0.8713],[-60.71023,0.87936],[-60.71884,0.86797],[-60.7244,0.8813],[-60.73162,0.88297],[-60.73301,0.89658],[-60.74134,0.90491],[-60.73217,0.90658],[-60.72662,0.92102],[-60.72995,0.93435],[-60.76273,0.93547],[-60.77523,0.94074],[-60.78051,0.94935],[-60.77967,0.95853],[-60.79634,0.97714],[-60.80495,0.97824],[-60.82023,0.99713],[-60.82328,1.0063],[-60.81717,1.01824],[-60.81634,1.03074],[-60.82134,1.03935],[-60.81829,1.04824],[-60.8205,1.06408],[-60.83967,1.07519],[-60.84245,1.09019],[-60.85217,1.10269],[-60.86856,1.11491],[-60.87495,1.12381],[-60.88523,1.13019],[-60.89801,1.12547],[-60.90634,1.11797],[-60.90579,1.1088],[-60.91218,1.09324],[-60.9244,1.07353],[-60.94134,1.07186],[-60.9469,1.07935],[-60.96098,1.08848],[-60.97245,1.08464],[-60.98329,1.09186],[-60.99468,1.08352],[-61.00134,1.0888],[-61.0119,1.08436],[-61.01273,1.09797],[-61.02078,1.10047],[-61.02245,1.08408],[-61.04023,1.08741],[-61.04412,1.08241],[-61.03662,1.07241],[-61.0494,1.06047],[-61.04551,1.04769],[-61.06412,1.03769],[-61.05856,1.02519],[-61.06829,1.02186],[-61.06301,1.01408],[-61.06773,1.00936],[-61.08107,1.01547],[-61.09134,1.00713],[-61.08606,1.00297],[-61.10023,0.98602],[-61.10634,0.99047],[-61.11468,0.98241],[-61.1105,0.97602],[-61.11468,0.96714],[-61.11051,0.96158],[-61.12801,0.96436],[-61.11995,0.95714],[-61.12801,0.9438],[-61.14023,0.95158],[-61.14607,0.94796],[-61.14967,0.93602],[-61.15634,0.94019],[-61.1544,0.94769],[-61.1594,0.9563],[-61.17551,0.95463],[-61.1769,0.96241],[-61.18746,0.95963],[-61.19245,0.94991],[-61.20634,0.98297],[-61.21885,0.99964],[-61.23301,1.00102],[-61.24246,0.99103],[-61.25079,0.97213],[-61.26301,0.96714],[-61.2644,0.97881],[-61.27496,0.97658],[-61.28856,0.97853],[-61.30688,0.98546],[-61.31746,0.99519],[-61.3244,0.99324],[-61.34579,0.97963],[-61.36662,0.95408],[-61.3694,0.93742],[-61.37579,0.92547],[-61.39079,0.9113],[-61.4244,0.86991],[-61.42912,0.84186],[-61.4369,0.81964],[-61.45384,0.78548],[-61.49107,0.73769],[-61.50051,0.72353],[-61.52718,0.70603],[-61.5594,0.67935],[-61.57051,0.66602],[-61.58162,0.64463],[-61.59302,0.62825],[-61.61023,0.61325],[-61.61718,0.60158],[-61.62106,0.57852],[-61.63274,0.54658],[-61.65023,0.51547],[-61.68385,0.48963],[-61.69385,0.46714],[-61.71135,0.43575],[-61.72496,0.38685],[-61.73135,0.36019],[-61.74738,0.33271],[-61.75885,0.30964],[-61.76468,0.2663],[-61.77051,0.24325],[-61.77301,0.2088],[-61.77773,0.1677],[-61.77634,0.14547],[-61.76996,0.09742],[-61.77379,0.05843],[-61.78023,0.03909],[-61.79246,0.02103],[-61.80274,-0.00035],[-61.80523,-0.01647],[-61.81301,-0.0273],[-61.81607,-0.03841],[-61.80913,-0.06453],[-61.79135,-0.0912],[-61.79079,-0.10647],[-61.79579,-0.12147],[-61.80774,-0.14564],[-61.8094,-0.16702],[-61.81829,-0.20092],[-61.8344,-0.24564],[-61.83801,-0.27174],[-61.82996,-0.31758],[-61.83496,-0.33758],[-61.84634,-0.36314],[-61.84468,-0.38869],[-61.83552,-0.40647],[-61.82313,-0.42334],[-61.80551,-0.44119],[-61.80163,-0.44978],[-61.80218,-0.47425],[-61.81885,-0.50425],[-61.82496,-0.52591],[-61.82346,-0.53957],[-61.81329,-0.55952],[-61.80912,-0.59508],[-61.81024,-0.60841],[-61.81857,-0.62897],[-61.83663,-0.66425],[-61.85163,-0.68619],[-61.86774,-0.72397],[-61.85857,-0.77508],[-61.84968,-0.79369],[-61.84802,-0.82174],[-61.85495,-0.84036],[-61.87496,-0.86036],[-61.88218,-0.87786],[-61.88385,-0.89368],[-61.87218,-0.91841],[-61.86969,-0.93175],[-61.87384,-0.95119],[-61.88788,-0.98726],[-61.88968,-1.00034],[-61.88357,-1.00869],[-61.86802,-1.04285],[-61.85884,-1.0573],[-61.86191,-1.08119],[-61.87496,-1.09868],[-61.88079,-1.11757],[-61.87857,-1.13841],[-61.86357,-1.16424],[-61.84996,-1.19869],[-61.84551,-1.21674],[-61.8444,-1.24341],[-61.83996,-1.26536],[-61.85385,-1.28868],[-61.87245,-1.33036],[-61.86912,-1.35619],[-61.85412,-1.38841],[-61.83994,-1.40106],[-61.8694,-1.40174],[-61.89662,-1.39536],[-61.90551,-1.37952],[-61.9069,-1.35619],[-61.91579,-1.33674],[-61.92746,-1.32063],[-61.94551,-1.3048],[-61.94996,-1.29702],[-61.9569,-1.26591],[-61.9669,-1.24286],[-61.98802,-1.21674],[-61.9894,-1.20174],[-62.00024,-1.17674],[-62.01746,-1.14174],[-62.03968,-1.11841],[-62.06218,-1.0998],[-62.07163,-1.09758],[-62.08801,-1.10009],[-62.09968,-1.09674],[-62.10551,-1.08647],[-62.11468,-1.08341],[-62.11829,-1.07647],[-62.11135,-1.06036],[-62.12552,-1.0373],[-62.14301,-1.0373],[-62.14551,-1.02841],[-62.15496,-1.02619],[-62.16829,-1.01425],[-62.17191,-1.00591],[-62.19996,-1.00035],[-62.20385,-0.98285],[-62.21357,-0.98369],[-62.22745,-0.97344],[-62.25912,-0.97591],[-62.27219,-0.95202],[-62.28607,-0.94397],[-62.29385,-0.94813],[-62.29829,-0.94092],[-62.31274,-0.93035],[-62.31718,-0.91425],[-62.32857,-0.91563],[-62.34024,-0.90424],[-62.35663,-0.87508],[-62.36496,-0.8773],[-62.36662,-0.86925],[-62.37635,-0.86619],[-62.36996,-0.85925],[-62.37357,-0.84869],[-62.38051,-0.84369],[-62.37607,-0.83647],[-62.39413,-0.82897],[-62.3958,-0.82036],[-62.42052,-0.81258],[-62.42829,-0.8123],[-62.43329,-0.80397],[-62.44274,-0.80203],[-62.4483,-0.81007],[-62.46163,-0.80175],[-62.46551,-0.78897],[-62.4808,-0.79508],[-62.50107,-0.78147],[-62.5044,-0.76564],[-62.51024,-0.75897],[-62.49496,-0.75063],[-62.49885,-0.73397],[-62.50607,-0.73092],[-62.50829,-0.71425],[-62.49552,-0.70396],[-62.49302,-0.68758],[-62.48663,-0.68147],[-62.46812,-0.69142],[-62.46202,-0.68522],[-62.44755,-0.68961],[-62.42713,-0.68976],[-62.42576,-0.69743],[-62.41809,-0.69489],[-62.41564,-0.70574],[-62.40509,-0.7222],[-62.39395,-0.71756],[-62.39483,-0.71067],[-62.37528,-0.70197],[-62.37514,-0.7095],[-62.35701,-0.70237],[-62.36746,-0.6945],[-62.3726,-0.67969],[-62.36842,-0.66721],[-62.35156,-0.67342],[-62.34829,-0.66697],[-62.34193,-0.67312],[-62.33074,-0.66604],[-62.32669,-0.65299],[-62.31775,-0.65798],[-62.30802,-0.65773],[-62.29854,-0.64713],[-62.29444,-0.64918],[-62.28672,-0.63237],[-62.29053,-0.62055],[-62.30182,-0.61488],[-62.29971,-0.60775],[-62.2916,-0.6076],[-62.29063,-0.59846],[-62.29879,-0.58747],[-62.31232,-0.57594],[-62.30656,-0.55942],[-62.31843,-0.54462],[-62.30993,-0.54227],[-62.309,-0.5303],[-62.30094,-0.526],[-62.30871,-0.51476],[-62.30724,-0.50812],[-62.29273,-0.50367],[-62.29581,-0.49854],[-62.2853,-0.49297],[-62.2897,-0.48149],[-62.28457,-0.47162],[-62.27611,-0.47401],[-62.26712,-0.4682],[-62.27431,-0.46331],[-62.28041,-0.45071],[-62.2788,-0.44167],[-62.26644,-0.4444],[-62.2616,-0.43487],[-62.25764,-0.4403],[-62.24482,-0.4326],[-62.24076,-0.42371],[-62.22591,-0.42092],[-62.22141,-0.40397],[-62.21262,-0.40231],[-62.21701,-0.39244],[-62.20152,-0.38672],[-62.20773,-0.3663],[-62.19673,-0.36288],[-62.19297,-0.3423],[-62.19429,-0.33463],[-62.18862,-0.32232],[-62.20299,-0.31714],[-62.21931,-0.30566],[-62.22723,-0.31382],[-62.23397,-0.3123],[-62.23751,-0.30333],[-62.24806,-0.29634],[-62.24281,-0.29052],[-62.24924,-0.28461],[-62.25339,-0.27],[-62.24122,-0.2528],[-62.24051,-0.24599],[-62.24992,-0.2484],[-62.25302,-0.21291],[-62.24367,-0.20611],[-62.24679,-0.19075],[-62.24161,-0.18146],[-62.24156,-0.17047],[-62.25774,-0.1605],[-62.2617,-0.16314],[-62.2681,-0.15424],[-62.27782,-0.14985],[-62.28246,-0.13612],[-62.2895,-0.13309],[-62.2916,-0.12375],[-62.30611,-0.11237],[-62.31163,-0.09849],[-62.31979,-0.09634],[-62.3132,-0.07983],[-62.32155,-0.07748],[-62.31457,-0.06903],[-62.32869,-0.06326],[-62.33069,-0.05481],[-62.31936,-0.05666],[-62.32551,-0.02134],[-62.32273,-0.01489],[-62.3259,-0.00291],[-62.33265,0.00378],[-62.3366,0.02157],[-62.34603,0.03422],[-62.35942,0.04517],[-62.36587,0.05577],[-62.38591,0.06041],[-62.40926,0.07507],[-62.42177,0.09784],[-62.42309,0.11607],[-62.42813,0.12814],[-62.42441,0.1352],[-62.42413,0.15325],[-62.42858,0.17353],[-62.43856,0.1949],[-62.45274,0.20741],[-62.45442,0.24355],[-62.46663,0.26799],[-62.45858,0.31349],[-62.46689,0.33297],[-62.46107,0.35267],[-62.45191,0.36519],[-62.45301,0.37353],[-62.44637,0.37911],[-62.45607,0.39241],[-62.45857,0.41769],[-62.46773,0.42603],[-62.48525,0.45408],[-62.50939,0.4405],[-62.51866,0.4437],[-62.52296,0.48557],[-62.53301,0.50881],[-62.52773,0.54656],[-62.52386,0.55575],[-62.51885,0.59377],[-62.52663,0.61712],[-62.52775,0.62936],[-62.53829,0.6752],[-62.53331,0.7013],[-62.52106,0.72132],[-62.50049,0.74795],[-62.46303,0.77687],[-62.45774,0.7852],[-62.45858,0.79967],[-62.46607,0.82908],[-62.48105,0.84267],[-62.48607,0.85797],[-62.48469,0.87602],[-62.46719,0.9238],[-62.45357,0.93465],[-62.44274,0.95853],[-62.44581,0.97684],[-62.46163,0.99491],[-62.4747,1.0163],[-62.47773,1.02795],[-62.47443,1.04022],[-62.47911,1.04794],[-62.47331,1.06711],[-62.47162,1.08628],[-62.48492,1.08758],[-62.49802,1.08412],[-62.52109,1.08382],[-62.52967,1.08882],[-62.54524,1.12076],[-62.55052,1.14438],[-62.55301,1.16654],[-62.55912,1.18769],[-62.57662,1.22742],[-62.58691,1.25548],[-62.59747,1.29022],[-62.6022,1.32577],[-62.60969,1.34324],[-62.61079,1.35265],[-62.62052,1.36269],[-62.62025,1.40378],[-62.62717,1.41184],[-62.63996,1.43824],[-62.65664,1.44852],[-62.6769,1.45463],[-62.69859,1.47544],[-62.72078,1.48854],[-62.7308,1.49963],[-62.73635,1.52963],[-62.74979,1.53597],[-62.75679,1.54763],[-62.78178,1.57252],[-62.80528,1.59135],[-62.80563,1.6042],[-62.79299,1.63531],[-62.7735,1.65631],[-62.76588,1.67131],[-62.75561,1.67618],[-62.72861,1.7],[-62.72237,1.72249],[-62.72649,1.74956],[-62.72747,1.77557],[-62.73135,1.79941],[-62.73107,1.81823],[-62.70418,1.87395],[-62.69873,1.91196],[-62.70331,1.93382],[-62.71491,1.95069],[-62.72958,1.96055],[-62.75932,1.97305],[-62.77968,1.97817],[-62.81325,1.99168],[-62.82888,2.01331],[-62.83857,2.01639],[-62.88685,2.02243],[-62.93279,2.02706],[-62.94848,2.03104],[-62.98043,2.01793],[-63.02378,2.01468],[-63.05357,2.02889],[-63.07727,2.04607],[-63.08554,2.06144],[-63.10724,2.07934],[-63.11983,2.09645],[-63.13856,2.14277],[-63.13759,2.16106],[-63.14634,2.17326],[-63.1586,2.17429],[-63.16546,2.18031],[-63.19413,2.18121],[-63.23609,2.16662],[-63.27635,2.15439],[-63.28906,2.15668],[-63.31079,2.165],[-63.33756,2.18409],[-63.35979,2.1971],[-63.37209,2.21186],[-63.38055,2.22673],[-63.37407,2.23985],[-63.36721,2.24233],[-63.3697,2.24902],[-63.36693,2.26191],[-63.36044,2.26915],[-63.36797,2.28972],[-63.36106,2.30193],[-63.36692,2.31248],[-63.36052,2.32739],[-63.37595,2.33969],[-63.37642,2.35664],[-63.3665,2.36599],[-63.35537,2.3823],[-63.36379,2.38942],[-63.36693,2.40042],[-63.3662,2.41727],[-63.37015,2.41379],[-63.37191,2.42638],[-63.3818,2.42616],[-63.38726,2.43158],[-63.40432,2.43128],[-63.41468,2.45423],[-63.42327,2.44473],[-63.43583,2.44194],[-63.4415,2.42986],[-63.44232,2.41701],[-63.44855,2.41026],[-63.45607,2.41194],[-63.45533,2.40286],[-63.4657,2.40171],[-63.47128,2.41095],[-63.47159,2.42381],[-63.48053,2.43356],[-63.48843,2.4272],[-63.48796,2.43687],[-63.49448,2.4374],[-63.49798,2.42566],[-63.50419,2.43181],[-63.52003,2.42187],[-63.54601,2.42866],[-63.55585,2.42243],[-63.55344,2.43016],[-63.5591,2.45166],[-63.57135,2.44582],[-63.57964,2.45119],[-63.60358,2.45717],[-63.60706,2.44728],[-63.61931,2.44238],[-63.61746,2.45106],[-63.63337,2.44004],[-63.64555,2.44666],[-63.65282,2.44195],[-63.68864,2.44625],[-63.69111,2.45777],[-63.70399,2.45781],[-63.71892,2.44461],[-63.73103,2.45505],[-63.73665,2.4461],[-63.75045,2.4418],[-63.76192,2.44391],[-63.782,2.45693],[-63.78397,2.47107],[-63.79515,2.47287],[-63.79822,2.47986],[-63.81064,2.48184],[-63.81877,2.48753],[-63.82951,2.48618],[-63.83424,2.49228],[-63.84577,2.49649],[-63.85654,2.48661],[-63.87127,2.48285],[-63.88214,2.46909],[-63.89482,2.46578],[-63.91232,2.47343],[-63.92684,2.47051],[-63.92702,2.46501],[-63.93656,2.45667],[-63.94021,2.46333],[-63.95478,2.45955],[-63.96008,2.47313],[-63.95784,2.47044],[-63.77361,2.55184],[-63.68808,2.58823],[-63.66987,2.59742],[-63.6642,2.6084],[-63.6437,2.6216],[-63.6108,2.5905],[-63.601,2.5886],[-63.5721,2.5916],[-63.5625,2.5842],[-63.5547,2.5877],[-63.5239,2.5725],[-63.505,2.5878],[-63.4952,2.591],[-63.4853,2.6066],[-63.4769,2.6099],[-63.4732,2.6179],[-63.4777,2.625],[-63.4756,2.6349],[-63.4827,2.6574],[-63.4714,2.6665],[-63.4672,2.6651],[-63.4663,2.6809],[-63.4711,2.6863],[-63.4657,2.6943],[-63.4745,2.7049],[-63.4711,2.7178],[-63.464,2.722],[-63.4681,2.7268],[-63.4591,2.7322],[-63.4655,2.74],[-63.4595,2.7512],[-63.461,2.7614],[-63.4515,2.7658],[-63.4441,2.7788],[-63.4319,2.7739],[-63.4251,2.7777],[-63.4092,2.7669],[-63.3883,2.7569],[-63.3692,2.7626],[-63.3619,2.753],[-63.3556,2.7745],[-63.3406,2.777],[-63.3314,2.7751],[-63.3216,2.7802],[-63.3,2.7744],[-63.2764,2.7914],[-63.2738,2.8016],[-63.2648,2.8021],[-63.2493,2.8139],[-63.2317,2.8204],[-63.2182,2.8109],[-63.2038,2.812],[-63.1936,2.8196],[-63.1804,2.8128],[-63.1816,2.8086],[-63.1668,2.7979],[-63.1635,2.8031],[-63.1468,2.7923],[-63.1314,2.7939],[-63.125,2.7878],[-63.1165,2.7916],[-63.1141,2.7857],[-63.0997,2.791],[-63.0883,2.7823],[-63.0861,2.7881],[-63.0741,2.7801],[-63.0601,2.7922],[-63.0438,2.7987],[-63.0274,2.789],[-63.015,2.8022],[-63.0097,2.7963],[-62.9915,2.7971],[-62.9795,2.7918],[-62.9723,2.7764],[-62.9575,2.772],[-62.9525,2.7747],[-62.9322,2.7607],[-62.9125,2.7617],[-62.9049,2.7538],[-62.9147,2.7383],[-62.91,2.7218],[-62.922,2.7082],[-62.9271,2.7103],[-62.9357,2.7003],[-62.9477,2.7008],[-62.9558,2.6938],[-62.9667,2.6943],[-62.9712,2.6862],[-62.9917,2.6722],[-63.0008,2.6794],[-63.0329,2.6608],[-63.0283,2.6464],[-63.0346,2.6244],[-63.0384,2.6253],[-63.0603,2.5987],[-63.0703,2.591],[-63.0731,2.5534],[-63.0698,2.5463],[-63.06009,2.54317],[-63.0495,2.5249],[-63.0599,2.5105],[-63.0732,2.4834],[-63.0721,2.4748],[-63.082,2.4613],[-63.0599,2.4672],[-63.0618,2.4623],[-63.0504,2.4544],[-63.0436,2.4415],[-63.0405,2.4167],[-63.0455,2.3907],[-63.0418,2.3796],[-63.0339,2.3785],[-63.0237,2.3693],[-63.0116,2.3677],[-63.0052,2.3738],[-62.9714,2.3691],[-62.9689,2.375],[-62.9602,2.3701],[-62.9523,2.3722],[-62.942,2.3598],[-62.9448,2.3497],[-62.9376,2.3502],[-62.937,2.3412],[-62.9222,2.3397],[-62.9223,2.3313],[-62.9052,2.3343],[-62.9057,2.3393],[-62.8922,2.3408],[-62.8907,2.3329],[-62.8817,2.3321],[-62.876,2.3224],[-62.8799,2.3134],[-62.8631,2.3167],[-62.8554,2.3049],[-62.8425,2.2987],[-62.8342,2.3039],[-62.8322,2.2934],[-62.8189,2.2838],[-62.8241,2.2782],[-62.8179,2.2672],[-62.8073,2.2678],[-62.7793,2.2548],[-62.7581,2.2611],[-62.7469,2.2495],[-62.7248,2.2519],[-62.7102,2.2507],[-62.6938,2.2542],[-62.6661,2.2549],[-62.6514,2.2478],[-62.6259,2.2466],[-62.6204,2.2408],[-62.6124,2.2425],[-62.6084,2.2301],[-62.5982,2.2244],[-62.5949,2.211],[-62.604,2.2038],[-62.5932,2.1835],[-62.5925,2.1686],[-62.5835,2.1519],[-62.576,2.1517],[-62.5718,2.1403],[-62.5663,2.1404],[-62.5636,2.1302],[-62.5488,2.1279],[-62.5518,2.1194],[-62.5464,2.1048],[-62.5211,2.1062],[-62.5166,2.1164],[-62.5084,2.1199],[-62.5018,2.1111],[-62.4909,2.1086],[-62.4762,2.1126],[-62.4657,2.1075],[-62.4474,2.1117],[-62.4439,2.1083],[-62.423,2.1102],[-62.4117,2.1235],[-62.4096,2.1182],[-62.34045,2.19286],[-62.3374,2.1897],[-62.3004,2.1915],[-62.2908,2.2051],[-62.2752,2.202],[-62.2523,2.2158],[-62.2127,2.2167],[-62.1973,2.2231],[-62.1739,2.2248],[-62.1529,2.224],[-62.1466,2.236],[-62.13473,2.23659],[-62.07316,2.22165],[-62.03107,2.22162],[-62.00217,2.23039],[-61.98545,2.24027],[-61.93149,2.26041],[-61.91743,2.27067],[-61.8953,2.29544],[-61.87071,2.30125],[-61.85044,2.32428],[-61.84034,2.32526],[-61.83935,2.33871],[-61.83062,2.34646],[-61.81106,2.35395],[-61.79633,2.37359],[-61.7842,2.39438],[-61.77645,2.40296],[-61.72102,2.43683],[-61.68846,2.44386],[-61.62362,2.453],[-61.5774,2.4469],[-61.50789,2.45017],[-61.41155,2.40909],[-61.39629,2.38718],[-61.33871,2.26367],[-61.32643,2.27517],[-61.30553,2.27855],[-61.27695,2.26836],[-61.26564,2.27086],[-61.25218,2.27951],[-61.22701,2.27946],[-61.21976,2.27461],[-61.20308,2.25634],[-61.19432,2.25519],[-61.10871,2.28084],[-61.0731,2.289],[-61.05106,2.29805],[-61.04578,2.29676],[-61.0302,2.28277],[-60.99404,2.25956],[-60.98303,2.24972],[-60.95402,2.23722],[-60.93827,2.21528],[-60.95712,2.19434],[-60.97993,2.17483],[-61.00263,2.15778],[-61.01592,2.145],[-61.04123,2.09975],[-61.0481,2.08331],[-61.05299,2.06294],[-61.05146,2.05092],[-61.04532,2.03584],[-61.0374,2.0251],[-61.03254,2.00822],[-61.02212,1.99963],[-61.02051,1.98151],[-60.99795,1.95799],[-60.97813,1.94579],[-60.96792,1.95694],[-60.95495,1.96455],[-60.93887,1.96651],[-60.92926,1.98354],[-60.91387,1.98504],[-60.89859,1.97954],[-60.87337,1.9845],[-60.83084,1.98331],[-60.82826,1.98665],[-60.80484,1.99497],[-60.79823,1.99244],[-60.78876,1.99924],[-60.7424,1.99948],[-60.74832,1.97738],[-60.76045,1.95771],[-60.76037,1.93562],[-60.75007,1.90581],[-60.73962,1.89731],[-60.72456,1.89656],[-60.70701,1.90223],[-60.66695,1.89584],[-60.65483,1.89777],[-60.63859,1.87029],[-60.62542,1.86372],[-60.61692,1.86411],[-60.58981,1.85121],[-60.57753,1.8335],[-60.57581,1.8226],[-60.57898,1.81047],[-60.57515,1.79048],[-60.56912,1.78073],[-60.55931,1.77886],[-60.54543,1.75221],[-60.55509,1.73697],[-60.56384,1.73236],[-60.57376,1.7195],[-60.57742,1.72142],[-60.58362,1.70978],[-60.55737,1.71261],[-60.53695,1.70869],[-60.52775,1.723],[-60.49106,1.71041],[-60.4926,1.71959],[-60.4857,1.7293],[-60.46517,1.7314],[-60.41639,1.74658],[-60.40565,1.74652],[-60.40066,1.7398],[-60.38912,1.73692],[-60.38398,1.74747],[-60.37875,1.74685],[-60.37633,1.75895],[-60.36809,1.76126],[-60.3583,1.77625],[-60.34384,1.77705],[-60.33245,1.7962],[-60.32464,1.79999],[-60.30212,1.82749],[-60.28022,1.83758],[-60.27531,1.84761],[-60.25635,1.8663],[-60.23004,1.88366],[-60.22337,1.89157],[-60.22286,1.90387],[-60.21131,1.90868],[-60.19675,1.92367],[-60.19787,1.92643],[-60.18345,1.93807],[-60.16611,1.95856],[-60.16706,1.96679],[-60.15664,1.99964],[-59.73444,1.99963]]]},"properties":{"CD_REG":"140004","NM_REG":"Caracaraí","SIGLA_UF":"RR"}}]}