{"type":"FeatureCollection","features":[{"type":"Feature","geometry":{"type":"Polygon","coordinates":[[[-68.00221,-10.64844],[-68.00879,-10.63483],[-68.01075,-10.6102],[-68.01635,-10.60247],[-67.99048,-10.59702],[-67.98426,-10.59372],[-68.00057,-10.58162],[-68.00189,-10.57651],[-68.01327,-10.57043],[-68.01864,-10.56283],[-68.01793,-10.55126],[-68.02846,-10.54215],[-68.03399,-10.52614],[-68.02983,-10.51731],[-68.03699,-10.49083],[-68.04197,-10.48433],[-68.04304,-10.47255],[-68.06381,-10.42513],[-68.05389,-10.42097],[-68.05676,-10.41475],[-68.04671,-10.40278],[-68.04484,-10.389],[-68.06197,-10.37974],[-68.07004,-10.38341],[-68.09198,-10.36372],[-68.10353,-10.36886],[-68.11207,-10.3658],[-68.12367,-10.37517],[-68.15158,-10.37095],[-68.17548,-10.37592],[-68.18914,-10.38235],[-68.20102,-10.37413],[-68.21964,-10.38138],[-68.22498,-10.38764],[-68.23233,-10.38496],[-68.25529,-10.3903],[-68.27198,-10.38853],[-68.28056,-10.40273],[-68.2949,-10.40608],[-68.31378,-10.41821],[-68.32754,-10.40915],[-68.32481,-10.39365],[-68.38756,-10.37951],[-68.39024,-10.3734],[-68.35449,-10.35787],[-68.35081,-10.33221],[-68.37546,-10.31155],[-68.41576,-10.30719],[-68.41246,-10.29015],[-68.41639,-10.27752],[-68.41183,-10.26813],[-68.43341,-10.26531],[-68.44979,-10.25295],[-68.45445,-10.23588],[-68.45434,-10.21536],[-68.44585,-10.19411],[-68.44879,-10.1841],[-68.46559,-10.18599],[-68.47209,-10.19716],[-68.47027,-10.21596],[-68.48953,-10.22897],[-68.49271,-10.24996],[-68.50737,-10.25953],[-68.52717,-10.25695],[-68.52978,-10.2714],[-68.55355,-10.27965],[-68.56375,-10.27282],[-68.57867,-10.28361],[-68.58061,-10.29435],[-68.59146,-10.29359],[-68.61652,-10.30653],[-68.63694,-10.30419],[-68.65729,-10.31921],[-68.66306,-10.3288],[-68.67537,-10.32854],[-68.68513,-10.33928],[-68.68157,-10.35152],[-68.68607,-10.35822],[-68.69352,-10.35562],[-68.70555,-10.36351],[-68.717,-10.3849],[-69.1494,-10.38502],[-69.14951,-10.39728],[-69.16991,-10.40213],[-69.18338,-10.39904],[-69.19618,-10.41254],[-69.2214,-10.41547],[-69.22273,-10.42066],[-69.2344,-10.4266],[-69.2469,-10.43745],[-69.24678,-10.45209],[-69.25516,-10.45762],[-69.26806,-10.45848],[-69.28801,-10.47025],[-69.32331,-10.47215],[-69.34181,-10.48533],[-69.36378,-10.46308],[-69.34201,-10.40285],[-69.31089,-10.36392],[-69.17237,-10.28653],[-69.12084,-10.26894],[-69.03728,-10.16443],[-68.88509,-10.06274],[-68.80136,-9.96208],[-68.69439,-9.88684],[-68.66652,-9.84098],[-68.69292,-9.75037],[-68.70006,-9.67927],[-68.67272,-9.56012],[-68.63335,-9.51592],[-68.60777,-9.50523],[-68.60122,-9.53802],[-68.58415,-9.5392],[-68.51407,-9.58873],[-68.51025,-9.57554],[-68.5041,-9.57206],[-68.49308,-9.57423],[-68.48447,-9.56154],[-68.47127,-9.54898],[-68.46196,-9.54624],[-68.45362,-9.55182],[-68.43224,-9.54038],[-68.42346,-9.54607],[-68.41387,-9.53712],[-68.41139,-9.52247],[-68.39561,-9.50077],[-68.38501,-9.50305],[-68.3834,-9.49642],[-68.37216,-9.4993],[-68.355,-9.4912],[-68.35173,-9.48223],[-68.3423,-9.47407],[-68.34337,-9.46706],[-68.33129,-9.45563],[-68.3303,-9.44198],[-68.40075,-9.32384],[-68.36655,-9.29945],[-68.35194,-9.2979],[-68.34908,-9.29181],[-68.33529,-9.2905],[-68.31643,-9.29541],[-68.28458,-9.28303],[-68.26705,-9.26542],[-68.24632,-9.26356],[-68.2372,-9.25233],[-68.22653,-9.24982],[-68.2199,-9.24275],[-67.51688,-9.56091],[-67.32582,-9.59238],[-66.81025,-9.81805],[-66.62689,-9.89803],[-66.62392,-9.90528],[-66.63461,-9.9107],[-66.62686,-9.91996],[-66.63617,-9.92704],[-66.62615,-9.93048],[-66.63276,-9.93739],[-66.63701,-9.94985],[-66.64225,-9.94981],[-66.65644,-9.93568],[-66.66421,-9.93826],[-66.66395,-9.9493],[-66.6685,-9.95942],[-66.6774,-9.95737],[-66.67515,-9.96707],[-66.69501,-9.96684],[-66.69415,-9.9704],[-66.71365,-9.97856],[-66.72172,-9.97651],[-66.72129,-9.98337],[-66.72884,-9.98],[-66.74189,-9.99672],[-66.75057,-9.99324],[-66.75333,-10.00058],[-66.76127,-9.99837],[-66.76401,-10.0061],[-66.7728,-10.01154],[-66.77185,-10.02116],[-66.77831,-10.01742],[-66.79003,-10.02199],[-66.80067,-10.03491],[-66.80803,-10.0497],[-66.81728,-10.05171],[-66.82225,-10.05952],[-66.83228,-10.05965],[-66.84045,-10.07007],[-66.83733,-10.08186],[-66.84402,-10.08627],[-66.87091,-10.08078],[-66.87613,-10.08377],[-66.87106,-10.0949],[-66.8792,-10.09636],[-66.88012,-10.10431],[-66.88943,-10.10572],[-66.88867,-10.11427],[-66.89859,-10.11137],[-66.89675,-10.12298],[-66.90871,-10.13101],[-66.91896,-10.13061],[-66.91073,-10.1465],[-66.92427,-10.14322],[-66.93277,-10.15441],[-66.94205,-10.15528],[-66.95138,-10.18665],[-66.95621,-10.19117],[-66.96093,-10.18265],[-66.9683,-10.19216],[-66.98134,-10.1893],[-66.9745,-10.19609],[-66.9938,-10.20451],[-67.00085,-10.21697],[-66.99198,-10.21729],[-66.99878,-10.23296],[-67.00641,-10.23059],[-67.00455,-10.24335],[-67.01578,-10.25873],[-67.02346,-10.25419],[-67.03469,-10.26417],[-67.04215,-10.26202],[-67.05097,-10.26698],[-67.04821,-10.27402],[-67.07904,-10.28934],[-67.09894,-10.28221],[-67.11158,-10.29108],[-67.12579,-10.2904],[-67.13704,-10.29768],[-67.14054,-10.30673],[-67.12808,-10.31593],[-67.13812,-10.31556],[-67.14385,-10.32661],[-67.16218,-10.3289],[-67.17034,-10.33757],[-67.18753,-10.33999],[-67.19136,-10.32982],[-67.20222,-10.32164],[-67.21996,-10.32289],[-67.22393,-10.31556],[-67.2365,-10.31621],[-67.25348,-10.32887],[-67.26535,-10.33072],[-67.27632,-10.32201],[-67.28954,-10.32023],[-67.29361,-10.32594],[-67.31596,-10.31874],[-67.3211,-10.32122],[-67.32796,-10.33538],[-67.31554,-10.34721],[-67.31745,-10.3688],[-67.31082,-10.37739],[-67.32847,-10.38368],[-67.33811,-10.37669],[-67.35423,-10.38178],[-67.35121,-10.39061],[-67.35621,-10.39337],[-67.36284,-10.37838],[-67.3829,-10.38419],[-67.38741,-10.37738],[-67.40655,-10.37247],[-67.42379,-10.3914],[-67.41382,-10.40144],[-67.41264,-10.42369],[-67.43189,-10.43101],[-67.43648,-10.44791],[-67.45167,-10.45514],[-67.46588,-10.45534],[-67.47819,-10.46778],[-67.48841,-10.47019],[-67.51578,-10.48454],[-67.52248,-10.49163],[-67.54564,-10.49517],[-67.56244,-10.50359],[-67.56842,-10.51081],[-67.589,-10.52173],[-67.59452,-10.52157],[-67.60504,-10.53425],[-67.6098,-10.56238],[-67.61443,-10.56804],[-67.63535,-10.58038],[-67.6409,-10.59939],[-67.65991,-10.61464],[-67.67561,-10.60516],[-67.68963,-10.65433],[-67.70455,-10.70041],[-67.72203,-10.71118],[-67.7261,-10.70682],[-67.73296,-10.71356],[-67.74397,-10.70852],[-67.74474,-10.70028],[-67.75631,-10.69535],[-67.75785,-10.68649],[-67.76684,-10.68915],[-67.77408,-10.68269],[-67.79555,-10.6758],[-67.79821,-10.67008],[-67.81523,-10.66531],[-67.81739,-10.65859],[-67.84504,-10.64891],[-67.85429,-10.65026],[-67.86444,-10.64067],[-67.87566,-10.64505],[-67.87762,-10.64126],[-67.89203,-10.64147],[-67.89352,-10.64775],[-67.90498,-10.64146],[-67.91293,-10.64937],[-67.94101,-10.65688],[-67.94597,-10.65203],[-67.95932,-10.6496],[-67.97163,-10.65969],[-68.00221,-10.64844]]]},"properties":{"CD_REG":"120001","NM_REG":"Rio Branco","SIGLA_UF":"AC"}},{"type":"Feature","geometry":{"type":"Polygon","coordinates":[[[-70.62088,-10.70549],[-70.60323,-10.70283],[-70.60176,-10.69834],[-70.58796,-10.69812],[-70.57726,-10.70326],[-70.55457,-10.68765],[-70.53874,-10.69129],[-70.52355,-10.69975],[-70.53361,-10.70343],[-70.53075,-10.71641],[-70.52148,-10.71996],[-70.51427,-10.71729],[-70.5021,-10.7237],[-70.50238,-10.71638],[-70.48596,-10.72448],[-70.47784,-10.71648],[-70.46869,-10.71657],[-70.46326,-10.70136],[-70.45579,-10.70318],[-70.4587,-10.71232],[-70.44575,-10.7105],[-70.44435,-10.71941],[-70.433,-10.71538],[-70.42567,-10.72416],[-70.42468,-10.71405],[-70.41912,-10.71074],[-70.41458,-10.71828],[-70.40697,-10.71587],[-70.4022,-10.7248],[-70.38344,-10.72019],[-70.38125,-10.73094],[-70.36709,-10.73083],[-70.366,-10.71456],[-70.3541,-10.71136],[-70.34155,-10.71529],[-70.34213,-10.70467],[-70.33293,-10.70842],[-70.33112,-10.71795],[-70.32442,-10.71283],[-70.31354,-10.71344],[-70.31134,-10.70111],[-70.29515,-10.70251],[-70.28651,-10.69624],[-70.27861,-10.70807],[-70.27118,-10.7071],[-70.25907,-10.7137],[-70.25259,-10.70977],[-70.25005,-10.69649],[-70.2327,-10.69357],[-70.21943,-10.68507],[-70.21262,-10.68729],[-70.21614,-10.69546],[-70.20862,-10.7019],[-70.20167,-10.68951],[-70.19368,-10.69366],[-70.17877,-10.69074],[-70.17465,-10.67305],[-70.16454,-10.67207],[-70.16312,-10.6659],[-70.15052,-10.67327],[-70.15041,-10.66713],[-70.13583,-10.66281],[-70.13135,-10.65406],[-70.12156,-10.65359],[-70.12546,-10.64453],[-70.11958,-10.63871],[-70.11059,-10.64723],[-70.10029,-10.6417],[-70.09102,-10.65164],[-70.07895,-10.63424],[-70.0676,-10.6339],[-70.07032,-10.61624],[-70.05542,-10.61845],[-70.05207,-10.60927],[-70.04012,-10.61331],[-70.04297,-10.60505],[-70.03376,-10.60271],[-70.03168,-10.59541],[-70.01809,-10.59559],[-70.00604,-10.58218],[-69.99919,-10.58643],[-69.99186,-10.57122],[-69.98004,-10.5855],[-69.97432,-10.58484],[-69.96663,-10.57454],[-69.95597,-10.57938],[-69.9546,-10.57277],[-69.9414,-10.56766],[-69.93289,-10.55064],[-69.92643,-10.54928],[-69.92566,-10.55945],[-69.9196,-10.56068],[-69.90661,-10.54403],[-69.90085,-10.55523],[-69.89393,-10.55966],[-69.88849,-10.55388],[-69.87657,-10.56183],[-69.86522,-10.54116],[-69.84925,-10.54295],[-69.83275,-10.54076],[-69.83006,-10.50841],[-69.815,-10.50974],[-69.79871,-10.50365],[-69.80738,-10.48607],[-69.80177,-10.47861],[-69.78999,-10.47687],[-69.78536,-10.46148],[-69.76668,-10.45876],[-69.75829,-10.46345],[-69.75784,-10.45557],[-69.74291,-10.44702],[-69.73014,-10.45499],[-69.71635,-10.44517],[-69.70521,-10.44621],[-69.70979,-10.43771],[-69.697,-10.43223],[-69.69015,-10.43868],[-69.68353,-10.42941],[-69.6832,-10.41146],[-69.67907,-10.42571],[-69.67176,-10.42837],[-69.6682,-10.42006],[-69.66354,-10.42723],[-69.65642,-10.42207],[-69.64691,-10.4298],[-69.65062,-10.4214],[-69.64475,-10.4135],[-69.63646,-10.41162],[-69.63471,-10.40463],[-69.62762,-10.40623],[-69.63061,-10.39608],[-69.62367,-10.39195],[-69.61095,-10.39322],[-69.61802,-10.38839],[-69.61242,-10.38173],[-69.59183,-10.37578],[-69.58808,-10.37114],[-69.56074,-10.39069],[-69.55384,-10.39803],[-69.55103,-10.40869],[-69.54057,-10.41954],[-69.54166,-10.44227],[-69.54512,-10.44741],[-69.53687,-10.45713],[-69.53752,-10.46811],[-69.53286,-10.48482],[-69.50788,-10.505],[-69.34181,-10.48533],[-69.32331,-10.47215],[-69.28801,-10.47025],[-69.26806,-10.45848],[-69.25516,-10.45762],[-69.24678,-10.45209],[-69.2469,-10.43745],[-69.2344,-10.4266],[-69.22273,-10.42066],[-69.2214,-10.41547],[-69.19618,-10.41254],[-69.18338,-10.39904],[-69.16991,-10.40213],[-69.14951,-10.39728],[-69.1494,-10.38502],[-68.717,-10.3849],[-68.70555,-10.36351],[-68.69352,-10.35562],[-68.68607,-10.35822],[-68.68157,-10.35152],[-68.68513,-10.33928],[-68.67537,-10.32854],[-68.66306,-10.3288],[-68.65729,-10.31921],[-68.63694,-10.30419],[-68.61652,-10.30653],[-68.59146,-10.29359],[-68.58061,-10.29435],[-68.57867,-10.28361],[-68.56375,-10.27282],[-68.55355,-10.27965],[-68.52978,-10.2714],[-68.52717,-10.25695],[-68.50737,-10.25953],[-68.49271,-10.24996],[-68.48953,-10.22897],[-68.47027,-10.21596],[-68.47209,-10.19716],[-68.46559,-10.18599],[-68.44879,-10.1841],[-68.44585,-10.19411],[-68.45434,-10.21536],[-68.45445,-10.23588],[-68.44979,-10.25295],[-68.43341,-10.26531],[-68.41183,-10.26813],[-68.41639,-10.27752],[-68.41246,-10.29015],[-68.41576,-10.30719],[-68.37546,-10.31155],[-68.35081,-10.33221],[-68.35449,-10.35787],[-68.39024,-10.3734],[-68.38756,-10.37951],[-68.32481,-10.39365],[-68.32754,-10.40915],[-68.31378,-10.41821],[-68.2949,-10.40608],[-68.28056,-10.40273],[-68.27198,-10.38853],[-68.25529,-10.3903],[-68.23233,-10.38496],[-68.22498,-10.38764],[-68.21964,-10.38138],[-68.20102,-10.37413],[-68.18914,-10.38235],[-68.17548,-10.37592],[-68.15158,-10.37095],[-68.12367,-10.37517],[-68.11207,-10.3658],[-68.10353,-10.36886],[-68.09198,-10.36372],[-68.07004,-10.38341],[-68.06197,-10.37974],[-68.04484,-10.389],[-68.04671,-10.40278],[-68.05676,-10.41475],[-68.05389,-10.42097],[-68.06381,-10.42513],[-68.04304,-10.47255],[-68.04197,-10.48433],[-68.03699,-10.49083],[-68.02983,-10.51731],[-68.03399,-10.52614],[-68.02846,-10.54215],[-68.01793,-10.55126],[-68.01864,-10.56283],[-68.01327,-10.57043],[-68.00189,-10.57651],[-68.00057,-10.58162],[-67.98426,-10.59372],[-67.99048,-10.59702],[-68.01635,-10.60247],[-68.01075,-10.6102],[-68.00879,-10.63483],[-68.00221,-10.64844],[-68.02386,-10.65183],[-68.03092,-10.66447],[-68.04149,-10.67059],[-68.055,-10.67038],[-68.06609,-10.68514],[-68.07736,-10.68581],[-68.09456,-10.70878],[-68.10286,-10.71236],[-68.10785,-10.72682],[-68.10573,-10.73928],[-68.09748,-10.75028],[-68.10715,-10.76463],[-68.10377,-10.77343],[-68.1482,-10.8201],[-68.15382,-10.82112],[-68.16069,-10.83163],[-68.17343,-10.84027],[-68.17899,-10.8532],[-68.18684,-10.85922],[-68.19613,-10.85859],[-68.19716,-10.87103],[-68.20583,-10.87979],[-68.20435,-10.8928],[-68.20721,-10.90204],[-68.2243,-10.91162],[-68.23031,-10.94103],[-68.23939,-10.95782],[-68.25042,-10.96311],[-68.25644,-10.97195],[-68.27166,-10.97985],[-68.27856,-10.98931],[-68.28881,-10.98811],[-68.30631,-10.99162],[-68.32069,-11.00006],[-68.33104,-11.0126],[-68.34145,-11.00497],[-68.36053,-11.0064],[-68.38468,-11.01814],[-68.39065,-11.02898],[-68.38821,-11.04058],[-68.39474,-11.05011],[-68.40414,-11.05401],[-68.41555,-11.0395],[-68.42646,-11.03882],[-68.4341,-11.0321],[-68.44481,-11.04609],[-68.45572,-11.04527],[-68.46441,-11.05007],[-68.48719,-11.05088],[-68.50488,-11.06438],[-68.50715,-11.07317],[-68.51847,-11.08711],[-68.53987,-11.09675],[-68.54297,-11.11136],[-68.71612,-11.14556],[-68.71138,-11.12839],[-68.72221,-11.11355],[-68.72135,-11.10291],[-68.73452,-11.09329],[-68.74189,-11.09676],[-68.76536,-11.06565],[-68.76033,-11.05638],[-68.76472,-11.05202],[-68.76055,-11.03955],[-68.75205,-11.03827],[-68.75157,-11.01605],[-68.75939,-10.99982],[-68.77042,-11.00691],[-68.787,-11.00382],[-68.79843,-10.99565],[-68.8115,-10.99421],[-68.80375,-11.0012],[-68.82908,-11.00619],[-68.82683,-10.996],[-68.83393,-10.99254],[-68.83759,-11.0012],[-68.84369,-10.9915],[-68.84976,-10.99279],[-68.8603,-11.00467],[-68.85989,-11.01637],[-68.88284,-11.00837],[-68.87573,-11.01502],[-68.88002,-11.02137],[-68.8885,-11.01634],[-68.89487,-11.00624],[-68.91211,-11.02166],[-68.92023,-11.01339],[-68.92525,-11.01803],[-68.93269,-11.00506],[-68.94799,-11.01157],[-68.94769,-11.00401],[-68.95746,-10.99962],[-68.95252,-10.99075],[-68.96236,-10.99267],[-68.97389,-10.98944],[-68.98732,-10.998],[-68.98385,-11.00787],[-68.99126,-11.01149],[-68.99807,-11.00309],[-69.00135,-11.00892],[-69.01358,-10.99038],[-69.02313,-10.99364],[-69.02635,-10.98245],[-69.03444,-10.9861],[-69.03806,-10.9772],[-69.04924,-10.98127],[-69.04838,-10.97416],[-69.06107,-10.98577],[-69.07145,-10.96693],[-69.07796,-10.9758],[-69.08725,-10.96977],[-69.09784,-10.97971],[-69.10429,-10.98038],[-69.11416,-10.97197],[-69.1221,-10.98027],[-69.12164,-10.96695],[-69.13536,-10.97245],[-69.13858,-10.96795],[-69.1482,-10.97188],[-69.14548,-10.96239],[-69.15504,-10.96509],[-69.1541,-10.95472],[-69.16082,-10.96502],[-69.18971,-10.95032],[-69.20134,-10.94818],[-69.21617,-10.95797],[-69.22029,-10.94885],[-69.23263,-10.93996],[-69.23982,-10.9514],[-69.25426,-10.9489],[-69.25305,-10.93924],[-69.27562,-10.94407],[-69.2754,-10.95456],[-69.28214,-10.94405],[-69.28611,-10.94963],[-69.3045,-10.94836],[-69.31978,-10.94457],[-69.32626,-10.93584],[-69.32755,-10.94873],[-69.33605,-10.9408],[-69.34152,-10.95124],[-69.34716,-10.94599],[-69.34494,-10.93907],[-69.35801,-10.93794],[-69.37413,-10.941],[-69.37267,-10.95408],[-69.3771,-10.95442],[-69.38055,-10.94016],[-69.38697,-10.93389],[-69.3957,-10.93523],[-69.39208,-10.94565],[-69.40528,-10.92885],[-69.41274,-10.93741],[-69.41508,-10.92568],[-69.42526,-10.92749],[-69.42955,-10.93837],[-69.43561,-10.93389],[-69.45265,-10.93683],[-69.45376,-10.94933],[-69.46828,-10.94959],[-69.47867,-10.94558],[-69.47791,-10.95487],[-69.49291,-10.95146],[-69.49889,-10.93836],[-69.50831,-10.94382],[-69.52098,-10.93624],[-69.54318,-10.94002],[-69.54074,-10.95088],[-69.55076,-10.95277],[-69.55042,-10.94733],[-69.57177,-10.94577],[-69.58517,-10.94003],[-69.5906,-10.94822],[-69.59641,-10.94094],[-69.61138,-10.947],[-69.61053,-10.95889],[-69.62173,-10.95019],[-69.63401,-10.9579],[-69.65899,-10.95298],[-69.66827,-10.96234],[-69.67674,-10.96003],[-69.69649,-10.96862],[-69.70059,-10.96552],[-69.71406,-10.97624],[-69.72313,-10.96472],[-69.73565,-10.97446],[-69.73911,-10.9664],[-69.76012,-10.93921],[-69.77423,-10.9388],[-69.77069,-10.92959],[-69.77985,-10.93538],[-69.78712,-10.92881],[-69.79381,-10.93426],[-69.80028,-10.92642],[-69.8328,-10.93372],[-69.84357,-10.92474],[-69.8533,-10.92405],[-69.85933,-10.93424],[-69.86204,-10.926],[-69.87286,-10.93044],[-69.87748,-10.92476],[-69.90049,-10.92005],[-69.91277,-10.9222],[-69.91702,-10.931],[-69.93388,-10.92117],[-69.9418,-10.92628],[-69.95493,-10.92776],[-69.95662,-10.93711],[-69.97469,-10.94881],[-69.98419,-10.94423],[-69.9835,-10.95357],[-69.99638,-10.95177],[-69.99785,-10.96317],[-70.00635,-10.96108],[-70.01597,-10.97008],[-70.02234,-10.9691],[-70.02879,-10.97754],[-70.03734,-10.97068],[-70.03933,-10.98022],[-70.04609,-10.97889],[-70.05471,-10.987],[-70.06406,-10.98709],[-70.06903,-10.9944],[-70.08105,-10.98433],[-70.08949,-10.98516],[-70.10912,-10.99546],[-70.10704,-11.00435],[-70.12686,-11.01443],[-70.13832,-11.02812],[-70.15618,-11.03311],[-70.16096,-11.04259],[-70.18958,-11.04486],[-70.20156,-11.05446],[-70.21229,-11.05029],[-70.24041,-11.04946],[-70.26422,-11.0517],[-70.27173,-11.05951],[-70.28159,-11.05622],[-70.30216,-11.0688],[-70.31433,-11.07016],[-70.32767,-11.06536],[-70.35029,-11.06544],[-70.35386,-11.05894],[-70.37307,-11.06067],[-70.38548,-11.04756],[-70.41078,-11.04256],[-70.42467,-11.03783],[-70.43784,-11.039],[-70.43757,-11.02658],[-70.45267,-10.99674],[-70.47325,-10.9844],[-70.47456,-10.97788],[-70.48684,-10.96432],[-70.49662,-10.96298],[-70.51725,-10.94543],[-70.52109,-10.93544],[-70.53008,-10.93481],[-70.62101,-10.99964],[-70.62088,-10.70549]]]},"properties":{"CD_REG":"120002","NM_REG":"Brasiléia","SIGLA_UF":"AC"}},{"type":"Feature","geometry":{"type":"Polygon","coordinates":[[[-68.2199,-9.24275],[-68.22653,-9.24982],[-68.2372,-9.25233],[-68.24632,-9.26356],[-68.26705,-9.26542],[-68.28458,-9.28303],[-68.31643,-9.29541],[-68.33529,-9.2905],[-68.34908,-9.29181],[-68.35194,-9.2979],[-68.36655,-9.29945],[-68.40075,-9.32384],[-68.3303,-9.44198],[-68.33129,-9.45563],[-68.34337,-9.46706],[-68.3423,-9.47407],[-68.35173,-9.48223],[-68.355,-9.4912],[-68.37216,-9.4993],[-68.3834,-9.49642],[-68.38501,-9.50305],[-68.39561,-9.50077],[-68.41139,-9.52247],[-68.41387,-9.53712],[-68.42346,-9.54607],[-68.43224,-9.54038],[-68.45362,-9.55182],[-68.46196,-9.54624],[-68.47127,-9.54898],[-68.48447,-9.56154],[-68.49308,-9.57423],[-68.5041,-9.57206],[-68.51025,-9.57554],[-68.51407,-9.58873],[-68.58415,-9.5392],[-68.60122,-9.53802],[-68.60777,-9.50523],[-68.63335,-9.51592],[-68.67272,-9.56012],[-68.70006,-9.67927],[-68.69292,-9.75037],[-68.66652,-9.84098],[-68.69439,-9.88684],[-68.80136,-9.96208],[-68.88509,-10.06274],[-69.03728,-10.16443],[-69.12084,-10.26894],[-69.17237,-10.28653],[-69.31089,-10.36392],[-69.34201,-10.40285],[-69.36378,-10.46308],[-69.34181,-10.48533],[-69.50788,-10.505],[-69.53286,-10.48482],[-69.53752,-10.46811],[-69.53687,-10.45713],[-69.54512,-10.44741],[-69.54166,-10.44227],[-69.54057,-10.41954],[-69.55103,-10.40869],[-69.55384,-10.39803],[-69.56074,-10.39069],[-69.58808,-10.37114],[-69.59183,-10.37578],[-69.61242,-10.38173],[-69.61802,-10.38839],[-69.61095,-10.39322],[-69.62367,-10.39195],[-69.63061,-10.39608],[-69.62762,-10.40623],[-69.63471,-10.40463],[-69.63646,-10.41162],[-69.64475,-10.4135],[-69.65062,-10.4214],[-69.64691,-10.4298],[-69.65642,-10.42207],[-69.66354,-10.42723],[-69.6682,-10.42006],[-69.67176,-10.42837],[-69.67907,-10.42571],[-69.6832,-10.41146],[-69.68353,-10.42941],[-69.69015,-10.43868],[-69.697,-10.43223],[-69.70979,-10.43771],[-69.70521,-10.44621],[-69.71635,-10.44517],[-69.73014,-10.45499],[-69.74291,-10.44702],[-69.75784,-10.45557],[-69.75829,-10.46345],[-69.76668,-10.45876],[-69.78536,-10.46148],[-69.78999,-10.47687],[-69.80177,-10.47861],[-69.80738,-10.48607],[-69.79871,-10.50365],[-69.815,-10.50974],[-69.83006,-10.50841],[-69.83275,-10.54076],[-69.84925,-10.54295],[-69.86522,-10.54116],[-69.87657,-10.56183],[-69.88849,-10.55388],[-69.89393,-10.55966],[-69.90085,-10.55523],[-69.90661,-10.54403],[-69.9196,-10.56068],[-69.92566,-10.55945],[-69.92643,-10.54928],[-69.93289,-10.55064],[-69.9414,-10.56766],[-69.9546,-10.57277],[-69.95597,-10.57938],[-69.96663,-10.57454],[-69.97432,-10.58484],[-69.98004,-10.5855],[-69.99186,-10.57122],[-69.99919,-10.58643],[-70.00604,-10.58218],[-70.01809,-10.59559],[-70.03168,-10.59541],[-70.03376,-10.60271],[-70.04297,-10.60505],[-70.04012,-10.61331],[-70.05207,-10.60927],[-70.05542,-10.61845],[-70.07032,-10.61624],[-70.0676,-10.6339],[-70.07895,-10.63424],[-70.09102,-10.65164],[-70.10029,-10.6417],[-70.11059,-10.64723],[-70.11958,-10.63871],[-70.12546,-10.64453],[-70.12156,-10.65359],[-70.13135,-10.65406],[-70.13583,-10.66281],[-70.15041,-10.66713],[-70.15052,-10.67327],[-70.16312,-10.6659],[-70.16454,-10.67207],[-70.17465,-10.67305],[-70.17877,-10.69074],[-70.19368,-10.69366],[-70.20167,-10.68951],[-70.20862,-10.7019],[-70.21614,-10.69546],[-70.21262,-10.68729],[-70.21943,-10.68507],[-70.2327,-10.69357],[-70.25005,-10.69649],[-70.25259,-10.70977],[-70.25907,-10.7137],[-70.27118,-10.7071],[-70.27861,-10.70807],[-70.28651,-10.69624],[-70.29515,-10.70251],[-70.31134,-10.70111],[-70.31354,-10.71344],[-70.32442,-10.71283],[-70.33112,-10.71795],[-70.33293,-10.70842],[-70.34213,-10.70467],[-70.34155,-10.71529],[-70.3541,-10.71136],[-70.366,-10.71456],[-70.36709,-10.73083],[-70.38125,-10.73094],[-70.38344,-10.72019],[-70.4022,-10.7248],[-70.40697,-10.71587],[-70.41458,-10.71828],[-70.41912,-10.71074],[-70.42468,-10.71405],[-70.42567,-10.72416],[-70.433,-10.71538],[-70.44435,-10.71941],[-70.44575,-10.7105],[-70.4587,-10.71232],[-70.45579,-10.70318],[-70.46326,-10.70136],[-70.46869,-10.71657],[-70.47784,-10.71648],[-70.48596,-10.72448],[-70.50238,-10.71638],[-70.5021,-10.7237],[-70.51427,-10.71729],[-70.52148,-10.71996],[-70.53075,-10.71641],[-70.53361,-10.70343],[-70.52355,-10.69975],[-70.53874,-10.69129],[-70.55457,-10.68765],[-70.57726,-10.70326],[-70.58796,-10.69812],[-70.60176,-10.69834],[-70.60323,-10.70283],[-70.62088,-10.70549],[-70.62028,-10.36359],[-70.62113,-10.22835],[-70.62057,-10.07932],[-70.62059,-9.83225],[-70.62311,-9.81976],[-70.61545,-9.81667],[-70.61223,-9.80442],[-70.60008,-9.80014],[-70.59105,-9.80374],[-70.58685,-9.78585],[-70.57704,-9.7773],[-70.56252,-9.7889],[-70.55734,-9.7887],[-70.53732,-9.76768],[-70.53859,-9.74934],[-70.53205,-9.74499],[-70.5312,-9.73249],[-70.52471,-9.71526],[-70.53139,-9.71156],[-70.54216,-9.67984],[-70.54761,-9.6796],[-70.55249,-9.6683],[-70.5666,-9.66792],[-70.57542,-9.65463],[-70.57435,-9.64976],[-70.5849,-9.64096],[-70.59285,-9.62317],[-70.59195,-9.61577],[-70.59803,-9.60649],[-70.58995,-9.60216],[-70.58508,-9.59045],[-70.58567,-9.57528],[-70.60027,-9.56298],[-70.59778,-9.55266],[-70.59079,-9.54838],[-70.58376,-9.55605],[-70.58715,-9.56682],[-70.57611,-9.5634],[-70.5685,-9.57252],[-70.55715,-9.57454],[-70.55287,-9.56739],[-70.5615,-9.55676],[-70.56958,-9.55553],[-70.56332,-9.53085],[-70.55542,-9.53909],[-70.54007,-9.53696],[-70.53692,-9.53051],[-70.54675,-9.52583],[-70.54396,-9.51233],[-70.5351,-9.51086],[-70.53233,-9.49972],[-70.52611,-9.49776],[-70.51903,-9.50434],[-70.51478,-9.49986],[-70.51204,-9.48143],[-70.52346,-9.47209],[-70.52125,-9.45603],[-70.51507,-9.45556],[-70.51155,-9.46503],[-70.50352,-9.46281],[-70.51151,-9.44972],[-70.49472,-9.43998],[-70.49462,-9.42432],[-70.50556,-9.42222],[-70.5287,-9.43411],[-70.52558,-9.42724],[-70.53715,-9.43298],[-70.54691,-9.42696],[-70.54841,-9.43401],[-70.55941,-9.42975],[-70.56981,-9.43219],[-70.58846,-9.44656],[-70.59544,-9.44111],[-70.59605,-9.45939],[-70.6098,-9.45675],[-70.61189,-9.46796],[-70.6239,-9.47082],[-70.62498,-9.47823],[-70.63235,-9.47982],[-70.63609,-9.50148],[-70.6417,-9.49575],[-70.64905,-9.49886],[-70.65323,-9.5109],[-70.67375,-9.52949],[-70.69302,-9.53548],[-70.71727,-9.55375],[-70.72532,-9.55592],[-70.72576,-9.56741],[-70.73642,-9.56415],[-70.73851,-9.55872],[-70.74703,-9.56303],[-70.75775,-9.5787],[-70.75488,-9.59658],[-70.75803,-9.60566],[-70.76696,-9.60076],[-70.77629,-9.61196],[-70.7864,-9.61438],[-70.78405,-9.62251],[-70.79961,-9.64251],[-70.81276,-9.63945],[-70.83154,-9.64696],[-70.8338,-9.6427],[-70.83852,-9.65663],[-70.84999,-9.65485],[-70.86883,-9.66458],[-70.88033,-9.68805],[-70.88934,-9.68977],[-70.89618,-9.70835],[-70.91496,-9.72653],[-70.9252,-9.74194],[-70.93728,-9.74514],[-70.9524,-9.74199],[-70.96089,-9.75273],[-70.96262,-9.74791],[-70.97086,-9.75559],[-70.98039,-9.77109],[-70.98123,-9.77914],[-70.99298,-9.79524],[-70.99115,-9.81158],[-70.9977,-9.81838],[-71.01033,-9.81599],[-71.02205,-9.81839],[-71.03172,-9.81392],[-71.03954,-9.81895],[-71.05017,-9.81566],[-71.05907,-9.82444],[-71.07772,-9.82774],[-71.10037,-9.81594],[-71.08932,-9.77885],[-71.10176,-9.75058],[-71.08877,-9.74],[-71.07924,-9.70005],[-71.0455,-9.64244],[-70.9568,-9.58627],[-70.9511,-9.53596],[-70.90259,-9.50769],[-70.85585,-9.44882],[-70.7908,-9.44886],[-70.77042,-9.42205],[-70.73465,-9.41556],[-70.69347,-9.37161],[-70.63144,-9.37685],[-70.63957,-9.31298],[-70.62918,-9.30631],[-70.62724,-9.27019],[-70.57205,-9.21313],[-70.52769,-9.13826],[-70.49884,-9.10674],[-70.45292,-9.10379],[-70.43716,-9.08556],[-70.40278,-9.01824],[-70.36509,-8.98243],[-70.31898,-8.96363],[-70.1935,-8.96745],[-70.0901,-8.97361],[-70.03213,-8.96888],[-69.8651,-8.9575],[-69.83968,-8.94423],[-69.82631,-8.92056],[-69.80341,-8.85945],[-69.79507,-8.84022],[-69.77396,-8.80952],[-69.76315,-8.78495],[-69.72583,-8.76362],[-69.69962,-8.73242],[-69.65954,-8.68191],[-69.62821,-8.68143],[-69.62137,-8.67099],[-69.61033,-8.66946],[-69.60748,-8.66206],[-69.59111,-8.659],[-69.5717,-8.64404],[-69.5674,-8.61253],[-69.55081,-8.5852],[-69.5532,-8.57157],[-69.54692,-8.56625],[-69.54258,-8.54843],[-69.53365,-8.53893],[-69.52322,-8.51977],[-69.51849,-8.50498],[-69.5118,-8.49648],[-69.51368,-8.4872],[-69.51177,-8.46876],[-69.49837,-8.44483],[-69.47915,-8.42754],[-69.47989,-8.42204],[-69.46698,-8.4089],[-69.44962,-8.39582],[-69.45064,-8.38736],[-69.44314,-8.37209],[-69.44432,-8.36649],[-69.21298,-8.56437],[-68.96902,-8.77337],[-68.64719,-9.04942],[-68.2199,-9.24275]]]},"properties":{"CD_REG":"120003","NM_REG":"Sena Madureira","SIGLA_UF":"AC"}},{"type":"Feature","geometry":{"type":"Polygon","coordinates":[[[-73.80156,-7.11182],[-73.7382,-7.13468],[-73.18253,-7.3355],[-72.58477,-7.552],[-71.94542,-7.62675],[-72.00085,-7.80838],[-72.04975,-7.83981],[-72.05537,-7.85191],[-72.06189,-7.8497],[-72.08679,-7.86188],[-72.09406,-7.87794],[-72.09916,-7.87952],[-72.10992,-7.89577],[-72.13568,-7.92244],[-72.14707,-7.9246],[-72.156,-7.93727],[-72.18268,-7.94662],[-72.2003,-7.96161],[-72.20452,-7.96944],[-72.21503,-7.97505],[-72.22569,-8.02036],[-72.24666,-8.03592],[-72.2617,-8.0591],[-72.25768,-8.07145],[-72.2663,-8.26057],[-72.22563,-8.28089],[-72.26602,-8.39086],[-72.2316,-8.41026],[-72.22833,-8.5168],[-72.20129,-8.5519],[-72.23019,-8.59693],[-72.21398,-8.70082],[-72.14402,-8.71183],[-72.12484,-8.82853],[-72.0779,-8.86813],[-72.04401,-8.90041],[-72.0538,-8.93398],[-72.03624,-8.94482],[-72.02839,-8.97086],[-72.02942,-9.00203],[-72.04269,-9.02866],[-72.0319,-9.06885],[-72.05253,-9.14252],[-72.06915,-9.15575],[-72.06778,-9.17524],[-72.04417,-9.19797],[-72.04545,-9.21344],[-72.05506,-9.21489],[-72.09761,-9.2932],[-72.10112,-9.30786],[-72.12042,-9.31877],[-72.1493,-9.3693],[-72.16092,-9.39384],[-72.18315,-9.38868],[-72.22258,-9.41505],[-72.24929,-9.44451],[-72.25174,-9.45938],[-72.26263,-9.47341],[-72.27689,-9.47379],[-72.27276,-9.48739],[-72.29395,-9.4933],[-72.304,-9.50842],[-72.34041,-9.50867],[-72.35362,-9.50116],[-72.35676,-9.49444],[-72.36336,-9.4973],[-72.36632,-9.49],[-72.37511,-9.4954],[-72.38589,-9.49309],[-72.40826,-9.47707],[-72.41937,-9.48089],[-72.4519,-9.48387],[-72.45442,-9.49032],[-72.46131,-9.48485],[-72.48002,-9.48698],[-72.49297,-9.4795],[-72.50449,-9.48657],[-72.51553,-9.48447],[-72.51804,-9.49164],[-72.52908,-9.48485],[-72.52859,-9.47738],[-72.56094,-9.46325],[-72.57454,-9.46448],[-72.59371,-9.45372],[-72.59741,-9.45704],[-72.61134,-9.44917],[-72.61995,-9.45089],[-72.62202,-9.44527],[-72.64101,-9.44262],[-72.64668,-9.4476],[-72.66314,-9.44774],[-72.66835,-9.43775],[-72.67883,-9.43927],[-72.6834,-9.43239],[-72.69603,-9.43887],[-72.70036,-9.42827],[-72.70395,-9.43337],[-72.71239,-9.42992],[-72.71974,-9.41166],[-73.2119,-9.41167],[-73.20962,-9.40545],[-73.19354,-9.39281],[-73.19056,-9.3669],[-73.18604,-9.36002],[-73.15668,-9.3509],[-73.13931,-9.3218],[-73.12803,-9.31247],[-73.10078,-9.3042],[-73.11151,-9.28214],[-73.10812,-9.27544],[-73.09509,-9.26609],[-73.08659,-9.24448],[-73.0562,-9.2253],[-73.04495,-9.23687],[-73.02206,-9.22594],[-73.01911,-9.21907],[-72.99531,-9.19035],[-73.01117,-9.18759],[-73.01637,-9.17656],[-73.00866,-9.16773],[-72.98617,-9.15994],[-72.9716,-9.14824],[-72.96437,-9.14698],[-72.95268,-9.12857],[-72.94384,-9.10224],[-72.94548,-9.07442],[-72.94015,-9.06902],[-72.94834,-9.02565],[-72.95692,-9.01067],[-72.9392,-8.99685],[-72.93631,-8.98949],[-72.94437,-8.98409],[-72.96623,-8.97911],[-72.97437,-8.96792],[-72.98781,-8.93251],[-72.99481,-8.91985],[-73.0089,-8.91276],[-73.04323,-8.91529],[-73.05622,-8.9069],[-73.06434,-8.89355],[-73.0712,-8.86982],[-73.07748,-8.86091],[-73.07798,-8.84285],[-73.09426,-8.83722],[-73.10898,-8.82268],[-73.11182,-8.81556],[-73.11161,-8.79194],[-73.12289,-8.77482],[-73.13821,-8.75957],[-73.13761,-8.74296],[-73.14237,-8.7227],[-73.15537,-8.70772],[-73.17607,-8.6943],[-73.20835,-8.68095],[-73.22184,-8.67993],[-73.23784,-8.68656],[-73.24785,-8.68734],[-73.28481,-8.66636],[-73.2974,-8.65092],[-73.30203,-8.63004],[-73.31314,-8.63108],[-73.31164,-8.62178],[-73.31959,-8.6141],[-73.33703,-8.61782],[-73.34145,-8.61574],[-73.34397,-8.60208],[-73.34142,-8.57873],[-73.33747,-8.5709],[-73.33418,-8.54009],[-73.32798,-8.51708],[-73.32773,-8.48153],[-73.33537,-8.46715],[-73.34717,-8.47057],[-73.36506,-8.46338],[-73.37678,-8.46237],[-73.38661,-8.46961],[-73.39445,-8.46728],[-73.4057,-8.43417],[-73.40673,-8.41917],[-73.41237,-8.4106],[-73.42156,-8.407],[-73.43352,-8.4121],[-73.44795,-8.40217],[-73.47223,-8.39321],[-73.482,-8.39176],[-73.4859,-8.37809],[-73.50423,-8.37872],[-73.51622,-8.36964],[-73.52931,-8.3514],[-73.53695,-8.34548],[-73.5378,-8.33419],[-73.52973,-8.31476],[-73.54012,-8.29501],[-73.53606,-8.27727],[-73.54032,-8.26275],[-73.55329,-8.25385],[-73.56025,-8.2353],[-73.57164,-8.2298],[-73.57778,-8.2106],[-73.59525,-8.20658],[-73.58647,-8.18638],[-73.58584,-8.16417],[-73.59126,-8.14231],[-73.58534,-8.12282],[-73.59395,-8.0974],[-73.60706,-8.08649],[-73.61556,-8.0696],[-73.6334,-8.05676],[-73.62345,-8.03936],[-73.62689,-8.02149],[-73.63987,-8.00773],[-73.64948,-8.00253],[-73.66339,-8.00819],[-73.67597,-8.00781],[-73.67939,-8.00236],[-73.68867,-7.97137],[-73.69761,-7.9602],[-73.72276,-7.96006],[-73.72876,-7.96905],[-73.7465,-7.95256],[-73.74648,-7.93524],[-73.75092,-7.92337],[-73.77067,-7.90492],[-73.77009,-7.89684],[-73.75807,-7.89474],[-73.75303,-7.88956],[-73.76612,-7.87021],[-73.76721,-7.86091],[-73.75637,-7.85814],[-73.74203,-7.8727],[-73.71301,-7.87546],[-73.70395,-7.8726],[-73.68713,-7.85403],[-73.68367,-7.84426],[-73.68689,-7.82062],[-73.68189,-7.78966],[-73.68381,-7.77605],[-73.69276,-7.77272],[-73.69651,-7.76323],[-73.71323,-7.75547],[-73.7321,-7.74222],[-73.74004,-7.73371],[-73.75543,-7.73202],[-73.78615,-7.72244],[-73.80909,-7.72266],[-73.82167,-7.7175],[-73.83245,-7.69624],[-73.84654,-7.67469],[-73.85717,-7.67773],[-73.87294,-7.67111],[-73.88511,-7.65529],[-73.8862,-7.63578],[-73.89575,-7.62699],[-73.90853,-7.62439],[-73.93228,-7.60802],[-73.94237,-7.59857],[-73.9582,-7.57664],[-73.96834,-7.56735],[-73.98334,-7.56619],[-73.98779,-7.55489],[-73.99045,-7.53596],[-73.98512,-7.53044],[-73.97431,-7.53233],[-73.94751,-7.52623],[-73.93281,-7.49416],[-73.9292,-7.47758],[-73.91931,-7.46529],[-73.92742,-7.45166],[-73.93043,-7.42546],[-73.94161,-7.4095],[-73.96714,-7.35981],[-73.96617,-7.35161],[-73.95862,-7.34514],[-73.95079,-7.34708],[-73.94222,-7.36196],[-73.9309,-7.35192],[-73.90951,-7.37769],[-73.8902,-7.37764],[-73.8765,-7.38227],[-73.8599,-7.36882],[-73.85226,-7.3469],[-73.82959,-7.33653],[-73.81712,-7.33499],[-73.79412,-7.3438],[-73.7696,-7.33154],[-73.76117,-7.33284],[-73.7639,-7.34747],[-73.74692,-7.34365],[-73.71821,-7.32883],[-73.69981,-7.30391],[-73.69892,-7.29572],[-73.7157,-7.26722],[-73.71381,-7.23386],[-73.7239,-7.22094],[-73.7447,-7.20999],[-73.75518,-7.19787],[-73.75938,-7.17415],[-73.76606,-7.16316],[-73.77526,-7.15624],[-73.77767,-7.14549],[-73.79425,-7.13022],[-73.79148,-7.12643],[-73.80156,-7.11182]]]},"properties":{"CD_REG":"120004","NM_REG":"Cruzeiro do Sul","SIGLA_UF":"AC"}},{"type":"Feature","geometry":{"type":"Polygon","coordinates":[[[-71.94542,-7.62675],[-71.6457,-7.66165],[-71.0885,-7.72627],[-70.79253,-7.76044],[-70.33533,-7.81303],[-70.05498,-7.84515],[-69.80171,-8.06113],[-69.44432,-8.36649],[-69.44314,-8.37209],[-69.45064,-8.38736],[-69.44962,-8.39582],[-69.46698,-8.4089],[-69.47989,-8.42204],[-69.47915,-8.42754],[-69.49837,-8.44483],[-69.51177,-8.46876],[-69.51368,-8.4872],[-69.5118,-8.49648],[-69.51849,-8.50498],[-69.52322,-8.51977],[-69.53365,-8.53893],[-69.54258,-8.54843],[-69.54692,-8.56625],[-69.5532,-8.57157],[-69.55081,-8.5852],[-69.5674,-8.61253],[-69.5717,-8.64404],[-69.59111,-8.659],[-69.60748,-8.66206],[-69.61033,-8.66946],[-69.62137,-8.67099],[-69.62821,-8.68143],[-69.65954,-8.68191],[-69.69962,-8.73242],[-69.72583,-8.76362],[-69.76315,-8.78495],[-69.77396,-8.80952],[-69.79507,-8.84022],[-69.80341,-8.85945],[-69.82631,-8.92056],[-69.83968,-8.94423],[-69.8651,-8.9575],[-70.03213,-8.96888],[-70.0901,-8.97361],[-70.1935,-8.96745],[-70.31898,-8.96363],[-70.36509,-8.98243],[-70.40278,-9.01824],[-70.43716,-9.08556],[-70.45292,-9.10379],[-70.49884,-9.10674],[-70.52769,-9.13826],[-70.57205,-9.21313],[-70.62724,-9.27019],[-70.62918,-9.30631],[-70.63957,-9.31298],[-70.63144,-9.37685],[-70.69347,-9.37161],[-70.73465,-9.41556],[-70.77042,-9.42205],[-70.7908,-9.44886],[-70.85585,-9.44882],[-70.90259,-9.50769],[-70.9511,-9.53596],[-70.9568,-9.58627],[-71.0455,-9.64244],[-71.07924,-9.70005],[-71.08877,-9.74],[-71.10176,-9.75058],[-71.08932,-9.77885],[-71.10037,-9.81594],[-71.07772,-9.82774],[-71.08634,-9.83989],[-71.0999,-9.84561],[-71.10243,-9.85181],[-71.1279,-9.85191],[-71.16301,-9.87532],[-71.17171,-9.88808],[-71.18137,-9.9175],[-71.18739,-9.91965],[-71.1939,-9.9382],[-71.2057,-9.94718],[-71.21084,-9.96639],[-71.22745,-9.96934],[-71.24665,-9.96205],[-71.25305,-9.96392],[-71.25912,-9.97809],[-71.27109,-9.97827],[-71.30796,-9.992],[-71.31773,-9.99124],[-71.33887,-9.972],[-71.3529,-9.97656],[-71.35465,-9.988],[-71.36401,-9.98503],[-71.37742,-10.0],[-72.18045,-10.0],[-72.18068,-9.98478],[-72.16236,-9.97412],[-72.15584,-9.96048],[-72.1599,-9.95343],[-72.1607,-9.9395],[-72.1725,-9.93596],[-72.17409,-9.92159],[-72.16629,-9.90946],[-72.1567,-9.90221],[-72.14067,-9.87751],[-72.1522,-9.86525],[-72.15601,-9.85486],[-72.15764,-9.83477],[-72.16548,-9.82803],[-72.15526,-9.81165],[-72.15098,-9.79893],[-72.15801,-9.79117],[-72.17531,-9.78189],[-72.20137,-9.77403],[-72.2145,-9.77401],[-72.23037,-9.76332],[-72.2432,-9.76572],[-72.25161,-9.75382],[-72.26156,-9.75293],[-72.27089,-9.74484],[-72.2619,-9.72609],[-72.26393,-9.71313],[-72.25124,-9.69305],[-72.25265,-9.67866],[-72.24671,-9.65632],[-72.25224,-9.65636],[-72.26046,-9.64486],[-72.25294,-9.62285],[-72.25929,-9.6141],[-72.269,-9.62038],[-72.28904,-9.60216],[-72.28362,-9.5785],[-72.28546,-9.55654],[-72.28205,-9.54228],[-72.29059,-9.53572],[-72.31181,-9.54091],[-72.32284,-9.54086],[-72.33924,-9.52212],[-72.34041,-9.50867],[-72.304,-9.50842],[-72.29395,-9.4933],[-72.27276,-9.48739],[-72.27689,-9.47379],[-72.26263,-9.47341],[-72.25174,-9.45938],[-72.24929,-9.44451],[-72.22258,-9.41505],[-72.18315,-9.38868],[-72.16092,-9.39384],[-72.1493,-9.3693],[-72.12042,-9.31877],[-72.10112,-9.30786],[-72.09761,-9.2932],[-72.05506,-9.21489],[-72.04545,-9.21344],[-72.04417,-9.19797],[-72.06778,-9.17524],[-72.06915,-9.15575],[-72.05253,-9.14252],[-72.0319,-9.06885],[-72.04269,-9.02866],[-72.02942,-9.00203],[-72.02839,-8.97086],[-72.03624,-8.94482],[-72.0538,-8.93398],[-72.04401,-8.90041],[-72.0779,-8.86813],[-72.12484,-8.82853],[-72.14402,-8.71183],[-72.21398,-8.70082],[-72.23019,-8.59693],[-72.20129,-8.5519],[-72.22833,-8.5168],[-72.2316,-8.41026],[-72.26602,-8.39086],[-72.22563,-8.28089],[-72.2663,-8.26057],[-72.25768,-8.07145],[-72.2617,-8.0591],[-72.24666,-8.03592],[-72.22569,-8.02036],[-72.21503,-7.97505],[-72.20452,-7.96944],[-72.2003,-7.96161],[-72.18268,-7.94662],[-72.156,-7.93727],[-72.14707,-7.9246],[-72.13568,-7.92244],[-72.10992,-7.89577],[-72.09916,-7.87952],[-72.09406,-7.87794],[-72.08679,-7.86188],[-72.06189,-7.8497],[-72.05537,-7.85191],[-72.04975,-7.83981],[-72.00085,-7.80838],[-71.94542,-7.62675]]]},"properties":{"CD_REG":"120005","NM_REG":"Tarauacá","SIGLA_UF":"AC"}}]}