{"type":"FeatureCollection","features":[{"type":"Feature","geometry":{"type":"Polygon","coordinates":[[[-51.68351,-0.79552],[-51.70645,-0.80067],[-51.71994,-0.80816],[-51.72743,-0.81921],[-51.74145,-0.82461],[-51.72986,-0.82515],[-51.71887,-0.83127],[-51.72963,-0.83234],[-51.73937,-0.84303],[-51.72972,-0.84059],[-51.72645,-0.85658],[-51.73459,-0.85182],[-51.74344,-0.85622],[-51.73792,-0.86501],[-51.75913,-0.86109],[-51.77012,-0.86828],[-51.78058,-0.8627],[-51.78129,-0.85378],[-51.79294,-0.86822],[-51.8094,-0.86264],[-51.80411,-0.87012],[-51.82241,-0.85901],[-51.82532,-0.87886],[-51.81445,-0.88498],[-51.8233,-0.90934],[-51.83721,-0.90904],[-51.83626,-0.91991],[-51.84553,-0.90476],[-51.85753,-0.90292],[-51.85961,-0.89341],[-51.88201,-0.88004],[-51.88035,-0.88896],[-51.89015,-0.88616],[-51.89324,-0.87832],[-51.89734,-0.88462],[-51.90346,-0.88141],[-51.90061,-0.87303],[-51.90911,-0.87161],[-51.91184,-0.8826],[-51.91766,-0.87963],[-51.91445,-0.87072],[-51.92254,-0.86989],[-51.92153,-0.87939],[-51.92984,-0.87856],[-51.93501,-0.86959],[-51.94351,-0.86562],[-51.94028,-0.85921],[-51.94812,-0.85783],[-51.95796,-0.84238],[-51.94817,-0.83078],[-51.94878,-0.8237],[-51.94208,-0.81752],[-51.93866,-0.80455],[-51.94669,-0.78862],[-51.93904,-0.77527],[-51.94365,-0.77042],[-51.93562,-0.76752],[-51.94427,-0.76006],[-51.94042,-0.75663],[-51.94764,-0.74955],[-51.96884,-0.74683],[-51.97895,-0.72356],[-51.97769,-0.71004],[-51.9814,-0.70887],[-51.98084,-0.69496],[-51.99361,-0.68376],[-52.00443,-0.68216],[-52.0127,-0.68607],[-52.02386,-0.68319],[-52.0277,-0.66719],[-52.03993,-0.65886],[-52.04686,-0.64482],[-52.05644,-0.63992],[-52.05189,-0.63247],[-52.058,-0.61013],[-52.04844,-0.6045],[-52.0565,-0.57487],[-52.06374,-0.56524],[-52.08776,-0.5635],[-52.08705,-0.55468],[-52.07544,-0.54859],[-52.07741,-0.53757],[-52.07525,-0.51939],[-52.0854,-0.51304],[-52.07842,-0.51175],[-52.07814,-0.49774],[-52.06683,-0.49105],[-52.06157,-0.47916],[-52.06994,-0.4737],[-52.0688,-0.4598],[-52.07817,-0.45728],[-52.07807,-0.44746],[-52.08444,-0.42957],[-52.08186,-0.42249],[-52.08724,-0.38287],[-52.08144,-0.37446],[-52.0866,-0.36137],[-52.08133,-0.33641],[-52.08404,-0.3321],[-52.10126,-0.32743],[-52.10982,-0.31149],[-52.11524,-0.3085],[-52.1259,-0.29081],[-52.13802,-0.2834],[-52.14536,-0.28529],[-52.18485,-0.26234],[-52.19763,-0.25679],[-52.22346,-0.25616],[-52.23682,-0.2593],[-52.26497,-0.2568],[-52.27935,-0.25115],[-52.28671,-0.252],[-52.33145,-0.20325],[-52.33811,-0.18946],[-52.33811,-0.17069],[-52.34797,-0.15607],[-52.35249,-0.14276],[-52.3728,-0.13709],[-52.3933,-0.12447],[-52.40801,-0.12183],[-52.41314,-0.11598],[-52.43624,-0.10772],[-52.46276,-0.1059],[-52.48227,-0.10878],[-52.49989,-0.11531],[-52.52169,-0.14067],[-52.53314,-0.14429],[-52.53807,-0.14102],[-52.55114,-0.14458],[-52.55875,-0.11897],[-52.54444,-0.11083],[-52.5578,-0.09507],[-52.55174,-0.09146],[-52.54145,-0.09453],[-52.52939,-0.07756],[-52.52795,-0.06864],[-52.53522,-0.06342],[-52.52811,-0.04972],[-52.53058,-0.04072],[-52.52897,-0.0242],[-52.52215,-0.01564],[-52.50575,-0.01505],[-52.50848,0.00266],[-52.5162,0.00706],[-52.50717,0.01407],[-52.50872,0.02797],[-52.51799,0.03356],[-52.50598,0.04413],[-52.51765,0.04863],[-52.51293,0.0576],[-52.51685,0.06451],[-52.5062,0.07169],[-52.50525,0.08315],[-52.5129,0.09104],[-52.50805,0.1071],[-52.50343,0.10958],[-52.51239,0.13128],[-52.50024,0.13975],[-52.49733,0.152],[-52.50091,0.16726],[-52.49254,0.17648],[-52.4904,0.18974],[-52.50314,0.21456],[-52.49193,0.21189],[-52.48817,0.21959],[-52.503,0.23091],[-52.49554,0.25159],[-52.48831,0.2523],[-52.49269,0.2601],[-52.48494,0.26371],[-52.49506,0.27412],[-52.49506,0.28757],[-52.50885,0.30991],[-52.52106,0.32256],[-52.54925,0.35862],[-52.5551,0.35767],[-52.56323,0.36946],[-52.55962,0.38124],[-52.57255,0.38305],[-52.57516,0.39222],[-52.57036,0.40915],[-52.57873,0.42968],[-52.59475,0.44532],[-52.59227,0.44765],[-52.60007,0.46795],[-52.60449,0.47032],[-52.61123,0.49494],[-52.62421,0.49845],[-52.63058,0.49446],[-52.63799,0.50758],[-52.63219,0.51932],[-52.65316,0.53315],[-52.66271,0.54703],[-52.66243,0.55397],[-52.68082,0.58187],[-52.6851,0.59433],[-52.68268,0.61434],[-52.69185,0.64039],[-52.68724,0.65546],[-52.6837,0.6807],[-52.68379,0.70342],[-52.67494,0.72741],[-52.677,0.75599],[-52.68556,0.76664],[-52.72464,0.78258],[-52.74395,0.79648],[-52.75447,0.80777],[-52.75298,0.82381],[-52.74277,0.81453],[-52.72668,0.82049],[-52.72206,0.82647],[-52.69494,0.82502],[-52.67969,0.82901],[-52.6754,0.82633],[-52.66318,0.83392],[-52.66033,0.83012],[-52.6659,0.80842],[-52.66169,0.79196],[-52.64474,0.77622],[-52.63219,0.77451],[-52.61875,0.75953],[-52.61753,0.74411],[-52.61016,0.73817],[-52.58384,0.74173],[-52.57732,0.73818],[-52.56887,0.72495],[-52.54655,0.72092],[-52.53303,0.69738],[-52.52403,0.69272],[-52.5194,0.6832],[-52.50588,0.67806],[-52.501,0.67227],[-52.49956,0.65717],[-52.50712,0.65075],[-52.5035,0.64216],[-52.49037,0.63891],[-52.48162,0.63185],[-52.48079,0.61638],[-52.46778,0.59829],[-52.46679,0.58263],[-52.45713,0.57235],[-52.43837,0.56982],[-52.41388,0.54495],[-52.41805,0.5364],[-52.41688,0.51067],[-52.41131,0.50407],[-52.39585,0.49874],[-52.39564,0.48698],[-52.38411,0.48463],[-52.38681,0.46795],[-52.37679,0.45144],[-52.36746,0.44991],[-52.35165,0.43867],[-52.34902,0.43227],[-52.33716,0.43947],[-52.33822,0.42241],[-52.34697,0.41453],[-52.34676,0.40668],[-52.33863,0.40161],[-52.33696,0.38406],[-52.32627,0.38542],[-52.31808,0.37757],[-52.29575,0.39243],[-52.28131,0.37023],[-52.26618,0.36905],[-52.24246,0.36381],[-52.23555,0.36553],[-52.23473,0.38291],[-52.23836,0.39129],[-52.22549,0.41573],[-52.20193,0.44218],[-52.20037,0.45771],[-52.19117,0.46361],[-52.16448,0.46875],[-52.15346,0.47581],[-52.14546,0.48636],[-52.12835,0.49385],[-52.11605,0.49605],[-52.1069,0.50817],[-52.09003,0.50615],[-52.07332,0.4941],[-52.05485,0.48868],[-52.04083,0.47958],[-52.03168,0.46955],[-52.02005,0.47847],[-52.01147,0.47894],[-51.96359,0.45901],[-51.95401,0.45844],[-51.94974,0.44644],[-51.94154,0.45137],[-51.93188,0.44525],[-51.90755,0.44857],[-51.89944,0.44085],[-51.88788,0.44839],[-51.87412,0.44338],[-51.86111,0.43402],[-51.85422,0.43963],[-51.83862,0.43639],[-51.8334,0.44536],[-51.80377,0.45051],[-51.79284,0.44364],[-51.78259,0.43238],[-51.77988,0.42207],[-51.77388,0.42267],[-51.7636,0.41512],[-51.76017,0.40634],[-51.74459,0.40793],[-51.73828,0.40079],[-51.7166,0.4096],[-51.70856,0.39923],[-51.69949,0.39884],[-51.68909,0.3831],[-51.69029,0.37326],[-51.68659,0.35279],[-51.68101,0.35012],[-51.69438,0.32593],[-51.67314,0.30156],[-51.67372,0.29592],[-51.64599,0.2845],[-51.63989,0.27504],[-51.62877,0.26677],[-51.6246,0.2721],[-51.6105,0.25421],[-51.60887,0.2453],[-51.59417,0.2415],[-51.57411,0.2289],[-51.57619,0.21606],[-51.55982,0.22094],[-51.54356,0.24827],[-51.54708,0.2615],[-51.53296,0.27376],[-51.53395,0.28847],[-51.52793,0.29754],[-51.53014,0.31257],[-51.53932,0.32327],[-51.53088,0.33145],[-51.53434,0.33969],[-51.53221,0.3501],[-51.53593,0.35653],[-51.53184,0.36422],[-51.53159,0.38738],[-51.52569,0.39946],[-51.53403,0.40318],[-51.53627,0.41919],[-51.51513,0.4296],[-51.51094,0.45717],[-51.49194,0.46946],[-51.48554,0.47901],[-51.47423,0.47607],[-51.46917,0.48314],[-51.47082,0.4946],[-51.46086,0.50581],[-51.4494,0.5041],[-51.4464,0.50983],[-51.42554,0.50353],[-51.41145,0.48428],[-51.38434,0.48954],[-51.36854,0.48696],[-51.33183,0.46672],[-51.32176,0.47457],[-51.31019,0.47452],[-51.3026,0.46595],[-51.28779,0.46264],[-51.27689,0.45387],[-51.2629,0.45365],[-51.25953,0.44347],[-51.24734,0.43235],[-51.24463,0.41484],[-51.23597,0.40433],[-51.219,0.39901],[-51.20754,0.37795],[-51.20953,0.36954],[-51.20636,0.35709],[-51.21235,0.34301],[-51.20639,0.31706],[-51.19167,0.31759],[-51.18326,0.30993],[-51.17135,0.3079],[-51.16083,0.31756],[-51.1435,0.31428],[-51.1389,0.30901],[-51.12822,0.31812],[-51.1366,0.33451],[-51.12802,0.34826],[-51.12628,0.36072],[-51.11396,0.38525],[-51.11692,0.39399],[-51.10712,0.41103],[-51.10024,0.41527],[-51.09361,0.42782],[-51.08088,0.43741],[-51.06102,0.44233],[-51.05592,0.43784],[-51.05164,0.42116],[-51.04024,0.42999],[-51.03021,0.42804],[-51.03306,0.45333],[-51.02931,0.45936],[-51.01543,0.45613],[-51.01074,0.47985],[-51.00189,0.49648],[-50.99316,0.49559],[-50.97604,0.5029],[-50.96939,0.4994],[-50.95845,0.50183],[-50.94093,0.49648],[-50.92519,0.51463],[-50.94259,0.52417],[-50.95162,0.52403],[-50.95657,0.53143],[-50.9668,0.53365],[-50.97901,0.54832],[-50.98758,0.54763],[-50.99207,0.56438],[-51.00049,0.57317],[-50.99669,0.59673],[-50.98814,0.60425],[-50.9873,0.6188],[-50.99163,0.63819],[-50.99558,0.64433],[-50.9909,0.66804],[-50.98161,0.67738],[-50.97395,0.69621],[-50.91318,0.72809],[-50.90466,0.74207],[-50.9158,0.76752],[-50.91439,0.77396],[-50.90002,0.78663],[-50.88657,0.77329],[-50.88684,0.79805],[-50.87904,0.79988],[-50.84821,0.81901],[-50.81825,0.82635],[-50.80427,0.84079],[-50.79542,0.84358],[-50.78615,0.83863],[-50.78265,0.8289],[-50.76876,0.82249],[-50.75098,0.82583],[-50.74038,0.81757],[-50.71705,0.81717],[-50.69982,0.82366],[-50.68831,0.8371],[-50.66531,0.84981],[-50.66681,0.85407],[-50.65891,0.87255],[-50.64744,0.87886],[-50.63611,0.8666],[-50.63202,0.87146],[-50.62217,0.86945],[-50.61561,0.86117],[-50.61054,0.87864],[-50.61295,0.89228],[-50.60072,0.88729],[-50.59431,0.87194],[-50.59843,0.86434],[-50.58819,0.86284],[-50.5775,0.87382],[-50.57548,0.88464],[-50.55908,0.8705],[-50.54636,0.87656],[-50.53448,0.87323],[-50.51998,0.88701],[-50.51903,0.89557],[-50.50382,0.91042],[-50.50619,0.92219],[-50.49574,0.9286],[-50.47868,0.92611],[-50.46555,0.91755],[-50.4564,0.92183],[-50.44915,0.93217],[-50.44345,0.92718],[-50.43584,0.9412],[-50.43667,0.94928],[-50.41968,0.96104],[-50.40575,0.94899],[-50.40105,0.9355],[-50.38619,0.93278],[-50.38792,0.92436],[-50.37492,0.92721],[-50.36997,0.93896],[-50.36056,0.94008],[-50.35759,0.93426],[-50.34175,0.9256],[-50.32726,0.94478],[-50.30728,0.94435],[-50.18617,1.05045],[-50.19306,1.05889],[-50.18946,1.07932],[-50.17833,1.09824],[-50.16209,1.10287],[-50.14879,1.10264],[-50.14087,1.11762],[-50.13933,1.12952],[-50.12037,1.14035],[-50.11296,1.13898],[-50.10021,1.15327],[-50.09195,1.1574],[-50.08161,1.17428],[-50.06902,1.20224],[-50.06721,1.21676],[-50.04183,1.21423],[-49.98788,1.22183],[-49.94866,1.23205],[-49.90162,1.24029],[-49.90031,1.21287],[-49.89707,1.20634],[-49.89758,1.19158],[-49.89445,1.18216],[-49.88308,1.16908],[-49.88607,1.11115],[-49.88625,1.08792],[-49.88363,1.07765],[-49.88467,1.04714],[-49.88978,1.0136],[-49.92741,0.98466],[-49.94414,0.95936],[-49.9668,0.94371],[-49.98901,0.93952],[-50.00247,0.90641],[-49.99217,0.8961],[-49.98613,0.88335],[-49.98838,0.87484],[-50.02026,0.85877],[-50.03675,0.83252],[-50.07173,0.7962],[-50.09736,0.76705],[-50.11191,0.7604],[-50.1534,0.74974],[-50.16614,0.75443],[-50.22039,0.74312],[-50.23124,0.73014],[-50.22609,0.69624],[-50.2587,0.69076],[-50.29377,0.68328],[-50.32859,0.67435],[-50.35857,0.66009],[-50.39789,0.63258],[-50.42512,0.61158],[-50.43655,0.60011],[-50.45232,0.57096],[-50.46726,0.53092],[-50.47117,0.51303],[-50.47128,0.49968],[-50.47621,0.4815],[-50.48937,0.45336],[-50.504,0.43509],[-50.50765,0.41761],[-50.51895,0.39384],[-50.52389,0.37239],[-50.53928,0.3458],[-50.55295,0.3125],[-50.57976,0.26999],[-50.59631,0.25037],[-50.60678,0.24574],[-50.6236,0.23178],[-50.6682,0.18503],[-50.70098,0.16161],[-50.71875,0.14697],[-50.74351,0.13049],[-50.76196,0.12098],[-50.7848,0.11211],[-50.849,0.09429],[-50.87192,0.08922],[-50.92109,0.07613],[-50.94624,0.06271],[-50.97483,0.04179],[-50.98512,0.02942],[-50.99691,0.00345],[-51.00748,-0.00035],[-51.01734,-0.01072],[-51.03964,-0.0435],[-51.06893,-0.07913],[-51.08084,-0.08644],[-51.1132,-0.09661],[-51.15136,-0.10319],[-51.17173,-0.10399],[-51.21636,-0.11861],[-51.23504,-0.14364],[-51.24098,-0.15621],[-51.25998,-0.18699],[-51.2896,-0.22808],[-51.30248,-0.25264],[-51.32303,-0.26377],[-51.33212,-0.27378],[-51.34778,-0.29961],[-51.35445,-0.31852],[-51.36251,-0.36811],[-51.37856,-0.38758],[-51.40377,-0.41474],[-51.41668,-0.42435],[-51.42367,-0.43661],[-51.43248,-0.47334],[-51.45779,-0.51323],[-51.47817,-0.53426],[-51.4867,-0.54561],[-51.50087,-0.55391],[-51.51512,-0.56604],[-51.52622,-0.5802],[-51.57164,-0.62314],[-51.59554,-0.65044],[-51.62006,-0.69116],[-51.63401,-0.71053],[-51.64777,-0.73478],[-51.66548,-0.76189],[-51.67143,-0.7761],[-51.68351,-0.79552]]]},"properties":{"CD_REG":"160001","NM_REG":"Macapá","SIGLA_UF":"AP"}},{"type":"Feature","geometry":{"type":"Polygon","coordinates":[[[-51.68351,-0.79552],[-51.68821,-0.82321],[-51.69162,-0.86693],[-51.69049,-0.89251],[-51.69559,-0.92472],[-51.68959,-0.98017],[-51.68976,-0.99759],[-51.68565,-1.01286],[-51.68819,-1.03925],[-51.70043,-1.06321],[-51.70954,-1.07308],[-51.75543,-1.11417],[-51.7784,-1.14041],[-51.78846,-1.14761],[-51.8091,-1.1571],[-51.84448,-1.15968],[-51.88729,-1.1664],[-51.89719,-1.16205],[-51.90839,-1.15148],[-51.9229,-1.13296],[-51.93096,-1.13414],[-51.94943,-1.16877],[-51.95893,-1.16903],[-51.96594,-1.15308],[-51.96196,-1.13444],[-51.96559,-1.12581],[-51.97498,-1.12062],[-51.98533,-1.12145],[-51.9934,-1.12898],[-51.98704,-1.16452],[-51.99112,-1.17182],[-52.01676,-1.16794],[-52.0409,-1.17013],[-52.05506,-1.17695],[-52.06398,-1.18593],[-52.06296,-1.19289],[-52.04756,-1.21428],[-52.05151,-1.23059],[-52.06023,-1.23618],[-52.07046,-1.23598],[-52.09879,-1.22793],[-52.11099,-1.215],[-52.10676,-1.18307],[-52.11665,-1.14996],[-52.12026,-1.1462],[-52.14673,-1.14879],[-52.16239,-1.13405],[-52.17893,-1.1296],[-52.18779,-1.13252],[-52.21473,-1.13496],[-52.22899,-1.13233],[-52.23866,-1.12624],[-52.27332,-1.12853],[-52.28537,-1.12491],[-52.29576,-1.11748],[-52.31279,-1.11421],[-52.33299,-1.11589],[-52.33879,-1.1056],[-52.35203,-1.06977],[-52.35816,-1.06258],[-52.38312,-1.05399],[-52.40018,-1.04363],[-52.42007,-1.0527],[-52.42832,-1.04812],[-52.42754,-1.0378],[-52.41679,-1.02561],[-52.41446,-1.00927],[-52.41821,-0.99903],[-52.41874,-0.97218],[-52.42479,-0.95952],[-52.43868,-0.94361],[-52.43768,-0.92888],[-52.4267,-0.91905],[-52.40854,-0.91674],[-52.40472,-0.91274],[-52.40121,-0.88191],[-52.4124,-0.86266],[-52.43215,-0.84783],[-52.44432,-0.83417],[-52.45552,-0.83027],[-52.46326,-0.83853],[-52.49684,-0.84954],[-52.51107,-0.85666],[-52.53748,-0.85838],[-52.54384,-0.85154],[-52.54185,-0.83654],[-52.51697,-0.80905],[-52.52285,-0.79609],[-52.51824,-0.77552],[-52.50182,-0.74676],[-52.49788,-0.73075],[-52.49741,-0.71128],[-52.50173,-0.69276],[-52.51039,-0.67918],[-52.51585,-0.66357],[-52.51007,-0.65141],[-52.51318,-0.61965],[-52.51746,-0.61308],[-52.52318,-0.58907],[-52.53518,-0.57409],[-52.57633,-0.57641],[-52.59893,-0.58512],[-52.61299,-0.59489],[-52.62919,-0.59385],[-52.64001,-0.58491],[-52.66985,-0.5382],[-52.66729,-0.52511],[-52.68218,-0.51627],[-52.69544,-0.4964],[-52.69102,-0.47716],[-52.70268,-0.45923],[-52.69307,-0.44215],[-52.67915,-0.42367],[-52.68108,-0.41508],[-52.69735,-0.39294],[-52.69595,-0.372],[-52.68513,-0.35215],[-52.68185,-0.33996],[-52.68417,-0.31431],[-52.69183,-0.29965],[-52.7009,-0.29284],[-52.71624,-0.2927],[-52.74021,-0.27661],[-52.75443,-0.26219],[-52.76044,-0.23757],[-52.81651,-0.19862],[-52.8361,-0.18615],[-52.84477,-0.15973],[-52.85154,-0.15016],[-52.87174,-0.1427],[-52.8818,-0.1437],[-52.8976,-0.15447],[-52.90401,-0.15494],[-52.93274,-0.14231],[-52.93732,-0.1232],[-52.94921,-0.09712],[-52.96002,-0.06322],[-52.96902,-0.04978],[-52.97513,-0.02239],[-52.97735,-0.00035],[-52.97586,0.01846],[-52.98338,0.03338],[-53.00368,0.04387],[-53.01497,0.05969],[-53.01113,0.09505],[-53.02927,0.10472],[-53.03652,0.11982],[-53.03961,0.136],[-53.05213,0.15734],[-53.0701,0.16954],[-53.08338,0.18862],[-53.09429,0.19531],[-53.10585,0.23735],[-53.09413,0.25896],[-53.11193,0.28653],[-53.13138,0.2962],[-53.13661,0.30922],[-53.13646,0.32604],[-53.1513,0.35189],[-53.16635,0.36255],[-53.17531,0.38172],[-53.1612,0.39854],[-53.15924,0.42033],[-53.16521,0.43217],[-53.16775,0.44573],[-53.15513,0.48018],[-53.15955,0.48822],[-53.16977,0.49373],[-53.15963,0.51381],[-53.16271,0.52249],[-53.15206,0.53189],[-53.14816,0.55206],[-53.15485,0.56336],[-53.14732,0.60033],[-53.12271,0.63009],[-53.11519,0.647],[-53.11435,0.66156],[-53.10574,0.67946],[-53.12413,0.69735],[-53.1399,0.6931],[-53.14694,0.69979],[-53.15108,0.7194],[-53.15741,0.72907],[-53.17199,0.73702],[-53.18461,0.7475],[-53.18757,0.7645],[-53.21055,0.7823],[-53.25515,0.80921],[-53.27052,0.82358],[-53.28749,0.84572],[-53.3023,0.859],[-53.32199,0.872],[-53.35494,0.88825],[-53.36135,0.89611],[-53.38871,0.91209],[-53.41149,0.92934],[-53.41374,0.94742],[-53.41067,0.95664],[-53.4128,0.97174],[-53.4108,0.98204],[-53.42683,0.99243],[-53.42994,1.01981],[-53.42233,1.03374],[-53.43469,1.04801],[-53.43596,1.05958],[-53.45271,1.07123],[-53.45582,1.07737],[-53.45588,1.11036],[-53.45916,1.13368],[-53.44436,1.15132],[-53.43466,1.15368],[-53.42127,1.14736],[-53.40746,1.149],[-53.40207,1.15398],[-53.39608,1.17929],[-53.40299,1.19393],[-53.41744,1.20278],[-53.42607,1.22591],[-53.42652,1.24272],[-53.43375,1.23449],[-53.45091,1.23266],[-53.46991,1.23997],[-53.49302,1.22666],[-53.50305,1.22466],[-53.52521,1.21172],[-53.53899,1.21243],[-53.54632,1.22851],[-53.53058,1.24533],[-53.52333,1.26134],[-53.53052,1.27362],[-53.55271,1.28029],[-53.55922,1.29059],[-53.56263,1.30658],[-53.55666,1.31319],[-53.54411,1.31564],[-53.53339,1.32243],[-53.53855,1.34086],[-53.54849,1.34853],[-53.56386,1.34969],[-53.57069,1.3373],[-53.59522,1.35815],[-53.61263,1.35118],[-53.63325,1.34736],[-53.64188,1.33497],[-53.65097,1.33622],[-53.66308,1.3495],[-53.65475,1.35303],[-53.64352,1.36389],[-53.64513,1.38024],[-53.64094,1.38847],[-53.64461,1.40555],[-53.65524,1.40671],[-53.66263,1.39315],[-53.66485,1.37525],[-53.68047,1.37252],[-53.6875,1.3858],[-53.70146,1.37792],[-53.71146,1.38396],[-53.71344,1.39643],[-53.6958,1.41814],[-53.69988,1.42482],[-53.71719,1.43176],[-53.72405,1.42823],[-53.71602,1.41794],[-53.71541,1.40538],[-53.73135,1.39578],[-53.73233,1.38629],[-53.7551,1.39457],[-53.76247,1.40839],[-53.76805,1.39592],[-53.78372,1.40285],[-53.78847,1.41324],[-53.80399,1.42352],[-53.81567,1.42188],[-53.82277,1.41383],[-53.80749,1.40201],[-53.80705,1.3918],[-53.8236,1.38961],[-53.83077,1.39385],[-53.85034,1.39184],[-53.85108,1.39853],[-53.8443,1.40631],[-53.85497,1.40159],[-53.8763,1.40753],[-53.88283,1.40075],[-53.88775,1.40779],[-53.87674,1.43545],[-53.89325,1.44338],[-53.896,1.45513],[-53.91753,1.4569],[-53.9225,1.44226],[-53.9383,1.43546],[-53.94047,1.44332],[-53.93039,1.44993],[-53.92588,1.46548],[-53.94355,1.47133],[-53.95408,1.46797],[-53.9545,1.47709],[-53.96708,1.4844],[-53.97613,1.47228],[-53.98616,1.47904],[-53.99465,1.47478],[-54.00183,1.48362],[-54.00299,1.49492],[-53.99953,1.50477],[-54.00617,1.51732],[-54.01297,1.52002],[-54.02758,1.51684],[-54.02119,1.50682],[-54.02458,1.49986],[-54.04,1.50616],[-54.05197,1.49449],[-54.06244,1.49474],[-54.06916,1.50097],[-54.07944,1.4949],[-54.07797,1.48569],[-54.08875,1.492],[-54.08516,1.50546],[-54.08903,1.51368],[-54.08459,1.52633],[-54.09878,1.55052],[-54.11452,1.55122],[-54.11753,1.55817],[-54.11035,1.57499],[-54.10194,1.58431],[-54.102,1.59063],[-54.11855,1.58148],[-54.12283,1.59087],[-54.13138,1.59691],[-54.12258,1.6018],[-54.12308,1.6074],[-54.1335,1.61714],[-54.1298,1.62392],[-54.14236,1.62851],[-54.14366,1.64061],[-54.15247,1.63933],[-54.17613,1.64797],[-54.17836,1.65745],[-54.18575,1.65374],[-54.18741,1.62799],[-54.19747,1.63176],[-54.20088,1.64558],[-54.21013,1.65442],[-54.2193,1.65684],[-54.22836,1.66532],[-54.23014,1.67597],[-54.24445,1.67613],[-54.25383,1.68388],[-54.26366,1.68016],[-54.26274,1.68838],[-54.27449,1.71049],[-54.29236,1.70875],[-54.28294,1.71626],[-54.28164,1.72385],[-54.28989,1.72058],[-54.30044,1.72382],[-54.31325,1.734],[-54.3093,1.74105],[-54.32344,1.7375],[-54.32956,1.74382],[-54.34466,1.74063],[-54.35169,1.75407],[-54.37772,1.76369],[-54.38744,1.74516],[-54.40395,1.75976],[-54.41789,1.75657],[-54.42466,1.76044],[-54.43461,1.7541],[-54.46481,1.75919],[-54.47128,1.75151],[-54.48472,1.75545],[-54.49594,1.74694],[-54.50855,1.74827],[-54.52397,1.75601],[-54.53053,1.7671],[-54.56415,1.77426],[-54.57091,1.78446],[-54.58105,1.77766],[-54.60192,1.78457],[-54.61172,1.77932],[-54.62588,1.78064],[-54.64364,1.7686],[-54.65156,1.77165],[-54.6712,1.76566],[-54.67902,1.76889],[-54.69216,1.76787],[-54.69525,1.77346],[-54.72374,1.77133],[-54.74478,1.7758],[-54.74644,1.78645],[-54.75442,1.79781],[-54.74692,1.80577],[-54.75067,1.81425],[-54.73403,1.83198],[-54.74848,1.84233],[-54.7532,1.85099],[-54.75309,1.87572],[-54.75906,1.89015],[-54.76353,1.89249],[-54.76186,1.90558],[-54.7702,1.9257],[-54.76353,1.95036],[-54.75587,1.96031],[-54.756,1.97421],[-54.77214,1.97841],[-54.76903,1.9962],[-54.78087,1.99961],[-54.79097,2.00726],[-54.81134,2.03944],[-54.80597,2.05371],[-54.81283,2.06281],[-54.80617,2.07637],[-54.81383,2.10081],[-54.80469,2.10788],[-54.80922,2.12276],[-54.80358,2.13225],[-54.80625,2.13893],[-54.79853,2.15014],[-54.78353,2.16408],[-54.78322,2.17419],[-54.76789,2.18091],[-54.76948,2.18759],[-54.76284,2.19203],[-54.76311,2.20232],[-54.77064,2.20844],[-54.77511,2.22034],[-54.79895,2.24556],[-54.81142,2.26638],[-54.80908,2.28642],[-54.80292,2.29005],[-54.80722,2.29789],[-54.80203,2.30775],[-54.79584,2.30948],[-54.79617,2.31797],[-54.80505,2.32922],[-54.80756,2.34167],[-54.84258,2.38003],[-54.86608,2.40289],[-54.8747,2.41533],[-54.87625,2.42669],[-54.87225,2.43375],[-54.79739,2.43902],[-54.74403,2.47149],[-54.68492,2.44682],[-54.68628,2.41125],[-54.69209,2.3614],[-54.66225,2.32699],[-54.60169,2.33717],[-54.43658,2.20989],[-54.18908,2.17883],[-54.00124,2.22999],[-53.98997,2.23742],[-53.97491,2.23239],[-53.96719,2.24307],[-53.95297,2.24527],[-53.94236,2.2424],[-53.94274,2.25252],[-53.93569,2.2594],[-53.94208,2.27809],[-53.9366,2.28623],[-53.93994,2.29318],[-53.93402,2.29708],[-53.92958,2.29067],[-53.91602,2.2907],[-53.91636,2.27724],[-53.90781,2.274],[-53.89869,2.28811],[-53.89263,2.28379],[-53.8878,2.2988],[-53.8898,2.30648],[-53.88392,2.31634],[-53.8713,2.31627],[-53.86591,2.31158],[-53.85958,2.32],[-53.85241,2.31026],[-53.84208,2.30766],[-53.82405,2.31763],[-53.81485,2.31702],[-53.82063,2.32966],[-53.83166,2.3281],[-53.83705,2.3336],[-53.83275,2.3412],[-53.81455,2.34241],[-53.81317,2.35452],[-53.79963,2.36503],[-53.79086,2.36469],[-53.78409,2.37274],[-53.7733,2.37358],[-53.76722,2.37892],[-53.75802,2.37505],[-53.74163,2.375],[-53.74366,2.36659],[-53.75358,2.36395],[-53.74483,2.35891],[-53.73852,2.36226],[-53.72799,2.35108],[-53.72847,2.34276],[-53.73972,2.33533],[-53.73661,2.32395],[-53.74852,2.32248],[-53.74878,2.31281],[-53.73261,2.30905],[-53.72697,2.31439],[-53.70766,2.3091],[-53.69552,2.31228],[-53.68616,2.29459],[-53.68221,2.30119],[-53.66388,2.30538],[-53.66118,2.2997],[-53.65333,2.30242],[-53.6563,2.28452],[-53.62621,2.28458],[-53.615,2.27845],[-53.61002,2.28705],[-53.59813,2.28454],[-53.58424,2.26893],[-53.56763,2.27149],[-53.54991,2.25832],[-53.53152,2.25772],[-53.52024,2.26651],[-53.50993,2.26201],[-53.49538,2.26104],[-53.48538,2.26485],[-53.47308,2.25674],[-53.45868,2.2611],[-53.45444,2.27006],[-53.46558,2.27691],[-53.46966,2.28883],[-53.46132,2.29102],[-53.44038,2.2803],[-53.43363,2.2879],[-53.42183,2.28982],[-53.41527,2.29715],[-53.40508,2.29753],[-53.39893,2.30821],[-53.38577,2.30841],[-53.37719,2.31782],[-53.36763,2.32065],[-53.35999,2.33377],[-53.36002,2.34931],[-53.34832,2.35467],[-53.33818,2.3536],[-53.33355,2.34448],[-53.3233,2.34711],[-53.31699,2.3398],[-53.31646,2.33013],[-53.30808,2.31767],[-53.29757,2.30991],[-53.28282,2.30976],[-53.27752,2.29892],[-53.26085,2.2881],[-53.26207,2.27634],[-53.24585,2.27311],[-53.23471,2.27539],[-53.22951,2.26238],[-53.25332,2.24652],[-53.25974,2.25293],[-53.26074,2.23584],[-53.26741,2.22372],[-53.2763,2.22515],[-53.27999,2.20481],[-53.28702,2.19657],[-53.27918,2.18599],[-53.26991,2.17057],[-53.24695,2.15101],[-53.21754,2.136],[-53.20255,2.13368],[-53.19202,2.12571],[-53.17658,2.1207],[-53.16638,2.11125],[-53.13917,2.10094],[-53.13513,2.09156],[-53.13896,2.06633],[-53.1315,2.01727],[-53.11623,2.00702],[-53.11366,1.98545],[-53.11046,1.98056],[-53.09379,1.97724],[-53.08359,1.96421],[-53.07824,1.95079],[-53.06697,1.94274],[-53.05892,1.94656],[-53.05913,1.93393],[-53.05235,1.91374],[-53.04242,1.90725],[-53.04191,1.89801],[-53.02711,1.8747],[-53.02631,1.85425],[-53.02003,1.84343],[-53.01201,1.83999],[-52.99611,1.82211],[-52.999,1.80786],[-53.00881,1.80018],[-53.01252,1.78675],[-53.00453,1.76236],[-52.99038,1.7553],[-52.98186,1.73135],[-52.97378,1.7178],[-52.97121,1.7005],[-52.98085,1.69196],[-52.98545,1.68039],[-52.99285,1.64834],[-52.9943,1.62673],[-52.99051,1.60802],[-52.98367,1.59707],[-52.97699,1.57403],[-52.96471,1.55886],[-52.95213,1.55425],[-52.93622,1.55419],[-52.9158,1.55972],[-52.89639,1.55618],[-52.87912,1.54723],[-52.86838,1.53573],[-52.86337,1.52021],[-52.86311,1.50685],[-52.86742,1.4932],[-52.87085,1.46833],[-52.869,1.44409],[-52.8778,1.42745],[-52.88822,1.39363],[-52.91487,1.3577],[-52.91813,1.33411],[-52.92808,1.31776],[-52.93071,1.29908],[-52.92705,1.27865],[-52.93235,1.26486],[-52.95345,1.26552],[-52.95862,1.25837],[-52.9649,1.23959],[-52.96475,1.22855],[-52.97249,1.20612],[-52.96936,1.195],[-52.96392,1.13578],[-52.96005,1.12673],[-52.94571,1.12367],[-52.93046,1.115],[-52.91278,1.0963],[-52.89425,1.08842],[-52.89103,1.08094],[-52.89326,1.06185],[-52.89024,1.0492],[-52.87902,1.0405],[-52.87176,1.01026],[-52.87762,0.99993],[-52.87607,0.98814],[-52.86668,0.96676],[-52.851,0.95303],[-52.8415,0.95066],[-52.83009,0.95949],[-52.82414,0.95679],[-52.82216,0.94028],[-52.82419,0.93024],[-52.83478,0.91306],[-52.83686,0.89757],[-52.82847,0.89171],[-52.82331,0.87562],[-52.81627,0.87402],[-52.79977,0.87907],[-52.79157,0.88532],[-52.7721,0.87611],[-52.76159,0.8608],[-52.74757,0.85332],[-52.75738,0.82989],[-52.75298,0.82381],[-52.75447,0.80777],[-52.74395,0.79648],[-52.72464,0.78258],[-52.68556,0.76664],[-52.677,0.75599],[-52.67494,0.72741],[-52.68379,0.70342],[-52.6837,0.6807],[-52.68724,0.65546],[-52.69185,0.64039],[-52.68268,0.61434],[-52.6851,0.59433],[-52.68082,0.58187],[-52.66243,0.55397],[-52.66271,0.54703],[-52.65316,0.53315],[-52.63219,0.51932],[-52.63799,0.50758],[-52.63058,0.49446],[-52.62421,0.49845],[-52.61123,0.49494],[-52.60449,0.47032],[-52.60007,0.46795],[-52.59227,0.44765],[-52.59475,0.44532],[-52.57873,0.42968],[-52.57036,0.40915],[-52.57516,0.39222],[-52.57255,0.38305],[-52.55962,0.38124],[-52.56323,0.36946],[-52.5551,0.35767],[-52.54925,0.35862],[-52.52106,0.32256],[-52.50885,0.30991],[-52.49506,0.28757],[-52.49506,0.27412],[-52.48494,0.26371],[-52.49269,0.2601],[-52.48831,0.2523],[-52.49554,0.25159],[-52.503,0.23091],[-52.48817,0.21959],[-52.49193,0.21189],[-52.50314,0.21456],[-52.4904,0.18974],[-52.49254,0.17648],[-52.50091,0.16726],[-52.49733,0.152],[-52.50024,0.13975],[-52.51239,0.13128],[-52.50343,0.10958],[-52.50805,0.1071],[-52.5129,0.09104],[-52.50525,0.08315],[-52.5062,0.07169],[-52.51685,0.06451],[-52.51293,0.0576],[-52.51765,0.04863],[-52.50598,0.04413],[-52.51799,0.03356],[-52.50872,0.02797],[-52.50717,0.01407],[-52.5162,0.00706],[-52.50848,0.00266],[-52.50575,-0.01505],[-52.52215,-0.01564],[-52.52897,-0.0242],[-52.53058,-0.04072],[-52.52811,-0.04972],[-52.53522,-0.06342],[-52.52795,-0.06864],[-52.52939,-0.07756],[-52.54145,-0.09453],[-52.55174,-0.09146],[-52.5578,-0.09507],[-52.54444,-0.11083],[-52.55875,-0.11897],[-52.55114,-0.14458],[-52.53807,-0.14102],[-52.53314,-0.14429],[-52.52169,-0.14067],[-52.49989,-0.11531],[-52.48227,-0.10878],[-52.46276,-0.1059],[-52.43624,-0.10772],[-52.41314,-0.11598],[-52.40801,-0.12183],[-52.3933,-0.12447],[-52.3728,-0.13709],[-52.35249,-0.14276],[-52.34797,-0.15607],[-52.33811,-0.17069],[-52.33811,-0.18946],[-52.33145,-0.20325],[-52.28671,-0.252],[-52.27935,-0.25115],[-52.26497,-0.2568],[-52.23682,-0.2593],[-52.22346,-0.25616],[-52.19763,-0.25679],[-52.18485,-0.26234],[-52.14536,-0.28529],[-52.13802,-0.2834],[-52.1259,-0.29081],[-52.11524,-0.3085],[-52.10982,-0.31149],[-52.10126,-0.32743],[-52.08404,-0.3321],[-52.08133,-0.33641],[-52.0866,-0.36137],[-52.08144,-0.37446],[-52.08724,-0.38287],[-52.08186,-0.42249],[-52.08444,-0.42957],[-52.07807,-0.44746],[-52.07817,-0.45728],[-52.0688,-0.4598],[-52.06994,-0.4737],[-52.06157,-0.47916],[-52.06683,-0.49105],[-52.07814,-0.49774],[-52.07842,-0.51175],[-52.0854,-0.51304],[-52.07525,-0.51939],[-52.07741,-0.53757],[-52.07544,-0.54859],[-52.08705,-0.55468],[-52.08776,-0.5635],[-52.06374,-0.56524],[-52.0565,-0.57487],[-52.04844,-0.6045],[-52.058,-0.61013],[-52.05189,-0.63247],[-52.05644,-0.63992],[-52.04686,-0.64482],[-52.03993,-0.65886],[-52.0277,-0.66719],[-52.02386,-0.68319],[-52.0127,-0.68607],[-52.00443,-0.68216],[-51.99361,-0.68376],[-51.98084,-0.69496],[-51.9814,-0.70887],[-51.97769,-0.71004],[-51.97895,-0.72356],[-51.96884,-0.74683],[-51.94764,-0.74955],[-51.94042,-0.75663],[-51.94427,-0.76006],[-51.93562,-0.76752],[-51.94365,-0.77042],[-51.93904,-0.77527],[-51.94669,-0.78862],[-51.93866,-0.80455],[-51.94208,-0.81752],[-51.94878,-0.8237],[-51.94817,-0.83078],[-51.95796,-0.84238],[-51.94812,-0.85783],[-51.94028,-0.85921],[-51.94351,-0.86562],[-51.93501,-0.86959],[-51.92984,-0.87856],[-51.92153,-0.87939],[-51.92254,-0.86989],[-51.91445,-0.87072],[-51.91766,-0.87963],[-51.91184,-0.8826],[-51.90911,-0.87161],[-51.90061,-0.87303],[-51.90346,-0.88141],[-51.89734,-0.88462],[-51.89324,-0.87832],[-51.89015,-0.88616],[-51.88035,-0.88896],[-51.88201,-0.88004],[-51.85961,-0.89341],[-51.85753,-0.90292],[-51.84553,-0.90476],[-51.83626,-0.91991],[-51.83721,-0.90904],[-51.8233,-0.90934],[-51.81445,-0.88498],[-51.82532,-0.87886],[-51.82241,-0.85901],[-51.80411,-0.87012],[-51.8094,-0.86264],[-51.79294,-0.86822],[-51.78129,-0.85378],[-51.78058,-0.8627],[-51.77012,-0.86828],[-51.75913,-0.86109],[-51.73792,-0.86501],[-51.74344,-0.85622],[-51.73459,-0.85182],[-51.72645,-0.85658],[-51.72972,-0.84059],[-51.73937,-0.84303],[-51.72963,-0.83234],[-51.71887,-0.83127],[-51.72986,-0.82515],[-51.74145,-0.82461],[-51.72743,-0.81921],[-51.71994,-0.80816],[-51.70645,-0.80067],[-51.68351,-0.79552]]]},"properties":{"CD_REG":"160002","NM_REG":"Laranjal do Jari","SIGLA_UF":"AP"}},{"type":"Feature","geometry":{"type":"MultiPolygon","coordinates":[[[[-50.88684,0.79805],[-50.91625,0.80359],[-50.95167,0.82903],[-50.94959,0.84235],[-50.95073,0.86127],[-50.94111,0.87624],[-50.94348,0.88599],[-50.93766,0.89252],[-50.91377,0.89621],[-50.90985,0.90595],[-50.91674,0.91736],[-50.91437,0.92591],[-50.92423,0.94124],[-50.91995,0.95574],[-50.90724,0.96275],[-50.89975,0.97831],[-50.89357,0.98425],[-50.89304,0.99336],[-50.92421,0.99216],[-50.93099,0.9899],[-50.94501,0.99394],[-50.95927,0.98336],[-50.98233,0.98194],[-50.99148,0.96744],[-50.98839,0.95247],[-50.99873,0.94285],[-51.00063,0.93179],[-51.00325,0.94325],[-51.01615,0.95211],[-51.01258,0.9576],[-51.02639,0.97654],[-51.0183,0.98585],[-51.03632,0.99042],[-51.03314,1.00087],[-51.04207,1.009],[-51.05006,1.01062],[-51.05823,1.01865],[-51.07235,1.01798],[-51.07625,1.02312],[-51.08785,1.02464],[-51.09416,1.02084],[-51.12832,1.00971],[-51.14704,1.02465],[-51.15081,1.03117],[-51.17396,1.0356],[-51.18259,1.03502],[-51.20312,1.00329],[-51.22583,0.97331],[-51.22843,0.96443],[-51.23923,0.95302],[-51.24653,0.96518],[-51.24536,0.97576],[-51.25287,0.97238],[-51.26271,0.97893],[-51.28027,0.97872],[-51.29392,0.97534],[-51.30334,0.98983],[-51.32174,0.98073],[-51.3428,0.98168],[-51.34851,0.97111],[-51.35581,0.96762],[-51.35189,0.95778],[-51.35401,0.94847],[-51.36131,0.94562],[-51.36797,0.95439],[-51.37802,0.95038],[-51.38691,0.95926],[-51.38268,0.97301],[-51.39611,0.97798],[-51.40035,0.98856],[-51.40955,0.99755],[-51.4067,1.05056],[-51.42833,1.06159],[-51.46666,1.06757],[-51.48283,1.08752],[-51.47046,1.10485],[-51.46089,1.1111],[-51.45735,1.10732],[-51.44539,1.14364],[-51.44854,1.14905],[-51.44466,1.16056],[-51.44521,1.18208],[-51.43558,1.18695],[-51.43677,1.20703],[-51.44188,1.21285],[-51.4439,1.23571],[-51.45298,1.24146],[-51.43427,1.25337],[-51.42964,1.26537],[-51.40861,1.26842],[-51.39979,1.27675],[-51.40516,1.2826],[-51.38904,1.32281],[-51.50086,1.32372],[-51.99063,1.31674],[-52.00001,1.32258],[-52.00625,1.32002],[-52.01469,1.32608],[-52.00894,1.33884],[-52.01184,1.35673],[-52.0072,1.36849],[-52.02217,1.37622],[-52.02384,1.38798],[-52.03501,1.40057],[-52.03406,1.41031],[-52.04257,1.41416],[-52.03337,1.42085],[-52.04103,1.43296],[-52.04438,1.44835],[-52.03971,1.46206],[-52.02655,1.46812],[-52.02467,1.47529],[-52.03846,1.48365],[-52.01965,1.49597],[-52.01659,1.50572],[-52.02648,1.51205],[-52.02634,1.52319],[-52.03393,1.52639],[-52.03679,1.5415],[-52.03184,1.56176],[-52.03943,1.57401],[-52.03616,1.58216],[-52.03833,1.59272],[-52.0308,1.59413],[-52.02216,1.61328],[-52.01937,1.62998],[-52.0221,1.65071],[-52.0301,1.64829],[-52.03344,1.66368],[-52.0457,1.67537],[-52.04333,1.68769],[-52.04995,1.69264],[-52.05301,1.71248],[-52.04612,1.72689],[-52.0535,1.76246],[-52.04549,1.78661],[-52.05078,1.79016],[-52.04737,1.80269],[-52.0565,1.80826],[-52.04911,1.81905],[-52.0551,1.82941],[-52.04974,1.83353],[-52.05044,1.86047],[-52.05517,1.87077],[-52.04863,1.88559],[-52.04424,1.88267],[-52.04047,1.89364],[-52.03073,1.8961],[-52.02634,1.92012],[-52.01302,1.93273],[-52.02098,1.9749],[-52.01541,1.97559],[-52.01046,1.98951],[-52.01701,1.99251],[-52.00607,2.00448],[-52.00559,2.02104],[-51.9996,2.03406],[-52.00802,2.04234],[-52.00524,2.05083],[-52.00983,2.05751],[-52.0122,2.07213],[-52.01004,2.08243],[-52.0184,2.09273],[-52.02669,2.1134],[-52.03198,2.11966],[-52.02961,2.1269],[-52.03961,2.15874],[-52.03655,2.16267],[-52.04124,2.17645],[-52.03644,2.19197],[-52.04331,2.21048],[-52.03894,2.21295],[-52.03696,2.23226],[-52.04672,2.25124],[-52.0639,2.26251],[-52.0667,2.2747],[-52.06512,2.28858],[-52.05468,2.30052],[-52.04345,2.32415],[-52.0444,2.33375],[-52.03804,2.34191],[-52.03974,2.35166],[-52.03904,2.37731],[-52.04234,2.38568],[-52.04009,2.39785],[-52.04532,2.40429],[-52.04104,2.42374],[-52.02137,2.42632],[-52.02156,2.43429],[-52.0429,2.4392],[-52.04618,2.43598],[-52.05124,2.40176],[-52.0599,2.39138],[-52.07282,2.39426],[-52.09179,2.40971],[-52.09549,2.39896],[-52.11326,2.40104],[-52.11927,2.39361],[-52.11241,2.38692],[-52.11954,2.38255],[-52.12457,2.36915],[-52.11859,2.35693],[-52.13015,2.34026],[-52.12943,2.33484],[-52.14023,2.32407],[-52.15318,2.31743],[-52.14984,2.30562],[-52.16424,2.29842],[-52.17593,2.30294],[-52.18379,2.29393],[-52.18127,2.27577],[-52.18987,2.27917],[-52.19374,2.26127],[-52.2091,2.26464],[-52.21575,2.26001],[-52.23132,2.26402],[-52.23963,2.24795],[-52.24955,2.23828],[-52.24351,2.22642],[-52.24762,2.20824],[-52.24366,2.20087],[-52.23151,2.20161],[-52.22013,2.18857],[-52.22313,2.18453],[-52.23913,2.19325],[-52.24679,2.18886],[-52.24615,2.18181],[-52.25241,2.16877],[-52.28113,2.15671],[-52.29105,2.15854],[-52.29974,2.15469],[-52.31915,2.15836],[-52.34004,2.1526],[-52.34729,2.13998],[-52.35329,2.14315],[-52.36777,2.1181],[-52.39259,2.10004],[-52.41085,2.09286],[-52.41604,2.0801],[-52.41037,2.07558],[-52.41229,2.0539],[-52.40696,2.03569],[-52.41207,2.02936],[-52.42087,2.03864],[-52.42532,2.03513],[-52.43943,2.04504],[-52.45757,2.04204],[-52.45802,2.03669],[-52.47193,2.03936],[-52.4853,2.03743],[-52.49979,2.04087],[-52.51126,2.02831],[-52.52293,2.02706],[-52.53455,2.01507],[-52.5524,2.00959],[-52.55816,2.0217],[-52.56568,2.01629],[-52.57457,2.01848],[-52.5929,2.01235],[-52.59374,2.0035],[-52.61213,2.01302],[-52.61669,2.02477],[-52.63454,2.03302],[-52.64288,2.04857],[-52.65052,2.05165],[-52.6568,2.04461],[-52.6681,2.05674],[-52.68266,2.05387],[-52.68102,2.06922],[-52.69171,2.06282],[-52.69843,2.06672],[-52.71533,2.06268],[-52.72896,2.07282],[-52.74727,2.07094],[-52.75502,2.06734],[-52.76021,2.07774],[-52.77429,2.07315],[-52.78572,2.07597],[-52.79665,2.07137],[-52.81282,2.0845],[-52.83277,2.08191],[-52.83719,2.0661],[-52.82866,2.06627],[-52.82885,2.05182],[-52.83721,2.03638],[-52.84502,2.03441],[-52.85688,2.04066],[-52.87188,2.02558],[-52.88724,2.0322],[-52.89549,2.02815],[-52.90871,2.00865],[-52.90349,1.99928],[-52.90768,1.99437],[-52.90046,1.96483],[-52.91424,1.9484],[-52.92338,1.94238],[-52.92902,1.95013],[-52.95171,1.94601],[-52.96171,1.95076],[-52.98219,1.94951],[-52.99899,1.9548],[-53.0086,1.97835],[-53.0255,1.98094],[-53.04193,1.97684],[-53.05149,1.96645],[-53.05892,1.94656],[-53.06697,1.94274],[-53.07824,1.95079],[-53.08359,1.96421],[-53.09379,1.97724],[-53.11046,1.98056],[-53.11366,1.98545],[-53.11623,2.00702],[-53.1315,2.01727],[-53.13896,2.06633],[-53.13513,2.09156],[-53.13917,2.10094],[-53.16638,2.11125],[-53.17658,2.1207],[-53.19202,2.12571],[-53.20255,2.13368],[-53.21754,2.136],[-53.24695,2.15101],[-53.26991,2.17057],[-53.27918,2.18599],[-53.27594,2.19412],[-53.26552,2.18879],[-53.2556,2.1977],[-53.24658,2.19895],[-53.24277,2.20758],[-53.23307,2.20541],[-53.22069,2.19361],[-53.20838,2.19924],[-53.18518,2.19924],[-53.17538,2.20423],[-53.1631,2.20474],[-53.13866,2.2119],[-53.11804,2.21178],[-53.09955,2.21428],[-53.08452,2.21274],[-53.05398,2.19084],[-53.03897,2.18547],[-53.0305,2.18639],[-53.00789,2.17744],[-52.99765,2.17816],[-52.98803,2.16846],[-52.97532,2.17223],[-52.95682,2.17299],[-52.93833,2.18072],[-52.93461,2.19434],[-52.90433,2.18855],[-52.89146,2.21695],[-52.8862,2.21928],[-52.88735,2.23859],[-52.87727,2.23842],[-52.8726,2.25818],[-52.85403,2.26368],[-52.85841,2.27872],[-52.83823,2.2813],[-52.84216,2.29122],[-52.81856,2.29471],[-52.80142,2.30026],[-52.77982,2.31738],[-52.74913,2.32893],[-52.73982,2.33698],[-52.7168,2.34381],[-52.719,2.35002],[-52.71009,2.35874],[-52.6802,2.37062],[-52.67387,2.36891],[-52.66058,2.37397],[-52.65415,2.3957],[-52.65699,2.40409],[-52.64473,2.41832],[-52.64637,2.43212],[-52.62857,2.44552],[-52.6164,2.4456],[-52.61029,2.45247],[-52.62158,2.46205],[-52.61681,2.47568],[-52.59402,2.47723],[-52.58866,2.49236],[-52.56521,2.51627],[-52.55206,2.52002],[-52.55029,2.53239],[-52.55455,2.53174],[-52.56092,2.55069],[-52.55054,2.56155],[-52.53574,2.56056],[-52.53782,2.56707],[-52.52722,2.58242],[-52.53186,2.59892],[-52.54993,2.61089],[-52.54226,2.62195],[-52.54549,2.63087],[-52.55554,2.63954],[-52.55039,2.64891],[-52.54205,2.65397],[-52.52934,2.65161],[-52.52726,2.66408],[-52.51964,2.67605],[-52.52031,2.68227],[-52.50674,2.69952],[-52.50002,2.72129],[-52.49141,2.72877],[-52.47916,2.75391],[-52.482,2.76081],[-52.47546,2.76345],[-52.47782,2.78177],[-52.47345,2.79389],[-52.45313,2.82789],[-52.44497,2.85006],[-52.41989,2.89317],[-52.39014,2.89821],[-52.37689,2.92038],[-52.38819,2.91752],[-52.39497,2.93149],[-52.38969,2.94037],[-52.3923,2.94776],[-52.38312,2.95055],[-52.3706,2.97595],[-52.37119,2.99091],[-52.36644,2.99532],[-52.36211,3.01713],[-52.35248,3.02298],[-52.34117,3.05123],[-52.3277,3.07132],[-52.32688,3.08046],[-52.34546,3.09773],[-52.34505,3.10843],[-52.33823,3.11748],[-52.35286,3.12653],[-52.34927,3.13513],[-52.33436,3.13455],[-52.33141,3.1385],[-52.34078,3.14442],[-52.32951,3.16704],[-52.31247,3.17523],[-52.30325,3.17302],[-52.29936,3.17822],[-52.30273,3.19996],[-52.29336,3.21721],[-52.29251,3.22642],[-52.27598,3.23491],[-52.26354,3.24563],[-52.26045,3.253],[-52.25007,3.25086],[-52.24572,3.239],[-52.2336,3.24069],[-52.22324,3.254],[-52.2105,3.2774],[-52.18908,3.30205],[-52.19263,3.30765],[-52.18667,3.32005],[-52.17734,3.32674],[-52.17013,3.34405],[-52.16247,3.35093],[-52.15011,3.37564],[-52.13837,3.39375],[-52.10867,3.45105],[-52.09523,3.46176],[-52.09398,3.47505],[-52.08683,3.48958],[-52.07356,3.49978],[-52.07105,3.51759],[-52.06108,3.51908],[-52.0192,3.59375],[-52.00262,3.60921],[-51.98882,3.62686],[-51.99347,3.6429],[-51.98692,3.65412],[-51.98653,3.67215],[-51.9788,3.68244],[-51.97261,3.70547],[-51.95649,3.71506],[-51.9493,3.72251],[-51.93557,3.71939],[-51.92495,3.72224],[-51.91894,3.7316],[-51.91609,3.74565],[-51.9266,3.76733],[-51.91792,3.78187],[-51.90465,3.78097],[-51.896,3.78591],[-51.90442,3.79418],[-51.90081,3.80017],[-51.88599,3.79467],[-51.88435,3.80141],[-51.874,3.80317],[-51.8564,3.83267],[-51.83689,3.8506],[-51.82345,3.85857],[-51.82226,3.8678],[-51.79864,3.88695],[-51.78133,3.92522],[-51.78317,3.94646],[-51.78233,3.96409],[-51.77577,3.97647],[-51.74574,4.00149],[-51.70874,4.01802],[-51.70219,4.02436],[-51.67572,4.03605],[-51.65607,4.05391],[-51.6477,4.0795],[-51.64219,4.11627],[-51.63755,4.13326],[-51.63496,4.17635],[-51.63134,4.18597],[-51.62187,4.19507],[-51.61891,4.20982],[-51.62314,4.22562],[-51.64932,4.26727],[-51.66923,4.30978],[-51.6768,4.33265],[-51.67918,4.36609],[-51.67399,4.39414],[-51.66378,4.42352],[-51.66937,4.45384],[-51.66201,4.47066],[-51.63763,4.50882],[-51.5117,4.44764],[-51.48588,4.43718],[-51.44568,4.40397],[-51.42185,4.38714],[-51.39423,4.36498],[-51.38537,4.35314],[-51.36608,4.33614],[-51.35164,4.31965],[-51.33785,4.31018],[-51.31961,4.28492],[-51.29719,4.26123],[-51.28336,4.25027],[-51.27133,4.234],[-51.26385,4.21631],[-51.23967,4.18451],[-51.21639,4.14996],[-51.19754,4.10616],[-51.19844,4.10241],[-51.18852,4.07691],[-51.18065,4.02777],[-51.17565,4.01086],[-51.17831,4.00344],[-51.17723,3.98056],[-51.18088,3.96265],[-51.17767,3.958],[-51.18042,3.92721],[-51.1793,3.9195],[-51.12387,3.90844],[-51.10187,3.9128],[-51.09208,3.90829],[-51.08512,3.89978],[-51.08068,3.88481],[-51.08482,3.84007],[-51.08942,3.81909],[-51.0864,3.81085],[-51.0889,3.79416],[-51.08723,3.78385],[-51.09117,3.73847],[-51.09027,3.68937],[-51.08778,3.64296],[-51.08843,3.62451],[-51.08621,3.59151],[-51.08177,3.55954],[-51.08703,3.51968],[-51.08714,3.49985],[-51.09101,3.48048],[-51.10931,3.45063],[-51.10539,3.42577],[-51.08654,3.35017],[-51.06917,3.30314],[-51.06514,3.28806],[-51.04903,3.24775],[-51.04358,3.2406],[-51.03282,3.21369],[-51.03562,3.17662],[-51.04371,3.1659],[-51.04441,3.134],[-51.0318,3.10689],[-51.02527,3.10253],[-51.0143,3.08556],[-51.01826,3.07828],[-51.01502,3.06774],[-51.02091,3.06387],[-51.02117,3.05138],[-51.01511,3.0371],[-50.99883,3.01104],[-50.98894,2.95821],[-50.98376,2.93707],[-50.97615,2.92937],[-50.96028,2.89591],[-50.94896,2.87535],[-50.95137,2.86142],[-50.94969,2.84509],[-50.95421,2.83724],[-50.945,2.81775],[-50.92273,2.80332],[-50.9095,2.79011],[-50.90622,2.7819],[-50.90535,2.75694],[-50.88731,2.74623],[-50.88337,2.72317],[-50.88622,2.71059],[-50.88044,2.6842],[-50.86811,2.67726],[-50.85717,2.65653],[-50.85899,2.64524],[-50.84772,2.64034],[-50.84433,2.60098],[-50.84734,2.5914],[-50.83816,2.57806],[-50.83167,2.55393],[-50.83315,2.53973],[-50.82356,2.52763],[-50.82701,2.51277],[-50.8165,2.50297],[-50.80183,2.50265],[-50.79422,2.49855],[-50.78396,2.47114],[-50.77037,2.45342],[-50.76667,2.42946],[-50.76809,2.40731],[-50.75639,2.38645],[-50.75748,2.3689],[-50.75049,2.36341],[-50.74662,2.35301],[-50.74533,2.3219],[-50.74079,2.30901],[-50.73122,2.30078],[-50.72263,2.28775],[-50.72527,2.25271],[-50.71998,2.23631],[-50.70484,2.22409],[-50.68663,2.19105],[-50.68077,2.16709],[-50.68534,2.1504],[-50.68187,2.1334],[-50.67096,2.12914],[-50.64252,2.11295],[-50.63419,2.10223],[-50.61783,2.09127],[-50.59806,2.06383],[-50.59986,2.04057],[-50.58902,2.0044],[-50.58266,1.98963],[-50.55798,1.95584],[-50.55139,1.94942],[-50.53301,1.94001],[-50.52562,1.92994],[-50.50855,1.8883],[-50.47496,1.8386],[-50.44484,1.81504],[-50.43095,1.81064],[-50.42373,1.80446],[-50.40046,1.80027],[-50.37355,1.80112],[-50.35836,1.80468],[-50.33129,1.81489],[-50.32461,1.81538],[-50.28969,1.80787],[-50.26432,1.81252],[-50.23381,1.80879],[-50.19725,1.8102],[-50.18657,1.81272],[-50.15869,1.81122],[-50.13222,1.79649],[-50.0805,1.77894],[-50.03221,1.7597],[-49.9959,1.7389],[-49.95813,1.71967],[-49.92922,1.69927],[-49.92062,1.68793],[-49.91889,1.66748],[-49.9127,1.66045],[-49.90896,1.63653],[-49.9003,1.60233],[-49.90199,1.57701],[-49.89852,1.55714],[-49.8817,1.50005],[-49.88133,1.47979],[-49.87764,1.46491],[-49.87584,1.42314],[-49.87852,1.38958],[-49.88286,1.38503],[-49.88079,1.36375],[-49.88364,1.33998],[-49.90427,1.29559],[-49.90162,1.24029],[-49.94866,1.23205],[-49.98788,1.22183],[-50.04183,1.21423],[-50.06721,1.21676],[-50.06902,1.20224],[-50.08161,1.17428],[-50.09195,1.1574],[-50.10021,1.15327],[-50.11296,1.13898],[-50.12037,1.14035],[-50.13933,1.12952],[-50.14087,1.11762],[-50.14879,1.10264],[-50.16209,1.10287],[-50.17833,1.09824],[-50.18946,1.07932],[-50.19306,1.05889],[-50.18617,1.05045],[-50.30728,0.94435],[-50.32726,0.94478],[-50.34175,0.9256],[-50.35759,0.93426],[-50.36056,0.94008],[-50.36997,0.93896],[-50.37492,0.92721],[-50.38792,0.92436],[-50.38619,0.93278],[-50.40105,0.9355],[-50.40575,0.94899],[-50.41968,0.96104],[-50.43667,0.94928],[-50.43584,0.9412],[-50.44345,0.92718],[-50.44915,0.93217],[-50.4564,0.92183],[-50.46555,0.91755],[-50.47868,0.92611],[-50.49574,0.9286],[-50.50619,0.92219],[-50.50382,0.91042],[-50.51903,0.89557],[-50.51998,0.88701],[-50.53448,0.87323],[-50.54636,0.87656],[-50.55908,0.8705],[-50.57548,0.88464],[-50.5775,0.87382],[-50.58819,0.86284],[-50.59843,0.86434],[-50.59431,0.87194],[-50.60072,0.88729],[-50.61295,0.89228],[-50.61054,0.87864],[-50.61561,0.86117],[-50.62217,0.86945],[-50.63202,0.87146],[-50.63611,0.8666],[-50.64744,0.87886],[-50.65891,0.87255],[-50.66681,0.85407],[-50.66531,0.84981],[-50.68831,0.8371],[-50.69982,0.82366],[-50.71705,0.81717],[-50.74038,0.81757],[-50.75098,0.82583],[-50.76876,0.82249],[-50.78265,0.8289],[-50.78615,0.83863],[-50.79542,0.84358],[-50.80427,0.84079],[-50.81825,0.82635],[-50.84821,0.81901],[-50.87904,0.79988],[-50.88684,0.79805]]],[[[-50.43734,2.11254],[-50.40541,2.11126],[-50.39877,2.105],[-50.39482,2.092],[-50.38401,2.08008],[-50.38342,2.0712],[-50.3721,2.07019],[-50.36076,2.05736],[-50.36296,2.04155],[-50.36108,2.01903],[-50.35117,2.01334],[-50.3461,1.9966],[-50.3395,1.99809],[-50.32195,1.97523],[-50.31845,1.96484],[-50.31742,1.9475],[-50.33174,1.92616],[-50.35339,1.90206],[-50.36699,1.88945],[-50.38635,1.87758],[-50.42551,1.86702],[-50.43729,1.87102],[-50.44898,1.87964],[-50.45492,1.8885],[-50.46584,1.92325],[-50.47915,1.95038],[-50.49058,1.96475],[-50.49144,1.97974],[-50.49864,1.99454],[-50.50574,1.99918],[-50.51694,1.9994],[-50.52123,2.00543],[-50.51714,2.03461],[-50.51238,2.04547],[-50.50963,2.08271],[-50.50421,2.09403],[-50.49394,2.09284],[-50.48378,2.10141],[-50.46843,2.1],[-50.45741,2.1127],[-50.45011,2.10924],[-50.43734,2.11254]]],[[[-50.4801,2.18076],[-50.46676,2.18467],[-50.45883,2.17261],[-50.45064,2.16675],[-50.44093,2.16651],[-50.42391,2.1468],[-50.41936,2.13141],[-50.42263,2.11846],[-50.45822,2.11525],[-50.46899,2.10375],[-50.48618,2.10435],[-50.4954,2.0962],[-50.50766,2.09989],[-50.51409,2.10799],[-50.52695,2.13405],[-50.54458,2.14983],[-50.55243,2.1503],[-50.54397,2.16213],[-50.5294,2.1733],[-50.52323,2.18206],[-50.51367,2.18531],[-50.4801,2.18076]]]]},"properties":{"CD_REG":"160003","NM_REG":"Oiapoque","SIGLA_UF":"AP"}},{"type":"Feature","geometry":{"type":"Polygon","coordinates":[[[-52.75298,0.82381],[-52.75738,0.82989],[-52.74757,0.85332],[-52.76159,0.8608],[-52.7721,0.87611],[-52.79157,0.88532],[-52.79977,0.87907],[-52.81627,0.87402],[-52.82331,0.87562],[-52.82847,0.89171],[-52.83686,0.89757],[-52.83478,0.91306],[-52.82419,0.93024],[-52.82216,0.94028],[-52.82414,0.95679],[-52.83009,0.95949],[-52.8415,0.95066],[-52.851,0.95303],[-52.86668,0.96676],[-52.87607,0.98814],[-52.87762,0.99993],[-52.87176,1.01026],[-52.87902,1.0405],[-52.89024,1.0492],[-52.89326,1.06185],[-52.89103,1.08094],[-52.89425,1.08842],[-52.91278,1.0963],[-52.93046,1.115],[-52.94571,1.12367],[-52.96005,1.12673],[-52.96392,1.13578],[-52.96936,1.195],[-52.97249,1.20612],[-52.96475,1.22855],[-52.9649,1.23959],[-52.95862,1.25837],[-52.95345,1.26552],[-52.93235,1.26486],[-52.92705,1.27865],[-52.93071,1.29908],[-52.92808,1.31776],[-52.91813,1.33411],[-52.91487,1.3577],[-52.88822,1.39363],[-52.8778,1.42745],[-52.869,1.44409],[-52.87085,1.46833],[-52.86742,1.4932],[-52.86311,1.50685],[-52.86337,1.52021],[-52.86838,1.53573],[-52.87912,1.54723],[-52.89639,1.55618],[-52.9158,1.55972],[-52.93622,1.55419],[-52.95213,1.55425],[-52.96471,1.55886],[-52.97699,1.57403],[-52.98367,1.59707],[-52.99051,1.60802],[-52.9943,1.62673],[-52.99285,1.64834],[-52.98545,1.68039],[-52.98085,1.69196],[-52.97121,1.7005],[-52.97378,1.7178],[-52.98186,1.73135],[-52.99038,1.7553],[-53.00453,1.76236],[-53.01252,1.78675],[-53.00881,1.80018],[-52.999,1.80786],[-52.99611,1.82211],[-53.01201,1.83999],[-53.02003,1.84343],[-53.02631,1.85425],[-53.02711,1.8747],[-53.04191,1.89801],[-53.04242,1.90725],[-53.05235,1.91374],[-53.05913,1.93393],[-53.05892,1.94656],[-53.05149,1.96645],[-53.04193,1.97684],[-53.0255,1.98094],[-53.0086,1.97835],[-52.99899,1.9548],[-52.98219,1.94951],[-52.96171,1.95076],[-52.95171,1.94601],[-52.92902,1.95013],[-52.92338,1.94238],[-52.91424,1.9484],[-52.90046,1.96483],[-52.90768,1.99437],[-52.90349,1.99928],[-52.90871,2.00865],[-52.89549,2.02815],[-52.88724,2.0322],[-52.87188,2.02558],[-52.85688,2.04066],[-52.84502,2.03441],[-52.83721,2.03638],[-52.82885,2.05182],[-52.82866,2.06627],[-52.83719,2.0661],[-52.83277,2.08191],[-52.81282,2.0845],[-52.79665,2.07137],[-52.78572,2.07597],[-52.77429,2.07315],[-52.76021,2.07774],[-52.75502,2.06734],[-52.74727,2.07094],[-52.72896,2.07282],[-52.71533,2.06268],[-52.69843,2.06672],[-52.69171,2.06282],[-52.68102,2.06922],[-52.68266,2.05387],[-52.6681,2.05674],[-52.6568,2.04461],[-52.65052,2.05165],[-52.64288,2.04857],[-52.63454,2.03302],[-52.61669,2.02477],[-52.61213,2.01302],[-52.59374,2.0035],[-52.5929,2.01235],[-52.57457,2.01848],[-52.56568,2.01629],[-52.55816,2.0217],[-52.5524,2.00959],[-52.53455,2.01507],[-52.52293,2.02706],[-52.51126,2.02831],[-52.49979,2.04087],[-52.4853,2.03743],[-52.47193,2.03936],[-52.45802,2.03669],[-52.45757,2.04204],[-52.43943,2.04504],[-52.42532,2.03513],[-52.42087,2.03864],[-52.41207,2.02936],[-52.40696,2.03569],[-52.41229,2.0539],[-52.41037,2.07558],[-52.41604,2.0801],[-52.41085,2.09286],[-52.39259,2.10004],[-52.36777,2.1181],[-52.35329,2.14315],[-52.34729,2.13998],[-52.34004,2.1526],[-52.31915,2.15836],[-52.29974,2.15469],[-52.29105,2.15854],[-52.28113,2.15671],[-52.25241,2.16877],[-52.24615,2.18181],[-52.24679,2.18886],[-52.23913,2.19325],[-52.22313,2.18453],[-52.22013,2.18857],[-52.23151,2.20161],[-52.24366,2.20087],[-52.24762,2.20824],[-52.24351,2.22642],[-52.24955,2.23828],[-52.23963,2.24795],[-52.23132,2.26402],[-52.21575,2.26001],[-52.2091,2.26464],[-52.19374,2.26127],[-52.18987,2.27917],[-52.18127,2.27577],[-52.18379,2.29393],[-52.17593,2.30294],[-52.16424,2.29842],[-52.14984,2.30562],[-52.15318,2.31743],[-52.14023,2.32407],[-52.12943,2.33484],[-52.13015,2.34026],[-52.11859,2.35693],[-52.12457,2.36915],[-52.11954,2.38255],[-52.11241,2.38692],[-52.11927,2.39361],[-52.11326,2.40104],[-52.09549,2.39896],[-52.09179,2.40971],[-52.07282,2.39426],[-52.0599,2.39138],[-52.05124,2.40176],[-52.04618,2.43598],[-52.0429,2.4392],[-52.02156,2.43429],[-52.02137,2.42632],[-52.04104,2.42374],[-52.04532,2.40429],[-52.04009,2.39785],[-52.04234,2.38568],[-52.03904,2.37731],[-52.03974,2.35166],[-52.03804,2.34191],[-52.0444,2.33375],[-52.04345,2.32415],[-52.05468,2.30052],[-52.06512,2.28858],[-52.0667,2.2747],[-52.0639,2.26251],[-52.04672,2.25124],[-52.03696,2.23226],[-52.03894,2.21295],[-52.04331,2.21048],[-52.03644,2.19197],[-52.04124,2.17645],[-52.03655,2.16267],[-52.03961,2.15874],[-52.02961,2.1269],[-52.03198,2.11966],[-52.02669,2.1134],[-52.0184,2.09273],[-52.01004,2.08243],[-52.0122,2.07213],[-52.00983,2.05751],[-52.00524,2.05083],[-52.00802,2.04234],[-51.9996,2.03406],[-52.00559,2.02104],[-52.00607,2.00448],[-52.01701,1.99251],[-52.01046,1.98951],[-52.01541,1.97559],[-52.02098,1.9749],[-52.01302,1.93273],[-52.02634,1.92012],[-52.03073,1.8961],[-52.04047,1.89364],[-52.04424,1.88267],[-52.04863,1.88559],[-52.05517,1.87077],[-52.05044,1.86047],[-52.04974,1.83353],[-52.0551,1.82941],[-52.04911,1.81905],[-52.0565,1.80826],[-52.04737,1.80269],[-52.05078,1.79016],[-52.04549,1.78661],[-52.0535,1.76246],[-52.04612,1.72689],[-52.05301,1.71248],[-52.04995,1.69264],[-52.04333,1.68769],[-52.0457,1.67537],[-52.03344,1.66368],[-52.0301,1.64829],[-52.0221,1.65071],[-52.01937,1.62998],[-52.02216,1.61328],[-52.0308,1.59413],[-52.03833,1.59272],[-52.03616,1.58216],[-52.03943,1.57401],[-52.03184,1.56176],[-52.03679,1.5415],[-52.03393,1.52639],[-52.02634,1.52319],[-52.02648,1.51205],[-52.01659,1.50572],[-52.01965,1.49597],[-52.03846,1.48365],[-52.02467,1.47529],[-52.02655,1.46812],[-52.03971,1.46206],[-52.04438,1.44835],[-52.04103,1.43296],[-52.03337,1.42085],[-52.04257,1.41416],[-52.03406,1.41031],[-52.03501,1.40057],[-52.02384,1.38798],[-52.02217,1.37622],[-52.0072,1.36849],[-52.01184,1.35673],[-52.00894,1.33884],[-52.01469,1.32608],[-52.00625,1.32002],[-52.00001,1.32258],[-51.99063,1.31674],[-51.50086,1.32372],[-51.38904,1.32281],[-51.40516,1.2826],[-51.39979,1.27675],[-51.40861,1.26842],[-51.42964,1.26537],[-51.43427,1.25337],[-51.45298,1.24146],[-51.4439,1.23571],[-51.44188,1.21285],[-51.43677,1.20703],[-51.43558,1.18695],[-51.44521,1.18208],[-51.44466,1.16056],[-51.44854,1.14905],[-51.44539,1.14364],[-51.45735,1.10732],[-51.46089,1.1111],[-51.47046,1.10485],[-51.48283,1.08752],[-51.46666,1.06757],[-51.42833,1.06159],[-51.4067,1.05056],[-51.40955,0.99755],[-51.40035,0.98856],[-51.39611,0.97798],[-51.38268,0.97301],[-51.38691,0.95926],[-51.37802,0.95038],[-51.36797,0.95439],[-51.36131,0.94562],[-51.35401,0.94847],[-51.35189,0.95778],[-51.35581,0.96762],[-51.34851,0.97111],[-51.3428,0.98168],[-51.32174,0.98073],[-51.30334,0.98983],[-51.29392,0.97534],[-51.28027,0.97872],[-51.26271,0.97893],[-51.25287,0.97238],[-51.24536,0.97576],[-51.24653,0.96518],[-51.23923,0.95302],[-51.22843,0.96443],[-51.22583,0.97331],[-51.20312,1.00329],[-51.18259,1.03502],[-51.17396,1.0356],[-51.15081,1.03117],[-51.14704,1.02465],[-51.12832,1.00971],[-51.09416,1.02084],[-51.08785,1.02464],[-51.07625,1.02312],[-51.07235,1.01798],[-51.05823,1.01865],[-51.05006,1.01062],[-51.04207,1.009],[-51.03314,1.00087],[-51.03632,0.99042],[-51.0183,0.98585],[-51.02639,0.97654],[-51.01258,0.9576],[-51.01615,0.95211],[-51.00325,0.94325],[-51.00063,0.93179],[-50.99873,0.94285],[-50.98839,0.95247],[-50.99148,0.96744],[-50.98233,0.98194],[-50.95927,0.98336],[-50.94501,0.99394],[-50.93099,0.9899],[-50.92421,0.99216],[-50.89304,0.99336],[-50.89357,0.98425],[-50.89975,0.97831],[-50.90724,0.96275],[-50.91995,0.95574],[-50.92423,0.94124],[-50.91437,0.92591],[-50.91674,0.91736],[-50.90985,0.90595],[-50.91377,0.89621],[-50.93766,0.89252],[-50.94348,0.88599],[-50.94111,0.87624],[-50.95073,0.86127],[-50.94959,0.84235],[-50.95167,0.82903],[-50.91625,0.80359],[-50.88684,0.79805],[-50.88657,0.77329],[-50.90002,0.78663],[-50.91439,0.77396],[-50.9158,0.76752],[-50.90466,0.74207],[-50.91318,0.72809],[-50.97395,0.69621],[-50.98161,0.67738],[-50.9909,0.66804],[-50.99558,0.64433],[-50.99163,0.63819],[-50.9873,0.6188],[-50.98814,0.60425],[-50.99669,0.59673],[-51.00049,0.57317],[-50.99207,0.56438],[-50.98758,0.54763],[-50.97901,0.54832],[-50.9668,0.53365],[-50.95657,0.53143],[-50.95162,0.52403],[-50.94259,0.52417],[-50.92519,0.51463],[-50.94093,0.49648],[-50.95845,0.50183],[-50.96939,0.4994],[-50.97604,0.5029],[-50.99316,0.49559],[-51.00189,0.49648],[-51.01074,0.47985],[-51.01543,0.45613],[-51.02931,0.45936],[-51.03306,0.45333],[-51.03021,0.42804],[-51.04024,0.42999],[-51.05164,0.42116],[-51.05592,0.43784],[-51.06102,0.44233],[-51.08088,0.43741],[-51.09361,0.42782],[-51.10024,0.41527],[-51.10712,0.41103],[-51.11692,0.39399],[-51.11396,0.38525],[-51.12628,0.36072],[-51.12802,0.34826],[-51.1366,0.33451],[-51.12822,0.31812],[-51.1389,0.30901],[-51.1435,0.31428],[-51.16083,0.31756],[-51.17135,0.3079],[-51.18326,0.30993],[-51.19167,0.31759],[-51.20639,0.31706],[-51.21235,0.34301],[-51.20636,0.35709],[-51.20953,0.36954],[-51.20754,0.37795],[-51.219,0.39901],[-51.23597,0.40433],[-51.24463,0.41484],[-51.24734,0.43235],[-51.25953,0.44347],[-51.2629,0.45365],[-51.27689,0.45387],[-51.28779,0.46264],[-51.3026,0.46595],[-51.31019,0.47452],[-51.32176,0.47457],[-51.33183,0.46672],[-51.36854,0.48696],[-51.38434,0.48954],[-51.41145,0.48428],[-51.42554,0.50353],[-51.4464,0.50983],[-51.4494,0.5041],[-51.46086,0.50581],[-51.47082,0.4946],[-51.46917,0.48314],[-51.47423,0.47607],[-51.48554,0.47901],[-51.49194,0.46946],[-51.51094,0.45717],[-51.51513,0.4296],[-51.53627,0.41919],[-51.53403,0.40318],[-51.52569,0.39946],[-51.53159,0.38738],[-51.53184,0.36422],[-51.53593,0.35653],[-51.53221,0.3501],[-51.53434,0.33969],[-51.53088,0.33145],[-51.53932,0.32327],[-51.53014,0.31257],[-51.52793,0.29754],[-51.53395,0.28847],[-51.53296,0.27376],[-51.54708,0.2615],[-51.54356,0.24827],[-51.55982,0.22094],[-51.57619,0.21606],[-51.57411,0.2289],[-51.59417,0.2415],[-51.60887,0.2453],[-51.6105,0.25421],[-51.6246,0.2721],[-51.62877,0.26677],[-51.63989,0.27504],[-51.64599,0.2845],[-51.67372,0.29592],[-51.67314,0.30156],[-51.69438,0.32593],[-51.68101,0.35012],[-51.68659,0.35279],[-51.69029,0.37326],[-51.68909,0.3831],[-51.69949,0.39884],[-51.70856,0.39923],[-51.7166,0.4096],[-51.73828,0.40079],[-51.74459,0.40793],[-51.76017,0.40634],[-51.7636,0.41512],[-51.77388,0.42267],[-51.77988,0.42207],[-51.78259,0.43238],[-51.79284,0.44364],[-51.80377,0.45051],[-51.8334,0.44536],[-51.83862,0.43639],[-51.85422,0.43963],[-51.86111,0.43402],[-51.87412,0.44338],[-51.88788,0.44839],[-51.89944,0.44085],[-51.90755,0.44857],[-51.93188,0.44525],[-51.94154,0.45137],[-51.94974,0.44644],[-51.95401,0.45844],[-51.96359,0.45901],[-52.01147,0.47894],[-52.02005,0.47847],[-52.03168,0.46955],[-52.04083,0.47958],[-52.05485,0.48868],[-52.07332,0.4941],[-52.09003,0.50615],[-52.1069,0.50817],[-52.11605,0.49605],[-52.12835,0.49385],[-52.14546,0.48636],[-52.15346,0.47581],[-52.16448,0.46875],[-52.19117,0.46361],[-52.20037,0.45771],[-52.20193,0.44218],[-52.22549,0.41573],[-52.23836,0.39129],[-52.23473,0.38291],[-52.23555,0.36553],[-52.24246,0.36381],[-52.26618,0.36905],[-52.28131,0.37023],[-52.29575,0.39243],[-52.31808,0.37757],[-52.32627,0.38542],[-52.33696,0.38406],[-52.33863,0.40161],[-52.34676,0.40668],[-52.34697,0.41453],[-52.33822,0.42241],[-52.33716,0.43947],[-52.34902,0.43227],[-52.35165,0.43867],[-52.36746,0.44991],[-52.37679,0.45144],[-52.38681,0.46795],[-52.38411,0.48463],[-52.39564,0.48698],[-52.39585,0.49874],[-52.41131,0.50407],[-52.41688,0.51067],[-52.41805,0.5364],[-52.41388,0.54495],[-52.43837,0.56982],[-52.45713,0.57235],[-52.46679,0.58263],[-52.46778,0.59829],[-52.48079,0.61638],[-52.48162,0.63185],[-52.49037,0.63891],[-52.5035,0.64216],[-52.50712,0.65075],[-52.49956,0.65717],[-52.501,0.67227],[-52.50588,0.67806],[-52.5194,0.6832],[-52.52403,0.69272],[-52.53303,0.69738],[-52.54655,0.72092],[-52.56887,0.72495],[-52.57732,0.73818],[-52.58384,0.74173],[-52.61016,0.73817],[-52.61753,0.74411],[-52.61875,0.75953],[-52.63219,0.77451],[-52.64474,0.77622],[-52.66169,0.79196],[-52.6659,0.80842],[-52.66033,0.83012],[-52.66318,0.83392],[-52.6754,0.82633],[-52.67969,0.82901],[-52.69494,0.82502],[-52.72206,0.82647],[-52.72668,0.82049],[-52.74277,0.81453],[-52.75298,0.82381]]]},"properties":{"CD_REG":"160004","NM_REG":"Porto Grande","SIGLA_UF":"AP"}}]}