{"type": "FeatureCollection", "features": [{"type": "Feature", "geometry": {"type": "Point", "coordinates": [-50.735991, 1.809298]}, "properties": {"i": 0, "mun": 6009, "ibge": 1600550, "z": 1, "l": 1040, "nm": "ESCOLA ESTADUAL SÃO MIGUEL DO FLEXAL", "nm_mun": "PRACUÚBA", "aptos": 59, "imp": 0}}, {"type": "Feature", "geometry": {"type": "Point", "coordinates": [-50.878058, 1.728668]}, "properties": {"i": 1, "mun": 6009, "ibge": 1600550, "z": 1, "l": 1058, "nm": "ESCOLA ESTADUAL PEDRO TEIXEIRA", "nm_mun": "PRACUÚBA", "aptos": 543, "imp": 0}}, {"type": "Feature", "geometry": {"type": "Point", "coordinates": [-1.0, -1.0]}, "properties": {"i": 2, "mun": 6009, "ibge": 1600550, "z": 1, "l": 1112, "nm": "ESCOLA MUNICIPAL AUGUSTO ROCHA DE OLIVEIRA", "nm_mun": "PRACUÚBA", "aptos": 2112, "imp": 0}}, {"type": "Feature", "geometry": {"type": "Point", "coordinates": [-50.876462, 1.814102]}, "properties": {"i": 3, "mun": 6009, "ibge": 1600550, "z": 1, "l": 1120, "nm": "ESCOLA MUNICIPAL PROFº EVANDRO MARTINS RIBEIRO", "nm_mun": "PRACUÚBA", "aptos": 328, "imp": 0}}, {"type": "Feature", "geometry": {"type": "Point", "coordinates": [-50.919874, 1.664051]}, "properties": {"i": 4, "mun": 6009, "ibge": 1600550, "z": 1, "l": 1228, "nm": "ESCOLA ESTADUAL PEDRO MACIEL FILHO", "nm_mun": "PRACUÚBA", "aptos": 592, "imp": 0}}, {"type": "Feature", "geometry": {"type": "Point", "coordinates": [-50.930022, 1.728644]}, "properties": {"i": 5, "mun": 6009, "ibge": 1600550, "z": 1, "l": 1244, "nm": "ESCOLA ESTADUAL JOÃO EVANGELISTA LOPES", "nm_mun": "PRACUÚBA", "aptos": 147, "imp": 0}}, {"type": "Feature", "geometry": {"type": "Point", "coordinates": [-50.9624, 1.65693]}, "properties": {"i": 6, "mun": 6009, "ibge": 1600550, "z": 1, "l": 1252, "nm": "ESCOLA MUNICIPAL MARIA ENILZA COSTA ALVES", "nm_mun": "PRACUÚBA", "aptos": 146, "imp": 0}}, {"type": "Feature", "geometry": {"type": "Point", "coordinates": [-1.0, -1.0]}, "properties": {"i": 7, "mun": 6009, "ibge": 1600550, "z": 1, "l": 1260, "nm": "ESCOLA MUNICIPAL MANOEL HURBANO DA SILVA BRITO", "nm_mun": "PRACUÚBA", "aptos": 102, "imp": 1}}, {"type": "Feature", "geometry": {"type": "Point", "coordinates": [-1.0, -1.0]}, "properties": {"i": 8, "mun": 6009, "ibge": 1600550, "z": 1, "l": 1279, "nm": "ESCOLA ESTADUAL ERNESTO COLARES", "nm_mun": "PRACUÚBA", "aptos": 2, "imp": 1}}, {"type": "Feature", "geometry": {"type": "Point", "coordinates": [-50.79188, 2.050005]}, "properties": {"i": 9, "mun": 6017, "ibge": 1600105, "z": 1, "l": 1015, "nm": "ESCOLA ESTADUAL VEIGA CABRAL", "nm_mun": "AMAPÁ", "aptos": 1073, "imp": 0}}, {"type": "Feature", "geometry": {"type": "Point", "coordinates": [-50.82567, 2.066986]}, "properties": {"i": 10, "mun": 6017, "ibge": 1600105, "z": 1, "l": 1031, "nm": "ESCOLA MUNICIPAL PROFª SHIRLEY MÁRCIA LOBATO ABREU", "nm_mun": "AMAPÁ", "aptos": 149, "imp": 0}}, {"type": "Feature", "geometry": {"type": "Point", "coordinates": [-49.933475, 1.676838]}, "properties": {"i": 11, "mun": 6017, "ibge": 1600105, "z": 1, "l": 1074, "nm": "ESCOLA ESTADUAL ANTÔNIO TEIXEIRA GUERRA", "nm_mun": "AMAPÁ", "aptos": 239, "imp": 0}}, {"type": "Feature", "geometry": {"type": "Point", "coordinates": [-50.791913, 2.047108]}, "properties": {"i": 12, "mun": 6017, "ibge": 1600105, "z": 1, "l": 1104, "nm": "ESCOLA ESTADUAL VIDAL DE NEGREIROS", "nm_mun": "AMAPÁ", "aptos": 2454, "imp": 0}}, {"type": "Feature", "geometry": {"type": "Point", "coordinates": [-50.792777, 2.045265]}, "properties": {"i": 13, "mun": 6017, "ibge": 1600105, "z": 1, "l": 1163, "nm": "ESCOLA ESTADUAL PROFª MARIA ESMERALDA MARTINS DE MOURA", "nm_mun": "AMAPÁ", "aptos": 479, "imp": 1}}, {"type": "Feature", "geometry": {"type": "Point", "coordinates": [-50.791196, 2.053304]}, "properties": {"i": 14, "mun": 6017, "ibge": 1600105, "z": 1, "l": 1171, "nm": "ESCOLA MUNICIPAL LOURENÇO BORGES FAÇANHA", "nm_mun": "AMAPÁ", "aptos": 1045, "imp": 0}}, {"type": "Feature", "geometry": {"type": "Point", "coordinates": [-50.926347, 1.870003]}, "properties": {"i": 15, "mun": 6017, "ibge": 1600105, "z": 1, "l": 1260, "nm": "ESCOLA ESTADUAL ROZENDO NASCIMENTO FILHO", "nm_mun": "AMAPÁ", "aptos": 349, "imp": 0}}, {"type": "Feature", "geometry": {"type": "Point", "coordinates": [-50.787215, 2.049754]}, "properties": {"i": 16, "mun": 6017, "ibge": 1600105, "z": 1, "l": 1279, "nm": "ESCOLA MUNICIPAL FRANCISCO ALVES DE OLIVEIRA", "nm_mun": "AMAPÁ", "aptos": 720, "imp": 0}}, {"type": "Feature", "geometry": {"type": "Point", "coordinates": [-50.792581, 2.037045]}, "properties": {"i": 17, "mun": 6017, "ibge": 1600105, "z": 1, "l": 1295, "nm": "ESCOLA ESTADUAL MARIA DO CÉU GONÇALVES DIAS", "nm_mun": "AMAPÁ", "aptos": 797, "imp": 0}}, {"type": "Feature", "geometry": {"type": "Point", "coordinates": [-50.967939, 1.993586]}, "properties": {"i": 18, "mun": 6017, "ibge": 1600105, "z": 1, "l": 1309, "nm": "ESCOLA MUNICIPAL DO CRUZEIRO", "nm_mun": "AMAPÁ", "aptos": 254, "imp": 0}}, {"type": "Feature", "geometry": {"type": "Point", "coordinates": [-1.0, -1.0]}, "properties": {"i": 19, "mun": 6017, "ibge": 1600105, "z": 1, "l": 1317, "nm": "ESCOLA MUNICIPAL PIMPOLHO", "nm_mun": "AMAPÁ", "aptos": 2, "imp": 1}}, {"type": "Feature", "geometry": {"type": "Point", "coordinates": [-51.411992, 0.706973]}, "properties": {"i": 20, "mun": 6025, "ibge": 1600535, "z": 12, "l": 1015, "nm": "ESCOLA ESTADUAL JOSÉ RIBAMAR TEIXEIRA", "nm_mun": "PORTO GRANDE", "aptos": 3230, "imp": 0}}, {"type": "Feature", "geometry": {"type": "Point", "coordinates": [-1.0, -1.0]}, "properties": {"i": 21, "mun": 6025, "ibge": 1600535, "z": 12, "l": 1023, "nm": "ESC. EST. MATAPI II", "nm_mun": "PORTO GRANDE", "aptos": 1219, "imp": 0}}, {"type": "Feature", "geometry": {"type": "Point", "coordinates": [-1.0, -1.0]}, "properties": {"i": 22, "mun": 6025, "ibge": 1600535, "z": 12, "l": 1031, "nm": "ESC. EST. CAMPO VERDE", "nm_mun": "PORTO GRANDE", "aptos": 627, "imp": 0}}, {"type": "Feature", "geometry": {"type": "Point", "coordinates": [-51.767482, 0.610765]}, "properties": {"i": 23, "mun": 6025, "ibge": 1600535, "z": 12, "l": 1040, "nm": "ESCOLA MUNICIPAL CUPIXI", "nm_mun": "PORTO GRANDE", "aptos": 875, "imp": 0}}, {"type": "Feature", "geometry": {"type": "Point", "coordinates": [-51.403817, 0.70381]}, "properties": {"i": 24, "mun": 6025, "ibge": 1600535, "z": 12, "l": 1058, "nm": "ESC. EST. ELIAS FREITAS TRAJANO DE SOUZA", "nm_mun": "PORTO GRANDE", "aptos": 2959, "imp": 0}}, {"type": "Feature", "geometry": {"type": "Point", "coordinates": [-1.0, -1.0]}, "properties": {"i": 25, "mun": 6025, "ibge": 1600535, "z": 12, "l": 1066, "nm": "ESC. EST. NOVA COLINA", "nm_mun": "PORTO GRANDE", "aptos": 307, "imp": 0}}, {"type": "Feature", "geometry": {"type": "Point", "coordinates": [-51.73752, 0.40481]}, "properties": {"i": 26, "mun": 6025, "ibge": 1600535, "z": 12, "l": 1074, "nm": "ESC. EST. SANTA MARIA", "nm_mun": "PORTO GRANDE", "aptos": 379, "imp": 0}}, {"type": "Feature", "geometry": {"type": "Point", "coordinates": [-51.901402, 0.610945]}, "properties": {"i": 27, "mun": 6025, "ibge": 1600535, "z": 12, "l": 1082, "nm": "ESC. MUNICIPAL ELILUCIA DE SOUZA SANTOS", "nm_mun": "PORTO GRANDE", "aptos": 351, "imp": 0}}, {"type": "Feature", "geometry": {"type": "Point", "coordinates": [-51.398757, 0.700782]}, "properties": {"i": 28, "mun": 6025, "ibge": 1600535, "z": 12, "l": 1120, "nm": "ESCOLA MUNICIPAL ADÃO FERREIRA", "nm_mun": "PORTO GRANDE", "aptos": 1872, "imp": 0}}, {"type": "Feature", "geometry": {"type": "Point", "coordinates": [-51.414096, 0.712372]}, "properties": {"i": 29, "mun": 6025, "ibge": 1600535, "z": 12, "l": 1139, "nm": "ESCOLA MUNICIPAL ACRE", "nm_mun": "PORTO GRANDE", "aptos": 2506, "imp": 0}}, {"type": "Feature", "geometry": {"type": "Point", "coordinates": [-1.0, -1.0]}, "properties": {"i": 30, "mun": 6025, "ibge": 1600535, "z": 12, "l": 1147, "nm": "ESCOLA MUNICIPAL JOANA MARIA DA SILVA", "nm_mun": "PORTO GRANDE", "aptos": 463, "imp": 0}}, {"type": "Feature", "geometry": {"type": "Point", "coordinates": [-1.0, -1.0]}, "properties": {"i": 31, "mun": 6025, "ibge": 1600535, "z": 12, "l": 1163, "nm": "ESCOLA MUNICIPAL AMÉLIA BITENCOURT BESSA DE OLIVEIRA", "nm_mun": "PORTO GRANDE", "aptos": 779, "imp": 0}}, {"type": "Feature", "geometry": {"type": "Point", "coordinates": [-50.957278, 2.497633]}, "properties": {"i": 32, "mun": 6033, "ibge": 1600204, "z": 1, "l": 1015, "nm": "ESCOLA ESTADUAL PROFº. SILVIO ELITO DE LIMA SANTOS", "nm_mun": "CALÇOENE", "aptos": 1950, "imp": 0}}, {"type": "Feature", "geometry": {"type": "Point", "coordinates": [-50.950873, 2.492804]}, "properties": {"i": 33, "mun": 6033, "ibge": 1600204, "z": 1, "l": 1023, "nm": "ESCOLA ESTADUAL LOBO D ALMADA", "nm_mun": "CALÇOENE", "aptos": 1378, "imp": 0}}, {"type": "Feature", "geometry": {"type": "Point", "coordinates": [-51.361416, 2.694509]}, "properties": {"i": 34, "mun": 6033, "ibge": 1600204, "z": 1, "l": 1031, "nm": "ESCOLA ESTADUAL IVANILDO FORTE SILVA", "nm_mun": "CALÇOENE", "aptos": 801, "imp": 0}}, {"type": "Feature", "geometry": {"type": "Point", "coordinates": [-51.632204, 2.311246]}, "properties": {"i": 35, "mun": 6033, "ibge": 1600204, "z": 1, "l": 1040, "nm": "ESCOLA ESTADUAL JUVENAL GUIMARÃES TEIXEIRA", "nm_mun": "CALÇOENE", "aptos": 1820, "imp": 0}}, {"type": "Feature", "geometry": {"type": "Point", "coordinates": [-50.957393, 2.497826]}, "properties": {"i": 36, "mun": 6033, "ibge": 1600204, "z": 1, "l": 1058, "nm": "ESCOLA DE ESTADUAL DE ENSINO DE 1º GRAU JOSE RODRIGUES CORDEIRO", "nm_mun": "CALÇOENE", "aptos": 918, "imp": 0}}, {"type": "Feature", "geometry": {"type": "Point", "coordinates": [-50.898396, 2.160141]}, "properties": {"i": 37, "mun": 6033, "ibge": 1600204, "z": 1, "l": 1066, "nm": "ESCOLA ESTADUAL DE ENSINO DE 1ªGRAU DO CALAFATE", "nm_mun": "CALÇOENE", "aptos": 190, "imp": 0}}, {"type": "Feature", "geometry": {"type": "Point", "coordinates": [-50.947005, 2.492202]}, "properties": {"i": 38, "mun": 6033, "ibge": 1600204, "z": 1, "l": 1074, "nm": "ESCOLA ESTADUAL AMARO BRASILINO  DE FARIAS FILHO", "nm_mun": "CALÇOENE", "aptos": 1044, "imp": 0}}, {"type": "Feature", "geometry": {"type": "Point", "coordinates": [-50.953219, 2.497324]}, "properties": {"i": 39, "mun": 6033, "ibge": 1600204, "z": 1, "l": 1082, "nm": "E. M. PROF.ª NELMA SUELI BARATA ALVES", "nm_mun": "CALÇOENE", "aptos": 749, "imp": 0}}, {"type": "Feature", "geometry": {"type": "Point", "coordinates": [-1.0, -1.0]}, "properties": {"i": 40, "mun": 6033, "ibge": 1600204, "z": 1, "l": 1090, "nm": "ESCOLA MUNICIPAL RAIMUNDA VIANA DA SILVA", "nm_mun": "CALÇOENE", "aptos": 78, "imp": 1}}, {"type": "Feature", "geometry": {"type": "Point", "coordinates": [-50.748727, 0.505868]}, "properties": {"i": 41, "mun": 6041, "ibge": 1600253, "z": 10, "l": 1015, "nm": "ESCOLA ESTADUAL ANA CLAUDINA PICANÇO", "nm_mun": "ITAUBAL", "aptos": 1414, "imp": 0}}, {"type": "Feature", "geometry": {"type": "Point", "coordinates": [-50.699579, 0.601983]}, "properties": {"i": 42, "mun": 6041, "ibge": 1600253, "z": 10, "l": 1023, "nm": "ESCOLA ESTADUAL WILSON HILL DE ARAUJO", "nm_mun": "ITAUBAL", "aptos": 2600, "imp": 0}}, {"type": "Feature", "geometry": {"type": "Point", "coordinates": [-50.532044, 0.496372]}, "properties": {"i": 43, "mun": 6041, "ibge": 1600253, "z": 10, "l": 1031, "nm": "ESCOLA MUNICIPAL MIGUEL JORGE HAUAT ELIAS", "nm_mun": "ITAUBAL", "aptos": 211, "imp": 0}}, {"type": "Feature", "geometry": {"type": "Point", "coordinates": [-50.713669, 0.289822]}, "properties": {"i": 44, "mun": 6041, "ibge": 1600253, "z": 10, "l": 1040, "nm": "ESCOLA ESTADUAL EUGENIO MACHADO", "nm_mun": "ITAUBAL", "aptos": 392, "imp": 0}}, {"type": "Feature", "geometry": {"type": "Point", "coordinates": [-50.800044, 0.578993]}, "properties": {"i": 45, "mun": 6041, "ibge": 1600253, "z": 10, "l": 1058, "nm": "ESCOLA ESTADUAL ESTEVAM DE CARVALHO COSTA", "nm_mun": "ITAUBAL", "aptos": 928, "imp": 0}}, {"type": "Feature", "geometry": {"type": "Point", "coordinates": [-50.587474, 0.441076]}, "properties": {"i": 46, "mun": 6041, "ibge": 1600253, "z": 10, "l": 1066, "nm": "ESCOLA ESTADUAL JERUSALEM DO PAU MULATO", "nm_mun": "ITAUBAL", "aptos": 156, "imp": 0}}, {"type": "Feature", "geometry": {"type": "Point", "coordinates": [-50.493315, 0.61662]}, "properties": {"i": 47, "mun": 6041, "ibge": 1600253, "z": 10, "l": 1074, "nm": "ESCOLA ESTADUAL ADELANO NUNES LACERDA", "nm_mun": "ITAUBAL", "aptos": 419, "imp": 0}}, {"type": "Feature", "geometry": {"type": "Point", "coordinates": [-50.84964, 0.714912]}, "properties": {"i": 48, "mun": 6041, "ibge": 1600253, "z": 10, "l": 1082, "nm": "ESCOLA MUNICIPAL ANTÔNIO MAXIMINO DA CRUZ", "nm_mun": "ITAUBAL", "aptos": 407, "imp": 0}}, {"type": "Feature", "geometry": {"type": "Point", "coordinates": [-50.634683, 0.396095]}, "properties": {"i": 49, "mun": 6041, "ibge": 1600253, "z": 10, "l": 1090, "nm": "ESCOLA ESTADUAL IPIXUNA GRANDE", "nm_mun": "ITAUBAL", "aptos": 354, "imp": 0}}, {"type": "Feature", "geometry": {"type": "Point", "coordinates": [-50.699415, 0.602765]}, "properties": {"i": 50, "mun": 6041, "ibge": 1600253, "z": 10, "l": 1104, "nm": "ESCOLA MUNICIPAL JOSÉ ALMEIDA", "nm_mun": "ITAUBAL", "aptos": 2003, "imp": 0}}, {"type": "Feature", "geometry": {"type": "Point", "coordinates": [-51.064845, 0.034087]}, "properties": {"i": 51, "mun": 6050, "ibge": 1600303, "z": 2, "l": 1090, "nm": "ESCOLA ESTADUAL DR.COARACY NUNES", "nm_mun": "MACAPÁ", "aptos": 3109, "imp": 0}}, {"type": "Feature", "geometry": {"type": "Point", "coordinates": [-51.062507, 0.023218]}, "properties": {"i": 52, "mun": 6050, "ibge": 1600303, "z": 2, "l": 1139, "nm": "ESCOLA ESTADUAL PROFº JOSÉ FIRMO DO NASCIMENTO", "nm_mun": "MACAPÁ", "aptos": 2546, "imp": 0}}, {"type": "Feature", "geometry": {"type": "Point", "coordinates": [-51.061093, 0.023556]}, "properties": {"i": 53, "mun": 6050, "ibge": 1600303, "z": 2, "l": 1147, "nm": "ESCOLA MUNICIPAL DE ENSINO FUNDAMENTAL AMAPA", "nm_mun": "MACAPÁ", "aptos": 2784, "imp": 0}}, {"type": "Feature", "geometry": {"type": "Point", "coordinates": [-51.063128, 0.017987]}, "properties": {"i": 54, "mun": 6050, "ibge": 1600303, "z": 2, "l": 1155, "nm": "ESCOLA ESTADUAL PROFº ZOLITO DE JESUS NUNES", "nm_mun": "MACAPÁ", "aptos": 4367, "imp": 0}}, {"type": "Feature", "geometry": {"type": "Point", "coordinates": [-51.070947, 0.023929]}, "properties": {"i": 55, "mun": 6050, "ibge": 1600303, "z": 2, "l": 1163, "nm": "ESCOLA MUNICIPAL DE ENSINO FUNDAMENTAL RORAIMA", "nm_mun": "MACAPÁ", "aptos": 1514, "imp": 0}}, {"type": "Feature", "geometry": {"type": "Point", "coordinates": [-51.072819, 0.025973]}, "properties": {"i": 56, "mun": 6050, "ibge": 1600303, "z": 2, "l": 1171, "nm": "ESCOLA ESTADUAL PROFª SEBASTIANA LENIR DE ALMEIDA", "nm_mun": "MACAPÁ", "aptos": 4364, "imp": 0}}, {"type": "Feature", "geometry": {"type": "Point", "coordinates": [-51.112871, -0.05444]}, "properties": {"i": 57, "mun": 6050, "ibge": 1600303, "z": 2, "l": 1295, "nm": "ESCOLA ESTADUAL JOSÉ DO PATROCINIO", "nm_mun": "MACAPÁ", "aptos": 3086, "imp": 0}}, {"type": "Feature", "geometry": {"type": "Point", "coordinates": [-51.082179, 0.015271]}, "properties": {"i": 58, "mun": 6050, "ibge": 1600303, "z": 2, "l": 1600, "nm": "ESCOLA ESTADUAL MÁRIO QUIRINO DA SILVA", "nm_mun": "MACAPÁ", "aptos": 5391, "imp": 0}}, {"type": "Feature", "geometry": {"type": "Point", "coordinates": [-51.074414, 0.013113]}, "properties": {"i": 59, "mun": 6050, "ibge": 1600303, "z": 2, "l": 1783, "nm": "ESCOLA ESTADUAL LAURO CHAVES", "nm_mun": "MACAPÁ", "aptos": 4075, "imp": 0}}, {"type": "Feature", "geometry": {"type": "Point", "coordinates": [-51.093313, 0.008975]}, "properties": {"i": 60, "mun": 6050, "ibge": 1600303, "z": 2, "l": 1791, "nm": "ESCOLA ESTADUAL IRINEU DA GAMA PAES", "nm_mun": "MACAPÁ", "aptos": 5057, "imp": 0}}, {"type": "Feature", "geometry": {"type": "Point", "coordinates": [-51.097064, -0.00201]}, "properties": {"i": 61, "mun": 6050, "ibge": 1600303, "z": 2, "l": 1848, "nm": "ESCOLA ESTADUAL PROFº ANTONIO CASTRO MONTEIRO", "nm_mun": "MACAPÁ", "aptos": 4075, "imp": 0}}, {"type": "Feature", "geometry": {"type": "Point", "coordinates": [-51.08451, -0.006536]}, "properties": {"i": 62, "mun": 6050, "ibge": 1600303, "z": 2, "l": 1899, "nm": "UNIVERSIDADE FEDERAL DO AMAPA - UNIFAP", "nm_mun": "MACAPÁ", "aptos": 6088, "imp": 0}}, {"type": "Feature", "geometry": {"type": "Point", "coordinates": [-51.086224, 0.023453]}, "properties": {"i": 63, "mun": 6050, "ibge": 1600303, "z": 2, "l": 1902, "nm": "ESCOLA ESTADUAL REINALDO MAURICIO GOLBERT DAMASCENO", "nm_mun": "MACAPÁ", "aptos": 3435, "imp": 0}}, {"type": "Feature", "geometry": {"type": "Point", "coordinates": [-51.079489, 0.018243]}, "properties": {"i": 64, "mun": 6050, "ibge": 1600303, "z": 2, "l": 1961, "nm": "ESCOLA MUNICIPAL DE ENSINO INFANTIL  ANA LUIZA DE SOUZA MORAES", "nm_mun": "MACAPÁ", "aptos": 941, "imp": 0}}, {"type": "Feature", "geometry": {"type": "Point", "coordinates": [-51.075209, 0.020678]}, "properties": {"i": 65, "mun": 6050, "ibge": 1600303, "z": 2, "l": 1970, "nm": "ESCOLA ESTADUAL PROFª ARACY MIRANDA DE MONT ALVERNE", "nm_mun": "MACAPÁ", "aptos": 1880, "imp": 0}}, {"type": "Feature", "geometry": {"type": "Point", "coordinates": [-51.061224, 0.018245]}, "properties": {"i": 66, "mun": 6050, "ibge": 1600303, "z": 2, "l": 1996, "nm": "ESCOLA ESTADUAL PROFº ROBERTO JOSE MORAIS DE CASTRO", "nm_mun": "MACAPÁ", "aptos": 2216, "imp": 0}}, {"type": "Feature", "geometry": {"type": "Point", "coordinates": [-51.10006, -0.002157]}, "properties": {"i": 67, "mun": 6050, "ibge": 1600303, "z": 2, "l": 2020, "nm": "ESCOLA ESTADUAL PROFº ANTONIO MESSIAS GONÇALVES DA SILVA", "nm_mun": "MACAPÁ", "aptos": 3792, "imp": 0}}, {"type": "Feature", "geometry": {"type": "Point", "coordinates": [-51.08708, 0.012364]}, "properties": {"i": 68, "mun": 6050, "ibge": 1600303, "z": 2, "l": 2046, "nm": "ESCOLA ESTADUAL PROFª BENIGNA MOREIRA DE SOUZA", "nm_mun": "MACAPÁ", "aptos": 2992, "imp": 0}}, {"type": "Feature", "geometry": {"type": "Point", "coordinates": [-51.089202, -0.013381]}, "properties": {"i": 69, "mun": 6050, "ibge": 1600303, "z": 2, "l": 2062, "nm": "ESCOLA MUNICIPAL DE ENSINO FUNDAMENTAL PROFESSORA NEUZONA", "nm_mun": "MACAPÁ", "aptos": 2019, "imp": 0}}, {"type": "Feature", "geometry": {"type": "Point", "coordinates": [-51.137396, -0.048961]}, "properties": {"i": 70, "mun": 6050, "ibge": 1600303, "z": 2, "l": 2070, "nm": "ESCOLA ESTADUAL PROFª MARGARIDA ROCHA DA COSTA", "nm_mun": "MACAPÁ", "aptos": 1049, "imp": 0}}, {"type": "Feature", "geometry": {"type": "Point", "coordinates": [-51.110828, -0.02296]}, "properties": {"i": 71, "mun": 6050, "ibge": 1600303, "z": 2, "l": 2097, "nm": "ESCOLA ESTADUAL IVANHOE GONCALVES MARTINS", "nm_mun": "MACAPÁ", "aptos": 390, "imp": 0}}, {"type": "Feature", "geometry": {"type": "Point", "coordinates": [-51.068658, 0.006473]}, "properties": {"i": 72, "mun": 6050, "ibge": 1600303, "z": 2, "l": 2119, "nm": "ESCOLA MUNICIPAL DE ENSINO FUNDAMENTAL WILSON MALCHER", "nm_mun": "MACAPÁ", "aptos": 5035, "imp": 0}}, {"type": "Feature", "geometry": {"type": "Point", "coordinates": [-51.118525, -0.04967]}, "properties": {"i": 73, "mun": 6050, "ibge": 1600303, "z": 2, "l": 2135, "nm": "ESCOLA ESTADUAL MARIA ANGÉLICA PEREIRA GÓES", "nm_mun": "MACAPÁ", "aptos": 365, "imp": 1}}, {"type": "Feature", "geometry": {"type": "Point", "coordinates": [-51.112967, -0.047234]}, "properties": {"i": 74, "mun": 6050, "ibge": 1600303, "z": 2, "l": 2143, "nm": "ESCOLA MUNICIPAL CACILDA FERREIRA VASCONCELOS", "nm_mun": "MACAPÁ", "aptos": 1526, "imp": 0}}, {"type": "Feature", "geometry": {"type": "Point", "coordinates": [-51.064376, 0.007567]}, "properties": {"i": 75, "mun": 6050, "ibge": 1600303, "z": 2, "l": 2151, "nm": "ESCOLA ESTADUAL RAIMUNDA VIRGOLINO", "nm_mun": "MACAPÁ", "aptos": 3997, "imp": 0}}, {"type": "Feature", "geometry": {"type": "Point", "coordinates": [-51.077326, 0.011557]}, "properties": {"i": 76, "mun": 6050, "ibge": 1600303, "z": 2, "l": 2208, "nm": "ESCOLA MUNICIPAL DE ENSINO FUNDAMENTAL ESFORÇO POPULAR", "nm_mun": "MACAPÁ", "aptos": 2090, "imp": 0}}, {"type": "Feature", "geometry": {"type": "Point", "coordinates": [-51.074299, 0.010985]}, "properties": {"i": 77, "mun": 6050, "ibge": 1600303, "z": 2, "l": 2216, "nm": "ESCOLA MUNICIPAL DE ENSINO FUNDAMENTAL PARAÍSO DAS ACÁCIAS", "nm_mun": "MACAPÁ", "aptos": 1812, "imp": 0}}, {"type": "Feature", "geometry": {"type": "Point", "coordinates": [-51.078231, 0.022085]}, "properties": {"i": 78, "mun": 6050, "ibge": 1600303, "z": 2, "l": 2224, "nm": "ESCOLA MUNICIPAL DE ENSINO FUNDAMENTAL EUNICE PICANÇO", "nm_mun": "MACAPÁ", "aptos": 1276, "imp": 0}}, {"type": "Feature", "geometry": {"type": "Point", "coordinates": [-51.08223, 0.011719]}, "properties": {"i": 79, "mun": 6050, "ibge": 1600303, "z": 2, "l": 2232, "nm": "ESCOLA MUNICIPAL DE ENSINO FUNDAMENTAL RAIMUNDO OLIVEIRA ALENCAR", "nm_mun": "MACAPÁ", "aptos": 973, "imp": 0}}, {"type": "Feature", "geometry": {"type": "Point", "coordinates": [-51.078844, 0.018097]}, "properties": {"i": 80, "mun": 6050, "ibge": 1600303, "z": 2, "l": 2240, "nm": "ESCOLA MUNICIPAL DE ENSINO FUNDAMENTAL ELITA NUNES MELO", "nm_mun": "MACAPÁ", "aptos": 745, "imp": 0}}, {"type": "Feature", "geometry": {"type": "Point", "coordinates": [-51.064688, 0.008135]}, "properties": {"i": 81, "mun": 6050, "ibge": 1600303, "z": 2, "l": 2267, "nm": "ESCOLA ESTADUAL PROFª MARIA DE NAZARÉ PEREIRA VASCONCELOS", "nm_mun": "MACAPÁ", "aptos": 3540, "imp": 0}}, {"type": "Feature", "geometry": {"type": "Point", "coordinates": [-51.057608, 0.015043]}, "properties": {"i": 82, "mun": 6050, "ibge": 1600303, "z": 2, "l": 2313, "nm": "ESCOLA MUNICIPAL DE ENSINO FUNDAMENTAL ANTONIO BARBOSA", "nm_mun": "MACAPÁ", "aptos": 1259, "imp": 0}}, {"type": "Feature", "geometry": {"type": "Point", "coordinates": [-51.087628, 0.001316]}, "properties": {"i": 83, "mun": 6050, "ibge": 1600303, "z": 2, "l": 2321, "nm": "ESCOLA ESTADUAL PROFª NANCI NINA COSTA", "nm_mun": "MACAPÁ", "aptos": 4579, "imp": 0}}, {"type": "Feature", "geometry": {"type": "Point", "coordinates": [-51.091932, 0.009609]}, "properties": {"i": 84, "mun": 6050, "ibge": 1600303, "z": 2, "l": 2330, "nm": "ESCOLA ESTADUAL NELITA ROCHA BRITO DIAS", "nm_mun": "MACAPÁ", "aptos": 2722, "imp": 0}}, {"type": "Feature", "geometry": {"type": "Point", "coordinates": [-51.073444, 0.020451]}, "properties": {"i": 85, "mun": 6050, "ibge": 1600303, "z": 2, "l": 2356, "nm": "ESCOLA ESTADUAL GONÇALVES DIAS", "nm_mun": "MACAPÁ", "aptos": 3739, "imp": 0}}, {"type": "Feature", "geometry": {"type": "Point", "coordinates": [-51.084413, 0.004678]}, "properties": {"i": 86, "mun": 6050, "ibge": 1600303, "z": 2, "l": 2437, "nm": "ESCOLA MUNICIPAL DE ENSINO FUNDAMENTAL PROFª ANA MARIA DA SILVA RAMOS", "nm_mun": "MACAPÁ", "aptos": 1291, "imp": 0}}, {"type": "Feature", "geometry": {"type": "Point", "coordinates": [-51.117074, -0.046101]}, "properties": {"i": 87, "mun": 6050, "ibge": 1600303, "z": 2, "l": 2453, "nm": "ESCOLA MUNICIPAL DE ENSINO FUNDAMENTAL CAETANO DIAS TOMAZ", "nm_mun": "MACAPÁ", "aptos": 1997, "imp": 0}}, {"type": "Feature", "geometry": {"type": "Point", "coordinates": [-51.062631, 0.034051]}, "properties": {"i": 88, "mun": 6050, "ibge": 1600303, "z": 2, "l": 2488, "nm": "ESCOLA MUNICIPAL DE ENSINO FUNDAMENTAL PROFª GUITA", "nm_mun": "MACAPÁ", "aptos": 271, "imp": 1}}, {"type": "Feature", "geometry": {"type": "Point", "coordinates": [-51.105006, -0.047342]}, "properties": {"i": 89, "mun": 6050, "ibge": 1600303, "z": 2, "l": 2518, "nm": "ESCOLA ESTADUAL PROFª JACINTA MARIA RODRIGUES DE CARVALHO", "nm_mun": "MACAPÁ", "aptos": 1467, "imp": 0}}, {"type": "Feature", "geometry": {"type": "Point", "coordinates": [-51.072819, 0.025973]}, "properties": {"i": 90, "mun": 6050, "ibge": 1600303, "z": 2, "l": 2640, "nm": "CENTRO DE EDUCAÇÃO DO AMAPÁ - CEPA", "nm_mun": "MACAPÁ", "aptos": 1731, "imp": 1}}, {"type": "Feature", "geometry": {"type": "Point", "coordinates": [-51.08451, -0.006536]}, "properties": {"i": 91, "mun": 6050, "ibge": 1600303, "z": 2, "l": 2658, "nm": "ESCOLA ESTADUAL IRMA SANTINA RIOLI", "nm_mun": "MACAPÁ", "aptos": 4197, "imp": 1}}, {"type": "Feature", "geometry": {"type": "Point", "coordinates": [-51.063367, 0.072724]}, "properties": {"i": 92, "mun": 6050, "ibge": 1600303, "z": 2, "l": 2666, "nm": "ESCOLA ESTADUAL JOSEFA JUCILEIDE AMORAS COLARES", "nm_mun": "MACAPÁ", "aptos": 4062, "imp": 1}}, {"type": "Feature", "geometry": {"type": "Point", "coordinates": [-51.051262, 0.072967]}, "properties": {"i": 93, "mun": 6050, "ibge": 1600303, "z": 2, "l": 2674, "nm": "ESCOLA ESTADUAL PROFª MARIA CARMELITA DO CARMO", "nm_mun": "MACAPÁ", "aptos": 3017, "imp": 1}}, {"type": "Feature", "geometry": {"type": "Point", "coordinates": [-51.056684, 0.076373]}, "properties": {"i": 94, "mun": 6050, "ibge": 1600303, "z": 2, "l": 2682, "nm": "ESCOLA ESTADUAL SANTA INÊS", "nm_mun": "MACAPÁ", "aptos": 3429, "imp": 1}}, {"type": "Feature", "geometry": {"type": "Point", "coordinates": [-51.079489, 0.018243]}, "properties": {"i": 95, "mun": 6050, "ibge": 1600303, "z": 2, "l": 2690, "nm": "ESCOLA MUNICIPAL DE ENSINO FUNDAMENTAL HILDEMAR MAIA", "nm_mun": "MACAPÁ", "aptos": 1927, "imp": 1}}, {"type": "Feature", "geometry": {"type": "Point", "coordinates": [-51.064845, 0.034087]}, "properties": {"i": 96, "mun": 6050, "ibge": 1600303, "z": 2, "l": 2712, "nm": "ESCOLA ESTADUAL DOM ARISTIDES PIRÓVANO", "nm_mun": "MACAPÁ", "aptos": 2718, "imp": 1}}, {"type": "Feature", "geometry": {"type": "Point", "coordinates": [-51.064845, 0.034087]}, "properties": {"i": 97, "mun": 6050, "ibge": 1600303, "z": 2, "l": 2720, "nm": "ESCOLA ESTADUAL DR.ALEXANDRE VAZ TAVARES", "nm_mun": "MACAPÁ", "aptos": 4905, "imp": 1}}, {"type": "Feature", "geometry": {"type": "Point", "coordinates": [-51.062634, 0.084481]}, "properties": {"i": 98, "mun": 6050, "ibge": 1600303, "z": 2, "l": 2739, "nm": "ESCOLA ESTADUAL COELHO NETO", "nm_mun": "MACAPÁ", "aptos": 2455, "imp": 1}}, {"type": "Feature", "geometry": {"type": "Point", "coordinates": [-51.051262, 0.072967]}, "properties": {"i": 99, "mun": 6050, "ibge": 1600303, "z": 2, "l": 2747, "nm": "ESCOLA ESTADUAL CECILIA PINTO", "nm_mun": "MACAPÁ", "aptos": 3557, "imp": 1}}, {"type": "Feature", "geometry": {"type": "Point", "coordinates": [-51.057399, 0.067122]}, "properties": {"i": 100, "mun": 6050, "ibge": 1600303, "z": 10, "l": 1074, "nm": "ESCOLA ESTADUAL PROFESSORA RUTH DE ALMEIDA BEZERRA", "nm_mun": "MACAPÁ", "aptos": 3866, "imp": 0}}, {"type": "Feature", "geometry": {"type": "Point", "coordinates": [-50.914854, 0.269483]}, "properties": {"i": 101, "mun": 6050, "ibge": 1600303, "z": 10, "l": 1082, "nm": "ESCOLA ESTADUAL PEDRO ALCANTARA CHAVES. LOPES", "nm_mun": "MACAPÁ", "aptos": 703, "imp": 0}}, {"type": "Feature", "geometry": {"type": "Point", "coordinates": [-50.66184, 0.847959]}, "properties": {"i": 102, "mun": 6050, "ibge": 1600303, "z": 10, "l": 1090, "nm": "ESCOLA ESTADUAL JULIO GONCALVES DA COSTA", "nm_mun": "MACAPÁ", "aptos": 687, "imp": 0}}, {"type": "Feature", "geometry": {"type": "Point", "coordinates": [-50.752802, 0.807525]}, "properties": {"i": 103, "mun": 6050, "ibge": 1600303, "z": 10, "l": 1104, "nm": "ESCOLA ESTADUAL SAO JOAQUIM DO PACUI", "nm_mun": "MACAPÁ", "aptos": 938, "imp": 0}}, {"type": "Feature", "geometry": {"type": "Point", "coordinates": [-50.753853, 0.245937]}, "properties": {"i": 104, "mun": 6050, "ibge": 1600303, "z": 10, "l": 1120, "nm": "ESCOLA ESTADUAL JOÃO MACIEL AMANAJÁS", "nm_mun": "MACAPÁ", "aptos": 453, "imp": 0}}, {"type": "Feature", "geometry": {"type": "Point", "coordinates": [-50.987233, 0.299349]}, "properties": {"i": 105, "mun": 6050, "ibge": 1600303, "z": 10, "l": 1139, "nm": "ESCOLA MUNICIPAL TEIXEIRA DE FREITAS", "nm_mun": "MACAPÁ", "aptos": 154, "imp": 0}}, {"type": "Feature", "geometry": {"type": "Point", "coordinates": [-50.825012, 0.75166]}, "properties": {"i": 106, "mun": 6050, "ibge": 1600303, "z": 10, "l": 1147, "nm": "ESCOLA ESTADUAL SEBASTIAO CORDEIRO DE SENA", "nm_mun": "MACAPÁ", "aptos": 495, "imp": 0}}, {"type": "Feature", "geometry": {"type": "Point", "coordinates": [-50.62827, 0.826999]}, "properties": {"i": 107, "mun": 6050, "ibge": 1600303, "z": 10, "l": 1155, "nm": "ESCOLA ESTADUAL SAO TOME DO PACUI", "nm_mun": "MACAPÁ", "aptos": 292, "imp": 0}}, {"type": "Feature", "geometry": {"type": "Point", "coordinates": [-51.05296, 0.13441]}, "properties": {"i": 108, "mun": 6050, "ibge": 1600303, "z": 10, "l": 1163, "nm": "ESCOLA QUILOMBOLA ESTADUAL JOSÉ BONIFÁCIO", "nm_mun": "MACAPÁ", "aptos": 1075, "imp": 0}}, {"type": "Feature", "geometry": {"type": "Point", "coordinates": [-51.062634, 0.084481]}, "properties": {"i": 109, "mun": 6050, "ibge": 1600303, "z": 10, "l": 1198, "nm": "ESCOLA MUNICIPAL JARDIM FELICIDADE", "nm_mun": "MACAPÁ", "aptos": 3760, "imp": 0}}, {"type": "Feature", "geometry": {"type": "Point", "coordinates": [-50.875144, 0.337091]}, "properties": {"i": 110, "mun": 6050, "ibge": 1600303, "z": 10, "l": 1210, "nm": "ESCOLA QUILOMBOLA ESTADUAL DANIEL DE CARVALHO", "nm_mun": "MACAPÁ", "aptos": 694, "imp": 0}}, {"type": "Feature", "geometry": {"type": "Point", "coordinates": [-50.854742, 0.188834]}, "properties": {"i": 111, "mun": 6050, "ibge": 1600303, "z": 10, "l": 1236, "nm": "ESCOLA ESTADUAL DE CARAPANATUBA", "nm_mun": "MACAPÁ", "aptos": 529, "imp": 0}}, {"type": "Feature", "geometry": {"type": "Point", "coordinates": [-50.708729, 0.720799]}, "properties": {"i": 112, "mun": 6050, "ibge": 1600303, "z": 10, "l": 1252, "nm": "ESCOLA MUNICIPAL IRIDIO ROCHA DA CONCEIÇÃO", "nm_mun": "MACAPÁ", "aptos": 713, "imp": 0}}, {"type": "Feature", "geometry": {"type": "Point", "coordinates": [-50.684856, 0.669872]}, "properties": {"i": 113, "mun": 6050, "ibge": 1600303, "z": 10, "l": 1260, "nm": "ESCOLA ESTADUAL ANDRÉ NEVES ROSA", "nm_mun": "MACAPÁ", "aptos": 134, "imp": 0}}, {"type": "Feature", "geometry": {"type": "Point", "coordinates": [-51.056562, 0.09681]}, "properties": {"i": 114, "mun": 6050, "ibge": 1600303, "z": 10, "l": 1279, "nm": "ESCOLA ESTADUAL MARIA DO CARMO VIANA DOS ANJOS", "nm_mun": "MACAPÁ", "aptos": 3899, "imp": 0}}, {"type": "Feature", "geometry": {"type": "Point", "coordinates": [-51.085938, 0.088427]}, "properties": {"i": 115, "mun": 6050, "ibge": 1600303, "z": 10, "l": 1309, "nm": "ESCOLA ESTADUAL BRASIL NOVO", "nm_mun": "MACAPÁ", "aptos": 1604, "imp": 0}}, {"type": "Feature", "geometry": {"type": "Point", "coordinates": [-51.061436, 0.072276]}, "properties": {"i": 116, "mun": 6050, "ibge": 1600303, "z": 10, "l": 1317, "nm": "ESCOLA ESTADUAL PROFESSORA ESTHER DA SILVA VIRGOLINO", "nm_mun": "MACAPÁ", "aptos": 4021, "imp": 0}}, {"type": "Feature", "geometry": {"type": "Point", "coordinates": [-51.0501, 0.096876]}, "properties": {"i": 117, "mun": 6050, "ibge": 1600303, "z": 10, "l": 1325, "nm": "ESCOLA ESTADUAL RIVANDA NAZARE DA SILVA GUIMARAES", "nm_mun": "MACAPÁ", "aptos": 4220, "imp": 0}}, {"type": "Feature", "geometry": {"type": "Point", "coordinates": [-51.059041, 0.093322]}, "properties": {"i": 118, "mun": 6050, "ibge": 1600303, "z": 10, "l": 1368, "nm": "ESCOLA ESTADUAL SERAFINI COSTAPERARIA", "nm_mun": "MACAPÁ", "aptos": 2728, "imp": 0}}, {"type": "Feature", "geometry": {"type": "Point", "coordinates": [-51.06526, 0.083893]}, "properties": {"i": 119, "mun": 6050, "ibge": 1600303, "z": 10, "l": 1376, "nm": "ESCOLA ESTADUAL MARIA NEUZA DO CARMO", "nm_mun": "MACAPÁ", "aptos": 4634, "imp": 0}}, {"type": "Feature", "geometry": {"type": "Point", "coordinates": [-51.113666, 0.123602]}, "properties": {"i": 120, "mun": 6050, "ibge": 1600303, "z": 10, "l": 1384, "nm": "ESCOLA MUNICIPAL QUILOMBOLA VELHO CHICO", "nm_mun": "MACAPÁ", "aptos": 434, "imp": 0}}, {"type": "Feature", "geometry": {"type": "Point", "coordinates": [-51.049808, 0.095608]}, "properties": {"i": 121, "mun": 6050, "ibge": 1600303, "z": 10, "l": 1392, "nm": "ESCOLA ESTADUAL RAIMUNDA DOS PASSOS SANTOS", "nm_mun": "MACAPÁ", "aptos": 4240, "imp": 0}}, {"type": "Feature", "geometry": {"type": "Point", "coordinates": [-51.056684, 0.076373]}, "properties": {"i": 122, "mun": 6050, "ibge": 1600303, "z": 10, "l": 1406, "nm": "ESCOLA ESTADUAL PROFESSORA ODETE ALMEIDA LOPES", "nm_mun": "MACAPÁ", "aptos": 1998, "imp": 0}}, {"type": "Feature", "geometry": {"type": "Point", "coordinates": [-51.083322, 0.070819]}, "properties": {"i": 123, "mun": 6050, "ibge": 1600303, "z": 10, "l": 1414, "nm": "ESCOLA ESTADUAL PROFESSORA VERA LUCIA PINON NERY", "nm_mun": "MACAPÁ", "aptos": 4828, "imp": 0}}, {"type": "Feature", "geometry": {"type": "Point", "coordinates": [-51.063367, 0.072724]}, "properties": {"i": 124, "mun": 6050, "ibge": 1600303, "z": 10, "l": 1422, "nm": "ESCOLA MUNICIPAL PROFESSOR JOSAFA AIRES DA COSTA", "nm_mun": "MACAPÁ", "aptos": 3696, "imp": 0}}, {"type": "Feature", "geometry": {"type": "Point", "coordinates": [-50.688913, 0.803077]}, "properties": {"i": 125, "mun": 6050, "ibge": 1600303, "z": 10, "l": 1430, "nm": "ESCOLA MUNICIPAL BENEDITA TAVARES", "nm_mun": "MACAPÁ", "aptos": 343, "imp": 0}}, {"type": "Feature", "geometry": {"type": "Point", "coordinates": [-50.935272, 0.310696]}, "properties": {"i": 126, "mun": 6050, "ibge": 1600303, "z": 10, "l": 1457, "nm": "ESCOLA ESTADUAL JOAQUIM MANOEL DE JESUS PICANÇO", "nm_mun": "MACAPÁ", "aptos": 120, "imp": 0}}, {"type": "Feature", "geometry": {"type": "Point", "coordinates": [-51.073441, 0.08361]}, "properties": {"i": 127, "mun": 6050, "ibge": 1600303, "z": 10, "l": 1473, "nm": "ESCOLA ESTADUAL PROFESSORA ONEIDE PINTO LIMA", "nm_mun": "MACAPÁ", "aptos": 2231, "imp": 0}}, {"type": "Feature", "geometry": {"type": "Point", "coordinates": [-50.795728, 0.717317]}, "properties": {"i": 128, "mun": 6050, "ibge": 1600303, "z": 10, "l": 1481, "nm": "ESCOLA ESTADUAL BERNADINO SILVA", "nm_mun": "MACAPÁ", "aptos": 262, "imp": 0}}, {"type": "Feature", "geometry": {"type": "Point", "coordinates": [-50.634263, 0.809803]}, "properties": {"i": 129, "mun": 6050, "ibge": 1600303, "z": 10, "l": 1490, "nm": "ESCOLA ESTADUAL JOSÉ OLIVEIRA COELHO", "nm_mun": "MACAPÁ", "aptos": 246, "imp": 0}}, {"type": "Feature", "geometry": {"type": "Point", "coordinates": [-51.051262, 0.072967]}, "properties": {"i": 130, "mun": 6050, "ibge": 1600303, "z": 10, "l": 1503, "nm": "ESCOLA MUNICIPAL PROFESSOR JOSÉ LEOVES DE LIMA TEIXEIRA", "nm_mun": "MACAPÁ", "aptos": 4003, "imp": 0}}, {"type": "Feature", "geometry": {"type": "Point", "coordinates": [-51.046326, 0.098952]}, "properties": {"i": 131, "mun": 6050, "ibge": 1600303, "z": 10, "l": 1511, "nm": "ESCOLA ESTADUAL PROFESSORA RAIMUNDA DA SILVA VIRGOLINO", "nm_mun": "MACAPÁ", "aptos": 2987, "imp": 0}}, {"type": "Feature", "geometry": {"type": "Point", "coordinates": [-51.089724, 0.071165]}, "properties": {"i": 132, "mun": 6050, "ibge": 1600303, "z": 10, "l": 1520, "nm": "ESCOLA ESTADUAL PROFESSOR ANTONIO FERREIRA DE LIMA NETO", "nm_mun": "MACAPÁ", "aptos": 5080, "imp": 0}}, {"type": "Feature", "geometry": {"type": "Point", "coordinates": [-51.086083, 0.092306]}, "properties": {"i": 133, "mun": 6050, "ibge": 1600303, "z": 10, "l": 1546, "nm": "ESCOLA ESTADUAL PROFESSORA MARIA CAVALCANTE DE AZEVEDO PICANÇO", "nm_mun": "MACAPÁ", "aptos": 5016, "imp": 0}}, {"type": "Feature", "geometry": {"type": "Point", "coordinates": [-51.056327, 0.096934]}, "properties": {"i": 134, "mun": 6050, "ibge": 1600303, "z": 10, "l": 1554, "nm": "ESCOLA ESTADUAL PROFESSORA MARIA JOSÉ SOUZA E SILVA", "nm_mun": "MACAPÁ", "aptos": 687, "imp": 0}}, {"type": "Feature", "geometry": {"type": "Point", "coordinates": [-50.81727, 0.229566]}, "properties": {"i": 135, "mun": 6050, "ibge": 1600303, "z": 10, "l": 1570, "nm": "ESCOLA MUNICIPAL SÃO RAIMUNDO DO PARAÍSO", "nm_mun": "MACAPÁ", "aptos": 286, "imp": 0}}, {"type": "Feature", "geometry": {"type": "Point", "coordinates": [-50.645929, 0.795524]}, "properties": {"i": 136, "mun": 6050, "ibge": 1600303, "z": 10, "l": 1589, "nm": "ESCOLA ESTADUAL SÃO SEBASTIÃO", "nm_mun": "MACAPÁ", "aptos": 230, "imp": 0}}, {"type": "Feature", "geometry": {"type": "Point", "coordinates": [-51.017479, 0.280733]}, "properties": {"i": 137, "mun": 6050, "ibge": 1600303, "z": 10, "l": 1597, "nm": "ESCOLA ESTADUAL ANTONIO BRAULIO DE SOUZA", "nm_mun": "MACAPÁ", "aptos": 144, "imp": 0}}, {"type": "Feature", "geometry": {"type": "Point", "coordinates": [-51.117525, 0.090372]}, "properties": {"i": 138, "mun": 6050, "ibge": 1600303, "z": 10, "l": 1635, "nm": "ESCOLA ESTADUAL NOSSA SENHORA DE NAZARÉ", "nm_mun": "MACAPÁ", "aptos": 1072, "imp": 0}}, {"type": "Feature", "geometry": {"type": "Point", "coordinates": [-51.040661, 0.087457]}, "properties": {"i": 139, "mun": 6050, "ibge": 1600303, "z": 10, "l": 1660, "nm": "ESCOLA ESTADUAL DE TEMPO INTEGRAL PROFESSOR. DARCY RIBEIRO", "nm_mun": "MACAPÁ", "aptos": 2200, "imp": 0}}, {"type": "Feature", "geometry": {"type": "Point", "coordinates": [-51.046294, 0.07113]}, "properties": {"i": 140, "mun": 6050, "ibge": 1600303, "z": 10, "l": 1678, "nm": "ESCOLA ESTADUAL RISALVA FREITAS DO AMARAL", "nm_mun": "MACAPÁ", "aptos": 2930, "imp": 0}}, {"type": "Feature", "geometry": {"type": "Point", "coordinates": [-51.084899, 0.098733]}, "properties": {"i": 141, "mun": 6050, "ibge": 1600303, "z": 10, "l": 1694, "nm": "ESCOLA MUNICIPAL LÚCIA NEVES DENIUR", "nm_mun": "MACAPÁ", "aptos": 2287, "imp": 0}}, {"type": "Feature", "geometry": {"type": "Point", "coordinates": [-50.867759, 0.300773]}, "properties": {"i": 142, "mun": 6050, "ibge": 1600303, "z": 10, "l": 1708, "nm": "ESCOLA ESTADUAL NAZARÉ DA PEDREIRA", "nm_mun": "MACAPÁ", "aptos": 259, "imp": 0}}, {"type": "Feature", "geometry": {"type": "Point", "coordinates": [-51.095121, 0.086212]}, "properties": {"i": 143, "mun": 6050, "ibge": 1600303, "z": 10, "l": 1724, "nm": "ESCOLA ESTADUAL PROFESSOR ANTONIO MUNHOZ LOPES", "nm_mun": "MACAPÁ", "aptos": 4178, "imp": 0}}, {"type": "Feature", "geometry": {"type": "Point", "coordinates": [-51.098522, 0.05991]}, "properties": {"i": 144, "mun": 6050, "ibge": 1600303, "z": 10, "l": 1732, "nm": "ESCOLA MUNICIPAL SANDRA LOBATO FERREIRA", "nm_mun": "MACAPÁ", "aptos": 463, "imp": 0}}, {"type": "Feature", "geometry": {"type": "Point", "coordinates": [-51.051028, 0.092801]}, "properties": {"i": 145, "mun": 6050, "ibge": 1600303, "z": 10, "l": 1740, "nm": "ESCOLA ESTADUAL DOM JOSÉ MARITANO", "nm_mun": "MACAPÁ", "aptos": 478, "imp": 0}}, {"type": "Feature", "geometry": {"type": "Point", "coordinates": [-50.713656, 0.289793]}, "properties": {"i": 146, "mun": 6050, "ibge": 1600303, "z": 10, "l": 1767, "nm": "ESCOLA MUNICIPAL JOÃO ROLINDO DO CARMO", "nm_mun": "MACAPÁ", "aptos": 141, "imp": 0}}, {"type": "Feature", "geometry": {"type": "Point", "coordinates": [-51.098522, 0.05991]}, "properties": {"i": 147, "mun": 6050, "ibge": 1600303, "z": 10, "l": 1848, "nm": "ESCOLA ESTADUAL PROFESSOR. CARLOS ALBERTO VIANA MARQUES", "nm_mun": "MACAPÁ", "aptos": 1120, "imp": 1}}, {"type": "Feature", "geometry": {"type": "Point", "coordinates": [-51.117525, 0.090372]}, "properties": {"i": 148, "mun": 6050, "ibge": 1600303, "z": 10, "l": 1856, "nm": "ESCOLA ESTADUAL PROFESSORA MARLY MARIA E SOUZA E SILVA", "nm_mun": "MACAPÁ", "aptos": 456, "imp": 1}}, {"type": "Feature", "geometry": {"type": "Point", "coordinates": [-51.105006, -0.047342]}, "properties": {"i": 149, "mun": 6050, "ibge": 1600303, "z": 10, "l": 1864, "nm": "ESCOLA MUNICIPAL SANDRA DO SOCORRO TOLOSA DA SILVA", "nm_mun": "MACAPÁ", "aptos": 447, "imp": 1}}, {"type": "Feature", "geometry": {"type": "Point", "coordinates": [-51.098522, 0.05991]}, "properties": {"i": 150, "mun": 6050, "ibge": 1600303, "z": 10, "l": 1872, "nm": "ESCOLA ESTADUAL SÃO LÁZARO", "nm_mun": "MACAPÁ", "aptos": 125, "imp": 1}}, {"type": "Feature", "geometry": {"type": "Point", "coordinates": [-52.427765, -0.929769]}, "properties": {"i": 151, "mun": 6050, "ibge": 1600303, "z": 10, "l": 1880, "nm": "ESCOLA ESTADUAL MARIA MÃE DE DEUS", "nm_mun": "MACAPÁ", "aptos": 588, "imp": 1}}, {"type": "Feature", "geometry": {"type": "Point", "coordinates": [-52.521179, -0.84024]}, "properties": {"i": 152, "mun": 6050, "ibge": 1600303, "z": 10, "l": 1899, "nm": "ESCOLA MUNICIPAL PROFESSORA ELIANA FLEXA VILHENA", "nm_mun": "MACAPÁ", "aptos": 186, "imp": 1}}, {"type": "Feature", "geometry": {"type": "Point", "coordinates": [-51.095121, 0.086212]}, "properties": {"i": 153, "mun": 6050, "ibge": 1600303, "z": 10, "l": 1902, "nm": "ESCOLA MUNICIPAL MARIA CELES FERREIRA COUTINHO", "nm_mun": "MACAPÁ", "aptos": 644, "imp": 1}}, {"type": "Feature", "geometry": {"type": "Point", "coordinates": [-50.634263, 0.809803]}, "properties": {"i": 154, "mun": 6050, "ibge": 1600303, "z": 10, "l": 1910, "nm": "ESCOLA QUILOMBOLA ESTADUAL NESTOR BARBOSA DA SILVA", "nm_mun": "MACAPÁ", "aptos": 258, "imp": 1}}, {"type": "Feature", "geometry": {"type": "Point", "coordinates": [-1.0, -1.0]}, "properties": {"i": 155, "mun": 6050, "ibge": 1600303, "z": 10, "l": 1929, "nm": "ESCOLA ESTADUAL OLENDINA FERREIRA DO ROSARIO", "nm_mun": "MACAPÁ", "aptos": 59, "imp": 1}}, {"type": "Feature", "geometry": {"type": "Point", "coordinates": [-51.486185, -0.148754]}, "properties": {"i": 156, "mun": 6050, "ibge": 1600303, "z": 10, "l": 1970, "nm": "ESCOLA ESTADUAL ARIRI", "nm_mun": "MACAPÁ", "aptos": 271, "imp": 1}}, {"type": "Feature", "geometry": {"type": "Point", "coordinates": [-1.0, -1.0]}, "properties": {"i": 157, "mun": 6050, "ibge": 1600303, "z": 10, "l": 1988, "nm": "ESCOLA ESTADUAL TESSALONICA", "nm_mun": "MACAPÁ", "aptos": 376, "imp": 1}}, {"type": "Feature", "geometry": {"type": "Point", "coordinates": [-51.767482, 0.610765]}, "properties": {"i": 158, "mun": 6050, "ibge": 1600303, "z": 10, "l": 1996, "nm": "ESCOLA QUILOMBOLA ESTADUAL ANTÔNIO FIGUEIREDO DA SILVA", "nm_mun": "MACAPÁ", "aptos": 410, "imp": 1}}, {"type": "Feature", "geometry": {"type": "Point", "coordinates": [-51.720367, 3.725128]}, "properties": {"i": 159, "mun": 6050, "ibge": 1600303, "z": 10, "l": 2003, "nm": "ESCOLA QUILOMBOLA ESTADUAL GENERAL CARROMBERT PEREIRA DA COSTA", "nm_mun": "MACAPÁ", "aptos": 364, "imp": 1}}, {"type": "Feature", "geometry": {"type": "Point", "coordinates": [-50.875144, 0.337091]}, "properties": {"i": 160, "mun": 6050, "ibge": 1600303, "z": 10, "l": 2011, "nm": "ESCOLA ESTADUAL PROFESSOR RAIMUNDO PEREIRA DA SILVA", "nm_mun": "MACAPÁ", "aptos": 814, "imp": 1}}, {"type": "Feature", "geometry": {"type": "Point", "coordinates": [-1.0, -1.0]}, "properties": {"i": 161, "mun": 6050, "ibge": 1600303, "z": 10, "l": 2020, "nm": "ESCOLA ESTADUAL SÃO PEDRO DO CARANÃ", "nm_mun": "MACAPÁ", "aptos": 133, "imp": 1}}, {"type": "Feature", "geometry": {"type": "Point", "coordinates": [-50.987233, 0.299349]}, "properties": {"i": 162, "mun": 6050, "ibge": 1600303, "z": 10, "l": 2038, "nm": "ESCOLA MUNICIPAL CAMPINA GRANDE VALMITO MORAES BRAZÃO", "nm_mun": "MACAPÁ", "aptos": 184, "imp": 1}}, {"type": "Feature", "geometry": {"type": "Point", "coordinates": [-51.064845, 0.034087]}, "properties": {"i": 163, "mun": 6050, "ibge": 1600303, "z": 14, "l": 1031, "nm": "CENTRO DE EDUCAÇÃO PROFISSIONAL GRAZIELA REIS", "nm_mun": "MACAPÁ", "aptos": 2044, "imp": 1}}, {"type": "Feature", "geometry": {"type": "Point", "coordinates": [-51.085938, 0.088427]}, "properties": {"i": 164, "mun": 6050, "ibge": 1600303, "z": 14, "l": 1040, "nm": "CENTRO EDUCACIONAL IRMÃ CARMELA BONASSI", "nm_mun": "MACAPÁ", "aptos": 2198, "imp": 1}}, {"type": "Feature", "geometry": {"type": "Point", "coordinates": [-51.06526, 0.083893]}, "properties": {"i": 165, "mun": 6050, "ibge": 1600303, "z": 14, "l": 1058, "nm": "E. E. PROFª DEUZUITE CAVALCANTE", "nm_mun": "MACAPÁ", "aptos": 3102, "imp": 1}}, {"type": "Feature", "geometry": {"type": "Point", "coordinates": [-51.177989, -0.016527]}, "properties": {"i": 166, "mun": 6050, "ibge": 1600303, "z": 14, "l": 1066, "nm": "E. E. SANTUÁRIO PERPÉTUO SOCORRO", "nm_mun": "MACAPÁ", "aptos": 2082, "imp": 1}}, {"type": "Feature", "geometry": {"type": "Point", "coordinates": [-51.411992, 0.706973]}, "properties": {"i": 167, "mun": 6050, "ibge": 1600303, "z": 14, "l": 1074, "nm": "E.E JOSE DE ALENCAR", "nm_mun": "MACAPÁ", "aptos": 2912, "imp": 1}}, {"type": "Feature", "geometry": {"type": "Point", "coordinates": [-51.063367, 0.072724]}, "properties": {"i": 168, "mun": 6050, "ibge": 1600303, "z": 14, "l": 1082, "nm": "E.M.E.F. JOSE DUARTE DE AZEVEDO", "nm_mun": "MACAPÁ", "aptos": 3524, "imp": 1}}, {"type": "Feature", "geometry": {"type": "Point", "coordinates": [-51.061224, 0.018245]}, "properties": {"i": 169, "mun": 6050, "ibge": 1600303, "z": 14, "l": 1090, "nm": "E.M.E.I.  MUNDO DA CRIANÇA", "nm_mun": "MACAPÁ", "aptos": 2200, "imp": 1}}, {"type": "Feature", "geometry": {"type": "Point", "coordinates": [-51.172464, -0.046533]}, "properties": {"i": 170, "mun": 6050, "ibge": 1600303, "z": 14, "l": 1104, "nm": "EEEF ARACARY CORREA ALVES", "nm_mun": "MACAPÁ", "aptos": 2033, "imp": 1}}, {"type": "Feature", "geometry": {"type": "Point", "coordinates": [-51.073444, 0.020451]}, "properties": {"i": 171, "mun": 6050, "ibge": 1600303, "z": 14, "l": 1112, "nm": "EEEF AUGUSTO DOS ANJOS", "nm_mun": "MACAPÁ", "aptos": 1938, "imp": 1}}, {"type": "Feature", "geometry": {"type": "Point", "coordinates": [-51.064845, 0.034087]}, "properties": {"i": 172, "mun": 6050, "ibge": 1600303, "z": 14, "l": 1120, "nm": "EEEF GENERAL AZEVEDO COSTA", "nm_mun": "MACAPÁ", "aptos": 3845, "imp": 1}}, {"type": "Feature", "geometry": {"type": "Point", "coordinates": [-51.089202, -0.013381]}, "properties": {"i": 173, "mun": 6050, "ibge": 1600303, "z": 14, "l": 1139, "nm": "EEEF MARIA IVONE DE MENEZES", "nm_mun": "MACAPÁ", "aptos": 4236, "imp": 1}}, {"type": "Feature", "geometry": {"type": "Point", "coordinates": [-51.064376, 0.007567]}, "properties": {"i": 174, "mun": 6050, "ibge": 1600303, "z": 14, "l": 1147, "nm": "EEEF MARIO DAVID ANDREAZZA", "nm_mun": "MACAPÁ", "aptos": 3537, "imp": 1}}, {"type": "Feature", "geometry": {"type": "Point", "coordinates": [-51.062507, 0.023218]}, "properties": {"i": 175, "mun": 6050, "ibge": 1600303, "z": 14, "l": 1155, "nm": "EMEF EUNICE DAS CHAGAS FERNANDES SOUZA", "nm_mun": "MACAPÁ", "aptos": 2035, "imp": 1}}, {"type": "Feature", "geometry": {"type": "Point", "coordinates": [-51.077326, 0.011557]}, "properties": {"i": 176, "mun": 6050, "ibge": 1600303, "z": 14, "l": 1163, "nm": "EMEF MAESTRO MIGUEL ALVES DA SILVA", "nm_mun": "MACAPÁ", "aptos": 2076, "imp": 1}}, {"type": "Feature", "geometry": {"type": "Point", "coordinates": [-51.062507, 0.023218]}, "properties": {"i": 177, "mun": 6050, "ibge": 1600303, "z": 14, "l": 1171, "nm": "EMEF RONDONIA", "nm_mun": "MACAPÁ", "aptos": 2441, "imp": 1}}, {"type": "Feature", "geometry": {"type": "Point", "coordinates": [-51.061224, 0.018245]}, "properties": {"i": 178, "mun": 6050, "ibge": 1600303, "z": 14, "l": 1180, "nm": "EPG CASTRO ALVES", "nm_mun": "MACAPÁ", "aptos": 1743, "imp": 1}}, {"type": "Feature", "geometry": {"type": "Point", "coordinates": [-51.061224, 0.018245]}, "properties": {"i": 179, "mun": 6050, "ibge": 1600303, "z": 14, "l": 1198, "nm": "EPG EDGAR LINO DA SILVA", "nm_mun": "MACAPÁ", "aptos": 2683, "imp": 1}}, {"type": "Feature", "geometry": {"type": "Point", "coordinates": [-51.051262, 0.072967]}, "properties": {"i": 180, "mun": 6050, "ibge": 1600303, "z": 14, "l": 1201, "nm": "EPG JESUS DE NAZARÉ", "nm_mun": "MACAPÁ", "aptos": 2768, "imp": 1}}, {"type": "Feature", "geometry": {"type": "Point", "coordinates": [-51.057399, 0.067122]}, "properties": {"i": 181, "mun": 6050, "ibge": 1600303, "z": 14, "l": 1210, "nm": "EPG PROF DEUSOLINA SALES FARIAS", "nm_mun": "MACAPÁ", "aptos": 4018, "imp": 1}}, {"type": "Feature", "geometry": {"type": "Point", "coordinates": [-50.797846, 0.969604]}, "properties": {"i": 182, "mun": 6050, "ibge": 1600303, "z": 14, "l": 1236, "nm": "EEEF PROF HELENISE WALMIRA DIAS DOS SANTOS", "nm_mun": "MACAPÁ", "aptos": 801, "imp": 1}}, {"type": "Feature", "geometry": {"type": "Point", "coordinates": [-51.064845, 0.034087]}, "properties": {"i": 183, "mun": 6050, "ibge": 1600303, "z": 14, "l": 1252, "nm": "ESCOLA ESTADUAL ANTONIO CORDEIRO PONTES", "nm_mun": "MACAPÁ", "aptos": 1438, "imp": 1}}, {"type": "Feature", "geometry": {"type": "Point", "coordinates": [-51.079489, 0.018243]}, "properties": {"i": 184, "mun": 6050, "ibge": 1600303, "z": 14, "l": 1309, "nm": "ESCOLA ESTADUAL GUANABARA", "nm_mun": "MACAPÁ", "aptos": 1516, "imp": 1}}, {"type": "Feature", "geometry": {"type": "Point", "coordinates": [-51.062507, 0.023218]}, "properties": {"i": 185, "mun": 6050, "ibge": 1600303, "z": 14, "l": 1325, "nm": "ESCOLA ESTADUAL  JOSÉ DE ANCHIETA", "nm_mun": "MACAPÁ", "aptos": 3468, "imp": 1}}, {"type": "Feature", "geometry": {"type": "Point", "coordinates": [-51.08451, -0.006536]}, "properties": {"i": 186, "mun": 6050, "ibge": 1600303, "z": 14, "l": 1341, "nm": "ESCOLA ESTADUAL MARIA DO SOCORRO ANDRADE SMITH", "nm_mun": "MACAPÁ", "aptos": 3135, "imp": 1}}, {"type": "Feature", "geometry": {"type": "Point", "coordinates": [-51.051262, 0.072967]}, "properties": {"i": 187, "mun": 6050, "ibge": 1600303, "z": 14, "l": 1350, "nm": "ESCOLA ESTADUAL PREDICANDA CARNEIRO AMORIM LOPES", "nm_mun": "MACAPÁ", "aptos": 2893, "imp": 1}}, {"type": "Feature", "geometry": {"type": "Point", "coordinates": [-51.093313, 0.008975]}, "properties": {"i": 188, "mun": 6050, "ibge": 1600303, "z": 14, "l": 1368, "nm": "ESCOLA ESTADUAL PROF. NILTON BALIEIRO MACHADO", "nm_mun": "MACAPÁ", "aptos": 5307, "imp": 1}}, {"type": "Feature", "geometry": {"type": "Point", "coordinates": [-51.064845, 0.034087]}, "properties": {"i": 189, "mun": 6050, "ibge": 1600303, "z": 14, "l": 1384, "nm": "ESCOLA ESTADUAL PROF.GABRIEL ALMEIDA CAFÉ", "nm_mun": "MACAPÁ", "aptos": 2909, "imp": 1}}, {"type": "Feature", "geometry": {"type": "Point", "coordinates": [-51.176968, -0.021359]}, "properties": {"i": 190, "mun": 6050, "ibge": 1600303, "z": 14, "l": 1406, "nm": "ESCOLA ESTADUAL PROFº. LUCIMAR AMORAS DEL CASTILLO", "nm_mun": "MACAPÁ", "aptos": 544, "imp": 1}}, {"type": "Feature", "geometry": {"type": "Point", "coordinates": [-51.08451, -0.006536]}, "properties": {"i": 191, "mun": 6050, "ibge": 1600303, "z": 14, "l": 1449, "nm": "ESCOLA ESTADUAL TIRADENTES", "nm_mun": "MACAPÁ", "aptos": 4062, "imp": 1}}, {"type": "Feature", "geometry": {"type": "Point", "coordinates": [-51.070947, 0.023929]}, "properties": {"i": 192, "mun": 6050, "ibge": 1600303, "z": 14, "l": 1465, "nm": "ESCOLA MUNICIPAL DE ENSINO FUNDAMENTAL ARACY NASCIMENTO", "nm_mun": "MACAPÁ", "aptos": 1509, "imp": 1}}, {"type": "Feature", "geometry": {"type": "Point", "coordinates": [-51.089202, -0.013381]}, "properties": {"i": 193, "mun": 6050, "ibge": 1600303, "z": 14, "l": 1473, "nm": "ESCOLA MUNICIPAL DE ENSINO FUNDAMENTAL GOIAS", "nm_mun": "MACAPÁ", "aptos": 1590, "imp": 1}}, {"type": "Feature", "geometry": {"type": "Point", "coordinates": [-51.176968, -0.021359]}, "properties": {"i": 194, "mun": 6050, "ibge": 1600303, "z": 14, "l": 1490, "nm": "ESCOLA MUNICIPAL DE ENSINO FUNDAMENTAL RAIMUNDA DE LIMA GUEDES", "nm_mun": "MACAPÁ", "aptos": 2432, "imp": 1}}, {"type": "Feature", "geometry": {"type": "Point", "coordinates": [-51.079489, 0.018243]}, "properties": {"i": 195, "mun": 6050, "ibge": 1600303, "z": 14, "l": 1503, "nm": "ESCOLA MUNICIPAL DE ENSINO INFANTIL MEU PE DE LARANJA LIMA", "nm_mun": "MACAPÁ", "aptos": 1249, "imp": 1}}, {"type": "Feature", "geometry": {"type": "Point", "coordinates": [-51.294687, -0.114926]}, "properties": {"i": 196, "mun": 6050, "ibge": 1600303, "z": 14, "l": 1511, "nm": "ESCOLA QUILOMBOLA ESTADUAL DAVID MIRANDA DOS SANTOS", "nm_mun": "MACAPÁ", "aptos": 191, "imp": 1}}, {"type": "Feature", "geometry": {"type": "Point", "coordinates": [-51.08451, -0.006536]}, "properties": {"i": 197, "mun": 6050, "ibge": 1600303, "z": 14, "l": 1538, "nm": "SEST/SENAT", "nm_mun": "MACAPÁ", "aptos": 754, "imp": 1}}, {"type": "Feature", "geometry": {"type": "Point", "coordinates": [-51.064845, 0.034087]}, "properties": {"i": 198, "mun": 6050, "ibge": 1600303, "z": 14, "l": 1546, "nm": "UNIVERSIDADE DO ESTADO DO AMAPÁ - UEAP", "nm_mun": "MACAPÁ", "aptos": 2562, "imp": 1}}, {"type": "Feature", "geometry": {"type": "Point", "coordinates": [-50.532044, 0.496372]}, "properties": {"i": 199, "mun": 6050, "ibge": 1600303, "z": 14, "l": 1554, "nm": "ESCOLA ESTADUAL BENTO TOLOSA DE SANTANA", "nm_mun": "MACAPÁ", "aptos": 314, "imp": 1}}, {"type": "Feature", "geometry": {"type": "Point", "coordinates": [-1.0, -1.0]}, "properties": {"i": 200, "mun": 6050, "ibge": 1600303, "z": 14, "l": 1562, "nm": "ESCOLA ESTADUAL CLAUDIO DOS SANTOS BARBOSA", "nm_mun": "MACAPÁ", "aptos": 1873, "imp": 1}}, {"type": "Feature", "geometry": {"type": "Point", "coordinates": [-51.594975, 3.763009]}, "properties": {"i": 201, "mun": 6050, "ibge": 1600303, "z": 14, "l": 1570, "nm": "ESCOLA ESTADUAL FRANCO GRANDE", "nm_mun": "MACAPÁ", "aptos": 307, "imp": 1}}, {"type": "Feature", "geometry": {"type": "Point", "coordinates": [-51.546855, -0.535166]}, "properties": {"i": 202, "mun": 6050, "ibge": 1600303, "z": 14, "l": 1589, "nm": "ESCOLA ESTADUAL IGARAPÉ GRANDE DA TERRA GRANDE", "nm_mun": "MACAPÁ", "aptos": 402, "imp": 1}}, {"type": "Feature", "geometry": {"type": "Point", "coordinates": [-51.546855, -0.535166]}, "properties": {"i": 203, "mun": 6050, "ibge": 1600303, "z": 14, "l": 1597, "nm": "ESCOLA ESTADUAL ITAMATATUBA", "nm_mun": "MACAPÁ", "aptos": 442, "imp": 1}}, {"type": "Feature", "geometry": {"type": "Point", "coordinates": [-50.81727, 0.229566]}, "properties": {"i": 204, "mun": 6050, "ibge": 1600303, "z": 14, "l": 1600, "nm": "ESCOLA ESTADUAL MANOEL PEREIRA HERCULANO-JABURUZINHO", "nm_mun": "MACAPÁ", "aptos": 195, "imp": 1}}, {"type": "Feature", "geometry": {"type": "Point", "coordinates": [-50.688913, 0.803077]}, "properties": {"i": 205, "mun": 6050, "ibge": 1600303, "z": 14, "l": 1619, "nm": "ESCOLA ESTADUAL MARIA JOSE CAMPELO DA SILVA", "nm_mun": "MACAPÁ", "aptos": 443, "imp": 1}}, {"type": "Feature", "geometry": {"type": "Point", "coordinates": [-52.524782, -0.856025]}, "properties": {"i": 206, "mun": 6050, "ibge": 1600303, "z": 14, "l": 1635, "nm": "ESCOLA MUNICIPAL DE ENSINO FUNDMENTAL ROSA DE SHARON", "nm_mun": "MACAPÁ", "aptos": 814, "imp": 1}}, {"type": "Feature", "geometry": {"type": "Point", "coordinates": [-50.84964, 0.714912]}, "properties": {"i": 207, "mun": 6050, "ibge": 1600303, "z": 14, "l": 1643, "nm": "ESCOLA MUNICIPAL DE EDUCAÇÃO INFANTIL LUZIA COSTA DA SILVA", "nm_mun": "MACAPÁ", "aptos": 26, "imp": 1}}, {"type": "Feature", "geometry": {"type": "Point", "coordinates": [-1.0, -1.0]}, "properties": {"i": 208, "mun": 6050, "ibge": 1600303, "z": 14, "l": 1651, "nm": "ESCOLA ESTADUAL ROSA DOS SANTOS SARGES", "nm_mun": "MACAPÁ", "aptos": 275, "imp": 1}}, {"type": "Feature", "geometry": {"type": "Point", "coordinates": [-50.797846, 0.969604]}, "properties": {"i": 209, "mun": 6068, "ibge": 1600212, "z": 10, "l": 1015, "nm": "ESCOLA ESTADUAL LOURIMAR SIMÕES PAES", "nm_mun": "CUTIAS", "aptos": 2402, "imp": 0}}, {"type": "Feature", "geometry": {"type": "Point", "coordinates": [-50.78259, 0.897098]}, "properties": {"i": 210, "mun": 6068, "ibge": 1600212, "z": 10, "l": 1023, "nm": "ESCOLA ESTADUAL PROFESSOR JOSÉ RIBEIRO PONTES", "nm_mun": "CUTIAS", "aptos": 822, "imp": 0}}, {"type": "Feature", "geometry": {"type": "Point", "coordinates": [-50.799167, 0.969003]}, "properties": {"i": 211, "mun": 6068, "ibge": 1600212, "z": 10, "l": 1031, "nm": "ESCOLA MUNICIPAL ALICE NASCIMENTO PIMENTEL", "nm_mun": "CUTIAS", "aptos": 1714, "imp": 0}}, {"type": "Feature", "geometry": {"type": "Point", "coordinates": [-50.700251, 0.884017]}, "properties": {"i": 212, "mun": 6068, "ibge": 1600212, "z": 10, "l": 1040, "nm": "ESCOLA ESTADUAL MÁRIO ALVES MEIRA", "nm_mun": "CUTIAS", "aptos": 526, "imp": 0}}, {"type": "Feature", "geometry": {"type": "Point", "coordinates": [-50.801105, 0.970354]}, "properties": {"i": 213, "mun": 6068, "ibge": 1600212, "z": 10, "l": 1058, "nm": "CRECHE MUNICIPAL PINGO DE GENTE", "nm_mun": "CUTIAS", "aptos": 762, "imp": 0}}, {"type": "Feature", "geometry": {"type": "Point", "coordinates": [-1.0, -1.0]}, "properties": {"i": 214, "mun": 6068, "ibge": 1600212, "z": 10, "l": 1074, "nm": "ESCOLA ESTADUAL PRACUÚBA DO ARAGUARI", "nm_mun": "CUTIAS", "aptos": 85, "imp": 1}}, {"type": "Feature", "geometry": {"type": "Point", "coordinates": [-51.285411, -0.114863]}, "properties": {"i": 215, "mun": 6076, "ibge": 1600402, "z": 5, "l": 1015, "nm": "ESCOLA ESTADUAL DR. MURILO BRAGA", "nm_mun": "MAZAGÃO", "aptos": 2022, "imp": 0}}, {"type": "Feature", "geometry": {"type": "Point", "coordinates": [-51.43416, -0.217241]}, "properties": {"i": 216, "mun": 6076, "ibge": 1600402, "z": 5, "l": 1023, "nm": "ESCOLA ESTADUAL PROFESSORA ANTÔNIA SILVA SANTOS", "nm_mun": "MAZAGÃO", "aptos": 1166, "imp": 0}}, {"type": "Feature", "geometry": {"type": "Point", "coordinates": [-1.0, -1.0]}, "properties": {"i": 217, "mun": 6076, "ibge": 1600402, "z": 5, "l": 1031, "nm": "ESCOLA ESTADUAL CENTRAL DO MARACA", "nm_mun": "MAZAGÃO", "aptos": 116, "imp": 0}}, {"type": "Feature", "geometry": {"type": "Point", "coordinates": [-51.420509, -0.400272]}, "properties": {"i": 218, "mun": 6076, "ibge": 1600402, "z": 5, "l": 1066, "nm": "ESCOLA ESTADUAL RIO NAVIO", "nm_mun": "MAZAGÃO", "aptos": 346, "imp": 0}}, {"type": "Feature", "geometry": {"type": "Point", "coordinates": [-51.577238, 0.153833]}, "properties": {"i": 219, "mun": 6076, "ibge": 1600402, "z": 5, "l": 1074, "nm": "ESCOLA MUNICIPAL VILHENA ALVES", "nm_mun": "MAZAGÃO", "aptos": 403, "imp": 0}}, {"type": "Feature", "geometry": {"type": "Point", "coordinates": [-51.697996, 0.188249]}, "properties": {"i": 220, "mun": 6076, "ibge": 1600402, "z": 5, "l": 1082, "nm": "ESCOLA ESTADUAL PANCADA DO CAMAIPI", "nm_mun": "MAZAGÃO", "aptos": 226, "imp": 0}}, {"type": "Feature", "geometry": {"type": "Point", "coordinates": [-51.703319, -0.74682]}, "properties": {"i": 221, "mun": 6076, "ibge": 1600402, "z": 5, "l": 1090, "nm": "ESCOLA MUNICIPAL SÃO MIGUEL DE MONTE SINAI", "nm_mun": "MAZAGÃO", "aptos": 290, "imp": 0}}, {"type": "Feature", "geometry": {"type": "Point", "coordinates": [-51.781816, -0.508178]}, "properties": {"i": 222, "mun": 6076, "ibge": 1600402, "z": 5, "l": 1120, "nm": "ESCOLA ESTADUAL PROFª MARIA DA SILVA MENDES", "nm_mun": "MAZAGÃO", "aptos": 681, "imp": 0}}, {"type": "Feature", "geometry": {"type": "Point", "coordinates": [-51.628358, -0.598452]}, "properties": {"i": 223, "mun": 6076, "ibge": 1600402, "z": 5, "l": 1139, "nm": "ESCOLA MUNICIPAL DO RIO ARIRAMBA", "nm_mun": "MAZAGÃO", "aptos": 614, "imp": 0}}, {"type": "Feature", "geometry": {"type": "Point", "coordinates": [-51.594178, -0.297393]}, "properties": {"i": 224, "mun": 6076, "ibge": 1600402, "z": 5, "l": 1147, "nm": "ESCOLA MUNICIPAL BARRO ALTO", "nm_mun": "MAZAGÃO", "aptos": 67, "imp": 0}}, {"type": "Feature", "geometry": {"type": "Point", "coordinates": [-51.546855, -0.535166]}, "properties": {"i": 225, "mun": 6076, "ibge": 1600402, "z": 5, "l": 1155, "nm": "ESCOLA ESTADUAL OSMUNDO VALENTE BARRETO", "nm_mun": "MAZAGÃO", "aptos": 810, "imp": 0}}, {"type": "Feature", "geometry": {"type": "Point", "coordinates": [-51.669152, -0.009058]}, "properties": {"i": 226, "mun": 6076, "ibge": 1600402, "z": 5, "l": 1198, "nm": "ESCOLA ESTADUAL JOSE HILARIO", "nm_mun": "MAZAGÃO", "aptos": 397, "imp": 0}}, {"type": "Feature", "geometry": {"type": "Point", "coordinates": [-51.355123, -0.184398]}, "properties": {"i": 227, "mun": 6076, "ibge": 1600402, "z": 5, "l": 1201, "nm": "ESCOLA ESTADUAL FAGUNDES VARELA", "nm_mun": "MAZAGÃO", "aptos": 971, "imp": 0}}, {"type": "Feature", "geometry": {"type": "Point", "coordinates": [-51.734653, -0.179712]}, "properties": {"i": 228, "mun": 6076, "ibge": 1600402, "z": 5, "l": 1210, "nm": "ESCOLA ESTADUAL EVILÁSIO PEDRO DE LIMA FERREIRA", "nm_mun": "MAZAGÃO", "aptos": 1239, "imp": 0}}, {"type": "Feature", "geometry": {"type": "Point", "coordinates": [-51.285609, -0.116081]}, "properties": {"i": 229, "mun": 6076, "ibge": 1600402, "z": 5, "l": 1228, "nm": "ESCOLA ESTADUAL DOM PEDRO I", "nm_mun": "MAZAGÃO", "aptos": 1877, "imp": 0}}, {"type": "Feature", "geometry": {"type": "Point", "coordinates": [-51.486185, -0.148754]}, "properties": {"i": 230, "mun": 6076, "ibge": 1600402, "z": 5, "l": 1236, "nm": "ESCOLA ESTADUAL DE 1º GRAU PIQUIAZAL", "nm_mun": "MAZAGÃO", "aptos": 369, "imp": 0}}, {"type": "Feature", "geometry": {"type": "Point", "coordinates": [-51.283459, -0.123429]}, "properties": {"i": 231, "mun": 6076, "ibge": 1600402, "z": 5, "l": 1244, "nm": "ESCOLA ESTADUAL MANOEL QUEIROZ BENJAMIM", "nm_mun": "MAZAGÃO", "aptos": 1687, "imp": 0}}, {"type": "Feature", "geometry": {"type": "Point", "coordinates": [-51.286768, -0.106871]}, "properties": {"i": 232, "mun": 6076, "ibge": 1600402, "z": 5, "l": 1252, "nm": "ESCOLA MUNICIPAL DOMINGOS VALENTE BARRETO", "nm_mun": "MAZAGÃO", "aptos": 2182, "imp": 0}}, {"type": "Feature", "geometry": {"type": "Point", "coordinates": [-1.0, -1.0]}, "properties": {"i": 233, "mun": 6076, "ibge": 1600402, "z": 5, "l": 1260, "nm": "ESCOLA MUNICIPAL CURUÇA", "nm_mun": "MAZAGÃO", "aptos": 271, "imp": 0}}, {"type": "Feature", "geometry": {"type": "Point", "coordinates": [-1.0, -1.0]}, "properties": {"i": 234, "mun": 6076, "ibge": 1600402, "z": 5, "l": 1279, "nm": "ESCOLA MUNICIPAL PROFª IZIDORIA DA SILVA REIS", "nm_mun": "MAZAGÃO", "aptos": 726, "imp": 0}}, {"type": "Feature", "geometry": {"type": "Point", "coordinates": [-1.0, -1.0]}, "properties": {"i": 235, "mun": 6076, "ibge": 1600402, "z": 5, "l": 1287, "nm": "ESCOLA MUNICIPAL CONCEIÇÃO DO MARACÁ", "nm_mun": "MAZAGÃO", "aptos": 241, "imp": 0}}, {"type": "Feature", "geometry": {"type": "Point", "coordinates": [-1.0, -1.0]}, "properties": {"i": 236, "mun": 6076, "ibge": 1600402, "z": 5, "l": 1295, "nm": "ESCOLA ESTADUAL AMILAR ARTUR BRENHA", "nm_mun": "MAZAGÃO", "aptos": 198, "imp": 0}}, {"type": "Feature", "geometry": {"type": "Point", "coordinates": [-51.955023, -0.330968]}, "properties": {"i": 237, "mun": 6076, "ibge": 1600402, "z": 5, "l": 1309, "nm": "ESCOLA MUNICIPAL SOROROCA", "nm_mun": "MAZAGÃO", "aptos": 90, "imp": 0}}, {"type": "Feature", "geometry": {"type": "Point", "coordinates": [-1.0, -1.0]}, "properties": {"i": 238, "mun": 6076, "ibge": 1600402, "z": 5, "l": 1317, "nm": "ESCOLA ESTADUAL PRESIDENTE TANCREDO NEVES", "nm_mun": "MAZAGÃO", "aptos": 407, "imp": 0}}, {"type": "Feature", "geometry": {"type": "Point", "coordinates": [-1.0, -1.0]}, "properties": {"i": 239, "mun": 6076, "ibge": 1600402, "z": 5, "l": 1325, "nm": "ESCOLA MUNICIPAL SÃO JOSÉ DO MARACÁ", "nm_mun": "MAZAGÃO", "aptos": 125, "imp": 0}}, {"type": "Feature", "geometry": {"type": "Point", "coordinates": [-1.0, -1.0]}, "properties": {"i": 240, "mun": 6076, "ibge": 1600402, "z": 5, "l": 1333, "nm": "ESCOLA MUNICIPAL SANTA MARIA DO FURO DO MARACA", "nm_mun": "MAZAGÃO", "aptos": 175, "imp": 0}}, {"type": "Feature", "geometry": {"type": "Point", "coordinates": [-51.294687, -0.114926]}, "properties": {"i": 241, "mun": 6076, "ibge": 1600402, "z": 5, "l": 1384, "nm": "ESCOLA MUNICIPAL PROF. OTAVIO CALDEIRA AFONSO", "nm_mun": "MAZAGÃO", "aptos": 1126, "imp": 0}}, {"type": "Feature", "geometry": {"type": "Point", "coordinates": [-1.0, -1.0]}, "properties": {"i": 242, "mun": 6076, "ibge": 1600402, "z": 5, "l": 1392, "nm": "ESCOLA MUNICIPAL PORÇÃO DO RIO PRETO", "nm_mun": "MAZAGÃO", "aptos": 195, "imp": 0}}, {"type": "Feature", "geometry": {"type": "Point", "coordinates": [-1.0, -1.0]}, "properties": {"i": 243, "mun": 6076, "ibge": 1600402, "z": 5, "l": 1414, "nm": "ESCOLA MUNICIPAL RAIMUNDO ANTONIO VIEIRA", "nm_mun": "MAZAGÃO", "aptos": 95, "imp": 1}}, {"type": "Feature", "geometry": {"type": "Point", "coordinates": [-1.0, -1.0]}, "properties": {"i": 244, "mun": 6076, "ibge": 1600402, "z": 5, "l": 1422, "nm": "ESCOLA MUNICIPAL AMELIA DO NASCIMENTO RODRIGUES", "nm_mun": "MAZAGÃO", "aptos": 1200, "imp": 1}}, {"type": "Feature", "geometry": {"type": "Point", "coordinates": [-1.0, -1.0]}, "properties": {"i": 245, "mun": 6076, "ibge": 1600402, "z": 5, "l": 1430, "nm": "ESCOLA MUNICIPAL PROFESSORA LUCICARME DO CARMO BARRETO", "nm_mun": "MAZAGÃO", "aptos": 791, "imp": 1}}, {"type": "Feature", "geometry": {"type": "Point", "coordinates": [-1.0, -1.0]}, "properties": {"i": 246, "mun": 6076, "ibge": 1600402, "z": 5, "l": 1449, "nm": "ESCOLA MUNICIPAL TIA RAIMUNDA PUREZA", "nm_mun": "MAZAGÃO", "aptos": 945, "imp": 1}}, {"type": "Feature", "geometry": {"type": "Point", "coordinates": [-1.0, -1.0]}, "properties": {"i": 247, "mun": 6076, "ibge": 1600402, "z": 5, "l": 1457, "nm": "ESCOLA MUNICIPAL DE ENSINO FUNDAMENTAL DO BAIXO DO MUTUACÁ", "nm_mun": "MAZAGÃO", "aptos": 206, "imp": 1}}, {"type": "Feature", "geometry": {"type": "Point", "coordinates": [-1.0, -1.0]}, "properties": {"i": 248, "mun": 6084, "ibge": 1600154, "z": 11, "l": 1015, "nm": "ESCOLA ESTADUAL MARIA HELENA CORDEIRO", "nm_mun": "PEDRA BRANCA DO AMAPARI", "aptos": 3094, "imp": 0}}, {"type": "Feature", "geometry": {"type": "Point", "coordinates": [-1.0, -1.0]}, "properties": {"i": 249, "mun": 6084, "ibge": 1600154, "z": 11, "l": 1023, "nm": "ESCOLA MUNICIPAL DE ENSINO FUNDAMENTAL RIOZINHO", "nm_mun": "PEDRA BRANCA DO AMAPARI", "aptos": 712, "imp": 0}}, {"type": "Feature", "geometry": {"type": "Point", "coordinates": [-1.0, -1.0]}, "properties": {"i": 250, "mun": 6084, "ibge": 1600154, "z": 11, "l": 1031, "nm": "ESCOLA ESTADUAL JOSE FERNANDES DA SILVA", "nm_mun": "PEDRA BRANCA DO AMAPARI", "aptos": 1126, "imp": 0}}, {"type": "Feature", "geometry": {"type": "Point", "coordinates": [-52.456841, 1.096503]}, "properties": {"i": 251, "mun": 6084, "ibge": 1600154, "z": 11, "l": 1040, "nm": "ESCOLA MUNICIPAL DO TUCANO II", "nm_mun": "PEDRA BRANCA DO AMAPARI", "aptos": 415, "imp": 0}}, {"type": "Feature", "geometry": {"type": "Point", "coordinates": [-1.0, -1.0]}, "properties": {"i": 252, "mun": 6084, "ibge": 1600154, "z": 11, "l": 1058, "nm": "ESCOLA ESTADUAL DAS ALDEIAS WAIÃPI", "nm_mun": "PEDRA BRANCA DO AMAPARI", "aptos": 597, "imp": 0}}, {"type": "Feature", "geometry": {"type": "Point", "coordinates": [-51.953267, 0.77712]}, "properties": {"i": 253, "mun": 6084, "ibge": 1600154, "z": 11, "l": 1066, "nm": "ESCOLA MUNICIPAL DE ENSINO FUNDAMENTAL SÃO PEDRO", "nm_mun": "PEDRA BRANCA DO AMAPARI", "aptos": 2931, "imp": 0}}, {"type": "Feature", "geometry": {"type": "Point", "coordinates": [-1.0, -1.0]}, "properties": {"i": 254, "mun": 6084, "ibge": 1600154, "z": 11, "l": 1074, "nm": "ESCOLA MUNICIPAL ERIKA DANIELLA DE CASTRO SILVA", "nm_mun": "PEDRA BRANCA DO AMAPARI", "aptos": 1081, "imp": 0}}, {"type": "Feature", "geometry": {"type": "Point", "coordinates": [-51.83542, 3.84762]}, "properties": {"i": 255, "mun": 6092, "ibge": 1600501, "z": 4, "l": 1015, "nm": "ESCOLA DE PRIMEIRO GRAU JOAQUIM CAETANO DA SILVA", "nm_mun": "OIAPOQUE", "aptos": 2993, "imp": 0}}, {"type": "Feature", "geometry": {"type": "Point", "coordinates": [-51.834126, 3.844016]}, "properties": {"i": 256, "mun": 6092, "ibge": 1600501, "z": 4, "l": 1023, "nm": "ESCOLA DE PRIMEIRO GRAU JOAQUIM NABUCO", "nm_mun": "OIAPOQUE", "aptos": 3886, "imp": 0}}, {"type": "Feature", "geometry": {"type": "Point", "coordinates": [-51.720367, 3.725128]}, "properties": {"i": 257, "mun": 6092, "ibge": 1600501, "z": 4, "l": 1040, "nm": "ESCOLA DE PRIMEIRO GRAU MANGA", "nm_mun": "OIAPOQUE", "aptos": 1073, "imp": 0}}, {"type": "Feature", "geometry": {"type": "Point", "coordinates": [-51.228534, 3.211229]}, "properties": {"i": 258, "mun": 6092, "ibge": 1600501, "z": 4, "l": 1058, "nm": "E. Q. E. VILA VELHA (VILA VELHA DO CASSIPORÉ)", "nm_mun": "OIAPOQUE", "aptos": 245, "imp": 0}}, {"type": "Feature", "geometry": {"type": "Point", "coordinates": [-1.0, -1.0]}, "properties": {"i": 259, "mun": 6092, "ibge": 1600501, "z": 4, "l": 1074, "nm": "ESCOLA DE PRIMEIRO GRAU TAPARABU", "nm_mun": "OIAPOQUE", "aptos": 267, "imp": 0}}, {"type": "Feature", "geometry": {"type": "Point", "coordinates": [-51.481183, 3.490187]}, "properties": {"i": 260, "mun": 6092, "ibge": 1600501, "z": 4, "l": 1082, "nm": "ESCOLA DE PRIMEIRO GRAU URUCAUA", "nm_mun": "OIAPOQUE", "aptos": 1056, "imp": 0}}, {"type": "Feature", "geometry": {"type": "Point", "coordinates": [-51.298122, 3.378729]}, "properties": {"i": 261, "mun": 6092, "ibge": 1600501, "z": 4, "l": 1090, "nm": "ESCOLA DE PRIMEIRO GRAU KUMARUMA", "nm_mun": "OIAPOQUE", "aptos": 1088, "imp": 0}}, {"type": "Feature", "geometry": {"type": "Point", "coordinates": [-51.594975, 3.763009]}, "properties": {"i": 262, "mun": 6092, "ibge": 1600501, "z": 4, "l": 1104, "nm": "ESCOLA DE PRIMEIRO GRAU SANTA ISABEL", "nm_mun": "OIAPOQUE", "aptos": 495, "imp": 0}}, {"type": "Feature", "geometry": {"type": "Point", "coordinates": [-51.461326, 3.043754]}, "properties": {"i": 263, "mun": 6092, "ibge": 1600501, "z": 4, "l": 1112, "nm": "ESCOLA DE PRIMEIRO GRAU DO CASSIPORE", "nm_mun": "OIAPOQUE", "aptos": 140, "imp": 0}}, {"type": "Feature", "geometry": {"type": "Point", "coordinates": [-51.819082, 3.839418]}, "properties": {"i": 264, "mun": 6092, "ibge": 1600501, "z": 4, "l": 1120, "nm": "CAMPUS UNIVERSITÁRIO BINACIONAL - UNIFAP", "nm_mun": "OIAPOQUE", "aptos": 2773, "imp": 0}}, {"type": "Feature", "geometry": {"type": "Point", "coordinates": [-51.813826, 3.837233]}, "properties": {"i": 265, "mun": 6092, "ibge": 1600501, "z": 4, "l": 1139, "nm": "EMEF PROFª ONÉDIA PAIS BENTES - ANEXO DA BR", "nm_mun": "OIAPOQUE", "aptos": 1386, "imp": 0}}, {"type": "Feature", "geometry": {"type": "Point", "coordinates": [-51.797065, 3.882407]}, "properties": {"i": 266, "mun": 6092, "ibge": 1600501, "z": 4, "l": 1147, "nm": "ESCOLA MUNICIPAL VILA VITÓRIA", "nm_mun": "OIAPOQUE", "aptos": 993, "imp": 0}}, {"type": "Feature", "geometry": {"type": "Point", "coordinates": [-52.329722, 3.170145]}, "properties": {"i": 267, "mun": 6092, "ibge": 1600501, "z": 4, "l": 1155, "nm": "ESCOLA MUNICIPAL VILA BRASIL", "nm_mun": "OIAPOQUE", "aptos": 229, "imp": 0}}, {"type": "Feature", "geometry": {"type": "Point", "coordinates": [-1.0, -1.0]}, "properties": {"i": 268, "mun": 6092, "ibge": 1600501, "z": 4, "l": 1163, "nm": "ESCOLA INDÍGENA ESTADUAL JOÃO TEODORO FORTES", "nm_mun": "OIAPOQUE", "aptos": 436, "imp": 0}}, {"type": "Feature", "geometry": {"type": "Point", "coordinates": [-51.832367, 3.844176]}, "properties": {"i": 269, "mun": 6092, "ibge": 1600501, "z": 4, "l": 1171, "nm": "ESCOLA ESTADUAL MÁRCIA DO SOCORRO LIMA DE FRANÇA", "nm_mun": "OIAPOQUE", "aptos": 1607, "imp": 0}}, {"type": "Feature", "geometry": {"type": "Point", "coordinates": [-51.83211, 3.838554]}, "properties": {"i": 270, "mun": 6092, "ibge": 1600501, "z": 4, "l": 1180, "nm": "ESCOLA MUNICIPAL PROFESSOR RUI MARQUES LOBO", "nm_mun": "OIAPOQUE", "aptos": 1667, "imp": 0}}, {"type": "Feature", "geometry": {"type": "Point", "coordinates": [-1.0, -1.0]}, "properties": {"i": 271, "mun": 6092, "ibge": 1600501, "z": 4, "l": 1201, "nm": "IFAP - INSTITUTO FEDERAL DO AMAPÁ", "nm_mun": "OIAPOQUE", "aptos": 2133, "imp": 0}}, {"type": "Feature", "geometry": {"type": "Point", "coordinates": [-51.863626, 3.816907]}, "properties": {"i": 272, "mun": 6092, "ibge": 1600501, "z": 4, "l": 1210, "nm": "ESCOLA ESTADUAL DUQUE DE CAXIAS", "nm_mun": "OIAPOQUE", "aptos": 125, "imp": 1}}, {"type": "Feature", "geometry": {"type": "Point", "coordinates": [-1.0, -1.0]}, "properties": {"i": 273, "mun": 6092, "ibge": 1600501, "z": 4, "l": 1228, "nm": "ESCOLA MUNICIPAL DE EDUCAÇÃO INFANTIL DO ABC", "nm_mun": "OIAPOQUE", "aptos": 828, "imp": 1}}, {"type": "Feature", "geometry": {"type": "Point", "coordinates": [-1.0, -1.0]}, "properties": {"i": 274, "mun": 6092, "ibge": 1600501, "z": 4, "l": 1236, "nm": "EMEF ANETE FARIAS DA SILVA", "nm_mun": "OIAPOQUE", "aptos": 842, "imp": 1}}, {"type": "Feature", "geometry": {"type": "Point", "coordinates": [-1.0, -1.0]}, "properties": {"i": 275, "mun": 6106, "ibge": 1600055, "z": 11, "l": 1015, "nm": "ESCOLA ESTADUAL DOUTOR HERMELINO HERBSTER GUSMAO", "nm_mun": "SERRA DO NAVIO", "aptos": 2264, "imp": 0}}, {"type": "Feature", "geometry": {"type": "Point", "coordinates": [-1.0, -1.0]}, "properties": {"i": 276, "mun": 6106, "ibge": 1600055, "z": 11, "l": 1023, "nm": "ESCOLA ESTADUAL COLÔNIA DE ÁGUA BRANCA", "nm_mun": "SERRA DO NAVIO", "aptos": 1184, "imp": 0}}, {"type": "Feature", "geometry": {"type": "Point", "coordinates": [-1.0, -1.0]}, "properties": {"i": 277, "mun": 6106, "ibge": 1600055, "z": 11, "l": 1031, "nm": "ESCOLA ESTADUAL SETE DE SETEMBRO", "nm_mun": "SERRA DO NAVIO", "aptos": 680, "imp": 0}}, {"type": "Feature", "geometry": {"type": "Point", "coordinates": [-51.184186, 0.857792]}, "properties": {"i": 278, "mun": 6114, "ibge": 1600238, "z": 12, "l": 1015, "nm": "ESCOLA ESTADUAL PROFA. MARIA IRACI TAVARES", "nm_mun": "FERREIRA GOMES", "aptos": 2229, "imp": 0}}, {"type": "Feature", "geometry": {"type": "Point", "coordinates": [-51.25683, 0.890408]}, "properties": {"i": 279, "mun": 6114, "ibge": 1600238, "z": 12, "l": 1023, "nm": "ESCOLA ESTADUAL INDEPENDENCIA", "nm_mun": "FERREIRA GOMES", "aptos": 668, "imp": 0}}, {"type": "Feature", "geometry": {"type": "Point", "coordinates": [-51.174068, 0.849447]}, "properties": {"i": 280, "mun": 6114, "ibge": 1600238, "z": 12, "l": 1031, "nm": "ESCOLA MUNICIPAL JOÃO FREIRE CORDEIRO", "nm_mun": "FERREIRA GOMES", "aptos": 2519, "imp": 0}}, {"type": "Feature", "geometry": {"type": "Point", "coordinates": [-51.183735, 0.852623]}, "properties": {"i": 281, "mun": 6114, "ibge": 1600238, "z": 12, "l": 1040, "nm": "ESCOLA MUNICIPAL PASTOR JACI TORQUATO", "nm_mun": "FERREIRA GOMES", "aptos": 2233, "imp": 0}}, {"type": "Feature", "geometry": {"type": "Point", "coordinates": [-1.0, -1.0]}, "properties": {"i": 282, "mun": 6114, "ibge": 1600238, "z": 12, "l": 1058, "nm": "ESCOLA MUNICIPAL VALDIR FERREIRA MENDES", "nm_mun": "FERREIRA GOMES", "aptos": 244, "imp": 0}}, {"type": "Feature", "geometry": {"type": "Point", "coordinates": [-52.427742, -0.929278]}, "properties": {"i": 283, "mun": 6122, "ibge": 1600808, "z": 7, "l": 1015, "nm": "ESCOLA ESTADUAL MUNGUBA DO JARI", "nm_mun": "VITÓRIA DO JARI", "aptos": 2073, "imp": 0}}, {"type": "Feature", "geometry": {"type": "Point", "coordinates": [-1.0, -1.0]}, "properties": {"i": 284, "mun": 6122, "ibge": 1600808, "z": 7, "l": 1023, "nm": "ESCOLA ESTADUAL JARILÂNDIA", "nm_mun": "VITÓRIA DO JARI", "aptos": 773, "imp": 0}}, {"type": "Feature", "geometry": {"type": "Point", "coordinates": [-1.0, -1.0]}, "properties": {"i": 285, "mun": 6122, "ibge": 1600808, "z": 7, "l": 1031, "nm": "ESCOLA DE 1 GRAU SAO JOAO DO CAJARI", "nm_mun": "VITÓRIA DO JARI", "aptos": 346, "imp": 0}}, {"type": "Feature", "geometry": {"type": "Point", "coordinates": [-52.134923, -0.914427]}, "properties": {"i": 286, "mun": 6122, "ibge": 1600808, "z": 7, "l": 1040, "nm": "ESCOLA MUNICIPAL ATERRO DO MURIACÁ", "nm_mun": "VITÓRIA DO JARI", "aptos": 301, "imp": 0}}, {"type": "Feature", "geometry": {"type": "Point", "coordinates": [-52.433275, -0.934311]}, "properties": {"i": 287, "mun": 6122, "ibge": 1600808, "z": 7, "l": 1058, "nm": "ESCOLA MUNICIPAL BENEDITO LIMA PENELVA", "nm_mun": "VITÓRIA DO JARI", "aptos": 1305, "imp": 0}}, {"type": "Feature", "geometry": {"type": "Point", "coordinates": [-52.405083, -0.920428]}, "properties": {"i": 288, "mun": 6122, "ibge": 1600808, "z": 7, "l": 1066, "nm": "ESCOLA MUNICIPAL FRANCISCA DE FREITAS ARAUJO", "nm_mun": "VITÓRIA DO JARI", "aptos": 1751, "imp": 0}}, {"type": "Feature", "geometry": {"type": "Point", "coordinates": [-52.414649, -0.919329]}, "properties": {"i": 289, "mun": 6122, "ibge": 1600808, "z": 7, "l": 1082, "nm": "ESCOLA MUNICIPAL ÁLVARO MARQUES GONÇALVES", "nm_mun": "VITÓRIA DO JARI", "aptos": 1498, "imp": 0}}, {"type": "Feature", "geometry": {"type": "Point", "coordinates": [-52.427765, -0.929769]}, "properties": {"i": 290, "mun": 6122, "ibge": 1600808, "z": 7, "l": 1090, "nm": "ESCOLA MUNICIPAL FELINTO BATISTA", "nm_mun": "VITÓRIA DO JARI", "aptos": 1067, "imp": 0}}, {"type": "Feature", "geometry": {"type": "Point", "coordinates": [-52.418185, -0.919728]}, "properties": {"i": 291, "mun": 6122, "ibge": 1600808, "z": 7, "l": 1104, "nm": "ESCOLA ESTADUAL TEOTÔNIO BRANDÃO VILELA", "nm_mun": "VITÓRIA DO JARI", "aptos": 953, "imp": 0}}, {"type": "Feature", "geometry": {"type": "Point", "coordinates": [-1.0, -1.0]}, "properties": {"i": 292, "mun": 6122, "ibge": 1600808, "z": 7, "l": 1120, "nm": "CENTRO COMUNITÁRIO ILHAS ARUÃS", "nm_mun": "VITÓRIA DO JARI", "aptos": 276, "imp": 1}}, {"type": "Feature", "geometry": {"type": "Point", "coordinates": [-1.0, -1.0]}, "properties": {"i": 293, "mun": 6122, "ibge": 1600808, "z": 7, "l": 1139, "nm": "ESCOLA MUNICIPAL DE TAPERERA", "nm_mun": "VITÓRIA DO JARI", "aptos": 89, "imp": 1}}, {"type": "Feature", "geometry": {"type": "Point", "coordinates": [-52.181567, -0.550287]}, "properties": {"i": 294, "mun": 6130, "ibge": 1600279, "z": 7, "l": 1023, "nm": "ESCOLA DE 1 GRAU AGUA BRANCA DO CAJARI", "nm_mun": "LARANJAL DO JARI", "aptos": 750, "imp": 0}}, {"type": "Feature", "geometry": {"type": "Point", "coordinates": [-52.538599, -0.854534]}, "properties": {"i": 295, "mun": 6130, "ibge": 1600279, "z": 7, "l": 1040, "nm": "ESCOLA ESTADUAL SONIA HENRIQUES BARRETO", "nm_mun": "LARANJAL DO JARI", "aptos": 2133, "imp": 0}}, {"type": "Feature", "geometry": {"type": "Point", "coordinates": [-52.515978, -0.844381]}, "properties": {"i": 296, "mun": 6130, "ibge": 1600279, "z": 7, "l": 1058, "nm": "ESCOLA ESTADUAL MARIA DE NAZARÉ RODRIGUES DA SILVA", "nm_mun": "LARANJAL DO JARI", "aptos": 2945, "imp": 0}}, {"type": "Feature", "geometry": {"type": "Point", "coordinates": [-52.517551, -0.837928]}, "properties": {"i": 297, "mun": 6130, "ibge": 1600279, "z": 7, "l": 1066, "nm": "ESCOLA ESTADUAL MINEKO HAYASHIDA", "nm_mun": "LARANJAL DO JARI", "aptos": 1935, "imp": 0}}, {"type": "Feature", "geometry": {"type": "Point", "coordinates": [-52.496155, -0.70955]}, "properties": {"i": 298, "mun": 6130, "ibge": 1600279, "z": 7, "l": 1074, "nm": "ESCOLA ESTADUAL PADARIA", "nm_mun": "LARANJAL DO JARI", "aptos": 261, "imp": 0}}, {"type": "Feature", "geometry": {"type": "Point", "coordinates": [-51.963743, -0.862852]}, "properties": {"i": 299, "mun": 6130, "ibge": 1600279, "z": 7, "l": 1082, "nm": "ESCOLA MUNICIPAL CONCEIÇÃO DO MURIACÁ", "nm_mun": "LARANJAL DO JARI", "aptos": 182, "imp": 0}}, {"type": "Feature", "geometry": {"type": "Point", "coordinates": [-52.519792, -0.840711]}, "properties": {"i": 300, "mun": 6130, "ibge": 1600279, "z": 7, "l": 1090, "nm": "ESCOLA MUNICIPAL RAIMUNDA RODRIGUES CAPIBERIBE", "nm_mun": "LARANJAL DO JARI", "aptos": 1570, "imp": 0}}, {"type": "Feature", "geometry": {"type": "Point", "coordinates": [-52.517569, -0.83438]}, "properties": {"i": 301, "mun": 6130, "ibge": 1600279, "z": 7, "l": 1104, "nm": "ESCOLA MUNICIPAL TEREZINHA LIMA QUEIROGA DE SOUZA", "nm_mun": "LARANJAL DO JARI", "aptos": 1836, "imp": 0}}, {"type": "Feature", "geometry": {"type": "Point", "coordinates": [-52.524782, -0.856025]}, "properties": {"i": 302, "mun": 6130, "ibge": 1600279, "z": 7, "l": 1112, "nm": "ESCOLA MUNICIPAL PAULO FREIRE", "nm_mun": "LARANJAL DO JARI", "aptos": 1248, "imp": 0}}, {"type": "Feature", "geometry": {"type": "Point", "coordinates": [-52.536637, -0.853166]}, "properties": {"i": 303, "mun": 6130, "ibge": 1600279, "z": 7, "l": 1120, "nm": "CENTRO EDUCACIONAL WEBER EIDER QUEMEL", "nm_mun": "LARANJAL DO JARI", "aptos": 1572, "imp": 0}}, {"type": "Feature", "geometry": {"type": "Point", "coordinates": [-52.51206, -0.828319]}, "properties": {"i": 304, "mun": 6130, "ibge": 1600279, "z": 7, "l": 1139, "nm": "ESCOLA ESTADUAL PROF. VANDA MARIA DE SOUZA CABETE", "nm_mun": "LARANJAL DO JARI", "aptos": 2146, "imp": 0}}, {"type": "Feature", "geometry": {"type": "Point", "coordinates": [-52.500829, -0.820632]}, "properties": {"i": 305, "mun": 6130, "ibge": 1600279, "z": 7, "l": 1147, "nm": "ESCOLA MUNICIPAL SANTA LÚCIA", "nm_mun": "LARANJAL DO JARI", "aptos": 888, "imp": 0}}, {"type": "Feature", "geometry": {"type": "Point", "coordinates": [-52.520851, -0.839198]}, "properties": {"i": 306, "mun": 6130, "ibge": 1600279, "z": 7, "l": 1155, "nm": "ESCOLA MUNICIPAL PROF. TEREZA TELES", "nm_mun": "LARANJAL DO JARI", "aptos": 2031, "imp": 0}}, {"type": "Feature", "geometry": {"type": "Point", "coordinates": [-52.538975, -0.853346]}, "properties": {"i": 307, "mun": 6130, "ibge": 1600279, "z": 7, "l": 1163, "nm": "ESCOLA MUNICIPAL JOÃO QUEIROGA DE SOUZA", "nm_mun": "LARANJAL DO JARI", "aptos": 1161, "imp": 0}}, {"type": "Feature", "geometry": {"type": "Point", "coordinates": [-52.580926, -0.564073]}, "properties": {"i": 308, "mun": 6130, "ibge": 1600279, "z": 7, "l": 1180, "nm": "ESCOLA MUNICIPAL SÃO FRANCISCO DO IRATAPURU", "nm_mun": "LARANJAL DO JARI", "aptos": 200, "imp": 0}}, {"type": "Feature", "geometry": {"type": "Point", "coordinates": [-52.060277, -0.609115]}, "properties": {"i": 309, "mun": 6130, "ibge": 1600279, "z": 7, "l": 1198, "nm": "ESCOLA MUNICIPAL WALDEMAR BORGES DUARTE", "nm_mun": "LARANJAL DO JARI", "aptos": 260, "imp": 0}}, {"type": "Feature", "geometry": {"type": "Point", "coordinates": [-52.541849, -0.84938]}, "properties": {"i": 310, "mun": 6130, "ibge": 1600279, "z": 7, "l": 1201, "nm": "ESCOLA ESTADUAL EMÍLIO MÉDICE", "nm_mun": "LARANJAL DO JARI", "aptos": 755, "imp": 0}}, {"type": "Feature", "geometry": {"type": "Point", "coordinates": [-52.535416, -0.852073]}, "properties": {"i": 311, "mun": 6130, "ibge": 1600279, "z": 7, "l": 1210, "nm": "CENTRO MUNICIPAL DE ENSINO - CMEF", "nm_mun": "LARANJAL DO JARI", "aptos": 1949, "imp": 0}}, {"type": "Feature", "geometry": {"type": "Point", "coordinates": [-52.511284, -0.843113]}, "properties": {"i": 312, "mun": 6130, "ibge": 1600279, "z": 7, "l": 1228, "nm": "ESCOLA MUNICIPAL ZÉLIA CONCEIÇÃO SOUSA DA SILVA", "nm_mun": "LARANJAL DO JARI", "aptos": 1319, "imp": 0}}, {"type": "Feature", "geometry": {"type": "Point", "coordinates": [-52.495409, -0.815031]}, "properties": {"i": 313, "mun": 6130, "ibge": 1600279, "z": 7, "l": 1252, "nm": "ESCOLA MUNICIPAL MARIA DE NAZARÉ MINEIRO", "nm_mun": "LARANJAL DO JARI", "aptos": 735, "imp": 0}}, {"type": "Feature", "geometry": {"type": "Point", "coordinates": [-52.296059, -0.579175]}, "properties": {"i": 314, "mun": 6130, "ibge": 1600279, "z": 7, "l": 1279, "nm": "ESCOLA MUNICIPAL CRISTO REDENTOR", "nm_mun": "LARANJAL DO JARI", "aptos": 170, "imp": 0}}, {"type": "Feature", "geometry": {"type": "Point", "coordinates": [-52.502325, -0.818462]}, "properties": {"i": 315, "mun": 6130, "ibge": 1600279, "z": 7, "l": 1287, "nm": "ESCOLA ESTADUAL BOM AMIGO MANOEL MANDI", "nm_mun": "LARANJAL DO JARI", "aptos": 1101, "imp": 0}}, {"type": "Feature", "geometry": {"type": "Point", "coordinates": [-52.521179, -0.84024]}, "properties": {"i": 316, "mun": 6130, "ibge": 1600279, "z": 7, "l": 1309, "nm": "ESCOLA MUNICIPAL MUNDO ENCANTADO", "nm_mun": "LARANJAL DO JARI", "aptos": 977, "imp": 0}}, {"type": "Feature", "geometry": {"type": "Point", "coordinates": [-1.0, -1.0]}, "properties": {"i": 317, "mun": 6130, "ibge": 1600279, "z": 7, "l": 1325, "nm": "ESCOLA ESTADUAL SANTA CLARA DO CAJARI", "nm_mun": "LARANJAL DO JARI", "aptos": 112, "imp": 1}}, {"type": "Feature", "geometry": {"type": "Point", "coordinates": [-51.172464, -0.046533]}, "properties": {"i": 318, "mun": 6157, "ibge": 1600600, "z": 6, "l": 1015, "nm": "E.P.G. ELIZABETH PICANCO ESTEVES", "nm_mun": "SANTANA", "aptos": 4815, "imp": 0}}, {"type": "Feature", "geometry": {"type": "Point", "coordinates": [-1.0, -1.0]}, "properties": {"i": 319, "mun": 6157, "ibge": 1600600, "z": 6, "l": 1023, "nm": "E.E. OSVALDINA FERREIRA DA SILVA", "nm_mun": "SANTANA", "aptos": 2615, "imp": 0}}, {"type": "Feature", "geometry": {"type": "Point", "coordinates": [-1.0, -1.0]}, "properties": {"i": 320, "mun": 6157, "ibge": 1600600, "z": 6, "l": 1031, "nm": "E.E. FRANCISCO DE OLIVEIRA FILHO (ANAUERAPUCU)", "nm_mun": "SANTANA", "aptos": 1348, "imp": 0}}, {"type": "Feature", "geometry": {"type": "Point", "coordinates": [-1.0, -1.0]}, "properties": {"i": 321, "mun": 6157, "ibge": 1600600, "z": 6, "l": 1040, "nm": "E.P.G. MATAO III", "nm_mun": "SANTANA", "aptos": 274, "imp": 0}}, {"type": "Feature", "geometry": {"type": "Point", "coordinates": [-51.17683, -0.041616]}, "properties": {"i": 322, "mun": 6157, "ibge": 1600600, "z": 6, "l": 1058, "nm": "E.P.G. JOSE BARROSO TOSTES", "nm_mun": "SANTANA", "aptos": 3542, "imp": 0}}, {"type": "Feature", "geometry": {"type": "Point", "coordinates": [-51.173973, -0.042916]}, "properties": {"i": 323, "mun": 6157, "ibge": 1600600, "z": 6, "l": 1066, "nm": "E.P.G. AMAZONAS", "nm_mun": "SANTANA", "aptos": 3177, "imp": 0}}, {"type": "Feature", "geometry": {"type": "Point", "coordinates": [-51.164741, -0.043952]}, "properties": {"i": 324, "mun": 6157, "ibge": 1600600, "z": 6, "l": 1074, "nm": "E.E.T.I.  AUGUSTO ANTUNES", "nm_mun": "SANTANA", "aptos": 5470, "imp": 0}}, {"type": "Feature", "geometry": {"type": "Point", "coordinates": [-51.166183, -0.040828]}, "properties": {"i": 325, "mun": 6157, "ibge": 1600600, "z": 6, "l": 1082, "nm": "E.P.G. JOANIRA DEL CASTILO", "nm_mun": "SANTANA", "aptos": 2912, "imp": 0}}, {"type": "Feature", "geometry": {"type": "Point", "coordinates": [-1.0, -1.0]}, "properties": {"i": 326, "mun": 6157, "ibge": 1600600, "z": 6, "l": 1090, "nm": "E. E. BELMIRO MACEDO MEDINA", "nm_mun": "SANTANA", "aptos": 489, "imp": 0}}, {"type": "Feature", "geometry": {"type": "Point", "coordinates": [-52.538599, -0.854534]}, "properties": {"i": 327, "mun": 6157, "ibge": 1600600, "z": 6, "l": 1104, "nm": "E.P.G. PIAUI", "nm_mun": "SANTANA", "aptos": 1727, "imp": 1}}, {"type": "Feature", "geometry": {"type": "Point", "coordinates": [-51.177434, -0.048533]}, "properties": {"i": 328, "mun": 6157, "ibge": 1600600, "z": 6, "l": 1112, "nm": "E.E. ALMIRANTE BARROSO", "nm_mun": "SANTANA", "aptos": 3594, "imp": 0}}, {"type": "Feature", "geometry": {"type": "Point", "coordinates": [-51.179287, -0.025938]}, "properties": {"i": 329, "mun": 6157, "ibge": 1600600, "z": 6, "l": 1120, "nm": "E.P.G. PADRE ANGELO BIRACHI", "nm_mun": "SANTANA", "aptos": 3004, "imp": 0}}, {"type": "Feature", "geometry": {"type": "Point", "coordinates": [-51.186513, -0.047259]}, "properties": {"i": 330, "mun": 6157, "ibge": 1600600, "z": 6, "l": 1139, "nm": "E.E. ALBERTO SANTOS DUMONT (ELESBÃO)", "nm_mun": "SANTANA", "aptos": 2741, "imp": 0}}, {"type": "Feature", "geometry": {"type": "Point", "coordinates": [-51.160232, -0.046433]}, "properties": {"i": 331, "mun": 6157, "ibge": 1600600, "z": 6, "l": 1147, "nm": "E.P.G. JOSE DE RIBAMAR PESTANA", "nm_mun": "SANTANA", "aptos": 3749, "imp": 0}}, {"type": "Feature", "geometry": {"type": "Point", "coordinates": [-51.166004, -0.03656]}, "properties": {"i": 332, "mun": 6157, "ibge": 1600600, "z": 6, "l": 1155, "nm": "E.E. PROF. FRANCISCO WALCY LOBATO LIMA", "nm_mun": "SANTANA", "aptos": 4614, "imp": 0}}, {"type": "Feature", "geometry": {"type": "Point", "coordinates": [-51.178374, -0.055292]}, "properties": {"i": 333, "mun": 6157, "ibge": 1600600, "z": 6, "l": 1163, "nm": "E.E. AFONSO ARINOS", "nm_mun": "SANTANA", "aptos": 3792, "imp": 0}}, {"type": "Feature", "geometry": {"type": "Point", "coordinates": [-51.164647, -0.055762]}, "properties": {"i": 334, "mun": 6157, "ibge": 1600600, "z": 6, "l": 1180, "nm": "E.E. MARIA CATARINA DANTAS TIBURCIO", "nm_mun": "SANTANA", "aptos": 3372, "imp": 0}}, {"type": "Feature", "geometry": {"type": "Point", "coordinates": [-51.093313, 0.008975]}, "properties": {"i": 335, "mun": 6157, "ibge": 1600600, "z": 6, "l": 1198, "nm": "E.E. FONTE NOVA", "nm_mun": "SANTANA", "aptos": 2755, "imp": 1}}, {"type": "Feature", "geometry": {"type": "Point", "coordinates": [-51.167565, -0.029483]}, "properties": {"i": 336, "mun": 6157, "ibge": 1600600, "z": 6, "l": 1201, "nm": "E.E. PROF. IZANETE VICTOR DOS SANTOS", "nm_mun": "SANTANA", "aptos": 4038, "imp": 0}}, {"type": "Feature", "geometry": {"type": "Point", "coordinates": [-51.144964, -0.047276]}, "properties": {"i": 337, "mun": 6157, "ibge": 1600600, "z": 6, "l": 1210, "nm": "E.E. IGARAPE DA FORTALEZA", "nm_mun": "SANTANA", "aptos": 3381, "imp": 0}}, {"type": "Feature", "geometry": {"type": "Point", "coordinates": [-1.0, -1.0]}, "properties": {"i": 338, "mun": 6157, "ibge": 1600600, "z": 6, "l": 1228, "nm": "E.P.G MATAO I", "nm_mun": "SANTANA", "aptos": 256, "imp": 0}}, {"type": "Feature", "geometry": {"type": "Point", "coordinates": [-51.157997, -0.041013]}, "properties": {"i": 339, "mun": 6157, "ibge": 1600600, "z": 6, "l": 1244, "nm": "E.M. PROFESSORA MARIA ILNAH DE SOUZA", "nm_mun": "SANTANA", "aptos": 1769, "imp": 0}}, {"type": "Feature", "geometry": {"type": "Point", "coordinates": [-51.173676, -0.030418]}, "properties": {"i": 340, "mun": 6157, "ibge": 1600600, "z": 6, "l": 1252, "nm": "E.E. SAO BENTO", "nm_mun": "SANTANA", "aptos": 1552, "imp": 0}}, {"type": "Feature", "geometry": {"type": "Point", "coordinates": [-51.166186, -0.036972]}, "properties": {"i": 341, "mun": 6157, "ibge": 1600600, "z": 6, "l": 1260, "nm": "ESCOLA ESTADUAL SÃO JOÃO APÓSTOLO", "nm_mun": "SANTANA", "aptos": 2361, "imp": 0}}, {"type": "Feature", "geometry": {"type": "Point", "coordinates": [-51.159012, -0.054985]}, "properties": {"i": 342, "mun": 6157, "ibge": 1600600, "z": 6, "l": 1279, "nm": "E.M. PROF. IRANILDE", "nm_mun": "SANTANA", "aptos": 2438, "imp": 0}}, {"type": "Feature", "geometry": {"type": "Point", "coordinates": [-51.177989, -0.016527]}, "properties": {"i": 343, "mun": 6157, "ibge": 1600600, "z": 6, "l": 1287, "nm": "E.E. RODOVAL BORGES SILVA", "nm_mun": "SANTANA", "aptos": 4385, "imp": 0}}, {"type": "Feature", "geometry": {"type": "Point", "coordinates": [-51.251172, 0.038121]}, "properties": {"i": 344, "mun": 6157, "ibge": 1600600, "z": 6, "l": 1295, "nm": "E.E. FOZ DO RIO PIRATIVA", "nm_mun": "SANTANA", "aptos": 482, "imp": 0}}, {"type": "Feature", "geometry": {"type": "Point", "coordinates": [-50.84964, 0.714912]}, "properties": {"i": 345, "mun": 6157, "ibge": 1600600, "z": 6, "l": 1309, "nm": "ASSOCIAÇÃO DOS PRODUTORES RURAIS DE MAÇARANDUBA II - APRUMA", "nm_mun": "SANTANA", "aptos": 1, "imp": 1}}, {"type": "Feature", "geometry": {"type": "Point", "coordinates": [-51.169544, -0.021131]}, "properties": {"i": 346, "mun": 6157, "ibge": 1600600, "z": 6, "l": 1317, "nm": "ESCOLA MUNICIPAL PADRE FULVIO GIULLIANO", "nm_mun": "SANTANA", "aptos": 11, "imp": 1}}, {"type": "Feature", "geometry": {"type": "Point", "coordinates": [-51.169544, -0.021131]}, "properties": {"i": 347, "mun": 6157, "ibge": 1600600, "z": 6, "l": 1325, "nm": "ESCOLA ESTADUAL ANTONIO JANUARIO PEREIRA", "nm_mun": "SANTANA", "aptos": 60, "imp": 0}}, {"type": "Feature", "geometry": {"type": "Point", "coordinates": [-51.176968, -0.021359]}, "properties": {"i": 348, "mun": 6157, "ibge": 1600600, "z": 6, "l": 1333, "nm": "ESCOLA MUNICIPAL GENTILA ANSELMO NOBRE", "nm_mun": "SANTANA", "aptos": 897, "imp": 0}}, {"type": "Feature", "geometry": {"type": "Point", "coordinates": [-51.180039, -0.035511]}, "properties": {"i": 349, "mun": 6157, "ibge": 1600600, "z": 6, "l": 1341, "nm": "ESCOLA ESTADUAL SAO PAULO APOSTOLO", "nm_mun": "SANTANA", "aptos": 1399, "imp": 0}}, {"type": "Feature", "geometry": {"type": "Point", "coordinates": [-51.152796, -0.044746]}, "properties": {"i": 350, "mun": 6157, "ibge": 1600600, "z": 6, "l": 1368, "nm": "ESCOLA ESTADUAL DENISE DE MELO VASCONCELOS", "nm_mun": "SANTANA", "aptos": 1074, "imp": 0}}, {"type": "Feature", "geometry": {"type": "Point", "coordinates": [-51.143266, -0.048736]}, "properties": {"i": 351, "mun": 6157, "ibge": 1600600, "z": 6, "l": 1384, "nm": "ESCOLA ESTADUAL ANA DIAS DA COSTA", "nm_mun": "SANTANA", "aptos": 528, "imp": 0}}, {"type": "Feature", "geometry": {"type": "Point", "coordinates": [-51.1636, -0.053246]}, "properties": {"i": 352, "mun": 6157, "ibge": 1600600, "z": 6, "l": 1392, "nm": "ESCOLA ESTADUAL PADRE SIMAO CORRIDORI", "nm_mun": "SANTANA", "aptos": 1725, "imp": 0}}, {"type": "Feature", "geometry": {"type": "Point", "coordinates": [-51.174527, -0.029038]}, "properties": {"i": 353, "mun": 6157, "ibge": 1600600, "z": 6, "l": 1414, "nm": "ESCOLA MUNICIPAL BASICA PARAISO DA CIDADANIA - BIRAGUINHO", "nm_mun": "SANTANA", "aptos": 652, "imp": 0}}, {"type": "Feature", "geometry": {"type": "Point", "coordinates": [-51.175727, -0.049731]}, "properties": {"i": 354, "mun": 6157, "ibge": 1600600, "z": 6, "l": 1430, "nm": "ESCOLA MUNICIPAL NOSSA SENHORA DA CONCEICAO", "nm_mun": "SANTANA", "aptos": 1049, "imp": 0}}, {"type": "Feature", "geometry": {"type": "Point", "coordinates": [-1.0, -1.0]}, "properties": {"i": 355, "mun": 6157, "ibge": 1600600, "z": 6, "l": 1449, "nm": "ESCOLA ESTADUAL CONCEICAO DO MARUANUM I", "nm_mun": "SANTANA", "aptos": 183, "imp": 0}}, {"type": "Feature", "geometry": {"type": "Point", "coordinates": [-1.0, -1.0]}, "properties": {"i": 356, "mun": 6157, "ibge": 1600600, "z": 6, "l": 1457, "nm": "IFAP INSTITUTO FEDERAL DO AMAPA", "nm_mun": "SANTANA", "aptos": 3339, "imp": 0}}, {"type": "Feature", "geometry": {"type": "Point", "coordinates": [-1.0, -1.0]}, "properties": {"i": 357, "mun": 6157, "ibge": 1600600, "z": 6, "l": 1465, "nm": "ANEXO DA ESCOLA MUNICIPAL DE ENSINO BÁSICO SÃO JOSÉ", "nm_mun": "SANTANA", "aptos": 111, "imp": 1}}, {"type": "Feature", "geometry": {"type": "Point", "coordinates": [-1.0, -1.0]}, "properties": {"i": 358, "mun": 6157, "ibge": 1600600, "z": 6, "l": 1473, "nm": "ESCOLA MUNICIPAL DE ENSINO BÁSICO CAFEZAL", "nm_mun": "SANTANA", "aptos": 87, "imp": 1}}, {"type": "Feature", "geometry": {"type": "Point", "coordinates": [-1.0, -1.0]}, "properties": {"i": 359, "mun": 6157, "ibge": 1600600, "z": 6, "l": 1481, "nm": "ESCOLA ESTADUAL LEVINDO ALVES DOS SANTOS", "nm_mun": "SANTANA", "aptos": 262, "imp": 1}}, {"type": "Feature", "geometry": {"type": "Point", "coordinates": [-1.0, -1.0]}, "properties": {"i": 360, "mun": 6173, "ibge": 1600709, "z": 8, "l": 1015, "nm": "ESC EST NAZARÉ DO APOREMA", "nm_mun": "TARTARUGALZINHO", "aptos": 126, "imp": 0}}, {"type": "Feature", "geometry": {"type": "Point", "coordinates": [-1.0, -1.0]}, "properties": {"i": 361, "mun": 6173, "ibge": 1600709, "z": 8, "l": 1023, "nm": "ESC EST MARIA LUCILA BRAZÃO", "nm_mun": "TARTARUGALZINHO", "aptos": 450, "imp": 0}}, {"type": "Feature", "geometry": {"type": "Point", "coordinates": [-50.912645, 1.510095]}, "properties": {"i": 362, "mun": 6173, "ibge": 1600709, "z": 8, "l": 1031, "nm": "ESC EST REISALINA FERREIRA TOMAZ", "nm_mun": "TARTARUGALZINHO", "aptos": 2572, "imp": 0}}, {"type": "Feature", "geometry": {"type": "Point", "coordinates": [-50.902619, 1.581309]}, "properties": {"i": 363, "mun": 6173, "ibge": 1600709, "z": 8, "l": 1040, "nm": "ESC EST  WASHINGTON LUIS A. FIGUEIREDO", "nm_mun": "TARTARUGALZINHO", "aptos": 472, "imp": 0}}, {"type": "Feature", "geometry": {"type": "Point", "coordinates": [-50.659279, 1.265339]}, "properties": {"i": 364, "mun": 6173, "ibge": 1600709, "z": 8, "l": 1058, "nm": "ESC EST UAPEZAL", "nm_mun": "TARTARUGALZINHO", "aptos": 295, "imp": 0}}, {"type": "Feature", "geometry": {"type": "Point", "coordinates": [-50.471826, 1.128935]}, "properties": {"i": 365, "mun": 6173, "ibge": 1600709, "z": 8, "l": 1066, "nm": "ESC EST LUCIANA RABELO LEITE", "nm_mun": "TARTARUGALZINHO", "aptos": 58, "imp": 0}}, {"type": "Feature", "geometry": {"type": "Point", "coordinates": [-50.838638, 1.142327]}, "properties": {"i": 366, "mun": 6173, "ibge": 1600709, "z": 8, "l": 1074, "nm": "ESC EST BONITO DO APOREMA", "nm_mun": "TARTARUGALZINHO", "aptos": 208, "imp": 0}}, {"type": "Feature", "geometry": {"type": "Point", "coordinates": [-1.0, -1.0]}, "properties": {"i": 367, "mun": 6173, "ibge": 1600709, "z": 8, "l": 1082, "nm": "ESC EST JUVENAL FARIAS DA COSTA", "nm_mun": "TARTARUGALZINHO", "aptos": 617, "imp": 0}}, {"type": "Feature", "geometry": {"type": "Point", "coordinates": [-50.896306, 1.225659]}, "properties": {"i": 368, "mun": 6173, "ibge": 1600709, "z": 8, "l": 1090, "nm": "ESC EST JOÃO BRAZÃO DA SILVA", "nm_mun": "TARTARUGALZINHO", "aptos": 246, "imp": 0}}, {"type": "Feature", "geometry": {"type": "Point", "coordinates": [-1.0, -1.0]}, "properties": {"i": 369, "mun": 6173, "ibge": 1600709, "z": 8, "l": 1104, "nm": "ESC EST DARCY RIBEIRO", "nm_mun": "TARTARUGALZINHO", "aptos": 707, "imp": 0}}, {"type": "Feature", "geometry": {"type": "Point", "coordinates": [-1.0, -1.0]}, "properties": {"i": 370, "mun": 6173, "ibge": 1600709, "z": 8, "l": 1112, "nm": "ESC EST NOVA VIDA", "nm_mun": "TARTARUGALZINHO", "aptos": 355, "imp": 0}}, {"type": "Feature", "geometry": {"type": "Point", "coordinates": [-50.894502, 0.996148]}, "properties": {"i": 371, "mun": 6173, "ibge": 1600709, "z": 8, "l": 1120, "nm": "ESC EST GUANABARA DO ARAGUARI", "nm_mun": "TARTARUGALZINHO", "aptos": 70, "imp": 0}}, {"type": "Feature", "geometry": {"type": "Point", "coordinates": [-50.666829, 1.21209]}, "properties": {"i": 372, "mun": 6173, "ibge": 1600709, "z": 8, "l": 1139, "nm": "ESC EST SÃO SEBASTIÃO DA TERRA FIRME", "nm_mun": "TARTARUGALZINHO", "aptos": 166, "imp": 0}}, {"type": "Feature", "geometry": {"type": "Point", "coordinates": [-1.0, -1.0]}, "properties": {"i": 373, "mun": 6173, "ibge": 1600709, "z": 8, "l": 1147, "nm": "ESC EST ENTRE RIOS", "nm_mun": "TARTARUGALZINHO", "aptos": 251, "imp": 0}}, {"type": "Feature", "geometry": {"type": "Point", "coordinates": [-50.892899, 1.08566]}, "properties": {"i": 374, "mun": 6173, "ibge": 1600709, "z": 8, "l": 1155, "nm": "ESCOLA MUNICIPAL IGARAPÉ DO PEIXE", "nm_mun": "TARTARUGALZINHO", "aptos": 186, "imp": 0}}, {"type": "Feature", "geometry": {"type": "Point", "coordinates": [-50.766456, 1.092954]}, "properties": {"i": 375, "mun": 6173, "ibge": 1600709, "z": 8, "l": 1163, "nm": "ESC EST BASÍLIO PEREIRA DE SOUZA FILHO", "nm_mun": "TARTARUGALZINHO", "aptos": 168, "imp": 0}}, {"type": "Feature", "geometry": {"type": "Point", "coordinates": [-1.0, -1.0]}, "properties": {"i": 376, "mun": 6173, "ibge": 1600709, "z": 8, "l": 1171, "nm": "ESC MUN ANDIROBA DO LAGO NOVO", "nm_mun": "TARTARUGALZINHO", "aptos": 198, "imp": 0}}, {"type": "Feature", "geometry": {"type": "Point", "coordinates": [-50.910149, 1.506896]}, "properties": {"i": 377, "mun": 6173, "ibge": 1600709, "z": 8, "l": 1180, "nm": "ESCOLA ESTADUAL ALZIRA DE LIMA SANTOS", "nm_mun": "TARTARUGALZINHO", "aptos": 2028, "imp": 0}}, {"type": "Feature", "geometry": {"type": "Point", "coordinates": [-50.911459, 1.507893]}, "properties": {"i": 378, "mun": 6173, "ibge": 1600709, "z": 8, "l": 1198, "nm": "ESCOLA MUNICIPAL ANALICE MACIEL DE JESUS", "nm_mun": "TARTARUGALZINHO", "aptos": 28, "imp": 1}}, {"type": "Feature", "geometry": {"type": "Point", "coordinates": [-50.833553, 1.110583]}, "properties": {"i": 379, "mun": 6173, "ibge": 1600709, "z": 8, "l": 1236, "nm": "E.E. SÃO TOMÉ DO APOREMA", "nm_mun": "TARTARUGALZINHO", "aptos": 89, "imp": 0}}, {"type": "Feature", "geometry": {"type": "Point", "coordinates": [-50.91279, 1.506221]}, "properties": {"i": 380, "mun": 6173, "ibge": 1600709, "z": 8, "l": 1244, "nm": "E.E PROFESSORA MARIA JOSÉ DE NAZARÉ FERREIRA LIMA", "nm_mun": "TARTARUGALZINHO", "aptos": 1969, "imp": 0}}, {"type": "Feature", "geometry": {"type": "Point", "coordinates": [-1.0, -1.0]}, "properties": {"i": 381, "mun": 6173, "ibge": 1600709, "z": 8, "l": 1252, "nm": "ESCOLA ESTADUAL CHICO MENDES", "nm_mun": "TARTARUGALZINHO", "aptos": 211, "imp": 0}}]}