{"type":"FeatureCollection","features":[{"type":"Feature","geometry":{"type":"Polygon","coordinates":[[[-59.98144,1.13641],[-59.97988,1.00087],[-59.97466,0.98992],[-59.98249,0.96959],[-60.01793,0.95969],[-60.02054,0.95395],[-60.01793,0.94092],[-60.02784,0.91694],[-60.04921,0.90026],[-60.04922,0.88253],[-60.05599,0.87054],[-60.05287,0.85386],[-60.06121,0.83822],[-60.05495,0.83405],[-60.05391,0.80851],[-60.04557,0.796],[-60.06069,0.75377],[-60.05443,0.74126],[-60.06538,0.69591],[-60.0633,0.68339],[-60.07946,0.67453],[-60.07008,0.6443],[-60.06904,0.61041],[-60.07633,0.60885],[-60.0805,0.60103],[-60.09197,0.6052],[-60.11387,0.58591],[-60.12377,0.58747],[-60.12377,0.58018],[-60.1514,0.57496],[-60.15505,0.56193],[-60.16287,0.56819],[-60.1832,0.56402],[-60.18841,0.57184],[-60.19623,0.56662],[-60.22647,0.56402],[-60.22855,0.57184],[-60.22074,0.57861],[-60.21604,0.59113],[-60.22438,0.5906],[-60.22751,0.58435],[-60.23481,0.58539],[-60.23846,0.59842],[-60.25149,0.60103],[-60.27026,0.59478],[-60.28277,0.57653],[-60.28642,0.55776],[-60.29424,0.55776],[-60.30675,0.54525],[-60.3349,0.56037],[-60.34793,0.55829],[-60.35523,0.53952],[-60.36879,0.53326],[-60.38703,0.54108],[-60.39381,0.53691],[-60.40111,0.53952],[-60.40267,0.53327],[-60.4131,0.53848],[-60.42821,0.53379],[-60.4376,0.54004],[-60.44594,0.52493],[-60.4548,0.52649],[-60.45897,0.51815],[-60.47148,0.5145],[-60.48869,0.49626],[-60.48921,0.48635],[-60.49546,0.47905],[-60.50954,0.48374],[-60.51475,0.4801],[-60.52257,0.49313],[-60.53143,0.49052],[-60.56323,0.45142],[-60.57522,0.44778],[-60.57418,0.43683],[-60.58252,0.43474],[-60.58461,0.42536],[-60.61902,0.39043],[-60.6284,0.39356],[-60.65029,0.37949],[-60.66072,0.38522],[-60.66593,0.37219],[-60.65499,0.37115],[-60.65446,0.36645],[-60.66176,0.36802],[-60.66176,0.36385],[-60.65447,0.35029],[-60.65707,0.34404],[-60.66385,0.34769],[-60.66124,0.33518],[-60.66958,0.31067],[-60.65968,0.28826],[-60.65186,0.28252],[-60.64352,0.28461],[-60.64039,0.27939],[-60.64821,0.26636],[-60.65708,0.26115],[-60.66698,0.23925],[-60.6576,0.23717],[-60.66125,0.23196],[-60.64405,0.21319],[-60.62476,0.21058],[-60.61954,0.20485],[-60.60182,0.21006],[-60.59087,0.20693],[-60.58045,0.17982],[-60.57002,0.17357],[-60.54917,0.14802],[-60.53301,0.13447],[-60.51894,0.12873],[-60.49131,0.10215],[-60.46994,0.09276],[-60.44648,0.09328],[-60.41937,0.11466],[-60.41259,0.1329],[-60.39852,0.14333],[-60.39122,0.16209],[-60.18427,0.00048],[-60.18062,-0.0089],[-60.20199,-0.03288],[-60.20512,-0.06051],[-60.22128,-0.08188],[-60.22754,-0.10013],[-60.22963,-0.10951],[-60.22389,-0.11837],[-60.2265,-0.12776],[-60.2192,-0.13453],[-60.24892,-0.16581],[-60.2484,-0.17415],[-60.25726,-0.17259],[-60.26508,-0.17728],[-60.26351,-0.18875],[-60.27498,-0.20178],[-60.28489,-0.2096],[-60.29271,-0.20491],[-60.29844,-0.21064],[-60.29062,-0.22837],[-60.30366,-0.26382],[-60.28906,-0.29197],[-60.30209,-0.30291],[-60.30105,-0.32742],[-60.31721,-0.3295],[-60.32034,-0.3368],[-60.31617,-0.35765],[-60.32086,-0.37642],[-60.33494,-0.38424],[-60.34902,-0.40613],[-60.34328,-0.41239],[-60.3438,-0.4395],[-60.38134,-0.46921],[-60.3902,-0.50205],[-60.39906,-0.50935],[-60.39698,-0.5448],[-60.39385,-0.55262],[-60.38134,-0.55679],[-60.37822,-0.57556],[-60.38708,-0.58077],[-60.38239,-0.58911],[-60.36466,-0.58703],[-60.35007,-0.62143],[-60.33964,-0.62456],[-60.32661,-0.63916],[-60.31879,-0.63603],[-60.31253,-0.64072],[-60.31358,-0.65897],[-60.30263,-0.67304],[-60.30784,-0.68868],[-60.30107,-0.69233],[-60.30159,-0.70849],[-60.30837,-0.72361],[-60.31619,-0.72205],[-60.34486,-0.74498],[-60.37614,-0.74185],[-60.38239,-0.75906],[-60.40012,-0.75645],[-60.41784,-0.76323],[-60.42618,-0.7773],[-60.43348,-0.77157],[-60.47779,-0.77],[-60.49708,-0.78877],[-60.49135,-0.79555],[-60.4976,-0.82161],[-60.50542,-0.82057],[-60.51898,-0.83256],[-60.5023,-0.84038],[-60.50334,-0.8482],[-60.52993,-0.87426],[-60.55651,-0.86905],[-60.55703,-0.85914],[-60.5904,-0.85237],[-60.59352,-0.87113],[-60.61959,-0.86227],[-60.62324,-0.87061],[-60.63262,-0.86748],[-60.63523,-0.8753],[-60.65347,-0.88208],[-60.66703,-0.89355],[-60.67172,-0.88677],[-60.66911,-0.87739],[-60.67485,-0.87269],[-60.70665,-0.86487],[-60.71603,-0.86904],[-60.73115,-0.85758],[-60.75148,-0.86018],[-60.75356,-0.84141],[-60.75825,-0.82786],[-60.752,-0.819],[-60.75825,-0.80909],[-60.75565,-0.7945],[-60.77285,-0.79033],[-60.75981,-0.76061],[-60.76763,-0.75383],[-60.77597,-0.7554],[-60.78796,-0.74393],[-60.7963,-0.74393],[-60.79839,-0.73507],[-60.79213,-0.72725],[-60.79213,-0.71734],[-60.79682,-0.70014],[-60.8109,-0.69128],[-60.84218,-0.68971],[-60.85104,-0.67407],[-60.84635,-0.66312],[-60.85364,-0.64696],[-60.8599,-0.64123],[-60.88179,-0.64853],[-60.90734,-0.62298],[-60.90786,-0.61516],[-60.91516,-0.60943],[-60.9115,-0.58023],[-60.91984,-0.55417],[-60.92923,-0.55365],[-60.93444,-0.55886],[-60.95216,-0.55365],[-60.95738,-0.55938],[-60.97458,-0.56147],[-60.9996,-0.55886],[-61.0241,-0.54322],[-61.03297,-0.54791],[-61.04496,-0.54478],[-61.05434,-0.53748],[-61.06268,-0.51194],[-61.08614,-0.49891],[-61.09552,-0.49838],[-61.11116,-0.5062],[-61.12784,-0.49682],[-61.14765,-0.49838],[-61.15651,-0.51454],[-61.17267,-0.50725],[-61.19769,-0.50516],[-61.2076,-0.49786],[-61.21594,-0.4989],[-61.22167,-0.50464],[-61.2222,-0.51819],[-61.21542,-0.53227],[-61.22324,-0.53852],[-61.22324,-0.55833],[-61.27433,-0.57501],[-61.29727,-0.57501],[-61.3249,-0.59691],[-61.34627,-0.5943],[-61.35565,-0.59743],[-61.40622,-0.63027],[-61.42759,-0.6334],[-61.42551,-0.65216],[-61.43437,-0.65738],[-61.45574,-0.65581],[-61.46356,-0.66363],[-61.47868,-0.71368],[-61.5157,-0.74443],[-61.53759,-0.75538],[-61.55115,-0.80073],[-61.54906,-0.83827],[-61.54229,-0.84244],[-61.54229,-0.8513],[-61.55741,-0.86277],[-61.55793,-0.89196],[-61.57774,-0.90916],[-61.5793,-0.92949],[-61.584,-0.93627],[-61.57878,-0.95504],[-61.58243,-0.98162],[-61.57514,-0.98736],[-61.5595,-0.98684],[-61.55898,-1.00925],[-61.5423,-1.03428],[-61.54282,-1.06139],[-61.54542,-1.07025],[-61.57566,-1.07807],[-61.57722,-1.08745],[-61.56524,-1.09892],[-61.5767,-1.11195],[-61.56576,-1.13176],[-61.58088,-1.16356],[-61.57254,-1.18389],[-61.58713,-1.1964],[-61.6059,-1.24332],[-61.60643,-1.27721],[-61.62571,-1.29284],[-61.6278,-1.30066],[-61.6106,-1.30744],[-61.58453,-1.33768],[-61.58089,-1.35227],[-61.59913,-1.36687],[-61.6179,-1.39398],[-61.61373,-1.4018],[-61.60174,-1.40649],[-61.58089,-1.40858],[-61.57255,-1.42786],[-61.5371,-1.43256],[-61.53189,-1.46436],[-61.51521,-1.50137],[-61.48028,-1.51701],[-61.47246,-1.52692],[-61.46881,-1.53734],[-61.47455,-1.55194],[-61.47351,-1.578],[-61.48185,-1.57957],[-61.49019,-1.57383],[-61.54388,-1.52483],[-61.57099,-1.47739],[-61.60383,-1.44715],[-61.63458,-1.43308],[-61.71695,-1.40909],[-61.73988,-1.39085],[-61.76855,-1.38198],[-61.7967,-1.3799],[-61.81599,-1.39867],[-61.83893,-1.40023],[-61.853,-1.3872],[-61.86343,-1.36739],[-61.87125,-1.32933],[-61.83788,-1.25739],[-61.84883,-1.19796],[-61.8801,-1.12602],[-61.87384,-1.09787],[-61.86081,-1.08014],[-61.85768,-1.05616],[-61.88844,-0.99778],[-61.86862,-0.93053],[-61.88218,-0.8956],[-61.88113,-0.87683],[-61.87383,-0.85963],[-61.85402,-0.8393],[-61.84673,-0.82053],[-61.84725,-0.79707],[-61.8608,-0.76475],[-61.86653,-0.72305],[-61.80814,-0.60263],[-61.81075,-0.56197],[-61.82117,-0.54268],[-61.82378,-0.52495],[-61.81752,-0.50306],[-61.80084,-0.47334],[-61.79927,-0.45562],[-61.80448,-0.43998],[-61.82898,-0.41339],[-61.84097,-0.39306],[-61.84514,-0.3623],[-61.82898,-0.31643],[-61.8368,-0.27055],[-61.83315,-0.24449],[-61.81699,-0.20018],[-61.80499,-0.13814],[-61.78883,-0.10009],[-61.79039,-0.09018],[-61.81229,-0.05369],[-61.81489,-0.03753],[-61.80238,-0.01147],[-61.80186,0.00053],[-61.77266,0.05839],[-61.76901,0.09853],[-61.77683,0.16891],[-61.77109,0.23511],[-61.75754,0.3107],[-61.72834,0.36596],[-61.71009,0.43686],[-61.68246,0.49055],[-61.6491,0.51662],[-61.63502,0.53382],[-61.61156,0.61149],[-61.59175,0.62922],[-61.55838,0.6803],[-61.49948,0.72461],[-61.45256,0.78665],[-61.42805,0.84295],[-61.42336,0.8711],[-61.37488,0.92636],[-61.36184,0.96285],[-61.34464,0.98057],[-61.31857,0.99621],[-61.2873,0.97953],[-61.26332,0.98005],[-61.26175,0.96806],[-61.25498,0.96754],[-61.2336,1.0009],[-61.21744,1.0009],[-61.2018,0.979],[-61.19138,0.95085],[-61.18669,0.95085],[-61.18617,0.96076],[-61.17574,0.96336],[-61.17105,0.96128],[-61.17365,0.95502],[-61.16166,0.95867],[-61.15593,0.95502],[-61.15176,0.9373],[-61.1455,0.93886],[-61.14238,0.95294],[-61.12674,0.9446],[-61.11892,0.95815],[-61.12674,0.95919],[-61.12882,0.96441],[-61.10745,0.96388],[-61.11423,0.96962],[-61.10953,0.97692],[-61.1137,0.98317],[-61.10536,0.99151],[-61.09911,0.98682],[-61.08764,0.99829],[-61.08503,1.00402],[-61.09024,1.00819],[-61.07982,1.01654],[-61.06679,1.01028],[-61.06262,1.01289],[-61.06835,1.02071],[-61.05688,1.028],[-61.06418,1.03687],[-61.04437,1.04886],[-61.04802,1.06137],[-61.03551,1.07336],[-61.0428,1.08326],[-61.03915,1.08847],[-61.02143,1.08535],[-61.01987,1.10151],[-61.01465,1.10411],[-61.01048,1.08535],[-61.00006,1.09004],[-60.99067,1.08378],[-60.9839,1.09369],[-60.97347,1.08587],[-60.95992,1.08952],[-60.94793,1.08326],[-60.94219,1.07335],[-60.92343,1.0744],[-60.91091,1.09421],[-60.90466,1.09577],[-60.91039,1.10203],[-60.90361,1.12184],[-60.88433,1.13122],[-60.85096,1.10359],[-60.84106,1.09108],[-60.8395,1.077],[-60.81865,1.06345],[-60.82021,1.04051],[-60.815,1.03165],[-60.8223,1.00715],[-60.80718,0.98056],[-60.78893,0.97274],[-60.78946,0.96753],[-60.77851,0.95971],[-60.77799,0.94667],[-60.76704,0.93729],[-60.75505,0.94042],[-60.72899,0.9352],[-60.72534,0.92217],[-60.73107,0.90757],[-60.74098,0.90392],[-60.7316,0.89767],[-60.72899,0.88151],[-60.72325,0.88255],[-60.71752,0.869],[-60.71283,0.86795],[-60.71283,0.88046],[-60.70501,0.87108],[-60.68989,0.88463],[-60.68729,0.87369],[-60.68051,0.87577],[-60.68468,0.87734],[-60.68311,0.88516],[-60.68103,0.87734],[-60.67634,0.88724],[-60.668,0.87994],[-60.65966,0.89297],[-60.65392,0.89193],[-60.64975,0.90392],[-60.63463,0.89714],[-60.62994,0.90131],[-60.61847,0.89819],[-60.61065,0.90496],[-60.60179,0.90548],[-60.60388,0.9107],[-60.59606,0.92112],[-60.60127,0.92582],[-60.60127,0.93364],[-60.59189,0.92477],[-60.5825,0.93363],[-60.56791,0.93728],[-60.5726,0.94458],[-60.56009,0.93989],[-60.55331,0.95605],[-60.56009,0.95605],[-60.54184,0.967],[-60.54392,0.97117],[-60.53715,0.97586],[-60.54027,0.98629],[-60.53506,0.99358],[-60.52151,0.98681],[-60.51265,0.99098],[-60.50899,1.02695],[-60.497,1.0405],[-60.48137,1.04676],[-60.4798,1.06031],[-60.46312,1.07074],[-60.46625,1.0822],[-60.45165,1.08168],[-60.45009,1.09889],[-60.44383,1.09836],[-60.43236,1.10775],[-60.42558,1.10723],[-60.42141,1.10045],[-60.41359,1.10514],[-60.41411,1.12443],[-60.399,1.13277],[-60.37502,1.14059],[-60.35625,1.13068],[-60.34895,1.1385],[-60.35312,1.14319],[-60.34999,1.14476],[-60.3427,1.13381],[-60.32341,1.13902],[-60.32289,1.14841],[-60.31924,1.14893],[-60.31246,1.13329],[-60.29943,1.13798],[-60.29369,1.13016],[-60.29891,1.12338],[-60.29057,1.11661],[-60.27597,1.13277],[-60.25147,1.12234],[-60.24417,1.12495],[-60.24417,1.1213],[-60.23687,1.13068],[-60.21341,1.13016],[-60.13053,1.10409],[-60.12167,1.09679],[-60.11385,1.10409],[-60.08048,1.10357],[-60.02679,1.12598],[-60.01271,1.12494],[-60.01167,1.11816],[-59.99134,1.12546],[-59.98144,1.13641]]]},"properties":{"CD_MUN":"1400605","NM_MUN":"São Luiz","SIGLA_UF":"RR"}},{"type":"Feature","geometry":{"type":"Polygon","coordinates":[[[-59.41164,1.5524],[-59.39496,1.55605],[-59.39339,1.53832],[-59.37776,1.52164],[-59.38088,1.50809],[-59.36368,1.51069],[-59.36107,1.50496],[-59.35742,1.51903],[-59.32875,1.51486],[-59.33136,1.50652],[-59.32041,1.48306],[-59.32667,1.47472],[-59.32511,1.46377],[-59.31312,1.46117],[-59.30947,1.4669],[-59.30113,1.46638],[-59.28601,1.45387],[-59.28288,1.44917],[-59.28757,1.44031],[-59.2735,1.41842],[-59.28184,1.41164],[-59.27089,1.40747],[-59.25213,1.38922],[-59.23284,1.38714],[-59.22554,1.37828],[-59.20678,1.37254],[-59.20365,1.37775],[-59.18749,1.37619],[-59.1755,1.36159],[-59.16872,1.35742],[-59.15986,1.36003],[-59.14943,1.34908],[-59.13067,1.35325],[-59.11711,1.34387],[-59.10147,1.34908],[-59.08896,1.34751],[-59.08584,1.3397],[-59.07489,1.33188],[-59.05664,1.33552],[-59.04726,1.32353],[-59.02172,1.33187],[-59.01233,1.32458],[-58.99252,1.32822],[-58.97741,1.30268],[-58.96489,1.31363],[-58.91537,1.31623],[-58.92111,1.29069],[-58.89765,1.28026],[-58.88566,1.26097],[-58.90338,1.25211],[-58.90338,1.24221],[-58.9112,1.23908],[-58.89452,1.22865],[-58.89456,0.26423],[-59.19118,0.26424],[-60.03673,0.26426],[-60.05811,0.16417],[-60.08574,0.14384],[-60.11545,0.13446],[-60.13683,0.1037],[-60.13526,0.0938],[-60.12223,0.08181],[-60.13526,0.06669],[-60.1337,0.05522],[-60.14204,0.03854],[-60.13735,0.02968],[-60.15977,0.01716],[-60.17019,0.001],[-60.18427,0.00048],[-60.39122,0.16209],[-60.39852,0.14333],[-60.41259,0.1329],[-60.41937,0.11466],[-60.44648,0.09328],[-60.46994,0.09276],[-60.49131,0.10215],[-60.51894,0.12873],[-60.53301,0.13447],[-60.54917,0.14802],[-60.57002,0.17357],[-60.58045,0.17982],[-60.59087,0.20693],[-60.60182,0.21006],[-60.61954,0.20485],[-60.62476,0.21058],[-60.64405,0.21319],[-60.66125,0.23196],[-60.6576,0.23717],[-60.66698,0.23925],[-60.65708,0.26115],[-60.64821,0.26636],[-60.64039,0.27939],[-60.64352,0.28461],[-60.65186,0.28252],[-60.65968,0.28826],[-60.66958,0.31067],[-60.66124,0.33518],[-60.66385,0.34769],[-60.65707,0.34404],[-60.65447,0.35029],[-60.66176,0.36385],[-60.66176,0.36802],[-60.65446,0.36645],[-60.65499,0.37115],[-60.66593,0.37219],[-60.66072,0.38522],[-60.65029,0.37949],[-60.6284,0.39356],[-60.61902,0.39043],[-60.58461,0.42536],[-60.58252,0.43474],[-60.57418,0.43683],[-60.57522,0.44778],[-60.56323,0.45142],[-60.53143,0.49052],[-60.52257,0.49313],[-60.51475,0.4801],[-60.50954,0.48374],[-60.49546,0.47905],[-60.48921,0.48635],[-60.48869,0.49626],[-60.47148,0.5145],[-60.45897,0.51815],[-60.4548,0.52649],[-60.44594,0.52493],[-60.4376,0.54004],[-60.42821,0.53379],[-60.4131,0.53848],[-60.40267,0.53327],[-60.40111,0.53952],[-60.39381,0.53691],[-60.38703,0.54108],[-60.36879,0.53326],[-60.35523,0.53952],[-60.34793,0.55829],[-60.3349,0.56037],[-60.30675,0.54525],[-60.29424,0.55776],[-60.28642,0.55776],[-60.28277,0.57653],[-60.27026,0.59478],[-60.25149,0.60103],[-60.23846,0.59842],[-60.23481,0.58539],[-60.22751,0.58435],[-60.22438,0.5906],[-60.21604,0.59113],[-60.22074,0.57861],[-60.22855,0.57184],[-60.22647,0.56402],[-60.19623,0.56662],[-60.18841,0.57184],[-60.1832,0.56402],[-60.16287,0.56819],[-60.15505,0.56193],[-60.1514,0.57496],[-60.12377,0.58018],[-60.12377,0.58747],[-60.11387,0.58591],[-60.09197,0.6052],[-60.0805,0.60103],[-60.07633,0.60885],[-60.06904,0.61041],[-60.07008,0.6443],[-60.07946,0.67453],[-60.0633,0.68339],[-60.06538,0.69591],[-60.05443,0.74126],[-60.06069,0.75377],[-60.04557,0.796],[-60.05391,0.80851],[-60.05495,0.83405],[-60.06121,0.83822],[-60.05287,0.85386],[-60.05599,0.87054],[-60.04922,0.88253],[-60.04921,0.90026],[-60.02784,0.91694],[-60.01793,0.94092],[-60.02054,0.95395],[-60.01793,0.95969],[-59.98249,0.96959],[-59.97466,0.98992],[-59.97988,1.00087],[-59.98144,1.13641],[-59.97362,1.14058],[-59.96475,1.17238],[-59.95902,1.17968],[-59.94494,1.17707],[-59.95016,1.18489],[-59.93817,1.19323],[-59.93347,1.18958],[-59.92565,1.19531],[-59.91262,1.19219],[-59.90845,1.20053],[-59.89542,1.20365],[-59.88916,1.19792],[-59.87926,1.20365],[-59.87717,1.21356],[-59.86623,1.18854],[-59.8558,1.19062],[-59.84798,1.20053],[-59.84016,1.20157],[-59.84172,1.20939],[-59.83338,1.21669],[-59.82296,1.25735],[-59.80419,1.25578],[-59.80523,1.26465],[-59.78438,1.26621],[-59.77864,1.27559],[-59.78021,1.28289],[-59.78334,1.27872],[-59.78594,1.28498],[-59.77864,1.31521],[-59.7922,1.33033],[-59.7849,1.3345],[-59.78959,1.33971],[-59.78229,1.35535],[-59.77812,1.35639],[-59.78125,1.35639],[-59.77916,1.36369],[-59.77082,1.36734],[-59.77551,1.3736],[-59.77134,1.37725],[-59.7776,1.38194],[-59.77343,1.38924],[-59.77916,1.39497],[-59.77968,1.40748],[-59.78646,1.4153],[-59.79324,1.41322],[-59.79115,1.43303],[-59.81669,1.45232],[-59.81408,1.47473],[-59.81982,1.48047],[-59.81825,1.49089],[-59.80261,1.51018],[-59.81356,1.53208],[-59.80731,1.53364],[-59.80418,1.52895],[-59.79584,1.5352],[-59.78958,1.55971],[-59.76612,1.5644],[-59.76456,1.58056],[-59.77498,1.59255],[-59.76351,1.60714],[-59.71816,1.61131],[-59.70721,1.60558],[-59.66655,1.62643],[-59.65873,1.62278],[-59.66082,1.61079],[-59.64674,1.60818],[-59.64414,1.61496],[-59.62954,1.62486],[-59.6139,1.62747],[-59.59461,1.61027],[-59.58731,1.61235],[-59.52267,1.59202],[-59.48462,1.59671],[-59.46481,1.57325],[-59.46533,1.56022],[-59.45491,1.55918],[-59.44657,1.54666],[-59.41164,1.5524]]]},"properties":{"CD_MUN":"1400506","NM_MUN":"São João da Baliza","SIGLA_UF":"RR"}},{"type":"Feature","geometry":{"type":"Polygon","coordinates":[[[-60.71682,5.19689],[-60.73507,5.20315],[-60.72203,5.22087],[-60.70796,5.21983],[-60.69597,5.22974],[-60.6772,5.23338],[-60.65843,5.22817],[-60.64957,5.2313],[-60.62351,5.21618],[-60.61308,5.21931],[-60.60213,5.21618],[-60.59588,5.22139],[-60.59066,5.21879],[-60.5891,5.20836],[-60.56825,5.19689],[-60.54427,5.19533],[-60.53854,5.20367],[-60.52602,5.20888],[-60.46243,5.20002],[-60.45044,5.20419],[-60.44522,5.18542],[-60.43323,5.18229],[-60.41759,5.1948],[-60.41238,5.21461],[-60.40404,5.212],[-60.38267,5.22295],[-60.37016,5.21565],[-60.36599,5.20575],[-60.35452,5.21096],[-60.34461,5.20575],[-60.31855,5.20887],[-60.31229,5.21148],[-60.30291,5.22764],[-60.26954,5.23546],[-60.26277,5.25214],[-60.24452,5.25318],[-60.23409,5.26361],[-60.21116,5.27299],[-60.20073,5.26778],[-60.19187,5.25422],[-60.19396,5.23963],[-60.17102,5.22764],[-60.13453,5.25005],[-60.1314,5.22607],[-60.10534,5.19531],[-60.09439,5.14162],[-60.0725,5.14006],[-60.06468,5.12859],[-60.05894,5.12754],[-60.05165,5.11138],[-60.04643,5.11295],[-60.02558,5.09366],[-59.99535,5.08584],[-60.00212,5.07437],[-59.99639,5.06759],[-60.00682,5.06029],[-59.99431,5.04987],[-60.00317,5.02484],[-59.98909,4.98939],[-59.98857,4.97376],[-59.99483,4.96177],[-59.98962,4.94925],[-59.99431,4.94665],[-59.99275,4.93309],[-60.00682,4.90755],[-60.01569,4.84291],[-60.02872,4.82571],[-60.03237,4.81163],[-60.02716,4.8059],[-60.03706,4.79599],[-60.03863,4.78452],[-60.02559,4.7741],[-60.02977,4.76002],[-60.0282,4.73917],[-60.04228,4.71832],[-60.02873,4.70163],[-60.07773,4.6495],[-60.07929,4.64221],[-60.07408,4.63387],[-60.07825,4.6224],[-60.07408,4.60988],[-60.10067,4.59633],[-60.10849,4.60207],[-60.11631,4.59633],[-60.12726,4.59685],[-60.13403,4.58903],[-60.12621,4.56975],[-60.14133,4.57183],[-60.13925,4.55671],[-60.14863,4.55828],[-60.15228,4.5661],[-60.15906,4.56401],[-60.16375,4.54942],[-60.15697,4.54003],[-60.16219,4.50719],[-60.1038,4.50198],[-60.10119,4.50719],[-60.10745,4.51866],[-60.09025,4.52439],[-60.0866,4.51761],[-60.08868,4.50979],[-60.07513,4.51761],[-60.06731,4.51292],[-60.06992,4.49468],[-60.04437,4.49624],[-60.0329,4.49207],[-60.023,4.49624],[-60.01779,4.49103],[-60.00215,4.49728],[-59.99798,4.48998],[-59.98495,4.48164],[-59.97608,4.4832],[-59.97139,4.47747],[-59.96826,4.50406],[-59.93803,4.49154],[-59.93334,4.49519],[-59.93125,4.48894],[-59.92135,4.48581],[-59.925,4.47695],[-59.90831,4.47382],[-59.91092,4.46391],[-59.90362,4.45557],[-59.89424,4.47226],[-59.87808,4.47225],[-59.87026,4.48477],[-59.87182,4.47486],[-59.85931,4.46756],[-59.86453,4.46496],[-59.86713,4.45609],[-59.85775,4.44932],[-59.84889,4.45297],[-59.8395,4.45036],[-59.83012,4.45557],[-59.82699,4.44827],[-59.81083,4.44619],[-59.80353,4.45192],[-59.80249,4.46443],[-59.79415,4.46548],[-59.79311,4.44671],[-59.77851,4.44775],[-59.77851,4.43889],[-59.76496,4.43837],[-59.75088,4.42064],[-59.73472,4.42116],[-59.71909,4.40604],[-59.71857,4.39614],[-59.69511,4.37998],[-59.68312,4.38415],[-59.67269,4.37737],[-59.67217,4.37112],[-59.68155,4.36382],[-59.67478,4.34714],[-59.67738,4.3414],[-59.68938,4.33515],[-59.70137,4.32003],[-59.70189,4.30439],[-59.71492,4.30439],[-59.73056,4.28562],[-59.72587,4.27937],[-59.72795,4.27259],[-59.7144,4.27467],[-59.70658,4.26894],[-59.73525,4.23506],[-59.72744,4.19909],[-59.71962,4.19074],[-59.72431,4.18345],[-59.70971,4.16572],[-59.67948,4.14747],[-59.64194,4.14695],[-59.61536,4.1334],[-59.6482,4.07136],[-59.63778,4.06876],[-59.62683,4.05468],[-59.6138,4.05468],[-59.61328,4.03956],[-59.5966,4.03122],[-59.59555,4.01871],[-59.60702,4.0208],[-59.60859,4.01715],[-59.59868,4.01037],[-59.5893,4.02027],[-59.58669,4.01297],[-59.59243,4.00046],[-59.58878,3.99577],[-59.57783,4.00463],[-59.57366,4.00255],[-59.57835,3.99838],[-59.5721,3.98847],[-59.58565,3.97805],[-59.58357,3.96866],[-59.57001,3.97023],[-59.56689,3.96554],[-59.5575,3.97961],[-59.54499,3.98013],[-59.54343,3.97335],[-59.52518,3.96814],[-59.51945,3.95563],[-59.52153,3.9525],[-59.51528,3.9452],[-59.52622,3.93895],[-59.52727,3.92487],[-59.53769,3.93321],[-59.54239,3.93113],[-59.54082,3.92383],[-59.54708,3.92018],[-59.56376,3.9207],[-59.56689,3.89151],[-59.57679,3.90298],[-59.57523,3.89151],[-59.59139,3.8889],[-59.59243,3.86075],[-59.58357,3.85815],[-59.58878,3.85293],[-59.5867,3.83677],[-59.57732,3.8326],[-59.57836,3.81748],[-59.58409,3.82426],[-59.58983,3.81644],[-59.59765,3.8154],[-59.59452,3.79663],[-59.61277,3.80393],[-59.61537,3.79559],[-59.62841,3.78569],[-59.63205,3.78881],[-59.62736,3.79976],[-59.63935,3.78569],[-59.64717,3.78881],[-59.66385,3.78308],[-59.66855,3.7664],[-59.67897,3.76066],[-59.67168,3.75389],[-59.67376,3.74555],[-59.66334,3.7346],[-59.67011,3.72939],[-59.66177,3.71687],[-59.66751,3.70384],[-59.6795,3.69706],[-59.68784,3.69967],[-59.69305,3.68925],[-59.70348,3.69029],[-59.7186,3.67517],[-59.72277,3.66422],[-59.74258,3.66057],[-59.75457,3.64858],[-59.75926,3.63295],[-59.76812,3.63347],[-59.76343,3.62669],[-59.77333,3.62669],[-59.79002,3.61783],[-59.814,3.62148],[-59.81504,3.61157],[-59.82077,3.6147],[-59.84944,3.60584],[-59.85674,3.5829],[-59.86508,3.57873],[-59.85779,3.57143],[-59.87082,3.56414],[-59.88437,3.56466],[-59.90418,3.5876],[-59.92191,3.57978],[-59.93598,3.55997],[-59.95475,3.57456],[-59.97404,3.55788],[-59.99854,3.55371],[-60.02617,3.5412],[-60.03555,3.52869],[-60.05328,3.52713],[-60.08195,3.49481],[-60.11271,3.48178],[-60.12835,3.46718],[-60.13825,3.46197],[-60.15493,3.46353],[-60.17474,3.44633],[-60.18465,3.41818],[-60.19612,3.40775],[-60.24095,3.39472],[-60.29412,3.38847],[-60.32019,3.37022],[-60.32436,3.39733],[-60.32019,3.41557],[-60.30142,3.42496],[-60.29568,3.43121],[-60.29829,3.44008],[-60.28474,3.4505],[-60.28786,3.4651],[-60.30037,3.47657],[-60.29829,3.48751],[-60.30923,3.49586],[-60.30976,3.50941],[-60.31966,3.50733],[-60.32852,3.51619],[-60.32904,3.52088],[-60.32018,3.52192],[-60.32122,3.53078],[-60.33634,3.54642],[-60.35198,3.55268],[-60.35771,3.54278],[-60.37909,3.55529],[-60.37544,3.56363],[-60.37856,3.5678],[-60.39472,3.57353],[-60.40724,3.56936],[-60.42131,3.61315],[-60.42965,3.61315],[-60.42444,3.62202],[-60.43695,3.62775],[-60.43121,3.64965],[-60.45675,3.67363],[-60.45363,3.68405],[-60.4604,3.69761],[-60.47083,3.69552],[-60.47448,3.7023],[-60.47031,3.72419],[-60.48073,3.73149],[-60.48542,3.744],[-60.50575,3.73566],[-60.48751,3.75495],[-60.49272,3.77372],[-60.48438,3.77163],[-60.47865,3.77841],[-60.49011,3.80187],[-60.48698,3.80552],[-60.48125,3.79926],[-60.4849,3.82846],[-60.47604,3.84097],[-60.48073,3.85504],[-60.49845,3.87485],[-60.48855,3.88632],[-60.48646,3.90144],[-60.50001,3.91186],[-60.49897,3.91656],[-60.4875,3.92438],[-60.49219,3.93949],[-60.48333,3.95565],[-60.45674,3.95617],[-60.45935,3.99215],[-60.45049,3.99892],[-60.44736,4.01612],[-60.43954,4.02342],[-60.43745,4.03385],[-60.44892,4.05157],[-60.44631,4.08494],[-60.4557,4.09171],[-60.46351,4.11205],[-60.4729,4.1157],[-60.47081,4.12925],[-60.48124,4.1329],[-60.48853,4.14437],[-60.50417,4.13394],[-60.49844,4.14802],[-60.50886,4.15584],[-60.51408,4.16783],[-60.53493,4.16835],[-60.53858,4.17356],[-60.53493,4.18347],[-60.54066,4.20797],[-60.52398,4.22361],[-60.51668,4.22413],[-60.5172,4.23038],[-60.50782,4.23455],[-60.50886,4.24029],[-60.53128,4.25593],[-60.55891,4.26375],[-60.5662,4.27678],[-60.55525,4.29398],[-60.51303,4.31744],[-60.45881,4.36436],[-60.37332,4.39668],[-60.36237,4.4217],[-60.32223,4.45089],[-60.32379,4.45663],[-60.2972,4.46914],[-60.27114,4.49572],[-60.29095,4.50615],[-60.29199,4.52387],[-60.30241,4.53587],[-60.30815,4.56193],[-60.30346,4.57131],[-60.30658,4.59008],[-60.32379,4.59582],[-60.34203,4.58278],[-60.38843,4.59895],[-60.40302,4.59165],[-60.42909,4.59373],[-60.43847,4.59843],[-60.44264,4.60833],[-60.45046,4.60625],[-60.46714,4.61302],[-60.47079,4.63752],[-60.48799,4.65316],[-60.48747,4.67037],[-60.47913,4.68757],[-60.4833,4.69591],[-60.47496,4.70373],[-60.47235,4.74335],[-60.46818,4.74439],[-60.47131,4.75065],[-60.46349,4.76681],[-60.46714,4.77567],[-60.46401,4.78714],[-60.47026,4.79183],[-60.45931,4.84761],[-60.46453,4.85126],[-60.46192,4.87524],[-60.47547,4.88723],[-60.47495,4.89453],[-60.45983,4.91173],[-60.45149,4.93675],[-60.45618,4.94718],[-60.45097,4.95709],[-60.46817,4.96595],[-60.45514,4.97637],[-60.46087,4.98941],[-60.45305,4.99358],[-60.44367,4.98889],[-60.43168,5.00088],[-60.43168,5.01287],[-60.42542,5.01599],[-60.43063,5.01756],[-60.42542,5.03111],[-60.41812,5.03893],[-60.40717,5.03997],[-60.40509,5.05509],[-60.42125,5.05665],[-60.42281,5.06135],[-60.40457,5.07699],[-60.40926,5.07907],[-60.40926,5.09367],[-60.39883,5.09888],[-60.39987,5.10931],[-60.41864,5.11452],[-60.4275,5.11139],[-60.42177,5.11713],[-60.42125,5.13016],[-60.43219,5.12651],[-60.43741,5.13172],[-60.44262,5.12547],[-60.452,5.13068],[-60.43793,5.14476],[-60.45304,5.15779],[-60.46034,5.15727],[-60.4692,5.16665],[-60.48276,5.16978],[-60.50048,5.15779],[-60.50622,5.16196],[-60.54219,5.15675],[-60.55053,5.14632],[-60.57086,5.14945],[-60.57607,5.15675],[-60.58181,5.14685],[-60.59015,5.14424],[-60.60214,5.14945],[-60.611,5.16249],[-60.62559,5.16718],[-60.63289,5.1823],[-60.64592,5.1849],[-60.65322,5.17917],[-60.65844,5.18125],[-60.6626,5.19533],[-60.67199,5.20367],[-60.68033,5.20263],[-60.68189,5.21097],[-60.69962,5.19794],[-60.70952,5.20576],[-60.71682,5.19689]]]},"properties":{"CD_MUN":"1400407","NM_MUN":"Normandia","SIGLA_UF":"RR"}},{"type":"Feature","geometry":{"type":"Polygon","coordinates":[[[-60.71682,5.19689],[-60.70952,5.20576],[-60.69962,5.19794],[-60.68189,5.21097],[-60.68033,5.20263],[-60.67199,5.20367],[-60.6626,5.19533],[-60.65844,5.18125],[-60.65322,5.17917],[-60.64592,5.1849],[-60.63289,5.1823],[-60.62559,5.16718],[-60.611,5.16249],[-60.60214,5.14945],[-60.59015,5.14424],[-60.58181,5.14685],[-60.57607,5.15675],[-60.57086,5.14945],[-60.55053,5.14632],[-60.54219,5.15675],[-60.50622,5.16196],[-60.50048,5.15779],[-60.48276,5.16978],[-60.4692,5.16665],[-60.46034,5.15727],[-60.45304,5.15779],[-60.43793,5.14476],[-60.452,5.13068],[-60.44262,5.12547],[-60.43741,5.13172],[-60.43219,5.12651],[-60.42125,5.13016],[-60.42177,5.11713],[-60.4275,5.11139],[-60.41864,5.11452],[-60.39987,5.10931],[-60.39883,5.09888],[-60.40926,5.09367],[-60.40926,5.07907],[-60.40457,5.07699],[-60.42281,5.06135],[-60.42125,5.05665],[-60.40509,5.05509],[-60.40717,5.03997],[-60.41812,5.03893],[-60.42542,5.03111],[-60.43063,5.01756],[-60.42542,5.01599],[-60.43168,5.01287],[-60.43168,5.00088],[-60.44367,4.98889],[-60.45305,4.99358],[-60.46087,4.98941],[-60.45514,4.97637],[-60.46817,4.96595],[-60.45097,4.95709],[-60.45618,4.94718],[-60.45149,4.93675],[-60.45983,4.91173],[-60.47495,4.89453],[-60.47547,4.88723],[-60.46192,4.87524],[-60.46453,4.85126],[-60.45931,4.84761],[-60.47026,4.79183],[-60.46401,4.78714],[-60.46714,4.77567],[-60.46349,4.76681],[-60.47131,4.75065],[-60.46818,4.74439],[-60.47235,4.74335],[-60.47496,4.70373],[-60.4833,4.69591],[-60.47913,4.68757],[-60.48747,4.67037],[-60.48799,4.65316],[-60.47079,4.63752],[-60.46714,4.61302],[-60.45046,4.60625],[-60.44264,4.60833],[-60.43847,4.59843],[-60.42909,4.59373],[-60.40302,4.59165],[-60.38843,4.59895],[-60.34203,4.58278],[-60.32379,4.59582],[-60.30658,4.59008],[-60.30346,4.57131],[-60.30815,4.56193],[-60.30241,4.53587],[-60.29199,4.52387],[-60.29095,4.50615],[-60.27114,4.49572],[-60.2972,4.46914],[-60.32379,4.45663],[-60.32223,4.45089],[-60.36237,4.4217],[-60.37332,4.39668],[-60.45881,4.36436],[-60.51303,4.31744],[-60.55525,4.29398],[-60.5662,4.27678],[-60.55891,4.26375],[-60.53128,4.25593],[-60.50886,4.24029],[-60.50782,4.23455],[-60.5172,4.23038],[-60.51668,4.22413],[-60.52398,4.22361],[-60.54066,4.20797],[-60.53493,4.18347],[-60.53858,4.17356],[-60.53493,4.16835],[-60.51408,4.16783],[-60.50886,4.15584],[-60.49844,4.14802],[-60.50417,4.13394],[-60.48853,4.14437],[-60.48124,4.1329],[-60.47081,4.12925],[-60.4729,4.1157],[-60.46351,4.11205],[-60.4557,4.09171],[-60.44631,4.08494],[-60.44892,4.05157],[-60.43745,4.03385],[-60.43954,4.02342],[-60.44736,4.01612],[-60.45049,3.99892],[-60.45935,3.99215],[-60.45674,3.95617],[-60.48333,3.95565],[-60.49219,3.93949],[-60.4875,3.92438],[-60.49897,3.91656],[-60.50001,3.91186],[-60.48646,3.90144],[-60.48855,3.88632],[-60.49845,3.87485],[-60.48073,3.85504],[-60.47604,3.84097],[-60.4849,3.82846],[-60.48125,3.79926],[-60.48698,3.80552],[-60.49011,3.80187],[-60.47865,3.77841],[-60.48438,3.77163],[-60.49272,3.77372],[-60.48751,3.75495],[-60.50575,3.73566],[-60.48542,3.744],[-60.48073,3.73149],[-60.47031,3.72419],[-60.47448,3.7023],[-60.47083,3.69552],[-60.4604,3.69761],[-60.45363,3.68405],[-60.45675,3.67363],[-60.43121,3.64965],[-60.43695,3.62775],[-60.42444,3.62202],[-60.42965,3.61315],[-60.42131,3.61315],[-60.40724,3.56936],[-60.39472,3.57353],[-60.37856,3.5678],[-60.37544,3.56363],[-60.37909,3.55529],[-60.35771,3.54278],[-60.35198,3.55268],[-60.33634,3.54642],[-60.32122,3.53078],[-60.32018,3.52192],[-60.32904,3.52088],[-60.32852,3.51619],[-60.31966,3.50733],[-60.30976,3.50941],[-60.30923,3.49586],[-60.29829,3.48751],[-60.30037,3.47657],[-60.28786,3.4651],[-60.28474,3.4505],[-60.29829,3.44008],[-60.29568,3.43121],[-60.30142,3.42496],[-60.32019,3.41557],[-60.32436,3.39733],[-60.32019,3.37022],[-60.34156,3.34468],[-60.34469,3.31861],[-60.35355,3.31236],[-60.39474,3.30141],[-60.40933,3.28056],[-60.40777,3.25606],[-60.38327,3.21175],[-60.38379,3.18307],[-60.37285,3.16587],[-60.39214,3.14762],[-60.41664,3.10227],[-60.43853,3.07569],[-60.4474,3.04649],[-60.47294,3.03137],[-60.49067,3.01313],[-60.50318,2.97455],[-60.52508,2.94745],[-60.54854,2.90418],[-60.60275,2.85778],[-60.64811,2.83589],[-60.67,2.79992],[-60.67313,2.7775],[-60.69346,2.72954],[-60.71901,2.70921],[-60.77375,2.64457],[-60.82328,2.54813],[-60.82119,2.51998],[-60.82693,2.45638],[-60.83527,2.43866],[-60.84726,2.42927],[-60.86707,2.43553],[-60.85664,2.44283],[-60.85664,2.44961],[-60.86863,2.46316],[-60.89105,2.47671],[-60.90147,2.47567],[-60.90564,2.46733],[-60.9119,2.4689],[-60.91242,2.47515],[-60.89313,2.49287],[-60.89209,2.50851],[-60.91972,2.5205],[-60.94318,2.52259],[-60.92649,2.55074],[-60.92649,2.56534],[-60.9145,2.56638],[-60.91137,2.59766],[-60.91606,2.62894],[-60.94161,2.6524],[-60.95881,2.64614],[-60.96923,2.66699],[-60.97966,2.66804],[-60.99947,2.68263],[-60.99944,3.44896],[-61.02029,3.43957],[-61.05522,3.44322],[-61.1308,3.43436],[-61.15218,3.45052],[-61.16365,3.45365],[-61.21734,3.45053],[-61.23506,3.44427],[-61.26634,3.40152],[-61.30805,3.37025],[-61.31535,3.35774],[-61.3289,3.36034],[-61.34819,3.35513],[-61.3779,3.3666],[-61.40449,3.35148],[-61.45923,3.34836],[-61.47435,3.33845],[-61.48529,3.34158],[-61.50354,3.32438],[-61.50615,3.31551],[-61.51866,3.30822],[-61.53117,3.31134],[-61.53586,3.30248],[-61.55515,3.31499],[-61.56349,3.3077],[-61.5859,3.315],[-61.5932,3.3103],[-61.61301,3.33168],[-61.625,3.35826],[-61.66045,3.33116],[-61.6886,3.32177],[-61.69798,3.3322],[-61.71049,3.33637],[-61.71362,3.32595],[-61.72926,3.32125],[-61.75793,3.32126],[-61.78243,3.33064],[-61.80485,3.3296],[-61.82257,3.32334],[-61.82987,3.31031],[-61.82622,3.30405],[-61.83873,3.29884],[-61.83978,3.2832],[-61.84968,3.26444],[-61.86741,3.26913],[-61.87001,3.27747],[-61.8867,3.2832],[-61.89243,3.29259],[-61.91172,3.29102],[-61.92371,3.28112],[-61.93153,3.28946],[-61.943,3.27956],[-61.94091,3.27069],[-61.94821,3.26496],[-61.94612,3.25766],[-61.95186,3.25818],[-61.95603,3.25193],[-61.96854,3.26235],[-62.01598,3.25036],[-62.04517,3.25975],[-62.0509,3.266],[-62.05977,3.26444],[-62.08114,3.24828],[-62.08792,3.25141],[-62.1145,3.23786],[-62.1291,3.23577],[-62.14109,3.22065],[-62.16299,3.20866],[-62.16507,3.20136],[-62.17915,3.19511],[-62.18384,3.18781],[-62.19791,3.18521],[-62.2,3.17634],[-62.20991,3.17113],[-62.21355,3.16331],[-62.23128,3.16123],[-62.24066,3.15497],[-62.23962,3.14559],[-62.24796,3.13829],[-62.26673,3.14194],[-62.27194,3.15028],[-62.28654,3.15341],[-62.29331,3.14767],[-62.30895,3.14663],[-62.32094,3.15549],[-62.33971,3.15289],[-62.34909,3.15654],[-62.37412,3.1409],[-62.38663,3.14142],[-62.38975,3.13412],[-62.40435,3.12735],[-62.41582,3.13047],[-62.43094,3.12526],[-62.44606,3.1336],[-62.45231,3.18208],[-62.46743,3.19095],[-62.47107,3.20189],[-62.52268,3.21701],[-62.55292,3.2337],[-62.56804,3.23005],[-62.59723,3.23318],[-62.6186,3.24465],[-62.62903,3.241],[-62.63528,3.24986],[-62.64623,3.23474],[-62.64779,3.24152],[-62.69367,3.22067],[-62.73589,3.23996],[-62.79219,3.23839],[-62.8094,3.24934],[-62.82451,3.24882],[-62.83755,3.26602],[-62.85944,3.27228],[-62.87664,3.28531],[-62.90114,3.2947],[-62.91835,3.3093],[-62.95848,3.31816],[-62.97412,3.3437],[-63.00592,3.34944],[-63.01009,3.36873],[-63.02312,3.38072],[-63.02312,3.38906],[-63.0544,3.42086],[-63.0643,3.41825],[-63.06795,3.42816],[-63.10236,3.4438],[-63.11487,3.46569],[-63.12738,3.46674],[-63.14719,3.47873],[-63.14302,3.4829],[-63.14615,3.4928],[-63.17221,3.52304],[-63.17481,3.5418],[-63.16491,3.55223],[-63.16699,3.56318],[-63.15761,3.58768],[-63.15865,3.59758],[-63.14823,3.60488],[-63.16074,3.63199],[-63.18107,3.6445],[-63.1795,3.65858],[-63.18524,3.67422],[-63.20192,3.6836],[-63.21703,3.67682],[-63.22433,3.68308],[-63.24831,3.681],[-63.26551,3.68934],[-63.27438,3.68673],[-63.27177,3.64555],[-63.27907,3.62313],[-63.27386,3.61166],[-63.3041,3.58247],[-63.32182,3.57569],[-63.3458,3.58977],[-63.34736,3.60176],[-63.34111,3.61114],[-63.34945,3.62522],[-63.36509,3.61531],[-63.39324,3.61688],[-63.44745,3.64868],[-63.45631,3.66432],[-63.48655,3.66849],[-63.50531,3.67944],[-63.50896,3.6883],[-63.52773,3.68205],[-63.55067,3.68465],[-63.57204,3.70551],[-63.56682,3.71854],[-63.57099,3.73157],[-63.59289,3.74043],[-63.63407,3.74252],[-63.64971,3.72636],[-63.6763,3.71593],[-63.69559,3.71541],[-63.69923,3.70759],[-63.70862,3.70342],[-63.70966,3.68726],[-63.71748,3.68049],[-63.71696,3.65755],[-63.74147,3.58613],[-63.73938,3.57101],[-63.76023,3.56424],[-63.76962,3.55173],[-63.78473,3.54599],[-63.78682,3.53035],[-63.8035,3.54234],[-63.81028,3.5241],[-63.80454,3.52514],[-63.80663,3.52097],[-63.82175,3.51993],[-63.82383,3.51002],[-63.83374,3.50168],[-63.82905,3.49647],[-63.83791,3.48552],[-63.83582,3.47979],[-63.84469,3.45685],[-63.87127,3.43652],[-63.86971,3.42974],[-63.88483,3.42714],[-63.88639,3.42036],[-63.9135,3.42766],[-63.93331,3.44643],[-63.93852,3.44278],[-63.95416,3.44903],[-63.96459,3.44538],[-63.96876,3.43496],[-63.97814,3.43548],[-63.98023,3.44017],[-63.98492,3.43444],[-63.99951,3.43444],[-64.0162,3.45268],[-64.02923,3.45425],[-64.0334,3.46155],[-64.04174,3.4605],[-64.07145,3.48188],[-64.0897,3.48344],[-64.10482,3.47667],[-64.13974,3.47458],[-64.17832,3.48761],[-64.18562,3.50065],[-64.18249,3.55121],[-64.18666,3.56529],[-64.2049,3.59188],[-64.24295,3.62628],[-64.25651,3.6487],[-64.27475,3.66226],[-64.28778,3.70083],[-64.32688,3.72169],[-64.34147,3.73628],[-64.40768,3.76704],[-64.42749,3.78112],[-64.44625,3.78529],[-64.46763,3.78268],[-64.48431,3.78842],[-64.50777,3.81605],[-64.5234,3.84316],[-64.56719,3.88278],[-64.57918,3.92969],[-64.61358,3.94794],[-64.64173,3.986],[-64.67249,4.00581],[-64.67979,4.01728],[-64.68239,4.04126],[-64.70741,4.06784],[-64.73087,4.12154],[-64.80906,4.17576],[-64.81949,4.20651],[-64.82418,4.24301],[-64.81896,4.26282],[-64.79863,4.28523],[-64.77934,4.28784],[-64.69854,4.25134],[-64.68343,4.2404],[-64.65736,4.21277],[-64.62609,4.13978],[-64.59168,4.11528],[-64.55936,4.10277],[-64.5432,4.11476],[-64.51974,4.11736],[-64.49941,4.11163],[-64.45667,4.12258],[-64.4306,4.13561],[-64.40245,4.13352],[-64.38525,4.13821],[-64.33416,4.13039],[-64.3008,4.13352],[-64.28828,4.14499],[-64.27317,4.14394],[-64.26535,4.12726],[-64.24971,4.13091],[-64.21739,4.11683],[-64.18976,4.11788],[-64.17047,4.12987],[-64.16317,4.12726],[-64.14597,4.11162],[-64.1319,4.10745],[-64.11157,4.09233],[-64.09489,4.0548],[-64.09593,4.02612],[-64.07456,4.00058],[-64.04954,3.95158],[-64.03494,3.94532],[-64.03442,3.93541],[-64.00054,3.93437],[-63.99585,3.90466],[-63.9849,3.89788],[-63.9776,3.90153],[-63.96457,3.86921],[-63.95988,3.87129],[-63.95831,3.88849],[-63.94893,3.88797],[-63.9458,3.90101],[-63.93694,3.90257],[-63.9359,3.91612],[-63.92703,3.92603],[-63.91296,3.92707],[-63.89993,3.93489],[-63.89002,3.93176],[-63.86917,3.93906],[-63.85978,3.94844],[-63.85197,3.94636],[-63.84884,3.95105],[-63.83424,3.94114],[-63.81443,3.94062],[-63.79514,3.93384],[-63.75396,3.94114],[-63.73676,3.92967],[-63.74249,3.92237],[-63.7378,3.91612],[-63.72216,3.91508],[-63.71174,3.90465],[-63.706,3.91508],[-63.6815,3.90882],[-63.66221,3.92341],[-63.67316,3.92342],[-63.67212,3.92811],[-63.68098,3.93697],[-63.69193,3.93697],[-63.69975,3.95157],[-63.69349,3.95782],[-63.69505,3.96773],[-63.68463,3.99327],[-63.68827,4.01673],[-63.67576,4.02038],[-63.65126,4.00317],[-63.6424,3.97972],[-63.61947,3.96408],[-63.5908,3.92967],[-63.58663,3.91872],[-63.59184,3.90517],[-63.5835,3.89891],[-63.5908,3.8864],[-63.57047,3.88431],[-63.55326,3.89213],[-63.55066,3.86607],[-63.53815,3.86659],[-63.53189,3.85825],[-63.51104,3.84834],[-63.50218,3.85095],[-63.49644,3.84104],[-63.49384,3.85147],[-63.50166,3.86919],[-63.49279,3.86815],[-63.49019,3.87493],[-63.47976,3.87441],[-63.46777,3.86294],[-63.45161,3.85929],[-63.43337,3.86607],[-63.43284,3.87701],[-63.43754,3.88431],[-63.41668,3.90203],[-63.41043,3.91455],[-63.41929,3.92497],[-63.41668,3.93592],[-63.43858,3.93853],[-63.4417,3.94061],[-63.43805,3.94947],[-63.45109,3.95677],[-63.42763,3.97815],[-63.41251,3.97658],[-63.39218,3.98179],[-63.36351,3.96511],[-63.33744,3.95781],[-63.32337,3.96511],[-63.31033,3.9625],[-63.31346,3.9698],[-63.30981,3.98283],[-63.29105,3.97189],[-63.28531,3.97397],[-63.27958,3.95625],[-63.25299,3.9625],[-63.24674,3.95573],[-63.20347,3.9526],[-63.22067,3.89994],[-63.23214,3.88274],[-63.2311,3.85198],[-63.22537,3.83687],[-63.20295,3.81289],[-63.19461,3.81653],[-63.16334,3.80611],[-63.12215,3.80559],[-63.10182,3.79464],[-63.08566,3.77952],[-63.06846,3.75397],[-63.0596,3.75293],[-63.05804,3.74876],[-63.06221,3.70601],[-63.06951,3.69767],[-63.07993,3.69455],[-63.03145,3.66692],[-63.02572,3.65128],[-63.01425,3.64658],[-62.98819,3.6127],[-62.95899,3.60905],[-62.93501,3.62938],[-62.92094,3.65388],[-62.91781,3.67369],[-62.90738,3.67213],[-62.88549,3.68464],[-62.8516,3.71279],[-62.8344,3.73989],[-62.80312,3.73103],[-62.78852,3.71904],[-62.78383,3.70079],[-62.77497,3.69819],[-62.75516,3.67838],[-62.74265,3.67421],[-62.74265,3.68515],[-62.73587,3.69037],[-62.72962,3.70861],[-62.73848,3.75762],[-62.73431,3.78003],[-62.74213,3.78837],[-62.73066,3.79723],[-62.72805,3.80558],[-62.74213,3.80922],[-62.77027,3.83529],[-62.77027,3.84103],[-62.75255,3.85093],[-62.7562,3.86083],[-62.76767,3.86813],[-62.78747,3.8942],[-62.78643,3.91557],[-62.78174,3.92287],[-62.78539,3.93069],[-62.76089,3.94268],[-62.74212,3.97344],[-62.76141,3.98543],[-62.7661,3.99742],[-62.76558,4.01358],[-62.74837,4.02192],[-62.75254,4.03234],[-62.73482,4.04121],[-62.70041,4.03182],[-62.67747,4.03964],[-62.65767,4.03599],[-62.65506,4.04277],[-62.64515,4.04746],[-62.62691,4.04068],[-62.60866,4.04537],[-62.58729,4.03338],[-62.57947,4.01879],[-62.55706,4.01722],[-62.56018,4.0386],[-62.54715,4.04641],[-62.53203,4.04694],[-62.54246,4.0657],[-62.54037,4.07978],[-62.55705,4.08134],[-62.5435,4.09907],[-62.55132,4.11001],[-62.5216,4.11992],[-62.53046,4.13764],[-62.50701,4.12774],[-62.50753,4.13816],[-62.49502,4.14338],[-62.47677,4.13191],[-62.47051,4.14025],[-62.46061,4.14233],[-62.46165,4.15224],[-62.45383,4.15693],[-62.46165,4.16423],[-62.46947,4.16423],[-62.46269,4.17882],[-62.4507,4.17413],[-62.43663,4.18404],[-62.4163,4.1856],[-62.39701,4.17517],[-62.38867,4.17934],[-62.36886,4.1637],[-62.36052,4.1684],[-62.35218,4.16631],[-62.34905,4.15171],[-62.3282,4.13555],[-62.32142,4.14181],[-62.30161,4.13764],[-62.29067,4.14233],[-62.27868,4.13086],[-62.25157,4.13034],[-62.24323,4.11783],[-62.23385,4.11939],[-62.21404,4.11001],[-62.19579,4.11418],[-62.19266,4.09958],[-62.17598,4.09124],[-62.16086,4.09176],[-62.14471,4.07508],[-62.13376,4.08759],[-62.11134,4.09071],[-62.11603,4.11834],[-62.10404,4.11626],[-62.08997,4.13033],[-62.07746,4.12043],[-62.07068,4.12616],[-62.06964,4.13138],[-62.08058,4.14597],[-62.07537,4.15483],[-62.0639,4.15953],[-62.04722,4.15118],[-62.03158,4.159],[-62.02793,4.15118],[-62.02063,4.15848],[-62.01021,4.15692],[-62.00551,4.16578],[-61.99926,4.16526],[-61.99196,4.17621],[-61.97997,4.18142],[-61.97997,4.16317],[-61.97372,4.15223],[-61.94974,4.12668],[-61.944,4.11208],[-61.92941,4.10426],[-61.92159,4.15692],[-61.89865,4.16213],[-61.87206,4.15222],[-61.86789,4.15952],[-61.87363,4.17151],[-61.85173,4.17516],[-61.84548,4.16525],[-61.83557,4.16108],[-61.82306,4.16473],[-61.81733,4.1689],[-61.81472,4.18976],[-61.82045,4.2007],[-61.80742,4.20331],[-61.8069,4.21478],[-61.80012,4.21999],[-61.80116,4.22937],[-61.78657,4.2325],[-61.78135,4.2252],[-61.76259,4.23302],[-61.77353,4.25075],[-61.73808,4.257],[-61.73496,4.2643],[-61.72297,4.27056],[-61.72192,4.26117],[-61.73026,4.25387],[-61.72245,4.24553],[-61.70211,4.25596],[-61.67813,4.25544],[-61.6651,4.26378],[-61.64581,4.25335],[-61.64321,4.2424],[-61.63747,4.23875],[-61.6307,4.2424],[-61.626,4.25491],[-61.62027,4.25126],[-61.60724,4.26221],[-61.59994,4.25074],[-61.58951,4.24501],[-61.55719,4.25387],[-61.55198,4.26638],[-61.52174,4.28984],[-61.52487,4.29714],[-61.50662,4.32112],[-61.51966,4.32685],[-61.52591,4.34301],[-61.52435,4.34875],[-61.51549,4.35031],[-61.5207,4.37325],[-61.51236,4.40661],[-61.48525,4.41182],[-61.47117,4.42538],[-61.4644,4.42538],[-61.46075,4.43737],[-61.43885,4.43737],[-61.43468,4.43372],[-61.44094,4.42851],[-61.42686,4.42694],[-61.42113,4.43476],[-61.40653,4.43163],[-61.40288,4.4259],[-61.37108,4.4285],[-61.35023,4.42016],[-61.3372,4.42173],[-61.33563,4.42954],[-61.31791,4.43111],[-61.32416,4.44362],[-61.31322,4.45196],[-61.31217,4.45874],[-61.28715,4.45874],[-61.28715,4.46447],[-61.27829,4.47073],[-61.27829,4.48011],[-61.29445,4.48167],[-61.29601,4.49471],[-61.30227,4.49471],[-61.31269,4.50566],[-61.32103,4.50461],[-61.32103,4.51191],[-61.32833,4.5166],[-61.32364,4.53485],[-61.30644,4.53798],[-61.30435,4.54163],[-61.29862,4.53693],[-61.28246,4.5385],[-61.27464,4.52911],[-61.26838,4.54058],[-61.25587,4.53745],[-61.2517,4.52338],[-61.24284,4.53485],[-61.21886,4.5239],[-61.21625,4.53641],[-61.20009,4.51764],[-61.18706,4.52181],[-61.161,4.49731],[-61.15109,4.49679],[-61.14536,4.48271],[-61.1245,4.50617],[-61.10522,4.51191],[-61.09427,4.52337],[-61.07759,4.51868],[-61.06403,4.52442],[-61.04735,4.52442],[-61.01555,4.51712],[-60.99522,4.51868],[-60.9947,4.52702],[-60.98271,4.5437],[-60.9629,4.54474],[-60.95664,4.55152],[-60.95299,4.56351],[-60.95508,4.58541],[-60.9384,4.58071],[-60.9311,4.58749],[-60.94152,4.60105],[-60.93162,4.61721],[-60.93735,4.6245],[-60.93787,4.63545],[-60.95039,4.64327],[-60.9483,4.6537],[-60.91598,4.66621],[-60.90816,4.68706],[-60.91076,4.70426],[-60.89877,4.7173],[-60.87375,4.71625],[-60.86958,4.70948],[-60.85186,4.70478],[-60.83048,4.72876],[-60.81067,4.73241],[-60.81224,4.73867],[-60.80546,4.74961],[-60.78826,4.75014],[-60.78721,4.75431],[-60.76271,4.76004],[-60.7502,4.75639],[-60.73717,4.77307],[-60.71997,4.77985],[-60.7257,4.78193],[-60.72205,4.78663],[-60.7257,4.79236],[-60.7038,4.8106],[-60.69494,4.81165],[-60.67096,4.84188],[-60.65793,4.85022],[-60.6548,4.86638],[-60.64698,4.87003],[-60.65115,4.88567],[-60.62769,4.88984],[-60.62456,4.90496],[-60.61466,4.91903],[-60.60736,4.92529],[-60.59068,4.9279],[-60.58286,4.95709],[-60.5912,4.97169],[-60.59797,5.00036],[-60.61153,5.00766],[-60.60996,5.01652],[-60.62247,5.02851],[-60.63081,5.05145],[-60.64332,5.05822],[-60.63967,5.08273],[-60.64384,5.09732],[-60.63967,5.11088],[-60.64436,5.11922],[-60.65479,5.11557],[-60.65479,5.14997],[-60.66,5.16509],[-60.67824,5.1776],[-60.67929,5.18959],[-60.68554,5.19533],[-60.71682,5.19689]]]},"properties":{"CD_MUN":"1400100","NM_MUN":"Boa Vista","SIGLA_UF":"RR"}},{"type":"Feature","geometry":{"type":"Polygon","coordinates":[[[-64.18562,3.50065],[-64.17832,3.48761],[-64.13974,3.47458],[-64.10482,3.47667],[-64.0897,3.48344],[-64.07145,3.48188],[-64.04174,3.4605],[-64.0334,3.46155],[-64.02923,3.45425],[-64.0162,3.45268],[-63.99951,3.43444],[-63.98492,3.43444],[-63.98023,3.44017],[-63.97814,3.43548],[-63.96876,3.43496],[-63.96459,3.44538],[-63.95416,3.44903],[-63.93852,3.44278],[-63.93331,3.44643],[-63.9135,3.42766],[-63.88639,3.42036],[-63.88483,3.42714],[-63.86971,3.42974],[-63.87127,3.43652],[-63.84469,3.45685],[-63.83582,3.47979],[-63.83791,3.48552],[-63.82905,3.49647],[-63.83374,3.50168],[-63.82383,3.51002],[-63.82175,3.51993],[-63.80663,3.52097],[-63.80454,3.52514],[-63.81028,3.5241],[-63.8035,3.54234],[-63.78682,3.53035],[-63.78473,3.54599],[-63.76962,3.55173],[-63.76023,3.56424],[-63.73938,3.57101],[-63.74147,3.58613],[-63.71696,3.65755],[-63.71748,3.68049],[-63.70966,3.68726],[-63.70862,3.70342],[-63.69923,3.70759],[-63.69559,3.71541],[-63.6763,3.71593],[-63.64971,3.72636],[-63.63407,3.74252],[-63.59289,3.74043],[-63.57099,3.73157],[-63.56682,3.71854],[-63.57204,3.70551],[-63.55067,3.68465],[-63.52773,3.68205],[-63.50896,3.6883],[-63.50531,3.67944],[-63.48655,3.66849],[-63.45631,3.66432],[-63.44745,3.64868],[-63.39324,3.61688],[-63.36509,3.61531],[-63.34945,3.62522],[-63.34111,3.61114],[-63.34736,3.60176],[-63.3458,3.58977],[-63.32182,3.57569],[-63.3041,3.58247],[-63.27386,3.61166],[-63.27907,3.62313],[-63.27177,3.64555],[-63.27438,3.68673],[-63.26551,3.68934],[-63.24831,3.681],[-63.22433,3.68308],[-63.21703,3.67682],[-63.20192,3.6836],[-63.18524,3.67422],[-63.1795,3.65858],[-63.18107,3.6445],[-63.16074,3.63199],[-63.14823,3.60488],[-63.15865,3.59758],[-63.15761,3.58768],[-63.16699,3.56318],[-63.16491,3.55223],[-63.17481,3.5418],[-63.17221,3.52304],[-63.14615,3.4928],[-63.14302,3.4829],[-63.14719,3.47873],[-63.12738,3.46674],[-63.11487,3.46569],[-63.10236,3.4438],[-63.06795,3.42816],[-63.0643,3.41825],[-63.0544,3.42086],[-63.02312,3.38906],[-63.02312,3.38072],[-63.01009,3.36873],[-63.00592,3.34944],[-62.97412,3.3437],[-62.95848,3.31816],[-62.91835,3.3093],[-62.90114,3.2947],[-62.87664,3.28531],[-62.85944,3.27228],[-62.83755,3.26602],[-62.82451,3.24882],[-62.8094,3.24934],[-62.79219,3.23839],[-62.73589,3.23996],[-62.69367,3.22067],[-62.64779,3.24152],[-62.64623,3.23474],[-62.63528,3.24986],[-62.62903,3.241],[-62.6186,3.24465],[-62.59723,3.23318],[-62.56804,3.23005],[-62.55292,3.2337],[-62.52268,3.21701],[-62.47107,3.20189],[-62.46743,3.19095],[-62.45231,3.18208],[-62.44606,3.1336],[-62.43094,3.12526],[-62.41582,3.13047],[-62.40435,3.12735],[-62.38975,3.13412],[-62.38663,3.14142],[-62.37412,3.1409],[-62.34909,3.15654],[-62.33971,3.15289],[-62.32094,3.15549],[-62.30895,3.14663],[-62.29331,3.14767],[-62.28654,3.15341],[-62.27194,3.15028],[-62.26673,3.14194],[-62.24796,3.13829],[-62.23962,3.14559],[-62.24066,3.15497],[-62.23128,3.16123],[-62.21355,3.16331],[-62.20991,3.17113],[-62.2,3.17634],[-62.19791,3.18521],[-62.18384,3.18781],[-62.17915,3.19511],[-62.16507,3.20136],[-62.16299,3.20866],[-62.14109,3.22065],[-62.1291,3.23577],[-62.1145,3.23786],[-62.08792,3.25141],[-62.08114,3.24828],[-62.05977,3.26444],[-62.0509,3.266],[-62.04517,3.25975],[-62.01598,3.25036],[-61.96854,3.26235],[-61.95603,3.25193],[-61.95186,3.25818],[-61.94612,3.25766],[-61.94821,3.26496],[-61.94091,3.27069],[-61.943,3.27956],[-61.93153,3.28946],[-61.92371,3.28112],[-61.91172,3.29102],[-61.89243,3.29259],[-61.8867,3.2832],[-61.87001,3.27747],[-61.86741,3.26913],[-61.84968,3.26444],[-61.83978,3.2832],[-61.83873,3.29884],[-61.82622,3.30405],[-61.82987,3.31031],[-61.82257,3.32334],[-61.80485,3.3296],[-61.78243,3.33064],[-61.75793,3.32126],[-61.72926,3.32125],[-61.71362,3.32595],[-61.71049,3.33637],[-61.69798,3.3322],[-61.6886,3.32177],[-61.66045,3.33116],[-61.625,3.35826],[-61.61301,3.33168],[-61.5932,3.3103],[-61.5859,3.315],[-61.56349,3.3077],[-61.55515,3.31499],[-61.53586,3.30248],[-61.53117,3.31134],[-61.51866,3.30822],[-61.50615,3.31551],[-61.50354,3.32438],[-61.48529,3.34158],[-61.47435,3.33845],[-61.45923,3.34836],[-61.40449,3.35148],[-61.3779,3.3666],[-61.34819,3.35513],[-61.3289,3.36034],[-61.31535,3.35774],[-61.30805,3.37025],[-61.26634,3.40152],[-61.23506,3.44427],[-61.21734,3.45053],[-61.16365,3.45365],[-61.15218,3.45052],[-61.1308,3.43436],[-61.05522,3.44322],[-61.02029,3.43957],[-60.99944,3.44896],[-60.99947,2.68263],[-61.01771,2.68368],[-61.02918,2.69827],[-61.03335,2.67899],[-61.04482,2.67586],[-61.05473,2.68681],[-61.07349,2.6915],[-61.07975,2.70297],[-61.09382,2.7087],[-61.10112,2.69567],[-61.12562,2.6988],[-61.12823,2.71704],[-61.13292,2.72121],[-61.13605,2.70193],[-61.18244,2.67847],[-61.19496,2.68889],[-61.19913,2.68212],[-61.2132,2.68212],[-61.21424,2.66491],[-61.22623,2.65501],[-61.23979,2.6524],[-61.2523,2.66856],[-61.2695,2.67221],[-61.28827,2.65866],[-61.3013,2.69307],[-61.29557,2.70662],[-61.31277,2.71913],[-61.30703,2.72695],[-61.3258,2.73112],[-61.32424,2.74572],[-61.33049,2.74937],[-61.33205,2.76084],[-61.343,2.75875],[-61.34404,2.76709],[-61.35447,2.77022],[-61.36594,2.80984],[-61.37793,2.81662],[-61.36854,2.82965],[-61.37011,2.8406],[-61.38053,2.83956],[-61.40503,2.8625],[-61.43631,2.87032],[-61.44413,2.87761],[-61.44934,2.89638],[-61.45508,2.8943],[-61.45664,2.887],[-61.46915,2.89378],[-61.49574,2.88752],[-61.5218,2.8969],[-61.53327,2.90472],[-61.53535,2.91307],[-61.54578,2.91515],[-61.54734,2.92662],[-61.55516,2.92714],[-61.5635,2.94122],[-61.57549,2.94799],[-61.60469,2.94122],[-61.61668,2.93288],[-61.62606,2.9334],[-61.64587,2.90733],[-61.69331,2.86459],[-61.72042,2.81298],[-61.70791,2.80047],[-61.69696,2.80464],[-61.69227,2.79525],[-61.72563,2.78326],[-61.73971,2.76554],[-61.74701,2.74365],[-61.74128,2.73895],[-61.73971,2.74521],[-61.73502,2.74365],[-61.73137,2.71914],[-61.76786,2.71237],[-61.77255,2.72123],[-61.78871,2.70663],[-61.81582,2.69829],[-61.81634,2.68995],[-61.83042,2.69777],[-61.86222,2.6837],[-61.86952,2.68474],[-61.88255,2.69777],[-61.8888,2.69048],[-61.89975,2.69465],[-61.91278,2.69256],[-61.92269,2.70664],[-61.93207,2.70299],[-61.93989,2.68579],[-61.96961,2.68839],[-61.97586,2.69517],[-61.97273,2.71237],[-61.97638,2.71759],[-61.99515,2.71811],[-62.00505,2.73479],[-62.03268,2.73062],[-62.05823,2.73479],[-62.08377,2.7473],[-62.19428,2.74835],[-62.20419,2.75773],[-62.20054,2.76295],[-62.21044,2.76555],[-62.22348,2.75669],[-62.27352,2.75826],[-62.28186,2.76295],[-62.31314,2.76399],[-62.34442,2.7765],[-62.37309,2.7765],[-62.39759,2.78328],[-62.41583,2.78276],[-62.43356,2.77598],[-62.43564,2.78172],[-62.4419,2.78224],[-62.45389,2.77494],[-62.46327,2.77494],[-62.46588,2.76973],[-62.48465,2.77077],[-62.49924,2.76243],[-62.51853,2.7494],[-62.56389,2.73845],[-62.58682,2.73533],[-62.59725,2.74315],[-62.60663,2.73793],[-62.61445,2.74054],[-62.61706,2.73064],[-62.63478,2.72334],[-62.63843,2.71656],[-62.65199,2.71604],[-62.65094,2.71083],[-62.65668,2.7077],[-62.68535,2.70926],[-62.68379,2.7004],[-62.69734,2.69727],[-62.71141,2.71656],[-62.73227,2.72595],[-62.7479,2.72647],[-62.7552,2.73377],[-62.79482,2.72855],[-62.79899,2.7395],[-62.82349,2.76036],[-62.83027,2.75879],[-62.83444,2.7687],[-62.84226,2.77235],[-62.84695,2.78642],[-62.86311,2.75931],[-62.87666,2.76818],[-62.88188,2.76244],[-62.89074,2.76818],[-62.89804,2.76505],[-62.90951,2.76922],[-62.91628,2.76505],[-62.93453,2.77235],[-62.9387,2.7833],[-62.96581,2.78642],[-62.97258,2.79633],[-62.96945,2.80363],[-62.98353,2.80728],[-63.00282,2.80519],[-63.01116,2.81145],[-63.0221,2.79894],[-63.0367,2.80259],[-63.04087,2.81145],[-63.0513,2.80154],[-63.0612,2.80259],[-63.0685,2.79164],[-63.08362,2.79894],[-63.08987,2.79529],[-63.08883,2.80207],[-63.1149,2.79738],[-63.11281,2.80155],[-63.11802,2.80572],[-63.12219,2.79842],[-63.1248,2.80624],[-63.13835,2.80207],[-63.15764,2.81249],[-63.16025,2.80885],[-63.16025,2.81302],[-63.17328,2.80989],[-63.17954,2.82396],[-63.18892,2.82761],[-63.18944,2.82396],[-63.19778,2.82553],[-63.20717,2.81875],[-63.21863,2.82084],[-63.21915,2.82553],[-63.22228,2.82344],[-63.2228,2.82814],[-63.22854,2.82918],[-63.24366,2.82032],[-63.24783,2.82292],[-63.25356,2.81302],[-63.26086,2.81563],[-63.26138,2.81041],[-63.26972,2.81041],[-63.27285,2.80051],[-63.2911,2.78278],[-63.30569,2.78018],[-63.31716,2.78695],[-63.32081,2.78226],[-63.33436,2.78122],[-63.33801,2.78539],[-63.35261,2.7807],[-63.35834,2.76089],[-63.36616,2.76871],[-63.38493,2.76402],[-63.42455,2.78435],[-63.43028,2.78122],[-63.43967,2.78539],[-63.4454,2.77601],[-63.45061,2.77705],[-63.46,2.75255],[-63.45166,2.74056],[-63.46156,2.73535],[-63.45791,2.72805],[-63.46417,2.7244],[-63.46834,2.71293],[-63.46104,2.70824],[-63.46104,2.6999],[-63.46782,2.69364],[-63.46104,2.68791],[-63.46,2.67331],[-63.4772,2.66602],[-63.46834,2.62431],[-63.48815,2.59981],[-63.49858,2.5972],[-63.51318,2.58313],[-63.54393,2.59564],[-63.58668,2.59929],[-63.59398,2.5946],[-63.60284,2.59616],[-63.62056,2.61024],[-63.6336,2.60503],[-63.64715,2.60607],[-63.65966,2.59356],[-63.66644,2.59877],[-63.99955,2.48149],[-64.00894,2.48201],[-64.01311,2.47054],[-64.01936,2.46793],[-64.03083,2.47315],[-64.02927,2.48305],[-64.03709,2.48774],[-64.03761,2.49504],[-64.05481,2.49869],[-64.05794,2.50912],[-64.04438,2.53205],[-64.04751,2.54978],[-64.04334,2.57428],[-64.03813,2.57949],[-64.0277,2.57741],[-64.02301,2.592],[-64.00789,2.60921],[-64.00893,2.6212],[-63.99069,2.63736],[-63.98391,2.64987],[-63.98339,2.66082],[-63.99016,2.67124],[-63.98443,2.6874],[-64.00059,2.70096],[-64.00215,2.70825],[-63.9813,2.71868],[-63.98547,2.73171],[-63.9985,2.7411],[-63.99798,2.76091],[-63.99277,2.77081],[-64.0084,2.77915],[-64.01309,2.79688],[-64.01205,2.82034],[-64.04593,2.83754],[-64.05636,2.85162],[-64.06574,2.88081],[-64.07043,2.93867],[-64.10119,2.95275],[-64.11005,2.96161],[-64.1236,2.98142],[-64.12934,3.0054],[-64.15957,3.03408],[-64.17677,3.06431],[-64.21952,3.09716],[-64.23411,3.11749],[-64.23255,3.13104],[-64.20961,3.17327],[-64.20752,3.19568],[-64.21273,3.24729],[-64.24036,3.31611],[-64.23306,3.38544],[-64.25026,3.40421],[-64.25287,3.42141],[-64.23879,3.44435],[-64.20178,3.47823],[-64.18562,3.50065]]]},"properties":{"CD_MUN":"1400050","NM_MUN":"Alto Alegre","SIGLA_UF":"RR"}},{"type":"Feature","geometry":{"type":"Polygon","coordinates":[[[-60.99947,2.68263],[-60.97966,2.66804],[-60.96923,2.66699],[-60.95881,2.64614],[-60.94161,2.6524],[-60.91606,2.62894],[-60.91137,2.59766],[-60.9145,2.56638],[-60.92649,2.56534],[-60.92649,2.55074],[-60.94318,2.52259],[-60.91972,2.5205],[-60.89209,2.50851],[-60.89313,2.49287],[-60.91242,2.47515],[-60.9119,2.4689],[-60.90564,2.46733],[-60.90147,2.47567],[-60.89105,2.47671],[-60.86863,2.46316],[-60.85664,2.44961],[-60.85664,2.44283],[-60.86707,2.43553],[-60.84726,2.42927],[-60.83527,2.43866],[-60.83527,2.42145],[-60.8457,2.39956],[-60.84622,2.38288],[-60.83788,2.37506],[-60.83475,2.36307],[-60.84466,2.31459],[-60.85248,2.30572],[-60.88949,2.28487],[-60.9067,2.24108],[-60.94788,2.19573],[-61.01252,2.14464],[-61.04589,2.08522],[-61.0485,2.04038],[-61.0266,2.00076],[-62.80111,2.00081],[-62.82196,2.01124],[-62.89703,2.01854],[-62.92153,2.02688],[-62.99034,2.00968],[-63.02005,2.01698],[-63.05863,2.04252],[-63.10294,2.10039],[-63.11649,2.13323],[-63.11232,2.1619],[-63.11753,2.16764],[-63.16862,2.17702],[-63.24629,2.14991],[-63.27392,2.15148],[-63.32813,2.18328],[-63.37713,2.23437],[-63.37557,2.24897],[-63.35732,2.2865],[-63.36097,2.30214],[-63.35784,2.32143],[-63.37192,2.34593],[-63.35523,2.38659],[-63.36514,2.41578],[-63.38234,2.43247],[-63.41935,2.43716],[-63.4647,2.43403],[-63.54394,2.41787],[-63.64299,2.3866],[-63.70815,2.38087],[-63.74464,2.38556],[-63.7853,2.39807],[-63.85464,2.42831],[-63.9125,2.44551],[-63.95212,2.46428],[-63.95785,2.47419],[-63.97975,2.46793],[-63.99955,2.48149],[-63.66644,2.59877],[-63.65966,2.59356],[-63.64715,2.60607],[-63.6336,2.60503],[-63.62056,2.61024],[-63.60284,2.59616],[-63.59398,2.5946],[-63.58668,2.59929],[-63.54393,2.59564],[-63.51318,2.58313],[-63.49858,2.5972],[-63.48815,2.59981],[-63.46834,2.62431],[-63.4772,2.66602],[-63.46,2.67331],[-63.46104,2.68791],[-63.46782,2.69364],[-63.46104,2.6999],[-63.46104,2.70824],[-63.46834,2.71293],[-63.46417,2.7244],[-63.45791,2.72805],[-63.46156,2.73535],[-63.45166,2.74056],[-63.46,2.75255],[-63.45061,2.77705],[-63.4454,2.77601],[-63.43967,2.78539],[-63.43028,2.78122],[-63.42455,2.78435],[-63.38493,2.76402],[-63.36616,2.76871],[-63.35834,2.76089],[-63.35261,2.7807],[-63.33801,2.78539],[-63.33436,2.78122],[-63.32081,2.78226],[-63.31716,2.78695],[-63.30569,2.78018],[-63.2911,2.78278],[-63.27285,2.80051],[-63.26972,2.81041],[-63.26138,2.81041],[-63.26086,2.81563],[-63.25356,2.81302],[-63.24783,2.82292],[-63.24366,2.82032],[-63.22854,2.82918],[-63.2228,2.82814],[-63.22228,2.82344],[-63.21915,2.82553],[-63.21863,2.82084],[-63.20717,2.81875],[-63.19778,2.82553],[-63.18944,2.82396],[-63.18892,2.82761],[-63.17954,2.82396],[-63.17328,2.80989],[-63.16025,2.81302],[-63.16025,2.80885],[-63.15764,2.81249],[-63.13835,2.80207],[-63.1248,2.80624],[-63.12219,2.79842],[-63.11802,2.80572],[-63.11281,2.80155],[-63.1149,2.79738],[-63.08883,2.80207],[-63.08987,2.79529],[-63.08362,2.79894],[-63.0685,2.79164],[-63.0612,2.80259],[-63.0513,2.80154],[-63.04087,2.81145],[-63.0367,2.80259],[-63.0221,2.79894],[-63.01116,2.81145],[-63.00282,2.80519],[-62.98353,2.80728],[-62.96945,2.80363],[-62.97258,2.79633],[-62.96581,2.78642],[-62.9387,2.7833],[-62.93453,2.77235],[-62.91628,2.76505],[-62.90951,2.76922],[-62.89804,2.76505],[-62.89074,2.76818],[-62.88188,2.76244],[-62.87666,2.76818],[-62.86311,2.75931],[-62.84695,2.78642],[-62.84226,2.77235],[-62.83444,2.7687],[-62.83027,2.75879],[-62.82349,2.76036],[-62.79899,2.7395],[-62.79482,2.72855],[-62.7552,2.73377],[-62.7479,2.72647],[-62.73227,2.72595],[-62.71141,2.71656],[-62.69734,2.69727],[-62.68379,2.7004],[-62.68535,2.70926],[-62.65668,2.7077],[-62.65094,2.71083],[-62.65199,2.71604],[-62.63843,2.71656],[-62.63478,2.72334],[-62.61706,2.73064],[-62.61445,2.74054],[-62.60663,2.73793],[-62.59725,2.74315],[-62.58682,2.73533],[-62.56389,2.73845],[-62.51853,2.7494],[-62.49924,2.76243],[-62.48465,2.77077],[-62.46588,2.76973],[-62.46327,2.77494],[-62.45389,2.77494],[-62.4419,2.78224],[-62.43564,2.78172],[-62.43356,2.77598],[-62.41583,2.78276],[-62.39759,2.78328],[-62.37309,2.7765],[-62.34442,2.7765],[-62.31314,2.76399],[-62.28186,2.76295],[-62.27352,2.75826],[-62.22348,2.75669],[-62.21044,2.76555],[-62.20054,2.76295],[-62.20419,2.75773],[-62.19428,2.74835],[-62.08377,2.7473],[-62.05823,2.73479],[-62.03268,2.73062],[-62.00505,2.73479],[-61.99515,2.71811],[-61.97638,2.71759],[-61.97273,2.71237],[-61.97586,2.69517],[-61.96961,2.68839],[-61.93989,2.68579],[-61.93207,2.70299],[-61.92269,2.70664],[-61.91278,2.69256],[-61.89975,2.69465],[-61.8888,2.69048],[-61.88255,2.69777],[-61.86952,2.68474],[-61.86222,2.6837],[-61.83042,2.69777],[-61.81634,2.68995],[-61.81582,2.69829],[-61.78871,2.70663],[-61.77255,2.72123],[-61.76786,2.71237],[-61.73137,2.71914],[-61.73502,2.74365],[-61.73971,2.74521],[-61.74128,2.73895],[-61.74701,2.74365],[-61.73971,2.76554],[-61.72563,2.78326],[-61.69227,2.79525],[-61.69696,2.80464],[-61.70791,2.80047],[-61.72042,2.81298],[-61.69331,2.86459],[-61.64587,2.90733],[-61.62606,2.9334],[-61.61668,2.93288],[-61.60469,2.94122],[-61.57549,2.94799],[-61.5635,2.94122],[-61.55516,2.92714],[-61.54734,2.92662],[-61.54578,2.91515],[-61.53535,2.91307],[-61.53327,2.90472],[-61.5218,2.8969],[-61.49574,2.88752],[-61.46915,2.89378],[-61.45664,2.887],[-61.45508,2.8943],[-61.44934,2.89638],[-61.44413,2.87761],[-61.43631,2.87032],[-61.40503,2.8625],[-61.38053,2.83956],[-61.37011,2.8406],[-61.36854,2.82965],[-61.37793,2.81662],[-61.36594,2.80984],[-61.35447,2.77022],[-61.34404,2.76709],[-61.343,2.75875],[-61.33205,2.76084],[-61.33049,2.74937],[-61.32424,2.74572],[-61.3258,2.73112],[-61.30703,2.72695],[-61.31277,2.71913],[-61.29557,2.70662],[-61.3013,2.69307],[-61.28827,2.65866],[-61.2695,2.67221],[-61.2523,2.66856],[-61.23979,2.6524],[-61.22623,2.65501],[-61.21424,2.66491],[-61.2132,2.68212],[-61.19913,2.68212],[-61.19496,2.68889],[-61.18244,2.67847],[-61.13605,2.70193],[-61.13292,2.72121],[-61.12823,2.71704],[-61.12562,2.6988],[-61.10112,2.69567],[-61.09382,2.7087],[-61.07975,2.70297],[-61.07349,2.6915],[-61.05473,2.68681],[-61.04482,2.67586],[-61.03335,2.67899],[-61.02918,2.69827],[-61.01771,2.68368],[-60.99947,2.68263]]]},"properties":{"CD_MUN":"1400308","NM_MUN":"Mucajaí","SIGLA_UF":"RR"}},{"type":"Feature","geometry":{"type":"Polygon","coordinates":[[[-62.80111,2.00081],[-61.0266,2.00076],[-59.73222,2.00073],[-59.7317,1.98457],[-59.74004,1.9731],[-59.73535,1.96841],[-59.73691,1.95642],[-59.74473,1.94182],[-59.74473,1.92983],[-59.75464,1.92253],[-59.75307,1.91315],[-59.75829,1.90168],[-59.74578,1.87979],[-59.75255,1.8678],[-59.75047,1.85946],[-59.73379,1.84903],[-59.70981,1.85581],[-59.69052,1.85476],[-59.67645,1.83964],[-59.66446,1.84903],[-59.6681,1.86154],[-59.66185,1.87144],[-59.66185,1.86415],[-59.64882,1.84434],[-59.65716,1.82557],[-59.65351,1.81723],[-59.67749,1.80837],[-59.67749,1.79168],[-59.68479,1.79116],[-59.68896,1.75728],[-59.66498,1.75571],[-59.66185,1.73799],[-59.65247,1.74372],[-59.63162,1.74216],[-59.62849,1.72913],[-59.6165,1.71609],[-59.6066,1.72339],[-59.58627,1.72756],[-59.58314,1.7333],[-59.56541,1.73694],[-59.55551,1.72495],[-59.54925,1.72912],[-59.54404,1.72235],[-59.53726,1.72287],[-59.53309,1.70984],[-59.52528,1.70358],[-59.52528,1.69211],[-59.51224,1.68116],[-59.51016,1.66969],[-59.49921,1.67803],[-59.49191,1.67439],[-59.494,1.64623],[-59.48201,1.62747],[-59.46429,1.6186],[-59.44656,1.62017],[-59.43666,1.59462],[-59.42623,1.58733],[-59.42988,1.56752],[-59.42206,1.55657],[-59.41164,1.5524],[-59.44657,1.54666],[-59.45491,1.55918],[-59.46533,1.56022],[-59.46481,1.57325],[-59.48462,1.59671],[-59.52267,1.59202],[-59.58731,1.61235],[-59.59461,1.61027],[-59.6139,1.62747],[-59.62954,1.62486],[-59.64414,1.61496],[-59.64674,1.60818],[-59.66082,1.61079],[-59.65873,1.62278],[-59.66655,1.62643],[-59.70721,1.60558],[-59.71816,1.61131],[-59.76351,1.60714],[-59.77498,1.59255],[-59.76456,1.58056],[-59.76612,1.5644],[-59.78958,1.55971],[-59.79584,1.5352],[-59.80418,1.52895],[-59.80731,1.53364],[-59.81356,1.53208],[-59.80261,1.51018],[-59.81825,1.49089],[-59.81982,1.48047],[-59.81408,1.47473],[-59.81669,1.45232],[-59.79115,1.43303],[-59.79324,1.41322],[-59.78646,1.4153],[-59.77968,1.40748],[-59.77916,1.39497],[-59.77343,1.38924],[-59.7776,1.38194],[-59.77134,1.37725],[-59.77551,1.3736],[-59.77082,1.36734],[-59.77916,1.36369],[-59.78125,1.35639],[-59.77812,1.35639],[-59.78229,1.35535],[-59.78959,1.33971],[-59.7849,1.3345],[-59.7922,1.33033],[-59.77864,1.31521],[-59.78594,1.28498],[-59.78334,1.27872],[-59.78021,1.28289],[-59.77864,1.27559],[-59.78438,1.26621],[-59.80523,1.26465],[-59.80419,1.25578],[-59.82296,1.25735],[-59.83338,1.21669],[-59.84172,1.20939],[-59.84016,1.20157],[-59.84798,1.20053],[-59.8558,1.19062],[-59.86623,1.18854],[-59.87717,1.21356],[-59.87926,1.20365],[-59.88916,1.19792],[-59.89542,1.20365],[-59.90845,1.20053],[-59.91262,1.19219],[-59.92565,1.19531],[-59.93347,1.18958],[-59.93817,1.19323],[-59.95016,1.18489],[-59.94494,1.17707],[-59.95902,1.17968],[-59.96475,1.17238],[-59.97362,1.14058],[-59.98144,1.13641],[-59.99134,1.12546],[-60.01167,1.11816],[-60.01271,1.12494],[-60.02679,1.12598],[-60.08048,1.10357],[-60.11385,1.10409],[-60.12167,1.09679],[-60.13053,1.10409],[-60.21341,1.13016],[-60.23687,1.13068],[-60.24417,1.1213],[-60.24417,1.12495],[-60.25147,1.12234],[-60.27597,1.13277],[-60.29057,1.11661],[-60.29891,1.12338],[-60.29369,1.13016],[-60.29943,1.13798],[-60.31246,1.13329],[-60.31924,1.14893],[-60.32289,1.14841],[-60.32341,1.13902],[-60.3427,1.13381],[-60.34999,1.14476],[-60.35312,1.14319],[-60.34895,1.1385],[-60.35625,1.13068],[-60.37502,1.14059],[-60.399,1.13277],[-60.41411,1.12443],[-60.41359,1.10514],[-60.42141,1.10045],[-60.42558,1.10723],[-60.43236,1.10775],[-60.44383,1.09836],[-60.45009,1.09889],[-60.45165,1.08168],[-60.46625,1.0822],[-60.46312,1.07074],[-60.4798,1.06031],[-60.48137,1.04676],[-60.497,1.0405],[-60.50899,1.02695],[-60.51265,0.99098],[-60.52151,0.98681],[-60.53506,0.99358],[-60.54027,0.98629],[-60.53715,0.97586],[-60.54392,0.97117],[-60.54184,0.967],[-60.56009,0.95605],[-60.55331,0.95605],[-60.56009,0.93989],[-60.5726,0.94458],[-60.56791,0.93728],[-60.5825,0.93363],[-60.59189,0.92477],[-60.60127,0.93364],[-60.60127,0.92582],[-60.59606,0.92112],[-60.60388,0.9107],[-60.60179,0.90548],[-60.61065,0.90496],[-60.61847,0.89819],[-60.62994,0.90131],[-60.63463,0.89714],[-60.64975,0.90392],[-60.65392,0.89193],[-60.65966,0.89297],[-60.668,0.87994],[-60.67634,0.88724],[-60.68103,0.87734],[-60.68311,0.88516],[-60.68468,0.87734],[-60.68051,0.87577],[-60.68729,0.87369],[-60.68989,0.88463],[-60.70501,0.87108],[-60.71283,0.88046],[-60.71283,0.86795],[-60.71752,0.869],[-60.72325,0.88255],[-60.72899,0.88151],[-60.7316,0.89767],[-60.74098,0.90392],[-60.73107,0.90757],[-60.72534,0.92217],[-60.72899,0.9352],[-60.75505,0.94042],[-60.76704,0.93729],[-60.77799,0.94667],[-60.77851,0.95971],[-60.78946,0.96753],[-60.78893,0.97274],[-60.80718,0.98056],[-60.8223,1.00715],[-60.815,1.03165],[-60.82021,1.04051],[-60.81865,1.06345],[-60.8395,1.077],[-60.84106,1.09108],[-60.85096,1.10359],[-60.88433,1.13122],[-60.90361,1.12184],[-60.91039,1.10203],[-60.90466,1.09577],[-60.91091,1.09421],[-60.92343,1.0744],[-60.94219,1.07335],[-60.94793,1.08326],[-60.95992,1.08952],[-60.97347,1.08587],[-60.9839,1.09369],[-60.99067,1.08378],[-61.00006,1.09004],[-61.01048,1.08535],[-61.01465,1.10411],[-61.01987,1.10151],[-61.02143,1.08535],[-61.03915,1.08847],[-61.0428,1.08326],[-61.03551,1.07336],[-61.04802,1.06137],[-61.04437,1.04886],[-61.06418,1.03687],[-61.05688,1.028],[-61.06835,1.02071],[-61.06262,1.01289],[-61.06679,1.01028],[-61.07982,1.01654],[-61.09024,1.00819],[-61.08503,1.00402],[-61.08764,0.99829],[-61.09911,0.98682],[-61.10536,0.99151],[-61.1137,0.98317],[-61.10953,0.97692],[-61.11423,0.96962],[-61.10745,0.96388],[-61.12882,0.96441],[-61.12674,0.95919],[-61.11892,0.95815],[-61.12674,0.9446],[-61.14238,0.95294],[-61.1455,0.93886],[-61.15176,0.9373],[-61.15593,0.95502],[-61.16166,0.95867],[-61.17365,0.95502],[-61.17105,0.96128],[-61.17574,0.96336],[-61.18617,0.96076],[-61.18669,0.95085],[-61.19138,0.95085],[-61.2018,0.979],[-61.21744,1.0009],[-61.2336,1.0009],[-61.25498,0.96754],[-61.26175,0.96806],[-61.26332,0.98005],[-61.2873,0.97953],[-61.31857,0.99621],[-61.34464,0.98057],[-61.36184,0.96285],[-61.37488,0.92636],[-61.42336,0.8711],[-61.42805,0.84295],[-61.45256,0.78665],[-61.49948,0.72461],[-61.55838,0.6803],[-61.59175,0.62922],[-61.61156,0.61149],[-61.63502,0.53382],[-61.6491,0.51662],[-61.68246,0.49055],[-61.71009,0.43686],[-61.72834,0.36596],[-61.75754,0.3107],[-61.77109,0.23511],[-61.77683,0.16891],[-61.76901,0.09853],[-61.77266,0.05839],[-61.80186,0.00053],[-61.80238,-0.01147],[-61.81489,-0.03753],[-61.81229,-0.05369],[-61.79039,-0.09018],[-61.78883,-0.10009],[-61.80499,-0.13814],[-61.81699,-0.20018],[-61.83315,-0.24449],[-61.8368,-0.27055],[-61.82898,-0.31643],[-61.84514,-0.3623],[-61.84097,-0.39306],[-61.82898,-0.41339],[-61.80448,-0.43998],[-61.79927,-0.45562],[-61.80084,-0.47334],[-61.81752,-0.50306],[-61.82378,-0.52495],[-61.82117,-0.54268],[-61.81075,-0.56197],[-61.80814,-0.60263],[-61.86653,-0.72305],[-61.8608,-0.76475],[-61.84725,-0.79707],[-61.84673,-0.82053],[-61.85402,-0.8393],[-61.87383,-0.85963],[-61.88113,-0.87683],[-61.88218,-0.8956],[-61.86862,-0.93053],[-61.88844,-0.99778],[-61.85768,-1.05616],[-61.86081,-1.08014],[-61.87384,-1.09787],[-61.8801,-1.12602],[-61.84883,-1.19796],[-61.83788,-1.25739],[-61.87125,-1.32933],[-61.86343,-1.36739],[-61.853,-1.3872],[-61.83893,-1.40023],[-61.86812,-1.40075],[-61.89575,-1.39449],[-61.90461,-1.37833],[-61.90826,-1.34757],[-61.94892,-1.29596],[-61.9656,-1.24175],[-61.98697,-1.21568],[-61.98853,-1.20056],[-62.01616,-1.14061],[-62.03858,-1.11767],[-62.06099,-1.09891],[-62.09852,-1.09578],[-62.11729,-1.07545],[-62.11051,-1.05929],[-62.12459,-1.03635],[-62.14179,-1.03635],[-62.1444,-1.02749],[-62.15378,-1.0254],[-62.17098,-1.00507],[-62.19913,-0.99933],[-62.20278,-0.98213],[-62.21268,-0.98265],[-62.22624,-0.97222],[-62.25804,-0.97483],[-62.27107,-0.95085],[-62.28514,-0.94303],[-62.29296,-0.9472],[-62.31173,-0.92948],[-62.3159,-0.91331],[-62.32737,-0.91488],[-62.33936,-0.90341],[-62.35552,-0.87422],[-62.36386,-0.8763],[-62.36542,-0.86848],[-62.37532,-0.86535],[-62.36907,-0.85805],[-62.37949,-0.84294],[-62.3748,-0.83564],[-62.39305,-0.82782],[-62.39461,-0.81948],[-62.42745,-0.81114],[-62.43214,-0.80279],[-62.44153,-0.80123],[-62.44726,-0.80905],[-62.46082,-0.80071],[-62.46446,-0.7882],[-62.47958,-0.79393],[-62.49991,-0.78038],[-62.50929,-0.75796],[-62.49365,-0.74962],[-62.49782,-0.73294],[-62.50512,-0.72981],[-62.50721,-0.71313],[-62.4947,-0.70322],[-62.49209,-0.68654],[-62.48531,-0.68029],[-62.46863,-0.6928],[-62.4629,-0.68706],[-62.42745,-0.69176],[-62.42432,-0.69905],[-62.4092,-0.70948],[-62.40608,-0.72616],[-62.39148,-0.71834],[-62.38939,-0.70844],[-62.35759,-0.70583],[-62.3602,-0.69853],[-62.36854,-0.69436],[-62.36958,-0.6756],[-62.3529,-0.67612],[-62.34769,-0.66986],[-62.34039,-0.67508],[-62.33205,-0.66986],[-62.32579,-0.65527],[-62.30807,-0.65996],[-62.28982,-0.64588],[-62.28878,-0.62868],[-62.30077,-0.61825],[-62.2992,-0.60991],[-62.29086,-0.60939],[-62.28982,-0.60105],[-62.30859,-0.58228],[-62.30754,-0.56664],[-62.31745,-0.55153],[-62.30859,-0.54527],[-62.31067,-0.53641],[-62.30285,-0.5338],[-62.30806,-0.51295],[-62.29347,-0.50669],[-62.28512,-0.49262],[-62.28929,-0.48324],[-62.28356,-0.47646],[-62.27418,-0.4775],[-62.27001,-0.46968],[-62.27678,-0.46447],[-62.27261,-0.453],[-62.22621,-0.42485],[-62.22048,-0.40869],[-62.21162,-0.40713],[-62.21631,-0.39826],[-62.20119,-0.39201],[-62.20536,-0.37585],[-62.20275,-0.36751],[-62.19441,-0.36334],[-62.19285,-0.33779],[-62.18711,-0.32997],[-62.21891,-0.31016],[-62.22517,-0.31642],[-62.23455,-0.31642],[-62.24706,-0.30078],[-62.24445,-0.29348],[-62.25332,-0.27888],[-62.25279,-0.27054],[-62.23716,-0.25178],[-62.24602,-0.25126],[-62.25175,-0.23562],[-62.25227,-0.21893],[-62.24445,-0.21059],[-62.24601,-0.18922],[-62.2408,-0.18088],[-62.24393,-0.17358],[-62.26687,-0.16263],[-62.28928,-0.13865],[-62.29762,-0.12145],[-62.31847,-0.10164],[-62.31691,-0.08339],[-62.32108,-0.06932],[-62.32942,-0.06775],[-62.33098,-0.05941],[-62.32212,-0.06098],[-62.32055,-0.037],[-62.32525,-0.03022],[-62.3216,-0.02344],[-62.34557,0.03077],[-62.36955,0.05528],[-62.38988,0.06049],[-62.41386,0.07561],[-62.42324,0.09281],[-62.42794,0.1194],[-62.4222,0.14546],[-62.42741,0.17466],[-62.43732,0.19603],[-62.45139,0.20854],[-62.45347,0.24451],[-62.46703,0.27684],[-62.45764,0.31437],[-62.46598,0.33418],[-62.45086,0.36598],[-62.4519,0.37432],[-62.44513,0.38005],[-62.45503,0.39361],[-62.45764,0.41863],[-62.48422,0.45512],[-62.5082,0.44105],[-62.51759,0.4447],[-62.52175,0.4864],[-62.53166,0.50986],[-62.51758,0.59483],[-62.53165,0.64957],[-62.53582,0.68606],[-62.52748,0.71109],[-62.49933,0.74914],[-62.45658,0.78615],[-62.46179,0.8216],[-62.48003,0.8435],[-62.48473,0.86748],[-62.47013,0.91804],[-62.44719,0.94411],[-62.4425,0.96913],[-62.44875,0.98477],[-62.47377,1.01761],[-62.47638,1.02908],[-62.47325,1.04107],[-62.4769,1.05775],[-62.47064,1.08747],[-62.52016,1.08486],[-62.52851,1.09008],[-62.54414,1.12188],[-62.55352,1.17609],[-62.58584,1.25638],[-62.60982,1.35386],[-62.6192,1.36377],[-62.62545,1.38618],[-62.6192,1.40495],[-62.63432,1.4331],[-62.64526,1.44457],[-62.6755,1.45552],[-62.69739,1.47637],[-62.71981,1.4894],[-62.72971,1.50087],[-62.73857,1.53841],[-62.79643,1.59523],[-62.79695,1.60305],[-62.78653,1.61296],[-62.78131,1.6312],[-62.70729,1.70835],[-62.70781,1.74484],[-62.71771,1.80427],[-62.6932,1.86005],[-62.68173,1.92365],[-62.69216,1.94294],[-62.70623,1.95493],[-62.76149,1.98048],[-62.79329,1.98882],[-62.80111,2.00081]]]},"properties":{"CD_MUN":"1400209","NM_MUN":"Caracaraí","SIGLA_UF":"RR"}},{"type":"Feature","geometry":{"type":"Polygon","coordinates":[[[-60.32019,3.37022],[-60.29412,3.38847],[-60.24095,3.39472],[-60.19612,3.40775],[-60.18465,3.41818],[-60.17474,3.44633],[-60.15493,3.46353],[-60.13825,3.46197],[-60.12835,3.46718],[-60.11271,3.48178],[-60.08195,3.49481],[-60.05328,3.52713],[-60.03555,3.52869],[-60.02617,3.5412],[-59.99854,3.55371],[-59.97404,3.55788],[-59.95475,3.57456],[-59.93598,3.55997],[-59.92191,3.57978],[-59.90418,3.5876],[-59.88437,3.56466],[-59.87082,3.56414],[-59.86509,3.55892],[-59.84267,3.55475],[-59.83694,3.53025],[-59.81556,3.52087],[-59.80305,3.50783],[-59.80097,3.49167],[-59.82495,3.4802],[-59.81192,3.47812],[-59.80983,3.4703],[-59.82286,3.4703],[-59.82756,3.45675],[-59.8385,3.44423],[-59.84111,3.42651],[-59.83277,3.4239],[-59.81296,3.42912],[-59.81922,3.41191],[-59.80254,3.36239],[-59.80671,3.35353],[-59.82287,3.3577],[-59.83225,3.35405],[-59.82652,3.33267],[-59.84112,3.31912],[-59.84112,3.30922],[-59.85102,3.30505],[-59.8578,3.2795],[-59.87135,3.27742],[-59.87969,3.26021],[-59.87761,3.24666],[-59.88751,3.24301],[-59.87292,3.22998],[-59.87448,3.22476],[-59.88647,3.21747],[-59.90263,3.21747],[-59.9068,3.21121],[-59.91097,3.1888],[-59.89847,3.15439],[-59.90316,3.15022],[-59.91984,3.1497],[-59.91723,3.14501],[-59.90733,3.14501],[-59.90629,3.14031],[-59.91828,3.13302],[-59.91567,3.12676],[-59.90837,3.1252],[-59.90733,3.11268],[-59.91463,3.11216],[-59.91984,3.12155],[-59.92349,3.10956],[-59.9287,3.1106],[-59.93756,3.10017],[-59.93861,3.08871],[-59.95477,3.08193],[-59.9506,3.04231],[-59.96103,3.01729],[-59.94591,3.0006],[-59.96259,2.96411],[-59.95738,2.95473],[-59.98136,2.93127],[-59.98449,2.91094],[-59.97667,2.90468],[-59.97563,2.89739],[-59.98762,2.88279],[-59.98032,2.87028],[-59.98501,2.86507],[-59.98241,2.8536],[-59.98971,2.84004],[-59.98502,2.80407],[-59.99127,2.78687],[-59.98554,2.74881],[-59.99075,2.73526],[-59.98658,2.69668],[-59.98971,2.68834],[-59.97199,2.66905],[-59.9699,2.65654],[-59.9746,2.6409],[-59.96156,2.62683],[-59.96209,2.61744],[-59.95531,2.61119],[-59.96521,2.6091],[-59.96939,2.59451],[-59.94228,2.58669],[-59.92664,2.57157],[-59.9355,2.55384],[-59.91569,2.52778],[-59.91778,2.51057],[-59.90996,2.50328],[-59.90944,2.49546],[-59.89432,2.48242],[-59.89745,2.47252],[-59.8912,2.46522],[-59.89172,2.45479],[-59.89797,2.43915],[-59.88807,2.4256],[-59.89433,2.42404],[-59.89328,2.40683],[-59.9058,2.39015],[-59.89537,2.36409],[-59.87869,2.35366],[-59.86931,2.36148],[-59.85054,2.33124],[-59.84116,2.32968],[-59.84116,2.32134],[-59.82656,2.32968],[-59.82343,2.32134],[-59.80467,2.3083],[-59.80102,2.2984],[-59.78434,2.28537],[-59.76922,2.29475],[-59.74837,2.28901],[-59.73742,2.29266],[-59.72126,2.27807],[-59.72647,2.26451],[-59.71813,2.23845],[-59.72647,2.23115],[-59.72335,2.20613],[-59.73065,2.20404],[-59.72543,2.20091],[-59.73638,2.18006],[-59.73951,2.1639],[-59.7369,2.14722],[-59.72544,2.13679],[-59.72648,2.1248],[-59.7197,2.11542],[-59.72075,2.09874],[-59.73326,2.09196],[-59.74004,2.07476],[-59.73482,2.05078],[-59.72544,2.03514],[-59.72805,2.03097],[-59.71918,2.02888],[-59.73378,2.01376],[-59.72961,2.00855],[-59.73222,2.00073],[-61.0266,2.00076],[-61.0485,2.04038],[-61.04589,2.08522],[-61.01252,2.14464],[-60.94788,2.19573],[-60.9067,2.24108],[-60.88949,2.28487],[-60.85248,2.30572],[-60.84466,2.31459],[-60.83475,2.36307],[-60.83788,2.37506],[-60.84622,2.38288],[-60.8457,2.39956],[-60.83527,2.42145],[-60.83527,2.43866],[-60.82693,2.45638],[-60.82119,2.51998],[-60.82328,2.54813],[-60.77375,2.64457],[-60.71901,2.70921],[-60.69346,2.72954],[-60.67313,2.7775],[-60.67,2.79992],[-60.64811,2.83589],[-60.60275,2.85778],[-60.54854,2.90418],[-60.52508,2.94745],[-60.50318,2.97455],[-60.49067,3.01313],[-60.47294,3.03137],[-60.4474,3.04649],[-60.43853,3.07569],[-60.41664,3.10227],[-60.39214,3.14762],[-60.37285,3.16587],[-60.38379,3.18307],[-60.38327,3.21175],[-60.40777,3.25606],[-60.40933,3.28056],[-60.39474,3.30141],[-60.35355,3.31236],[-60.34469,3.31861],[-60.34156,3.34468],[-60.32019,3.37022]]]},"properties":{"CD_MUN":"1400159","NM_MUN":"Bonfim","SIGLA_UF":"RR"}}]}