{"type":"FeatureCollection","features":[{"type":"Feature","geometry":{"type":"Polygon","coordinates":[[[-48.05272,-15.49988],[-47.49545,-15.50041],[-47.41673,-15.50041],[-47.41725,-15.54681],[-47.40422,-15.54629],[-47.3891,-15.56714],[-47.37972,-15.56714],[-47.37347,-15.57757],[-47.34688,-15.57966],[-47.31664,-15.58956],[-47.33229,-15.6297],[-47.32603,-15.64847],[-47.32655,-15.67349],[-47.33072,-15.68183],[-47.31144,-15.69643],[-47.31926,-15.72041],[-47.31821,-15.73292],[-47.31196,-15.74022],[-47.32812,-15.76733],[-47.32916,-15.77932],[-47.34793,-15.80382],[-47.35315,-15.82206],[-47.3594,-15.8205],[-47.36931,-15.84135],[-47.3667,-15.85334],[-47.37244,-15.86377],[-47.36983,-15.87211],[-47.37869,-15.88149],[-47.37087,-15.90026],[-47.37192,-15.90651],[-47.36305,-15.90912],[-47.36722,-15.91746],[-47.35941,-15.92476],[-47.36045,-15.93154],[-47.37192,-15.93623],[-47.3667,-15.94666],[-47.37713,-15.97376],[-47.37088,-15.98054],[-47.37505,-15.98627],[-47.36775,-15.99409],[-47.36827,-16.00191],[-47.36358,-16.00087],[-47.35941,-16.00765],[-47.34742,-16.00609],[-47.34429,-16.0113],[-47.33699,-16.01182],[-47.33908,-16.01912],[-47.33491,-16.01651],[-47.32448,-16.0285],[-47.32135,-16.0259],[-47.31875,-16.03684],[-47.30832,-16.0358],[-47.30676,-16.0504],[-47.68262,-16.05039],[-48.0861,-16.05142],[-48.27846,-16.05142],[-48.27116,-16.02848],[-48.2722,-16.00815],[-48.25969,-15.98208],[-48.26073,-15.96696],[-48.25083,-15.94611],[-48.25187,-15.93673],[-48.25917,-15.92943],[-48.27637,-15.93047],[-48.27011,-15.9117],[-48.27689,-15.90597],[-48.27168,-15.88147],[-48.28419,-15.85488],[-48.28575,-15.83664],[-48.2675,-15.80692],[-48.24144,-15.79858],[-48.23779,-15.78451],[-48.21277,-15.75948],[-48.20547,-15.74124],[-48.20703,-15.7183],[-48.21745,-15.70787],[-48.24091,-15.70579],[-48.24196,-15.68911],[-48.23413,-15.65887],[-48.23518,-15.6448],[-48.22319,-15.62759],[-48.21849,-15.62238],[-48.19973,-15.62186],[-48.19972,-15.49987],[-48.05272,-15.49988]]]},"properties":{"CD_MUN":"5300108","NM_MUN":"Brasília","SIGLA_UF":"DF"}}]}