{"type":"FeatureCollection","features":[{"type":"Feature","geometry":{"type":"Polygon","coordinates":[[[-37.07134,-10.61446],[-37.05727,-10.62228],[-37.03381,-10.62489],[-37.00931,-10.64105],[-37.00983,-10.67546],[-37.01244,-10.67911],[-37.00201,-10.68797],[-37.0041,-10.69579],[-36.99784,-10.70152],[-36.97334,-10.70152],[-36.97074,-10.70622],[-36.96344,-10.70309],[-36.95041,-10.71351],[-36.97908,-10.73854],[-36.9968,-10.73072],[-37.01088,-10.73228],[-37.01453,-10.72133],[-37.0677,-10.74792],[-37.05362,-10.70621],[-37.06978,-10.6864],[-37.08855,-10.68223],[-37.08959,-10.65408],[-37.09063,-10.64157],[-37.07239,-10.63844],[-37.07134,-10.61446]]]},"properties":{"CD_MUN":"2806107","NM_MUN":"Rosário do Catete","SIGLA_UF":"SE"}},{"type":"Feature","geometry":{"type":"Polygon","coordinates":[[[-38.20205,-10.69993],[-38.14939,-10.7041],[-38.0858,-10.7114],[-38.01594,-10.76145],[-37.99926,-10.76458],[-37.97163,-10.75467],[-37.97163,-10.7823],[-38.00552,-10.79168],[-38.02637,-10.80419],[-38.07746,-10.80576],[-38.12281,-10.82035],[-38.13376,-10.84068],[-38.12751,-10.85215],[-38.13585,-10.87561],[-38.14627,-10.88656],[-38.164,-10.8876],[-38.19059,-10.92357],[-38.20518,-10.91783],[-38.2031,-10.90897],[-38.20831,-10.9022],[-38.21144,-10.90897],[-38.21561,-10.90584],[-38.22447,-10.91054],[-38.23907,-10.86987],[-38.24323,-10.84746],[-38.23958,-10.824],[-38.24792,-10.8021],[-38.23906,-10.76874],[-38.21769,-10.73798],[-38.22342,-10.72391],[-38.22029,-10.71348],[-38.20205,-10.69993]]]},"properties":{"CD_MUN":"2805505","NM_MUN":"Poço Verde","SIGLA_UF":"SE"}},{"type":"Feature","geometry":{"type":"Polygon","coordinates":[[[-37.66506,-9.66671],[-37.65933,-9.67661],[-37.64995,-9.6886],[-37.58062,-9.73448],[-37.56394,-9.7397],[-37.46228,-9.7496],[-37.60721,-9.96959],[-37.6411,-9.97949],[-37.65205,-9.99513],[-37.66404,-9.9993],[-37.80479,-10.03162],[-37.82303,-10.03579],[-37.81521,-10.02328],[-37.82303,-10.01702],[-37.82303,-10.00503],[-37.83189,-9.9993],[-37.87568,-9.97845],[-37.91269,-9.97688],[-37.92677,-9.96593],[-37.93615,-9.96593],[-37.9252,-9.95394],[-37.91843,-9.93309],[-37.89653,-9.91328],[-37.8835,-9.91224],[-37.86786,-9.89921],[-37.86994,-9.84291],[-37.85899,-9.80068],[-37.85378,-9.79338],[-37.85378,-9.77931],[-37.84075,-9.76315],[-37.84283,-9.74751],[-37.83136,-9.70424],[-37.66506,-9.66671]]]},"properties":{"CD_MUN":"2805406","NM_MUN":"Poço Redondo","SIGLA_UF":"SE"}},{"type":"Feature","geometry":{"type":"Polygon","coordinates":[[[-37.97216,-10.88031],[-37.93932,-10.88865],[-37.93775,-10.88135],[-37.87572,-10.86415],[-37.86477,-10.89751],[-37.87364,-10.92097],[-37.84601,-10.93348],[-37.83975,-10.94808],[-37.8335,-10.95069],[-37.83819,-10.95642],[-37.83871,-10.97102],[-37.83141,-10.9804],[-37.83611,-10.98874],[-37.82568,-10.98978],[-37.82099,-11.00438],[-37.81265,-11.00595],[-37.81004,-11.0023],[-37.80691,-11.01012],[-37.79649,-11.01116],[-37.7918,-11.01794],[-37.78398,-11.00647],[-37.77981,-11.0096],[-37.77564,-11.00438],[-37.77042,-11.01846],[-37.76469,-11.00855],[-37.75948,-11.01064],[-37.75374,-11.00282],[-37.74957,-11.00855],[-37.74123,-11.00908],[-37.74227,-10.99083],[-37.70265,-11.00543],[-37.69223,-11.02524],[-37.67346,-11.02107],[-37.66981,-11.03097],[-37.65574,-11.03827],[-37.65261,-11.04505],[-37.64323,-11.04661],[-37.63541,-11.06225],[-37.6229,-11.06694],[-37.6156,-11.06851],[-37.61195,-11.07893],[-37.6229,-11.0878],[-37.63332,-11.08154],[-37.66669,-11.1394],[-37.70422,-11.17798],[-37.7183,-11.16338],[-37.72873,-11.16443],[-37.73915,-11.14983],[-37.74645,-11.15348],[-37.74801,-11.14774],[-37.76261,-11.14253],[-37.77199,-11.13262],[-37.79024,-11.13367],[-37.83976,-11.10604],[-37.89658,-11.04087],[-37.92942,-11.0122],[-37.93098,-11.00334],[-37.94662,-10.99708],[-37.94871,-10.98718],[-37.94506,-10.98092],[-37.94089,-10.98509],[-37.93255,-10.97154],[-37.94349,-10.94808],[-37.95652,-10.93348],[-37.97216,-10.88031]]]},"properties":{"CD_MUN":"2805802","NM_MUN":"Riachão do Dantas","SIGLA_UF":"SE"}},{"type":"Feature","geometry":{"type":"Polygon","coordinates":[[[-36.86594,-10.22974],[-36.86489,-10.20941],[-36.85499,-10.19377],[-36.85968,-10.17813],[-36.84665,-10.18335],[-36.83779,-10.20211],[-36.82058,-10.21463],[-36.80129,-10.22192],[-36.77158,-10.22036],[-36.76063,-10.22922],[-36.74604,-10.23339],[-36.73665,-10.2506],[-36.72206,-10.26311],[-36.70277,-10.27041],[-36.70851,-10.28448],[-36.73196,-10.28031],[-36.73822,-10.28344],[-36.74187,-10.27249],[-36.75177,-10.26259],[-36.76011,-10.26207],[-36.76168,-10.25581],[-36.77888,-10.26624],[-36.78983,-10.26415],[-36.8039,-10.28552],[-36.81277,-10.29856],[-36.82163,-10.29856],[-36.83831,-10.29178],[-36.84613,-10.26311],[-36.86594,-10.22974]]]},"properties":{"CD_MUN":"2805703","NM_MUN":"Propriá","SIGLA_UF":"SE"}},{"type":"Feature","geometry":{"type":"Polygon","coordinates":[[[-37.46228,-9.7496],[-37.42162,-9.76107],[-37.39608,-9.77671],[-37.34551,-9.79287],[-37.32206,-9.8205],[-37.29651,-9.82676],[-37.26054,-9.85335],[-37.24386,-9.88775],[-37.22562,-9.89922],[-37.23031,-9.91278],[-37.23292,-9.95917],[-37.2569,-9.95865],[-37.26159,-9.96699],[-37.2668,-9.96126],[-37.2715,-9.96491],[-37.26576,-9.9941],[-37.28401,-9.98889],[-37.28766,-9.9941],[-37.28505,-10.0087],[-37.29235,-10.01547],[-37.30121,-10.00192],[-37.3106,-10.004],[-37.3132,-10.00036],[-37.31633,-10.0087],[-37.33041,-10.01547],[-37.32728,-10.00974],[-37.33405,-10.00036],[-37.33093,-9.99462],[-37.33874,-9.9868],[-37.34239,-9.99931],[-37.34865,-9.99983],[-37.35126,-9.99358],[-37.35543,-10.004],[-37.34709,-10.00453],[-37.35126,-10.01443],[-37.36377,-10.01547],[-37.36637,-10.00661],[-37.37836,-10.00974],[-37.37211,-10.02069],[-37.37889,-10.02068],[-37.37524,-10.02538],[-37.3841,-10.03007],[-37.38201,-10.03789],[-37.3914,-10.04049],[-37.394,-10.04936],[-37.39922,-10.04519],[-37.40078,-10.05248],[-37.4086,-10.05196],[-37.41903,-10.06135],[-37.46855,-10.02068],[-37.56655,-9.99879],[-37.58584,-10.00035],[-37.59575,-10.02224],[-37.60669,-10.01912],[-37.61451,-10.02537],[-37.63849,-10.01755],[-37.64736,-10.02172],[-37.65674,-10.01286],[-37.66508,-10.01442],[-37.6729,-10.02589],[-37.6828,-10.02798],[-37.70157,-10.01494],[-37.72138,-10.02641],[-37.73128,-10.02015],[-37.73806,-10.02954],[-37.75839,-10.02537],[-37.77403,-10.03266],[-37.80479,-10.03162],[-37.66404,-9.9993],[-37.65205,-9.99513],[-37.6411,-9.97949],[-37.60721,-9.96959],[-37.46228,-9.7496]]]},"properties":{"CD_MUN":"2805604","NM_MUN":"Porto da Folha","SIGLA_UF":"SE"}},{"type":"Feature","geometry":{"type":"Polygon","coordinates":[[[-37.69534,-10.53938],[-37.64165,-10.60663],[-37.65051,-10.61862],[-37.65259,-10.64051],[-37.66771,-10.67388],[-37.65989,-10.70098],[-37.66511,-10.70724],[-37.66302,-10.71767],[-37.6698,-10.70828],[-37.67606,-10.71662],[-37.68335,-10.71037],[-37.68335,-10.70672],[-37.67293,-10.70411],[-37.68544,-10.69264],[-37.68179,-10.68534],[-37.69169,-10.68534],[-37.70264,-10.67752],[-37.7042,-10.66918],[-37.70785,-10.67231],[-37.71359,-10.66866],[-37.69273,-10.63999],[-37.70107,-10.6426],[-37.70524,-10.63373],[-37.71463,-10.63426],[-37.71828,-10.62435],[-37.69794,-10.58265],[-37.69534,-10.53938]]]},"properties":{"CD_MUN":"2805000","NM_MUN":"Pedra Mole","SIGLA_UF":"SE"}},{"type":"Feature","geometry":{"type":"Polygon","coordinates":[[[-36.71424,-10.38405],[-36.64074,-10.40334],[-36.61468,-10.38718],[-36.59956,-10.41534],[-36.61155,-10.42785],[-36.59904,-10.4977],[-36.58914,-10.50239],[-36.49583,-10.51126],[-36.48644,-10.53003],[-36.49374,-10.53315],[-36.50313,-10.54254],[-36.6199,-10.58945],[-36.67516,-10.63115],[-36.74918,-10.59518],[-36.71424,-10.38405]]]},"properties":{"CD_MUN":"2804904","NM_MUN":"Pacatuba","SIGLA_UF":"SE"}},{"type":"Feature","geometry":{"type":"Polygon","coordinates":[[[-36.78202,-10.57589],[-36.76482,-10.58163],[-36.75491,-10.59466],[-36.74918,-10.59518],[-36.67516,-10.63115],[-36.73146,-10.65565],[-36.78463,-10.68797],[-36.85449,-10.74375],[-36.87273,-10.74115],[-36.86752,-10.7328],[-36.87013,-10.70778],[-36.87534,-10.70987],[-36.88003,-10.69579],[-36.88837,-10.69579],[-36.88472,-10.701],[-36.89254,-10.70517],[-36.90088,-10.70309],[-36.90245,-10.68589],[-36.90766,-10.68224],[-36.9087,-10.67911],[-36.78202,-10.57589]]]},"properties":{"CD_MUN":"2805307","NM_MUN":"Pirambu","SIGLA_UF":"SE"}},{"type":"Feature","geometry":{"type":"Polygon","coordinates":[[[-37.81471,-10.51696],[-37.79595,-10.50914],[-37.77926,-10.51227],[-37.77144,-10.50653],[-37.73026,-10.51644],[-37.72088,-10.50758],[-37.69534,-10.53938],[-37.69794,-10.58265],[-37.71828,-10.62435],[-37.71463,-10.63426],[-37.70524,-10.63373],[-37.71619,-10.6452],[-37.72349,-10.64155],[-37.72245,-10.63321],[-37.73809,-10.63373],[-37.74903,-10.62174],[-37.76363,-10.6207],[-37.7678,-10.60558],[-37.80012,-10.59203],[-37.80585,-10.60141],[-37.81993,-10.58629],[-37.82931,-10.58577],[-37.82462,-10.58056],[-37.8314,-10.57795],[-37.83244,-10.55971],[-37.84026,-10.55032],[-37.83087,-10.55136],[-37.82879,-10.54094],[-37.81888,-10.5399],[-37.82149,-10.53103],[-37.81471,-10.51696]]]},"properties":{"CD_MUN":"2805208","NM_MUN":"Pinhão","SIGLA_UF":"SE"}},{"type":"Feature","geometry":{"type":"Polygon","coordinates":[[[-37.70527,-11.1931],[-37.69171,-11.17068],[-37.67868,-11.18997],[-37.67138,-11.18372],[-37.63646,-11.2004],[-37.59684,-11.20353],[-37.59788,-11.21135],[-37.60674,-11.2176],[-37.64741,-11.22021],[-37.6547,-11.24471],[-37.65053,-11.25513],[-37.66305,-11.25357],[-37.66461,-11.24627],[-37.67868,-11.23376],[-37.69067,-11.20457],[-37.69589,-11.20561],[-37.69693,-11.19935],[-37.70527,-11.1931]]]},"properties":{"CD_MUN":"2805109","NM_MUN":"Pedrinhas","SIGLA_UF":"SE"}},{"type":"Feature","geometry":{"type":"Polygon","coordinates":[[[-37.77508,-10.13693],[-37.76674,-10.11555],[-37.75631,-10.11868],[-37.73963,-10.10982],[-37.69636,-10.12807],[-37.67916,-10.12285],[-37.67238,-10.12963],[-37.663,-10.12911],[-37.6458,-10.11139],[-37.6385,-10.11243],[-37.6312,-10.10409],[-37.62338,-10.10565],[-37.61712,-10.09575],[-37.60461,-10.102],[-37.58845,-10.09001],[-37.56395,-10.10826],[-37.55822,-10.12181],[-37.55353,-10.11347],[-37.54258,-10.11504],[-37.53789,-10.10982],[-37.53163,-10.11347],[-37.52277,-10.10513],[-37.51547,-10.10878],[-37.51338,-10.10148],[-37.50557,-10.10461],[-37.49514,-10.09679],[-37.48993,-10.10201],[-37.48054,-10.08897],[-37.47533,-10.09575],[-37.46386,-10.09158],[-37.45917,-10.09575],[-37.45969,-10.10305],[-37.43675,-10.10357],[-37.43936,-10.09158],[-37.43258,-10.08585],[-37.4404,-10.08428],[-37.44197,-10.07542],[-37.43519,-10.07177],[-37.42789,-10.07646],[-37.42841,-10.06395],[-37.41382,-10.07699],[-37.41225,-10.06917],[-37.42059,-10.0676],[-37.41903,-10.06135],[-37.35439,-10.11087],[-37.33354,-10.11817],[-37.34501,-10.15518],[-37.31425,-10.1531],[-37.32937,-10.21044],[-37.38306,-10.21722],[-37.39766,-10.25579],[-37.40913,-10.24589],[-37.40392,-10.25527],[-37.4034,-10.27769],[-37.40809,-10.29646],[-37.41018,-10.3048],[-37.41904,-10.30688],[-37.42738,-10.30167],[-37.42894,-10.3074],[-37.43468,-10.30375],[-37.4352,-10.29593],[-37.44667,-10.29437],[-37.44719,-10.28811],[-37.45553,-10.2902],[-37.46283,-10.27821],[-37.47012,-10.28446],[-37.4696,-10.2902],[-37.48316,-10.29489],[-37.48159,-10.28238],[-37.48576,-10.28603],[-37.48941,-10.28342],[-37.49723,-10.29489],[-37.50714,-10.2902],[-37.51287,-10.29437],[-37.52486,-10.28029],[-37.53112,-10.28238],[-37.54415,-10.26882],[-37.53789,-10.2584],[-37.55301,-10.25944],[-37.55353,-10.26726],[-37.5577,-10.25892],[-37.56187,-10.26152],[-37.56865,-10.25631],[-37.57021,-10.24849],[-37.57855,-10.24797],[-37.58116,-10.24015],[-37.59106,-10.24953],[-37.59628,-10.25214],[-37.6067,-10.23963],[-37.61244,-10.25005],[-37.61765,-10.24119],[-37.62808,-10.24276],[-37.67395,-10.20731],[-37.68177,-10.21043],[-37.68802,-10.2047],[-37.69272,-10.20835],[-37.70054,-10.20157],[-37.70053,-10.19479],[-37.70992,-10.1901],[-37.72034,-10.18802],[-37.75423,-10.19948],[-37.76205,-10.19636],[-37.77508,-10.13693]]]},"properties":{"CD_MUN":"2804508","NM_MUN":"Nossa Senhora da Glória","SIGLA_UF":"SE"}},{"type":"Feature","geometry":{"type":"Polygon","coordinates":[[[-37.59106,-10.24953],[-37.58116,-10.24015],[-37.57855,-10.24797],[-37.57021,-10.24849],[-37.56865,-10.25631],[-37.56187,-10.26152],[-37.5577,-10.25892],[-37.55353,-10.26726],[-37.55301,-10.25944],[-37.53789,-10.2584],[-37.54415,-10.26882],[-37.53112,-10.28238],[-37.52486,-10.28029],[-37.51287,-10.29437],[-37.50714,-10.2902],[-37.49723,-10.29489],[-37.48941,-10.28342],[-37.48576,-10.28603],[-37.48159,-10.28238],[-37.48316,-10.29489],[-37.4696,-10.2902],[-37.47012,-10.28446],[-37.46283,-10.27821],[-37.45553,-10.2902],[-37.44719,-10.28811],[-37.44667,-10.29437],[-37.4352,-10.29593],[-37.43468,-10.30375],[-37.42894,-10.3074],[-37.42738,-10.30167],[-37.41904,-10.30688],[-37.41018,-10.3048],[-37.40809,-10.29646],[-37.40496,-10.31522],[-37.41278,-10.34598],[-37.40132,-10.41792],[-37.42008,-10.40228],[-37.47378,-10.45962],[-37.54676,-10.46223],[-37.55771,-10.44294],[-37.57491,-10.37048],[-37.58638,-10.32252],[-37.61296,-10.27925],[-37.59106,-10.24953]]]},"properties":{"CD_MUN":"2804458","NM_MUN":"Nossa Senhora Aparecida","SIGLA_UF":"SE"}},{"type":"Feature","geometry":{"type":"Polygon","coordinates":[[[-36.70277,-10.27041],[-36.68244,-10.2751],[-36.67879,-10.26937],[-36.66002,-10.26624],[-36.64595,-10.25269],[-36.63031,-10.25321],[-36.59278,-10.28657],[-36.58809,-10.30169],[-36.56567,-10.32723],[-36.56776,-10.36268],[-36.56046,-10.38771],[-36.56203,-10.41273],[-36.56776,-10.43306],[-36.57245,-10.43515],[-36.58132,-10.42941],[-36.58288,-10.43358],[-36.57715,-10.43879],[-36.58392,-10.43879],[-36.58861,-10.45183],[-36.59331,-10.44609],[-36.59748,-10.45026],[-36.60165,-10.47946],[-36.59383,-10.48363],[-36.59904,-10.4977],[-36.61155,-10.42785],[-36.59956,-10.41534],[-36.61468,-10.38718],[-36.64074,-10.40334],[-36.71424,-10.38405],[-36.71633,-10.35225],[-36.72571,-10.33661],[-36.75125,-10.31524],[-36.76377,-10.31993],[-36.7794,-10.31003],[-36.8039,-10.28552],[-36.78983,-10.26415],[-36.77888,-10.26624],[-36.76168,-10.25581],[-36.76011,-10.26207],[-36.75177,-10.26259],[-36.74187,-10.27249],[-36.73822,-10.28344],[-36.73196,-10.28031],[-36.70851,-10.28448],[-36.70277,-10.27041]]]},"properties":{"CD_MUN":"2804409","NM_MUN":"Neópolis","SIGLA_UF":"SE"}},{"type":"Feature","geometry":{"type":"Polygon","coordinates":[[[-37.01764,-10.33087],[-37.002,-10.30585],[-36.91807,-10.38926],[-36.91547,-10.3976],[-36.90452,-10.40438],[-36.90556,-10.41376],[-36.93788,-10.4513],[-36.96499,-10.44243],[-36.96968,-10.42627],[-36.98532,-10.40542],[-36.98376,-10.39656],[-36.98845,-10.38665],[-36.98063,-10.37414],[-36.99783,-10.36007],[-37.00878,-10.33452],[-37.01764,-10.33087]]]},"properties":{"CD_MUN":"2804300","NM_MUN":"Muribeca","SIGLA_UF":"SE"}},{"type":"Feature","geometry":{"type":"Polygon","coordinates":[[[-37.31793,-10.8308],[-37.2439,-10.83289],[-37.21575,-10.84696],[-37.17874,-10.85426],[-37.17353,-10.84279],[-37.15841,-10.83602],[-37.15737,-10.83132],[-37.14851,-10.83497],[-37.11827,-10.83133],[-37.10211,-10.81829],[-37.09325,-10.82246],[-37.06145,-10.82246],[-37.04216,-10.82768],[-37.02913,-10.84123],[-37.02756,-10.84957],[-37.03486,-10.86834],[-37.05363,-10.86313],[-37.06666,-10.87668],[-37.07188,-10.86573],[-37.08074,-10.8626],[-37.09221,-10.87355],[-37.10211,-10.87564],[-37.09586,-10.88398],[-37.10524,-10.88971],[-37.10159,-10.91734],[-37.11932,-10.91682],[-37.1459,-10.92829],[-37.16154,-10.92412],[-37.17145,-10.91265],[-37.17249,-10.90014],[-37.18344,-10.89649],[-37.19021,-10.88554],[-37.19751,-10.88971],[-37.20689,-10.87511],[-37.21836,-10.87772],[-37.23921,-10.86781],[-37.24807,-10.85478],[-37.26476,-10.84592],[-37.2731,-10.85113],[-37.2903,-10.85165],[-37.29916,-10.84644],[-37.3075,-10.83288],[-37.31793,-10.8308]]]},"properties":{"CD_MUN":"2804805","NM_MUN":"Nossa Senhora do Socorro","SIGLA_UF":"SE"}},{"type":"Feature","geometry":{"type":"Polygon","coordinates":[[[-37.05985,-10.05562],[-37.02753,-10.05771],[-37.02023,-10.0452],[-36.95611,-10.02017],[-36.95872,-10.0478],[-36.95403,-10.06449],[-36.99,-10.08377],[-37.01815,-10.10619],[-37.03223,-10.13278],[-37.04005,-10.13799],[-37.04734,-10.12548],[-37.05569,-10.12808],[-37.06455,-10.13955],[-37.06767,-10.09003],[-37.05985,-10.05562]]]},"properties":{"CD_MUN":"2804706","NM_MUN":"Nossa Senhora de Lourdes","SIGLA_UF":"SE"}},{"type":"Feature","geometry":{"type":"Polygon","coordinates":[[[-37.3398,-10.38404],[-37.34397,-10.37935],[-37.32521,-10.37465],[-37.32521,-10.36527],[-37.31582,-10.35849],[-37.31739,-10.35172],[-37.30852,-10.34755],[-37.30175,-10.33451],[-37.2736,-10.32565],[-37.27725,-10.322],[-37.2736,-10.30584],[-37.2444,-10.29855],[-37.2491,-10.32096],[-37.23919,-10.33973],[-37.24023,-10.3585],[-37.20739,-10.40124],[-37.18915,-10.40646],[-37.1782,-10.41636],[-37.1683,-10.41688],[-37.16152,-10.41063],[-37.1438,-10.41845],[-37.13233,-10.40594],[-37.12816,-10.41063],[-37.12086,-10.40542],[-37.11773,-10.40907],[-37.10835,-10.41793],[-37.11148,-10.42418],[-37.09688,-10.42366],[-37.13441,-10.45546],[-37.13702,-10.47006],[-37.14171,-10.50029],[-37.1756,-10.5811],[-37.19385,-10.59204],[-37.20532,-10.60768],[-37.20323,-10.62489],[-37.21627,-10.61707],[-37.21731,-10.61133],[-37.24702,-10.59517],[-37.26214,-10.57744],[-37.3028,-10.57484],[-37.31114,-10.56337],[-37.31062,-10.54773],[-37.31583,-10.54825],[-37.31896,-10.54147],[-37.34867,-10.49299],[-37.27412,-10.46536],[-37.27986,-10.46171],[-37.28872,-10.46745],[-37.28716,-10.45337],[-37.29497,-10.44347],[-37.29185,-10.43513],[-37.30227,-10.43617],[-37.30644,-10.42574],[-37.31843,-10.43408],[-37.33146,-10.43096],[-37.33251,-10.42522],[-37.32312,-10.42053],[-37.33042,-10.4174],[-37.33303,-10.4002],[-37.3471,-10.4002],[-37.3398,-10.38404]]]},"properties":{"CD_MUN":"2804607","NM_MUN":"Nossa Senhora das Dores","SIGLA_UF":"SE"}},{"type":"Feature","geometry":{"type":"Polygon","coordinates":[[[-37.08959,-10.65408],[-37.08855,-10.68223],[-37.06978,-10.6864],[-37.05362,-10.70621],[-37.0677,-10.74792],[-37.06718,-10.76773],[-37.07187,-10.77659],[-37.08699,-10.78284],[-37.09846,-10.77398],[-37.12765,-10.78493],[-37.13286,-10.77711],[-37.1313,-10.76825],[-37.14277,-10.76616],[-37.1485,-10.7719],[-37.16049,-10.75],[-37.14954,-10.73749],[-37.15371,-10.72758],[-37.14537,-10.71924],[-37.14433,-10.7109],[-37.12139,-10.70152],[-37.11566,-10.68484],[-37.08959,-10.65408]]]},"properties":{"CD_MUN":"2804003","NM_MUN":"Maruim","SIGLA_UF":"SE"}},{"type":"Feature","geometry":{"type":"Polygon","coordinates":[[[-37.32783,-10.65355],[-37.33147,-10.63948],[-37.32522,-10.62332],[-37.2955,-10.60247],[-37.28873,-10.6155],[-37.28091,-10.61811],[-37.27778,-10.63375],[-37.26683,-10.63479],[-37.25745,-10.64991],[-37.24546,-10.64939],[-37.24546,-10.6619],[-37.23764,-10.6645],[-37.23295,-10.6718],[-37.22669,-10.68379],[-37.23139,-10.6963],[-37.22305,-10.70569],[-37.22982,-10.70204],[-37.2366,-10.70829],[-37.24807,-10.70934],[-37.25954,-10.70256],[-37.26423,-10.71351],[-37.27622,-10.71194],[-37.28143,-10.72133],[-37.29186,-10.72237],[-37.29864,-10.7281],[-37.29759,-10.73227],[-37.31323,-10.74113],[-37.3174,-10.73748],[-37.31063,-10.73227],[-37.33565,-10.7208],[-37.31949,-10.69317],[-37.32783,-10.65355]]]},"properties":{"CD_MUN":"2803906","NM_MUN":"Malhador","SIGLA_UF":"SE"}},{"type":"Feature","geometry":{"type":"Polygon","coordinates":[[[-37.002,-10.30585],[-36.93684,-10.28604],[-36.92954,-10.31106],[-36.90452,-10.3095],[-36.90556,-10.32566],[-36.90712,-10.35068],[-36.91807,-10.38926],[-37.002,-10.30585]]]},"properties":{"CD_MUN":"2803807","NM_MUN":"Malhada dos Bois","SIGLA_UF":"SE"}},{"type":"Feature","geometry":{"type":"Polygon","coordinates":[[[-37.82303,-10.03579],[-37.80479,-10.03162],[-37.77403,-10.03266],[-37.75839,-10.02537],[-37.73806,-10.02954],[-37.73128,-10.02015],[-37.72138,-10.02641],[-37.70157,-10.01494],[-37.6828,-10.02798],[-37.6729,-10.02589],[-37.66508,-10.01442],[-37.65674,-10.01286],[-37.64736,-10.02172],[-37.63849,-10.01755],[-37.61451,-10.02537],[-37.60669,-10.01912],[-37.59575,-10.02224],[-37.58584,-10.00035],[-37.56655,-9.99879],[-37.46855,-10.02068],[-37.41903,-10.06135],[-37.42059,-10.0676],[-37.41225,-10.06917],[-37.41382,-10.07699],[-37.42841,-10.06395],[-37.42789,-10.07646],[-37.43519,-10.07177],[-37.44197,-10.07542],[-37.4404,-10.08428],[-37.43258,-10.08585],[-37.43936,-10.09158],[-37.43675,-10.10357],[-37.45969,-10.10305],[-37.45917,-10.09575],[-37.46386,-10.09158],[-37.47533,-10.09575],[-37.48054,-10.08897],[-37.48993,-10.10201],[-37.49514,-10.09679],[-37.50557,-10.10461],[-37.51338,-10.10148],[-37.51547,-10.10878],[-37.52277,-10.10513],[-37.53163,-10.11347],[-37.53789,-10.10982],[-37.54258,-10.11504],[-37.55353,-10.11347],[-37.55822,-10.12181],[-37.56395,-10.10826],[-37.58845,-10.09001],[-37.60461,-10.102],[-37.61712,-10.09575],[-37.62338,-10.10565],[-37.6312,-10.10409],[-37.6385,-10.11243],[-37.6458,-10.11139],[-37.663,-10.12911],[-37.67238,-10.12963],[-37.67916,-10.12285],[-37.69636,-10.12807],[-37.73963,-10.10982],[-37.75631,-10.11868],[-37.76674,-10.11555],[-37.77508,-10.13693],[-37.80323,-10.09991],[-37.81939,-10.05925],[-37.82303,-10.03579]]]},"properties":{"CD_MUN":"2804201","NM_MUN":"Monte Alegre de Sergipe","SIGLA_UF":"SE"}},{"type":"Feature","geometry":{"type":"Polygon","coordinates":[[[-37.39351,-10.58318],[-37.38934,-10.57588],[-37.36535,-10.56128],[-37.36275,-10.54981],[-37.3445,-10.54043],[-37.33251,-10.5446],[-37.31896,-10.54147],[-37.31583,-10.54825],[-37.31062,-10.54773],[-37.31114,-10.56337],[-37.3028,-10.57484],[-37.26214,-10.57744],[-37.24702,-10.59517],[-37.26527,-10.58735],[-37.28091,-10.58787],[-37.2955,-10.60247],[-37.32522,-10.62332],[-37.33147,-10.63948],[-37.32783,-10.65355],[-37.35441,-10.65668],[-37.36015,-10.65147],[-37.35858,-10.64469],[-37.36484,-10.64521],[-37.37526,-10.6254],[-37.37995,-10.6254],[-37.381,-10.63218],[-37.38829,-10.62801],[-37.38673,-10.59777],[-37.39351,-10.58318]]]},"properties":{"CD_MUN":"2804102","NM_MUN":"Moita Bonita","SIGLA_UF":"SE"}},{"type":"Feature","geometry":{"type":"Polygon","coordinates":[[[-37.66302,-10.71767],[-37.64634,-10.69681],[-37.64165,-10.69942],[-37.64478,-10.71141],[-37.63539,-10.71454],[-37.61923,-10.70672],[-37.61715,-10.71245],[-37.6307,-10.72705],[-37.62758,-10.74113],[-37.63227,-10.74895],[-37.61924,-10.74842],[-37.59995,-10.77866],[-37.6135,-10.79743],[-37.60881,-10.81202],[-37.59943,-10.81463],[-37.59422,-10.8261],[-37.57076,-10.83965],[-37.56398,-10.83496],[-37.54991,-10.83966],[-37.54261,-10.83548],[-37.53687,-10.8407],[-37.51498,-10.84487],[-37.50925,-10.84226],[-37.5082,-10.83444],[-37.49725,-10.83132],[-37.49048,-10.83079],[-37.48891,-10.83653],[-37.47953,-10.84122],[-37.48214,-10.85842],[-37.47797,-10.85947],[-37.47119,-10.85217],[-37.46546,-10.85686],[-37.4566,-10.88136],[-37.46442,-10.89179],[-37.47328,-10.89231],[-37.49257,-10.90378],[-37.50143,-10.90117],[-37.45608,-10.9752],[-37.51915,-10.96112],[-37.52958,-10.99136],[-37.6229,-11.06694],[-37.63541,-11.06225],[-37.64323,-11.04661],[-37.65261,-11.04505],[-37.65574,-11.03827],[-37.66981,-11.03097],[-37.67346,-11.02107],[-37.69223,-11.02524],[-37.70265,-11.00543],[-37.74227,-10.99083],[-37.74123,-11.00908],[-37.74957,-11.00855],[-37.75374,-11.00282],[-37.75948,-11.01064],[-37.76469,-11.00855],[-37.77042,-11.01846],[-37.77564,-11.00438],[-37.77981,-11.0096],[-37.78398,-11.00647],[-37.7918,-11.01794],[-37.79649,-11.01116],[-37.80691,-11.01012],[-37.81004,-11.0023],[-37.81265,-11.00595],[-37.82099,-11.00438],[-37.82568,-10.98978],[-37.83611,-10.98874],[-37.83141,-10.9804],[-37.83871,-10.97102],[-37.83819,-10.95642],[-37.8335,-10.95069],[-37.83975,-10.94808],[-37.84601,-10.93348],[-37.87364,-10.92097],[-37.86477,-10.89751],[-37.87572,-10.86415],[-37.85226,-10.86676],[-37.82776,-10.85894],[-37.81316,-10.86936],[-37.80326,-10.83756],[-37.76051,-10.82297],[-37.70838,-10.7552],[-37.70525,-10.74112],[-37.67866,-10.72705],[-37.67606,-10.71662],[-37.6698,-10.70828],[-37.66302,-10.71767]]]},"properties":{"CD_MUN":"2803500","NM_MUN":"Lagarto","SIGLA_UF":"SE"}},{"type":"Feature","geometry":{"type":"Polygon","coordinates":[[[-36.82163,-10.29856],[-36.81277,-10.29856],[-36.8039,-10.28552],[-36.7794,-10.31003],[-36.76377,-10.31993],[-36.75125,-10.31524],[-36.72571,-10.33661],[-36.71633,-10.35225],[-36.71424,-10.38405],[-36.74918,-10.59518],[-36.75491,-10.59466],[-36.76482,-10.58163],[-36.78202,-10.57589],[-36.80965,-10.57329],[-36.80704,-10.55087],[-36.82998,-10.53262],[-36.83571,-10.51021],[-36.8451,-10.49926],[-36.86386,-10.49613],[-36.87116,-10.48414],[-36.87741,-10.44035],[-36.85917,-10.42888],[-36.86021,-10.4195],[-36.87272,-10.41898],[-36.88523,-10.39812],[-36.90452,-10.40438],[-36.89931,-10.38874],[-36.86334,-10.38614],[-36.84509,-10.37102],[-36.8404,-10.34339],[-36.82632,-10.32983],[-36.82163,-10.29856]]]},"properties":{"CD_MUN":"2803401","NM_MUN":"Japoatã","SIGLA_UF":"SE"}},{"type":"Feature","geometry":{"type":"Polygon","coordinates":[[[-36.93788,-10.4513],[-36.90556,-10.41376],[-36.90452,-10.40438],[-36.88523,-10.39812],[-36.87272,-10.41898],[-36.86021,-10.4195],[-36.85917,-10.42888],[-36.87741,-10.44035],[-36.87116,-10.48414],[-36.86386,-10.49613],[-36.8451,-10.49926],[-36.83571,-10.51021],[-36.82998,-10.53262],[-36.80704,-10.55087],[-36.80965,-10.57329],[-36.78202,-10.57589],[-36.9087,-10.67911],[-36.9233,-10.67754],[-36.9332,-10.65461],[-36.95979,-10.652],[-36.97334,-10.63532],[-36.98481,-10.64105],[-37.00931,-10.64105],[-36.97386,-10.54148],[-36.97646,-10.52897],[-36.95978,-10.52167],[-36.93788,-10.4513]]]},"properties":{"CD_MUN":"2803302","NM_MUN":"Japaratuba","SIGLA_UF":"SE"}},{"type":"Feature","geometry":{"type":"Polygon","coordinates":[[[-37.64165,-10.60663],[-37.55772,-10.61966],[-37.52957,-10.64573],[-37.51654,-10.65668],[-37.52071,-10.66189],[-37.50715,-10.67232],[-37.49986,-10.68952],[-37.53165,-10.689],[-37.53374,-10.69525],[-37.54677,-10.6989],[-37.57232,-10.69056],[-37.58378,-10.68118],[-37.59525,-10.69629],[-37.60568,-10.69525],[-37.60464,-10.71037],[-37.60829,-10.70672],[-37.61089,-10.71402],[-37.61715,-10.71245],[-37.61923,-10.70672],[-37.63539,-10.71454],[-37.64478,-10.71141],[-37.64165,-10.69942],[-37.64634,-10.69681],[-37.66302,-10.71767],[-37.66511,-10.70724],[-37.65989,-10.70098],[-37.66771,-10.67388],[-37.65259,-10.64051],[-37.65051,-10.61862],[-37.64165,-10.60663]]]},"properties":{"CD_MUN":"2803708","NM_MUN":"Macambira","SIGLA_UF":"SE"}},{"type":"Feature","geometry":{"type":"Polygon","coordinates":[[[-37.24442,-10.77867],[-37.22201,-10.75938],[-37.21679,-10.7646],[-37.16049,-10.75],[-37.1485,-10.7719],[-37.14277,-10.76616],[-37.1313,-10.76825],[-37.13286,-10.77711],[-37.12765,-10.78493],[-37.09846,-10.77398],[-37.08699,-10.78284],[-37.08491,-10.79796],[-37.06145,-10.82246],[-37.09325,-10.82246],[-37.10211,-10.81829],[-37.11827,-10.83133],[-37.14851,-10.83497],[-37.15737,-10.83132],[-37.15841,-10.83602],[-37.17353,-10.84279],[-37.17874,-10.85426],[-37.21575,-10.84696],[-37.2439,-10.83289],[-37.31793,-10.8308],[-37.24442,-10.77867]]]},"properties":{"CD_MUN":"2803609","NM_MUN":"Laranjeiras","SIGLA_UF":"SE"}},{"type":"Feature","geometry":{"type":"Polygon","coordinates":[[[-37.79024,-11.13367],[-37.77199,-11.13262],[-37.76261,-11.14253],[-37.74801,-11.14774],[-37.74645,-11.15348],[-37.73915,-11.14983],[-37.72873,-11.16443],[-37.7183,-11.16338],[-37.70422,-11.17798],[-37.70527,-11.1931],[-37.69693,-11.19935],[-37.69589,-11.20561],[-37.69067,-11.20457],[-37.67868,-11.23376],[-37.66461,-11.24627],[-37.66305,-11.25357],[-37.69276,-11.30779],[-37.69746,-11.36148],[-37.73082,-11.40318],[-37.7449,-11.41309],[-37.74854,-11.40162],[-37.74854,-11.40631],[-37.7621,-11.40423],[-37.75949,-11.39536],[-37.76731,-11.39067],[-37.76627,-11.38181],[-37.78347,-11.37295],[-37.79025,-11.3474],[-37.8137,-11.33228],[-37.81631,-11.32029],[-37.82726,-11.32082],[-37.84811,-11.29892],[-37.86062,-11.30048],[-37.86896,-11.28432],[-37.87782,-11.28849],[-37.88408,-11.28119],[-37.89763,-11.2765],[-37.90493,-11.26451],[-37.91692,-11.26555],[-37.92526,-11.25617],[-37.91796,-11.23949],[-37.88564,-11.21082],[-37.86687,-11.22229],[-37.86374,-11.2103],[-37.87469,-11.18684],[-37.84237,-11.15869],[-37.79024,-11.13367]]]},"properties":{"CD_MUN":"2803005","NM_MUN":"Itabaianinha","SIGLA_UF":"SE"}},{"type":"Feature","geometry":{"type":"Polygon","coordinates":[[[-37.47431,-10.56597],[-37.46128,-10.59569],[-37.42426,-10.57536],[-37.39351,-10.58318],[-37.38673,-10.59777],[-37.38829,-10.62801],[-37.381,-10.63218],[-37.37995,-10.6254],[-37.37526,-10.6254],[-37.36484,-10.64521],[-37.35858,-10.64469],[-37.36015,-10.65147],[-37.35441,-10.65668],[-37.32783,-10.65355],[-37.31949,-10.69317],[-37.33565,-10.7208],[-37.36067,-10.73853],[-37.40238,-10.82402],[-37.43001,-10.83027],[-37.44877,-10.78909],[-37.44564,-10.78231],[-37.44252,-10.78492],[-37.44043,-10.78127],[-37.4519,-10.77032],[-37.44825,-10.7672],[-37.44929,-10.74843],[-37.45555,-10.72445],[-37.46389,-10.71298],[-37.47379,-10.71037],[-37.48057,-10.70099],[-37.49933,-10.69369],[-37.49986,-10.68952],[-37.50715,-10.67232],[-37.52071,-10.66189],[-37.51654,-10.65668],[-37.52957,-10.64573],[-37.50819,-10.62592],[-37.47431,-10.56597]]]},"properties":{"CD_MUN":"2802908","NM_MUN":"Itabaiana","SIGLA_UF":"SE"}},{"type":"Feature","geometry":{"type":"Polygon","coordinates":[[[-37.60467,-11.39433],[-37.56192,-11.41414],[-37.53533,-11.41622],[-37.52439,-11.423],[-37.50666,-11.41518],[-37.49989,-11.43499],[-37.47747,-11.44959],[-37.47069,-11.45063],[-37.46809,-11.44594],[-37.4634,-11.45063],[-37.45766,-11.44177],[-37.45036,-11.44281],[-37.43785,-11.42352],[-37.41961,-11.4303],[-37.40762,-11.42352],[-37.39771,-11.4376],[-37.37217,-11.4548],[-37.39824,-11.48504],[-37.43473,-11.51267],[-37.46236,-11.52309],[-37.50458,-11.52413],[-37.51605,-11.53508],[-37.51814,-11.54811],[-37.55254,-11.54655],[-37.55723,-11.5502],[-37.5687,-11.53925],[-37.57652,-11.55124],[-37.58486,-11.54133],[-37.57809,-11.53352],[-37.58017,-11.53039],[-37.58903,-11.52778],[-37.60207,-11.53977],[-37.61562,-11.53768],[-37.63074,-11.52517],[-37.63074,-11.51787],[-37.63803,-11.50067],[-37.6495,-11.49963],[-37.64585,-11.49911],[-37.65054,-11.48399],[-37.60467,-11.39433]]]},"properties":{"CD_MUN":"2802809","NM_MUN":"Indiaroba","SIGLA_UF":"SE"}},{"type":"Feature","geometry":{"type":"Polygon","coordinates":[[[-37.40238,-10.82402],[-37.31793,-10.8308],[-37.3294,-10.93558],[-37.33826,-10.95122],[-37.32419,-10.97103],[-37.32836,-10.97572],[-37.30438,-10.98511],[-37.29656,-11.01534],[-37.28457,-11.02316],[-37.28509,-11.02785],[-37.22775,-11.04037],[-37.21889,-11.07425],[-37.1652,-11.10501],[-37.16155,-11.11909],[-37.16468,-11.14984],[-37.17146,-11.15975],[-37.16051,-11.16548],[-37.15999,-11.17174],[-37.25591,-11.28225],[-37.31169,-11.24941],[-37.32941,-11.23325],[-37.32941,-11.21344],[-37.33775,-11.20979],[-37.34766,-11.19467],[-37.34505,-11.17538],[-37.33723,-11.16652],[-37.33827,-11.15245],[-37.33097,-11.1415],[-37.33931,-11.12482],[-37.33566,-11.11335],[-37.34974,-11.09145],[-37.3659,-11.07477],[-37.37789,-11.07008],[-37.38831,-11.0534],[-37.40447,-11.03463],[-37.41333,-11.00804],[-37.42428,-11.00335],[-37.42741,-10.98771],[-37.45608,-10.9752],[-37.50143,-10.90117],[-37.49257,-10.90378],[-37.47328,-10.89231],[-37.46442,-10.89179],[-37.4566,-10.88136],[-37.40238,-10.82402]]]},"properties":{"CD_MUN":"2803203","NM_MUN":"Itaporanga d'Ajuda","SIGLA_UF":"SE"}},{"type":"Feature","geometry":{"type":"Polygon","coordinates":[[[-37.22042,-10.1359],[-37.22042,-10.12339],[-37.22667,-10.11922],[-37.21989,-10.114],[-37.23032,-10.11765],[-37.2324,-10.114],[-37.22928,-10.10149],[-37.2152,-10.10358],[-37.21781,-10.09002],[-37.2053,-10.09628],[-37.21207,-10.07751],[-37.19956,-10.08116],[-37.19487,-10.07438],[-37.18444,-10.07438],[-37.18653,-10.06656],[-37.19695,-10.06917],[-37.18549,-10.05562],[-37.19226,-10.05093],[-37.18705,-10.03998],[-37.18809,-10.03059],[-37.19383,-10.02747],[-37.05985,-10.05562],[-37.06767,-10.09003],[-37.06455,-10.13955],[-37.14952,-10.16405],[-37.1808,-10.17448],[-37.1907,-10.15884],[-37.19539,-10.16353],[-37.20426,-10.15884],[-37.20738,-10.15049],[-37.20373,-10.14789],[-37.22042,-10.1359]]]},"properties":{"CD_MUN":"2803104","NM_MUN":"Itabi","SIGLA_UF":"SE"}},{"type":"Feature","geometry":{"type":"Polygon","coordinates":[[[-37.00983,-10.67546],[-36.99993,-10.68328],[-36.91704,-10.68641],[-36.93529,-10.69683],[-36.95041,-10.71351],[-36.96344,-10.70309],[-36.97074,-10.70622],[-36.97334,-10.70152],[-36.99784,-10.70152],[-37.0041,-10.69579],[-37.00201,-10.68797],[-37.01244,-10.67911],[-37.00983,-10.67546]]]},"properties":{"CD_MUN":"2802502","NM_MUN":"General Maynard","SIGLA_UF":"SE"}},{"type":"Feature","geometry":{"type":"Polygon","coordinates":[[[-37.22562,-9.89922],[-37.15472,-9.89818],[-37.13179,-9.91382],[-37.04734,-9.98785],[-37.0317,-9.98837],[-36.99521,-9.97638],[-36.96393,-9.99411],[-36.95611,-10.02017],[-37.02023,-10.0452],[-37.02753,-10.05771],[-37.05985,-10.05562],[-37.19383,-10.02747],[-37.18809,-10.03059],[-37.18705,-10.03998],[-37.19226,-10.05093],[-37.18549,-10.05562],[-37.19695,-10.06917],[-37.18653,-10.06656],[-37.18444,-10.07438],[-37.19487,-10.07438],[-37.19956,-10.08116],[-37.21207,-10.07751],[-37.2053,-10.09628],[-37.21781,-10.09002],[-37.2152,-10.10358],[-37.22928,-10.10149],[-37.2324,-10.114],[-37.23032,-10.11765],[-37.21989,-10.114],[-37.22667,-10.11922],[-37.22042,-10.12339],[-37.22042,-10.1359],[-37.22302,-10.15779],[-37.22771,-10.1531],[-37.23032,-10.15884],[-37.23814,-10.15936],[-37.24648,-10.14737],[-37.24961,-10.15466],[-37.2616,-10.15571],[-37.2616,-10.16353],[-37.27203,-10.16509],[-37.27932,-10.17135],[-37.28402,-10.16926],[-37.28454,-10.15675],[-37.31425,-10.1531],[-37.34501,-10.15518],[-37.33354,-10.11817],[-37.35439,-10.11087],[-37.41903,-10.06135],[-37.4086,-10.05196],[-37.40078,-10.05248],[-37.39922,-10.04519],[-37.394,-10.04936],[-37.3914,-10.04049],[-37.38201,-10.03789],[-37.3841,-10.03007],[-37.37524,-10.02538],[-37.37889,-10.02068],[-37.37211,-10.02069],[-37.37836,-10.00974],[-37.36637,-10.00661],[-37.36377,-10.01547],[-37.35126,-10.01443],[-37.34709,-10.00453],[-37.35543,-10.004],[-37.35126,-9.99358],[-37.34865,-9.99983],[-37.34239,-9.99931],[-37.33874,-9.9868],[-37.33093,-9.99462],[-37.33405,-10.00036],[-37.32728,-10.00974],[-37.33041,-10.01547],[-37.31633,-10.0087],[-37.3132,-10.00036],[-37.3106,-10.004],[-37.30121,-10.00192],[-37.29235,-10.01547],[-37.28505,-10.0087],[-37.28766,-9.9941],[-37.28401,-9.98889],[-37.26576,-9.9941],[-37.2715,-9.96491],[-37.2668,-9.96126],[-37.26159,-9.96699],[-37.2569,-9.95865],[-37.23292,-9.95917],[-37.23031,-9.91278],[-37.22562,-9.89922]]]},"properties":{"CD_MUN":"2802403","NM_MUN":"Gararu","SIGLA_UF":"SE"}},{"type":"Feature","geometry":{"type":"Polygon","coordinates":[[[-37.57491,-10.37048],[-37.55771,-10.44294],[-37.54676,-10.46223],[-37.51027,-10.50028],[-37.49985,-10.52948],[-37.47431,-10.56597],[-37.50819,-10.62592],[-37.52957,-10.64573],[-37.55772,-10.61966],[-37.64165,-10.60663],[-37.69534,-10.53938],[-37.72088,-10.50758],[-37.67448,-10.48621],[-37.626,-10.41374],[-37.57491,-10.37048]]]},"properties":{"CD_MUN":"2802304","NM_MUN":"Frei Paulo","SIGLA_UF":"SE"}},{"type":"Feature","geometry":{"type":"Polygon","coordinates":[[[-36.56203,-10.41273],[-36.54795,-10.42628],[-36.51198,-10.41951],[-36.52084,-10.42889],[-36.50677,-10.43254],[-36.48644,-10.42316],[-36.48018,-10.43619],[-36.51355,-10.44609],[-36.53075,-10.46695],[-36.58914,-10.50239],[-36.59904,-10.4977],[-36.59383,-10.48363],[-36.60165,-10.47946],[-36.59748,-10.45026],[-36.59331,-10.44609],[-36.58861,-10.45183],[-36.58392,-10.43879],[-36.57715,-10.43879],[-36.58288,-10.43358],[-36.58132,-10.42941],[-36.57245,-10.43515],[-36.56776,-10.43306],[-36.56203,-10.41273]]]},"properties":{"CD_MUN":"2802700","NM_MUN":"Ilha das Flores","SIGLA_UF":"SE"}},{"type":"Feature","geometry":{"type":"Polygon","coordinates":[[[-37.31425,-10.1531],[-37.28454,-10.15675],[-37.28402,-10.16926],[-37.27932,-10.17135],[-37.27203,-10.16509],[-37.2616,-10.16353],[-37.2616,-10.15571],[-37.24961,-10.15466],[-37.24648,-10.14737],[-37.23814,-10.15936],[-37.23032,-10.15884],[-37.22771,-10.1531],[-37.22302,-10.15779],[-37.22042,-10.1359],[-37.20373,-10.14789],[-37.20738,-10.15049],[-37.20426,-10.15884],[-37.19539,-10.16353],[-37.1907,-10.15884],[-37.1808,-10.17448],[-37.14952,-10.16405],[-37.14952,-10.25059],[-37.1391,-10.26049],[-37.13858,-10.27457],[-37.15057,-10.2876],[-37.14692,-10.30272],[-37.15526,-10.30637],[-37.14953,-10.32201],[-37.16465,-10.33139],[-37.1636,-10.33869],[-37.17194,-10.33869],[-37.17351,-10.33347],[-37.16673,-10.32774],[-37.17246,-10.32357],[-37.16986,-10.31627],[-37.18497,-10.30167],[-37.21,-10.2949],[-37.21573,-10.30011],[-37.2272,-10.29385],[-37.24075,-10.2657],[-37.26108,-10.23755],[-37.32937,-10.21044],[-37.31425,-10.1531]]]},"properties":{"CD_MUN":"2802601","NM_MUN":"Gracho Cardoso","SIGLA_UF":"SE"}},{"type":"Feature","geometry":{"type":"Polygon","coordinates":[[[-37.2444,-10.29855],[-37.2418,-10.28708],[-37.26473,-10.2657],[-37.29184,-10.25632],[-37.26108,-10.23755],[-37.24075,-10.2657],[-37.2272,-10.29385],[-37.21573,-10.30011],[-37.21,-10.2949],[-37.18497,-10.30167],[-37.16986,-10.31627],[-37.17246,-10.32357],[-37.16673,-10.32774],[-37.17351,-10.33347],[-37.17194,-10.33869],[-37.1636,-10.33869],[-37.15266,-10.34599],[-37.15735,-10.34911],[-37.1537,-10.35798],[-37.15891,-10.36058],[-37.15735,-10.3658],[-37.14744,-10.36163],[-37.14379,-10.36684],[-37.14379,-10.36058],[-37.13493,-10.35798],[-37.12503,-10.37518],[-37.13128,-10.38404],[-37.11825,-10.38821],[-37.11825,-10.39968],[-37.10626,-10.39968],[-37.11773,-10.40907],[-37.12086,-10.40542],[-37.12816,-10.41063],[-37.13233,-10.40594],[-37.1438,-10.41845],[-37.16152,-10.41063],[-37.1683,-10.41688],[-37.1782,-10.41636],[-37.18915,-10.40646],[-37.20739,-10.40124],[-37.24023,-10.3585],[-37.23919,-10.33973],[-37.2491,-10.32096],[-37.2444,-10.29855]]]},"properties":{"CD_MUN":"2801900","NM_MUN":"Cumbe","SIGLA_UF":"SE"}},{"type":"Feature","geometry":{"type":"Polygon","coordinates":[[[-37.32937,-10.21044],[-37.26108,-10.23755],[-37.29184,-10.25632],[-37.26473,-10.2657],[-37.2418,-10.28708],[-37.2444,-10.29855],[-37.2736,-10.30584],[-37.27725,-10.322],[-37.2736,-10.32565],[-37.30175,-10.33451],[-37.30852,-10.34755],[-37.31739,-10.35172],[-37.31582,-10.35849],[-37.32521,-10.36527],[-37.32521,-10.37465],[-37.34397,-10.37935],[-37.3398,-10.38404],[-37.34762,-10.38404],[-37.34919,-10.37048],[-37.35492,-10.36892],[-37.35284,-10.36318],[-37.34397,-10.3611],[-37.34919,-10.3465],[-37.35857,-10.3439],[-37.35544,-10.33399],[-37.36274,-10.32826],[-37.37264,-10.32982],[-37.38046,-10.31522],[-37.39089,-10.31731],[-37.38463,-10.30793],[-37.38515,-10.29802],[-37.39506,-10.28916],[-37.38984,-10.27352],[-37.39766,-10.25579],[-37.38306,-10.21722],[-37.32937,-10.21044]]]},"properties":{"CD_MUN":"2802205","NM_MUN":"Feira Nova","SIGLA_UF":"SE"}},{"type":"Feature","geometry":{"type":"Polygon","coordinates":[[[-37.54679,-11.16652],[-37.45765,-11.14619],[-37.43575,-11.12898],[-37.43106,-11.11752],[-37.43002,-11.10761],[-37.43784,-11.09666],[-37.43732,-11.08832],[-37.38831,-11.0534],[-37.37789,-11.07008],[-37.3659,-11.07477],[-37.34974,-11.09145],[-37.33566,-11.11335],[-37.33931,-11.12482],[-37.33097,-11.1415],[-37.33827,-11.15245],[-37.33723,-11.16652],[-37.34505,-11.17538],[-37.34766,-11.19467],[-37.33775,-11.20979],[-37.32941,-11.21344],[-37.32941,-11.23325],[-37.31169,-11.24941],[-37.25591,-11.28225],[-37.29345,-11.35054],[-37.31847,-11.4277],[-37.32629,-11.42926],[-37.33933,-11.44125],[-37.35966,-11.4449],[-37.37217,-11.4548],[-37.39771,-11.4376],[-37.40762,-11.42352],[-37.40709,-11.39225],[-37.38885,-11.37191],[-37.38676,-11.35419],[-37.37686,-11.34116],[-37.38467,-11.31874],[-37.39875,-11.31457],[-37.40657,-11.30102],[-37.42064,-11.30154],[-37.42481,-11.30779],[-37.44202,-11.29372],[-37.44775,-11.2932],[-37.46078,-11.30988],[-37.48737,-11.30154],[-37.50197,-11.30466],[-37.5249,-11.29945],[-37.5249,-11.29319],[-37.50666,-11.27338],[-37.51552,-11.27078],[-37.515,-11.26556],[-37.52699,-11.2541],[-37.52438,-11.24419],[-37.53063,-11.23637],[-37.52542,-11.22751],[-37.53272,-11.22803],[-37.53793,-11.21917],[-37.5348,-11.1905],[-37.54836,-11.18632],[-37.54784,-11.18215],[-37.55357,-11.18528],[-37.55722,-11.17903],[-37.54679,-11.16652]]]},"properties":{"CD_MUN":"2802106","NM_MUN":"Estância","SIGLA_UF":"SE"}},{"type":"Feature","geometry":{"type":"Polygon","coordinates":[[[-37.20323,-10.62489],[-37.20532,-10.60768],[-37.1756,-10.62541],[-37.14954,-10.62072],[-37.15736,-10.62697],[-37.14902,-10.62958],[-37.1485,-10.62489],[-37.14224,-10.62541],[-37.14537,-10.63636],[-37.13286,-10.65095],[-37.09741,-10.64418],[-37.09272,-10.63844],[-37.09063,-10.64157],[-37.08959,-10.65408],[-37.11566,-10.68484],[-37.12139,-10.70152],[-37.14433,-10.7109],[-37.14537,-10.71924],[-37.15371,-10.72758],[-37.14954,-10.73749],[-37.16049,-10.75],[-37.16049,-10.7354],[-37.1704,-10.73436],[-37.16675,-10.72811],[-37.17874,-10.7182],[-37.19125,-10.72863],[-37.20584,-10.72602],[-37.19855,-10.72081],[-37.20584,-10.70673],[-37.19594,-10.69266],[-37.19802,-10.67649],[-37.19177,-10.67754],[-37.18812,-10.65825],[-37.17925,-10.65356],[-37.1829,-10.64939],[-37.17978,-10.64261],[-37.19229,-10.62749],[-37.20219,-10.62853],[-37.20323,-10.62489]]]},"properties":{"CD_MUN":"2802007","NM_MUN":"Divina Pastora","SIGLA_UF":"SE"}},{"type":"Feature","geometry":{"type":"Polygon","coordinates":[[[-37.76205,-10.19636],[-37.75423,-10.19948],[-37.72034,-10.18802],[-37.70992,-10.1901],[-37.70053,-10.19479],[-37.70054,-10.20157],[-37.69272,-10.20835],[-37.68802,-10.2047],[-37.68177,-10.21043],[-37.67395,-10.20731],[-37.62808,-10.24276],[-37.61765,-10.24119],[-37.61244,-10.25005],[-37.6067,-10.23963],[-37.59628,-10.25214],[-37.59106,-10.24953],[-37.61296,-10.27925],[-37.58638,-10.32252],[-37.57491,-10.37048],[-37.626,-10.41374],[-37.67448,-10.48621],[-37.72088,-10.50758],[-37.73026,-10.51644],[-37.77144,-10.50653],[-37.77926,-10.51227],[-37.79595,-10.50914],[-37.81471,-10.51696],[-37.81211,-10.50862],[-37.82045,-10.48464],[-37.85798,-10.4299],[-37.85016,-10.4153],[-37.85276,-10.40644],[-37.83765,-10.40123],[-37.84182,-10.39862],[-37.84025,-10.38872],[-37.83295,-10.38507],[-37.83869,-10.37881],[-37.8293,-10.37516],[-37.82305,-10.37777],[-37.8121,-10.3663],[-37.78708,-10.35483],[-37.78291,-10.34597],[-37.76153,-10.34441],[-37.7339,-10.33294],[-37.76205,-10.19636]]]},"properties":{"CD_MUN":"2801405","NM_MUN":"Carira","SIGLA_UF":"SE"}},{"type":"Feature","geometry":{"type":"Polygon","coordinates":[[[-37.12503,-10.37518],[-37.11877,-10.36736],[-37.11095,-10.37257],[-37.10209,-10.36893],[-37.09792,-10.3585],[-37.08958,-10.35694],[-37.08437,-10.34599],[-37.0656,-10.32983],[-37.05048,-10.34026],[-37.03745,-10.32566],[-37.01764,-10.33087],[-37.00878,-10.33452],[-36.99783,-10.36007],[-36.98063,-10.37414],[-36.98845,-10.38665],[-36.98376,-10.39656],[-36.98532,-10.40542],[-36.96968,-10.42627],[-36.96499,-10.44243],[-36.93788,-10.4513],[-36.95978,-10.52167],[-36.97646,-10.52897],[-36.97386,-10.54148],[-37.00931,-10.64105],[-37.03381,-10.62489],[-37.05727,-10.62228],[-37.07134,-10.61446],[-37.06457,-10.60456],[-37.06509,-10.59309],[-37.07656,-10.58579],[-37.06874,-10.5738],[-37.07291,-10.56233],[-37.06456,-10.52949],[-37.10314,-10.52532],[-37.10105,-10.51072],[-37.11409,-10.48309],[-37.13702,-10.47006],[-37.13441,-10.45546],[-37.09688,-10.42366],[-37.11148,-10.42418],[-37.10835,-10.41793],[-37.11773,-10.40907],[-37.10626,-10.39968],[-37.11825,-10.39968],[-37.11825,-10.38821],[-37.13128,-10.38404],[-37.12503,-10.37518]]]},"properties":{"CD_MUN":"2801306","NM_MUN":"Capela","SIGLA_UF":"SE"}},{"type":"Feature","geometry":{"type":"Polygon","coordinates":[[[-37.7449,-11.41309],[-37.73082,-11.40318],[-37.72248,-11.4011],[-37.72039,-11.40944],[-37.69433,-11.42404],[-37.67296,-11.45688],[-37.67817,-11.47148],[-37.67452,-11.47773],[-37.66097,-11.48555],[-37.65576,-11.47982],[-37.65054,-11.48399],[-37.64585,-11.49911],[-37.6495,-11.49963],[-37.63803,-11.50067],[-37.63074,-11.51787],[-37.64325,-11.52413],[-37.65055,-11.51683],[-37.65628,-11.53299],[-37.66306,-11.53247],[-37.66149,-11.54602],[-37.67244,-11.56844],[-37.68339,-11.56218],[-37.68756,-11.56635],[-37.69955,-11.56218],[-37.69538,-11.5455],[-37.70268,-11.54029],[-37.71102,-11.55228],[-37.72666,-11.5528],[-37.7303,-11.5382],[-37.74699,-11.5382],[-37.75845,-11.52517],[-37.7694,-11.53143],[-37.77461,-11.52465],[-37.78973,-11.52413],[-37.79442,-11.51839],[-37.79912,-11.52152],[-37.81006,-11.51683],[-37.81788,-11.50379],[-37.80746,-11.49702],[-37.83925,-11.4819],[-37.84707,-11.46991],[-37.86219,-11.46626],[-37.86219,-11.45271],[-37.85281,-11.45218],[-37.80589,-11.41361],[-37.7449,-11.41309]]]},"properties":{"CD_MUN":"2801702","NM_MUN":"Cristinápolis","SIGLA_UF":"SE"}},{"type":"Feature","geometry":{"type":"Polygon","coordinates":[[[-36.93266,-10.22349],[-36.89044,-10.23235],[-36.86594,-10.22974],[-36.84613,-10.26311],[-36.87584,-10.29803],[-36.88731,-10.30116],[-36.90556,-10.32566],[-36.90452,-10.3095],[-36.92954,-10.31106],[-36.93684,-10.28604],[-36.93058,-10.27666],[-36.94048,-10.26675],[-36.93266,-10.22349]]]},"properties":{"CD_MUN":"2801603","NM_MUN":"Cedro de São João","SIGLA_UF":"SE"}},{"type":"Feature","geometry":{"type":"Polygon","coordinates":[[[-37.00983,-10.67546],[-37.00931,-10.64105],[-36.98481,-10.64105],[-36.97334,-10.63532],[-36.95979,-10.652],[-36.9332,-10.65461],[-36.9233,-10.67754],[-36.9087,-10.67911],[-36.90766,-10.68224],[-36.91235,-10.68797],[-36.91704,-10.68641],[-36.99993,-10.68328],[-37.00983,-10.67546]]]},"properties":{"CD_MUN":"2801504","NM_MUN":"Carmópolis","SIGLA_UF":"SE"}},{"type":"Feature","geometry":{"type":"Polygon","coordinates":[[[-38.00234,-9.515],[-37.97627,-9.53168],[-37.95803,-9.53325],[-37.92258,-9.54784],[-37.89339,-9.53898],[-37.88609,-9.54941],[-37.84126,-9.57913],[-37.8324,-9.59424],[-37.81728,-9.5932],[-37.80633,-9.6104],[-37.79017,-9.62292],[-37.78392,-9.63856],[-37.74639,-9.62552],[-37.71511,-9.63022],[-37.68383,-9.64534],[-37.66767,-9.65889],[-37.66506,-9.66671],[-37.83136,-9.70424],[-37.84283,-9.74751],[-37.84075,-9.76315],[-37.85378,-9.77931],[-37.85378,-9.79338],[-37.85899,-9.80068],[-37.86994,-9.84291],[-37.86786,-9.89921],[-37.8835,-9.91224],[-37.89653,-9.91328],[-37.91843,-9.93309],[-37.9252,-9.95394],[-37.93615,-9.96593],[-37.95231,-9.97062],[-37.96952,-9.9628],[-37.98672,-9.93205],[-37.98724,-9.92162],[-37.99662,-9.91641],[-37.97264,-9.85333],[-37.97368,-9.82987],[-37.96534,-9.81997],[-37.96742,-9.81475],[-37.98046,-9.81527],[-38.01434,-9.78973],[-38.01955,-9.77774],[-38.02737,-9.77617],[-38.03728,-9.74959],[-38.04196,-9.68912],[-38.02424,-9.68286],[-38.02111,-9.6667],[-38.00599,-9.65158],[-37.99609,-9.65002],[-37.9914,-9.6568],[-37.98671,-9.64741],[-37.9914,-9.63751],[-38.0086,-9.63594],[-38.0086,-9.63125],[-38.03466,-9.61248],[-38.03988,-9.60258],[-38.03831,-9.58329],[-38.04092,-9.57391],[-38.03101,-9.56817],[-38.02736,-9.57547],[-38.01902,-9.56452],[-38.02163,-9.54107],[-38.01381,-9.53585],[-38.00234,-9.515]]]},"properties":{"CD_MUN":"2801207","NM_MUN":"Canindé de São Francisco","SIGLA_UF":"SE"}},{"type":"Feature","geometry":{"type":"Polygon","coordinates":[[[-36.95403,-10.06449],[-36.95142,-10.07491],[-36.9165,-10.1333],[-36.92223,-10.13382],[-36.93839,-10.11818],[-36.94204,-10.12079],[-36.94934,-10.22766],[-36.95612,-10.23339],[-36.96238,-10.20941],[-36.99522,-10.19377],[-36.99626,-10.17865],[-37.0145,-10.19012],[-37.14952,-10.16405],[-37.06455,-10.13955],[-37.05569,-10.12808],[-37.04734,-10.12548],[-37.04005,-10.13799],[-37.03223,-10.13278],[-37.01815,-10.10619],[-36.99,-10.08377],[-36.95403,-10.06449]]]},"properties":{"CD_MUN":"2801108","NM_MUN":"Canhoba","SIGLA_UF":"SE"}},{"type":"Feature","geometry":{"type":"Polygon","coordinates":[[[-37.59525,-10.69629],[-37.58378,-10.68118],[-37.57232,-10.69056],[-37.54677,-10.6989],[-37.53374,-10.69525],[-37.53165,-10.689],[-37.49986,-10.68952],[-37.49933,-10.69369],[-37.48057,-10.70099],[-37.47379,-10.71037],[-37.46389,-10.71298],[-37.45555,-10.72445],[-37.44929,-10.74843],[-37.44825,-10.7672],[-37.4519,-10.77032],[-37.44043,-10.78127],[-37.44252,-10.78492],[-37.44564,-10.78231],[-37.44877,-10.78909],[-37.43001,-10.83027],[-37.40238,-10.82402],[-37.4566,-10.88136],[-37.46546,-10.85686],[-37.47119,-10.85217],[-37.47797,-10.85947],[-37.48214,-10.85842],[-37.47953,-10.84122],[-37.48891,-10.83653],[-37.49048,-10.83079],[-37.49725,-10.83132],[-37.5056,-10.82402],[-37.52332,-10.81985],[-37.51863,-10.81255],[-37.52332,-10.80838],[-37.5155,-10.79795],[-37.52175,-10.79899],[-37.51863,-10.79274],[-37.52905,-10.79013],[-37.52697,-10.78388],[-37.55564,-10.78127],[-37.56502,-10.77032],[-37.55981,-10.75729],[-37.58743,-10.72184],[-37.58639,-10.71089],[-37.59525,-10.69629]]]},"properties":{"CD_MUN":"2801009","NM_MUN":"Campo do Brito","SIGLA_UF":"SE"}},{"type":"Feature","geometry":{"type":"Polygon","coordinates":[[[-37.59684,-11.20353],[-37.54679,-11.16652],[-37.55722,-11.17903],[-37.55357,-11.18528],[-37.54784,-11.18215],[-37.54836,-11.18632],[-37.5348,-11.1905],[-37.53793,-11.21917],[-37.53272,-11.22803],[-37.52542,-11.22751],[-37.53063,-11.23637],[-37.52438,-11.24419],[-37.52699,-11.2541],[-37.515,-11.26556],[-37.51552,-11.27078],[-37.50666,-11.27338],[-37.5249,-11.29319],[-37.5249,-11.29945],[-37.53324,-11.30518],[-37.54888,-11.30466],[-37.57286,-11.32343],[-37.59267,-11.32708],[-37.60154,-11.34324],[-37.66826,-11.29267],[-37.69276,-11.30779],[-37.66305,-11.25357],[-37.65053,-11.25513],[-37.6547,-11.24471],[-37.64741,-11.22021],[-37.60674,-11.2176],[-37.59788,-11.21135],[-37.59684,-11.20353]]]},"properties":{"CD_MUN":"2800407","NM_MUN":"Arauá","SIGLA_UF":"SE"}},{"type":"Feature","geometry":{"type":"Polygon","coordinates":[[[-37.03486,-10.86834],[-37.03851,-10.88398],[-37.04268,-10.90118],[-37.03539,-10.95383],[-37.03904,-10.96061],[-37.03278,-10.97],[-37.06198,-11.00649],[-37.13861,-11.12326],[-37.15165,-11.13003],[-37.15425,-11.14411],[-37.16468,-11.14984],[-37.16155,-11.11909],[-37.1652,-11.10501],[-37.16363,-11.09458],[-37.17093,-11.07269],[-37.15216,-11.05392],[-37.1407,-11.06279],[-37.09899,-10.94393],[-37.10159,-10.91734],[-37.10524,-10.88971],[-37.09586,-10.88398],[-37.10211,-10.87564],[-37.09221,-10.87355],[-37.08074,-10.8626],[-37.07188,-10.86573],[-37.06666,-10.87668],[-37.05363,-10.86313],[-37.03486,-10.86834]]]},"properties":{"CD_MUN":"2800308","NM_MUN":"Aracaju","SIGLA_UF":"SE"}},{"type":"Feature","geometry":{"type":"Polygon","coordinates":[[[-36.94934,-10.22766],[-36.93266,-10.22349],[-36.94048,-10.26675],[-36.93058,-10.27666],[-36.93684,-10.28604],[-37.002,-10.30585],[-37.01764,-10.33087],[-37.03745,-10.32566],[-37.05048,-10.34026],[-37.0656,-10.32983],[-37.08437,-10.34599],[-37.08958,-10.35694],[-37.09792,-10.3585],[-37.10209,-10.36893],[-37.11095,-10.37257],[-37.11877,-10.36736],[-37.12503,-10.37518],[-37.13493,-10.35798],[-37.14379,-10.36058],[-37.14379,-10.36684],[-37.14744,-10.36163],[-37.15735,-10.3658],[-37.15891,-10.36058],[-37.1537,-10.35798],[-37.15735,-10.34911],[-37.15266,-10.34599],[-37.1636,-10.33869],[-37.16465,-10.33139],[-37.14953,-10.32201],[-37.15526,-10.30637],[-37.14692,-10.30272],[-37.15057,-10.2876],[-37.13858,-10.27457],[-37.1391,-10.26049],[-37.14952,-10.25059],[-37.14952,-10.16405],[-37.0145,-10.19012],[-36.99626,-10.17865],[-36.99522,-10.19377],[-36.96238,-10.20941],[-36.95612,-10.23339],[-36.94934,-10.22766]]]},"properties":{"CD_MUN":"2800209","NM_MUN":"Aquidabã","SIGLA_UF":"SE"}},{"type":"Feature","geometry":{"type":"Polygon","coordinates":[[[-36.48644,-10.42316],[-36.46454,-10.40856],[-36.4536,-10.40752],[-36.42701,-10.43306],[-36.39834,-10.49823],[-36.39052,-10.50136],[-36.39834,-10.50813],[-36.39991,-10.51908],[-36.43483,-10.52116],[-36.49009,-10.53732],[-36.49374,-10.53315],[-36.48644,-10.53003],[-36.49583,-10.51126],[-36.58914,-10.50239],[-36.53075,-10.46695],[-36.51355,-10.44609],[-36.48018,-10.43619],[-36.48644,-10.42316]]]},"properties":{"CD_MUN":"2800704","NM_MUN":"Brejo Grande","SIGLA_UF":"SE"}},{"type":"Feature","geometry":{"type":"Polygon","coordinates":[[[-37.6229,-11.06694],[-37.52958,-10.99136],[-37.53688,-11.09875],[-37.55878,-11.13836],[-37.5421,-11.14254],[-37.54575,-11.15557],[-37.55565,-11.154],[-37.54679,-11.16652],[-37.59684,-11.20353],[-37.63646,-11.2004],[-37.67138,-11.18372],[-37.67868,-11.18997],[-37.69171,-11.17068],[-37.70527,-11.1931],[-37.70422,-11.17798],[-37.66669,-11.1394],[-37.63332,-11.08154],[-37.6229,-11.0878],[-37.61195,-11.07893],[-37.6156,-11.06851],[-37.6229,-11.06694]]]},"properties":{"CD_MUN":"2800670","NM_MUN":"Boquim","SIGLA_UF":"SE"}},{"type":"Feature","geometry":{"type":"Polygon","coordinates":[[[-36.87273,-10.74115],[-36.85449,-10.74375],[-36.93008,-10.82299],[-37.02236,-10.94393],[-37.03539,-10.95383],[-37.04268,-10.90118],[-37.03851,-10.88398],[-37.02913,-10.8845],[-37.0187,-10.8772],[-37.0187,-10.88346],[-37.01297,-10.88242],[-37.01505,-10.86365],[-37.00828,-10.86365],[-37.00515,-10.85844],[-36.99785,-10.86104],[-36.99577,-10.84853],[-36.99107,-10.85218],[-36.98169,-10.84749],[-36.98795,-10.8355],[-36.95823,-10.83081],[-36.95823,-10.82403],[-36.96657,-10.82664],[-36.96032,-10.80839],[-36.9379,-10.79484],[-36.9379,-10.78754],[-36.92852,-10.79015],[-36.90558,-10.77764],[-36.88055,-10.74219],[-36.87586,-10.73802],[-36.87273,-10.74115]]]},"properties":{"CD_MUN":"2800605","NM_MUN":"Barra dos Coqueiros","SIGLA_UF":"SE"}},{"type":"Feature","geometry":{"type":"Polygon","coordinates":[[[-37.33565,-10.7208],[-37.31063,-10.73227],[-37.3174,-10.73748],[-37.31323,-10.74113],[-37.29759,-10.73227],[-37.29864,-10.7281],[-37.29186,-10.72237],[-37.28143,-10.72133],[-37.27987,-10.74113],[-37.24442,-10.77867],[-37.31793,-10.8308],[-37.40238,-10.82402],[-37.36067,-10.73853],[-37.33565,-10.7208]]]},"properties":{"CD_MUN":"2800506","NM_MUN":"Areia Branca","SIGLA_UF":"SE"}},{"type":"Feature","geometry":{"type":"Polygon","coordinates":[[[-36.9165,-10.1333],[-36.88053,-10.14477],[-36.94934,-10.22766],[-36.94204,-10.12079],[-36.93839,-10.11818],[-36.92223,-10.13382],[-36.9165,-10.1333]]]},"properties":{"CD_MUN":"2800100","NM_MUN":"Amparo de São Francisco","SIGLA_UF":"SE"}},{"type":"Feature","geometry":{"type":"Polygon","coordinates":[[[-37.69276,-11.30779],[-37.60467,-11.39433],[-37.65054,-11.48399],[-37.65576,-11.47982],[-37.66097,-11.48555],[-37.67452,-11.47773],[-37.67817,-11.47148],[-37.67296,-11.45688],[-37.69433,-11.42404],[-37.72039,-11.40944],[-37.72248,-11.4011],[-37.73082,-11.40318],[-37.69746,-11.36148],[-37.69276,-11.30779]]]},"properties":{"CD_MUN":"2807600","NM_MUN":"Umbaúba","SIGLA_UF":"SE"}},{"type":"Feature","geometry":{"type":"Polygon","coordinates":[[[-38.03161,-11.35417],[-37.92526,-11.25617],[-37.91692,-11.26555],[-37.90493,-11.26451],[-37.89763,-11.2765],[-37.88408,-11.28119],[-37.87782,-11.28849],[-37.86896,-11.28432],[-37.86062,-11.30048],[-37.84811,-11.29892],[-37.82726,-11.32082],[-37.81631,-11.32029],[-37.8137,-11.33228],[-37.79025,-11.3474],[-37.78347,-11.37295],[-37.76627,-11.38181],[-37.76731,-11.39067],[-37.75949,-11.39536],[-37.7621,-11.40423],[-37.74854,-11.40631],[-37.74854,-11.40162],[-37.7449,-11.41309],[-37.80589,-11.41361],[-37.85281,-11.45218],[-37.84968,-11.44072],[-37.86636,-11.44228],[-37.86792,-11.43707],[-37.87991,-11.43342],[-37.86532,-11.42925],[-37.87105,-11.42508],[-37.88252,-11.4256],[-37.89034,-11.43654],[-37.8992,-11.43759],[-37.90077,-11.42872],[-37.90598,-11.42716],[-37.90441,-11.41152],[-37.91171,-11.41048],[-37.91536,-11.40422],[-37.92839,-11.40318],[-37.92683,-11.41048],[-37.93465,-11.41517],[-37.93621,-11.42299],[-37.94299,-11.42351],[-37.94195,-11.41778],[-37.95446,-11.40839],[-37.95029,-11.40474],[-37.95237,-11.39588],[-37.96436,-11.4037],[-37.96697,-11.39171],[-37.99043,-11.39067],[-37.99981,-11.40057],[-38.02587,-11.36564],[-38.03161,-11.35417]]]},"properties":{"CD_MUN":"2807501","NM_MUN":"Tomar do Geru","SIGLA_UF":"SE"}},{"type":"Feature","geometry":{"type":"Polygon","coordinates":[[[-37.97163,-10.7823],[-37.97216,-10.88031],[-37.95652,-10.93348],[-37.94349,-10.94808],[-37.93255,-10.97154],[-37.94089,-10.98509],[-37.94506,-10.98092],[-37.94871,-10.98718],[-37.94662,-10.99708],[-37.93098,-11.00334],[-37.92942,-11.0122],[-37.89658,-11.04087],[-37.83976,-11.10604],[-37.79024,-11.13367],[-37.84237,-11.15869],[-37.87469,-11.18684],[-37.86374,-11.2103],[-37.86687,-11.22229],[-37.88564,-11.21082],[-37.91796,-11.23949],[-37.92526,-11.25617],[-38.03161,-11.35417],[-38.04203,-11.34948],[-38.03682,-11.32811],[-38.03838,-11.30413],[-38.03004,-11.29579],[-38.03004,-11.28275],[-38.00971,-11.27441],[-38.00554,-11.26086],[-37.99668,-11.28432],[-37.9899,-11.27859],[-37.99199,-11.27389],[-37.98521,-11.27233],[-37.98469,-11.26816],[-37.99407,-11.25982],[-37.9826,-11.24783],[-37.98886,-11.24835],[-37.99198,-11.24209],[-37.98521,-11.2374],[-37.99042,-11.22906],[-37.97634,-11.22176],[-37.97947,-11.19935],[-37.97217,-11.19622],[-37.99563,-11.19205],[-38.00814,-11.20091],[-38.04203,-11.17276],[-38.06705,-11.16807],[-38.07487,-11.15972],[-38.08164,-11.14409],[-38.07487,-11.11437],[-38.09728,-11.08674],[-38.08946,-11.05755],[-38.10145,-11.05077],[-38.10666,-11.01845],[-38.12647,-11.00959],[-38.13429,-11.01897],[-38.14524,-11.01324],[-38.15514,-10.98196],[-38.1812,-10.96684],[-38.19007,-10.94494],[-38.18433,-10.92983],[-38.19059,-10.92357],[-38.164,-10.8876],[-38.14627,-10.88656],[-38.13585,-10.87561],[-38.12751,-10.85215],[-38.13376,-10.84068],[-38.12281,-10.82035],[-38.07746,-10.80576],[-38.02637,-10.80419],[-38.00552,-10.79168],[-37.97163,-10.7823]]]},"properties":{"CD_MUN":"2807402","NM_MUN":"Tobias Barreto","SIGLA_UF":"SE"}},{"type":"Feature","geometry":{"type":"Polygon","coordinates":[[[-37.81993,-10.58629],[-37.80585,-10.60141],[-37.80012,-10.59203],[-37.7678,-10.60558],[-37.76363,-10.6207],[-37.74903,-10.62174],[-37.73809,-10.63373],[-37.72245,-10.63321],[-37.72349,-10.64155],[-37.71619,-10.6452],[-37.70524,-10.63373],[-37.70107,-10.6426],[-37.69273,-10.63999],[-37.71359,-10.66866],[-37.70785,-10.67231],[-37.7042,-10.66918],[-37.70264,-10.67752],[-37.69169,-10.68534],[-37.68179,-10.68534],[-37.68544,-10.69264],[-37.67293,-10.70411],[-37.68335,-10.70672],[-37.68335,-10.71037],[-37.67606,-10.71662],[-37.67866,-10.72705],[-37.70525,-10.74112],[-37.70838,-10.7552],[-37.76051,-10.82297],[-37.80326,-10.83756],[-37.81316,-10.86936],[-37.82776,-10.85894],[-37.85226,-10.86676],[-37.87572,-10.86415],[-37.93775,-10.88135],[-37.93932,-10.88865],[-37.97216,-10.88031],[-37.97163,-10.7823],[-37.97163,-10.75467],[-37.81263,-10.69108],[-37.81993,-10.58629]]]},"properties":{"CD_MUN":"2807105","NM_MUN":"Simão Dias","SIGLA_UF":"SE"}},{"type":"Feature","geometry":{"type":"Polygon","coordinates":[[[-37.40809,-10.29646],[-37.4034,-10.27769],[-37.40392,-10.25527],[-37.40913,-10.24589],[-37.39766,-10.25579],[-37.38984,-10.27352],[-37.39506,-10.28916],[-37.38515,-10.29802],[-37.38463,-10.30793],[-37.39089,-10.31731],[-37.38046,-10.31522],[-37.37264,-10.32982],[-37.36274,-10.32826],[-37.35544,-10.33399],[-37.35857,-10.3439],[-37.34919,-10.3465],[-37.34397,-10.3611],[-37.35284,-10.36318],[-37.35492,-10.36892],[-37.34919,-10.37048],[-37.34762,-10.38404],[-37.3398,-10.38404],[-37.3471,-10.4002],[-37.33303,-10.4002],[-37.33042,-10.4174],[-37.32312,-10.42053],[-37.33251,-10.42522],[-37.33146,-10.43096],[-37.31843,-10.43408],[-37.30644,-10.42574],[-37.30227,-10.43617],[-37.29185,-10.43513],[-37.29497,-10.44347],[-37.28716,-10.45337],[-37.28872,-10.46745],[-37.27986,-10.46171],[-37.27412,-10.46536],[-37.34867,-10.49299],[-37.35962,-10.48256],[-37.36796,-10.45076],[-37.40132,-10.41792],[-37.41278,-10.34598],[-37.40496,-10.31522],[-37.40809,-10.29646]]]},"properties":{"CD_MUN":"2807006","NM_MUN":"São Miguel do Aleixo","SIGLA_UF":"SE"}},{"type":"Feature","geometry":{"type":"Polygon","coordinates":[[[-36.84613,-10.26311],[-36.83831,-10.29178],[-36.82163,-10.29856],[-36.82632,-10.32983],[-36.8404,-10.34339],[-36.84509,-10.37102],[-36.86334,-10.38614],[-36.89931,-10.38874],[-36.90452,-10.40438],[-36.91547,-10.3976],[-36.91807,-10.38926],[-36.90712,-10.35068],[-36.90556,-10.32566],[-36.88731,-10.30116],[-36.87584,-10.29803],[-36.84613,-10.26311]]]},"properties":{"CD_MUN":"2806909","NM_MUN":"São Francisco","SIGLA_UF":"SE"}},{"type":"Feature","geometry":{"type":"Polygon","coordinates":[[[-36.88053,-10.14477],[-36.86541,-10.15832],[-36.84977,-10.16041],[-36.84665,-10.17657],[-36.84665,-10.18335],[-36.85968,-10.17813],[-36.85499,-10.19377],[-36.86489,-10.20941],[-36.86594,-10.22974],[-36.89044,-10.23235],[-36.93266,-10.22349],[-36.94934,-10.22766],[-36.88053,-10.14477]]]},"properties":{"CD_MUN":"2807303","NM_MUN":"Telha","SIGLA_UF":"SE"}},{"type":"Feature","geometry":{"type":"Polygon","coordinates":[[[-37.20532,-10.60768],[-37.19385,-10.59204],[-37.1756,-10.5811],[-37.14171,-10.50029],[-37.13702,-10.47006],[-37.11409,-10.48309],[-37.10105,-10.51072],[-37.10314,-10.52532],[-37.06456,-10.52949],[-37.07291,-10.56233],[-37.06874,-10.5738],[-37.07656,-10.58579],[-37.06509,-10.59309],[-37.06457,-10.60456],[-37.07134,-10.61446],[-37.07239,-10.63844],[-37.09063,-10.64157],[-37.09272,-10.63844],[-37.09741,-10.64418],[-37.13286,-10.65095],[-37.14537,-10.63636],[-37.14224,-10.62541],[-37.1485,-10.62489],[-37.14902,-10.62958],[-37.15736,-10.62697],[-37.14954,-10.62072],[-37.1756,-10.62541],[-37.20532,-10.60768]]]},"properties":{"CD_MUN":"2807204","NM_MUN":"Siriri","SIGLA_UF":"SE"}},{"type":"Feature","geometry":{"type":"Polygon","coordinates":[[[-37.2955,-10.60247],[-37.28091,-10.58787],[-37.26527,-10.58735],[-37.24702,-10.59517],[-37.21731,-10.61133],[-37.21627,-10.61707],[-37.20323,-10.62489],[-37.20219,-10.62853],[-37.19229,-10.62749],[-37.17978,-10.64261],[-37.1829,-10.64939],[-37.17925,-10.65356],[-37.18812,-10.65825],[-37.19177,-10.67754],[-37.19802,-10.67649],[-37.23295,-10.6718],[-37.23764,-10.6645],[-37.24546,-10.6619],[-37.24546,-10.64939],[-37.25745,-10.64991],[-37.26683,-10.63479],[-37.27778,-10.63375],[-37.28091,-10.61811],[-37.28873,-10.6155],[-37.2955,-10.60247]]]},"properties":{"CD_MUN":"2806503","NM_MUN":"Santa Rosa de Lima","SIGLA_UF":"SE"}},{"type":"Feature","geometry":{"type":"Polygon","coordinates":[[[-37.61715,-10.71245],[-37.61089,-10.71402],[-37.60829,-10.70672],[-37.60464,-10.71037],[-37.60568,-10.69525],[-37.59525,-10.69629],[-37.58639,-10.71089],[-37.58743,-10.72184],[-37.55981,-10.75729],[-37.56502,-10.77032],[-37.55564,-10.78127],[-37.52697,-10.78388],[-37.52905,-10.79013],[-37.51863,-10.79274],[-37.52175,-10.79899],[-37.5155,-10.79795],[-37.52332,-10.80838],[-37.51863,-10.81255],[-37.52332,-10.81985],[-37.5056,-10.82402],[-37.49725,-10.83132],[-37.5082,-10.83444],[-37.50925,-10.84226],[-37.51498,-10.84487],[-37.53687,-10.8407],[-37.54261,-10.83548],[-37.54991,-10.83966],[-37.56398,-10.83496],[-37.57076,-10.83965],[-37.59422,-10.8261],[-37.59943,-10.81463],[-37.60881,-10.81202],[-37.6135,-10.79743],[-37.59995,-10.77866],[-37.61924,-10.74842],[-37.63227,-10.74895],[-37.62758,-10.74113],[-37.6307,-10.72705],[-37.61715,-10.71245]]]},"properties":{"CD_MUN":"2806800","NM_MUN":"São Domingos","SIGLA_UF":"SE"}},{"type":"Feature","geometry":{"type":"Polygon","coordinates":[[[-37.31793,-10.8308],[-37.3075,-10.83288],[-37.29916,-10.84644],[-37.2903,-10.85165],[-37.2731,-10.85113],[-37.26476,-10.84592],[-37.24807,-10.85478],[-37.23921,-10.86781],[-37.21836,-10.87772],[-37.20689,-10.87511],[-37.19751,-10.88971],[-37.19021,-10.88554],[-37.18344,-10.89649],[-37.17249,-10.90014],[-37.17145,-10.91265],[-37.16154,-10.92412],[-37.1459,-10.92829],[-37.11932,-10.91682],[-37.10159,-10.91734],[-37.09899,-10.94393],[-37.1407,-11.06279],[-37.15216,-11.05392],[-37.17093,-11.07269],[-37.16363,-11.09458],[-37.1652,-11.10501],[-37.21889,-11.07425],[-37.22775,-11.04037],[-37.28509,-11.02785],[-37.28457,-11.02316],[-37.29656,-11.01534],[-37.30438,-10.98511],[-37.32836,-10.97572],[-37.32419,-10.97103],[-37.33826,-10.95122],[-37.3294,-10.93558],[-37.31793,-10.8308]]]},"properties":{"CD_MUN":"2806701","NM_MUN":"São Cristóvão","SIGLA_UF":"SE"}},{"type":"Feature","geometry":{"type":"Polygon","coordinates":[[[-36.91704,-10.68641],[-36.91235,-10.68797],[-36.90766,-10.68224],[-36.90245,-10.68589],[-36.90088,-10.70309],[-36.89254,-10.70517],[-36.88472,-10.701],[-36.88837,-10.69579],[-36.88003,-10.69579],[-36.87534,-10.70987],[-36.87013,-10.70778],[-36.86752,-10.7328],[-36.87273,-10.74115],[-36.87586,-10.73802],[-36.88055,-10.74219],[-36.90558,-10.77764],[-36.92852,-10.79015],[-36.9379,-10.78754],[-36.9379,-10.79484],[-36.96032,-10.80839],[-36.96657,-10.82664],[-36.95823,-10.82403],[-36.95823,-10.83081],[-36.98795,-10.8355],[-36.98169,-10.84749],[-36.99107,-10.85218],[-36.99577,-10.84853],[-36.99785,-10.86104],[-37.00515,-10.85844],[-37.00828,-10.86365],[-37.01505,-10.86365],[-37.01297,-10.88242],[-37.0187,-10.88346],[-37.0187,-10.8772],[-37.02913,-10.8845],[-37.03851,-10.88398],[-37.03486,-10.86834],[-37.02756,-10.84957],[-37.02913,-10.84123],[-37.04216,-10.82768],[-37.06145,-10.82246],[-37.08491,-10.79796],[-37.08699,-10.78284],[-37.07187,-10.77659],[-37.06718,-10.76773],[-37.0677,-10.74792],[-37.01453,-10.72133],[-37.01088,-10.73228],[-36.9968,-10.73072],[-36.97908,-10.73854],[-36.95041,-10.71351],[-36.93529,-10.69683],[-36.91704,-10.68641]]]},"properties":{"CD_MUN":"2806602","NM_MUN":"Santo Amaro das Brotas","SIGLA_UF":"SE"}},{"type":"Feature","geometry":{"type":"Polygon","coordinates":[[[-37.54676,-10.46223],[-37.47378,-10.45962],[-37.42008,-10.40228],[-37.40132,-10.41792],[-37.36796,-10.45076],[-37.35962,-10.48256],[-37.34867,-10.49299],[-37.31896,-10.54147],[-37.33251,-10.5446],[-37.3445,-10.54043],[-37.36275,-10.54981],[-37.36535,-10.56128],[-37.38934,-10.57588],[-37.39351,-10.58318],[-37.42426,-10.57536],[-37.46128,-10.59569],[-37.47431,-10.56597],[-37.49985,-10.52948],[-37.51027,-10.50028],[-37.54676,-10.46223]]]},"properties":{"CD_MUN":"2806008","NM_MUN":"Ribeirópolis","SIGLA_UF":"SE"}},{"type":"Feature","geometry":{"type":"Polygon","coordinates":[[[-37.23295,-10.6718],[-37.19802,-10.67649],[-37.19594,-10.69266],[-37.20584,-10.70673],[-37.19855,-10.72081],[-37.20584,-10.72602],[-37.19125,-10.72863],[-37.17874,-10.7182],[-37.16675,-10.72811],[-37.1704,-10.73436],[-37.16049,-10.7354],[-37.16049,-10.75],[-37.21679,-10.7646],[-37.22201,-10.75938],[-37.24442,-10.77867],[-37.27987,-10.74113],[-37.28143,-10.72133],[-37.27622,-10.71194],[-37.26423,-10.71351],[-37.25954,-10.70256],[-37.24807,-10.70934],[-37.2366,-10.70829],[-37.22982,-10.70204],[-37.22305,-10.70569],[-37.23139,-10.6963],[-37.22669,-10.68379],[-37.23295,-10.6718]]]},"properties":{"CD_MUN":"2805901","NM_MUN":"Riachuelo","SIGLA_UF":"SE"}},{"type":"Feature","geometry":{"type":"Polygon","coordinates":[[[-37.69276,-11.30779],[-37.66826,-11.29267],[-37.60154,-11.34324],[-37.59267,-11.32708],[-37.57286,-11.32343],[-37.54888,-11.30466],[-37.53324,-11.30518],[-37.5249,-11.29945],[-37.50197,-11.30466],[-37.48737,-11.30154],[-37.46078,-11.30988],[-37.44775,-11.2932],[-37.44202,-11.29372],[-37.42481,-11.30779],[-37.42064,-11.30154],[-37.40657,-11.30102],[-37.39875,-11.31457],[-37.38467,-11.31874],[-37.37686,-11.34116],[-37.38676,-11.35419],[-37.38885,-11.37191],[-37.40709,-11.39225],[-37.40762,-11.42352],[-37.41961,-11.4303],[-37.43785,-11.42352],[-37.45036,-11.44281],[-37.45766,-11.44177],[-37.4634,-11.45063],[-37.46809,-11.44594],[-37.47069,-11.45063],[-37.47747,-11.44959],[-37.49989,-11.43499],[-37.50666,-11.41518],[-37.52439,-11.423],[-37.53533,-11.41622],[-37.56192,-11.41414],[-37.60467,-11.39433],[-37.69276,-11.30779]]]},"properties":{"CD_MUN":"2806305","NM_MUN":"Santa Luzia do Itanhy","SIGLA_UF":"SE"}},{"type":"Feature","geometry":{"type":"Polygon","coordinates":[[[-37.52958,-10.99136],[-37.51915,-10.96112],[-37.45608,-10.9752],[-37.42741,-10.98771],[-37.42428,-11.00335],[-37.41333,-11.00804],[-37.40447,-11.03463],[-37.38831,-11.0534],[-37.43732,-11.08832],[-37.43784,-11.09666],[-37.43002,-11.10761],[-37.43106,-11.11752],[-37.43575,-11.12898],[-37.45765,-11.14619],[-37.54679,-11.16652],[-37.55565,-11.154],[-37.54575,-11.15557],[-37.5421,-11.14254],[-37.55878,-11.13836],[-37.53688,-11.09875],[-37.52958,-10.99136]]]},"properties":{"CD_MUN":"2806206","NM_MUN":"Salgado","SIGLA_UF":"SE"}}]}