{"type":"FeatureCollection","features":[{"type":"Feature","geometry":{"type":"Polygon","coordinates":[[[-37.04039,-5.85805],[-37.03101,-5.86014],[-37.01902,-5.85284],[-36.99921,-5.85492],[-36.99087,-5.84867],[-36.97575,-5.85336],[-36.9648,-5.84606],[-36.93717,-5.86431],[-36.93874,-5.87161],[-36.9549,-5.88568],[-36.95907,-5.89924],[-36.97002,-5.90445],[-36.97106,-5.91331],[-36.9622,-5.92791],[-36.95021,-5.93208],[-36.93613,-5.96753],[-36.92519,-5.9717],[-36.9158,-5.96544],[-36.9059,-5.97535],[-36.87775,-5.97743],[-36.86784,-5.97326],[-36.86472,-5.98213],[-36.85794,-5.98421],[-36.85586,-5.99464],[-36.84543,-6.00089],[-36.84126,-5.99777],[-36.81989,-6.03061],[-36.82302,-6.04312],[-36.83501,-6.05198],[-36.84022,-6.0499],[-36.84074,-6.03947],[-36.84804,-6.03895],[-36.86107,-6.04729],[-36.86993,-6.06136],[-36.89808,-6.08587],[-36.93093,-6.07335],[-36.93666,-6.10098],[-36.88818,-6.16927],[-36.89444,-6.17918],[-36.93197,-6.19482],[-36.93823,-6.187],[-36.97263,-6.19377],[-37.01799,-6.24069],[-37.04301,-6.24538],[-37.04979,-6.23965],[-37.05552,-6.24903],[-37.06491,-6.23913],[-37.08055,-6.24017],[-37.09254,-6.23183],[-37.10348,-6.21462],[-37.11495,-6.21254],[-37.11599,-6.20576],[-37.13215,-6.20732],[-37.12955,-6.18908],[-37.13997,-6.18126],[-37.13319,-6.175],[-37.13528,-6.16875],[-37.12798,-6.15676],[-37.14518,-6.1505],[-37.1603,-6.15206],[-37.18219,-6.09993],[-37.16499,-6.03894],[-37.16082,-6.02539],[-37.16759,-6.01444],[-37.15195,-5.99776],[-37.15664,-5.98681],[-37.14987,-5.97586],[-37.15195,-5.97169],[-37.13475,-5.96544],[-37.13423,-5.9498],[-37.06281,-5.98525],[-37.04039,-5.85805]]]},"properties":{"CD_MUN":"2406106","NM_MUN":"Jucurutu","SIGLA_UF":"RN"}},{"type":"Feature","geometry":{"type":"Polygon","coordinates":[[[-35.1142,-6.18809],[-35.10117,-6.18809],[-35.09544,-6.18287],[-35.09074,-6.18027],[-35.08501,-6.18757],[-35.07406,-6.22093],[-35.06103,-6.22667],[-35.04487,-6.22614],[-35.03705,-6.23553],[-35.03497,-6.28557],[-35.04487,-6.28297],[-35.06103,-6.2788],[-35.07824,-6.26472],[-35.10378,-6.26941],[-35.12463,-6.28349],[-35.14705,-6.2986],[-35.1507,-6.2741],[-35.15747,-6.26733],[-35.15174,-6.21989],[-35.1142,-6.18809]]]},"properties":{"CD_MUN":"2414209","NM_MUN":"Tibau do Sul","SIGLA_UF":"RN"}},{"type":"Feature","geometry":{"type":"Polygon","coordinates":[[[-38.35304,-6.3371],[-38.33063,-6.33449],[-38.3301,-6.30269],[-38.31655,-6.28914],[-38.30873,-6.29018],[-38.3056,-6.28132],[-38.30091,-6.2834],[-38.29622,-6.27715],[-38.27954,-6.28393],[-38.25868,-6.27819],[-38.25348,-6.38506],[-38.26338,-6.38767],[-38.27485,-6.38193],[-38.30717,-6.37724],[-38.31447,-6.38402],[-38.33428,-6.37515],[-38.34835,-6.35117],[-38.36086,-6.34805],[-38.35304,-6.3371]]]},"properties":{"CD_MUN":"2406007","NM_MUN":"José da Penha","SIGLA_UF":"RN"}},{"type":"Feature","geometry":{"type":"Polygon","coordinates":[[[-37.29894,-5.48687],[-37.16914,-5.49417],[-37.08417,-5.67768],[-37.129,-5.67872],[-37.17488,-5.72146],[-37.18166,-5.71729],[-37.22075,-5.71521],[-37.24161,-5.70791],[-37.25203,-5.71781],[-37.31042,-5.71051],[-37.33544,-5.7199],[-37.36359,-5.72094],[-37.42458,-5.74127],[-37.46159,-5.74283],[-37.43917,-5.62606],[-37.43292,-5.59217],[-37.38495,-5.48218],[-37.29894,-5.48687]]]},"properties":{"CD_MUN":"2414605","NM_MUN":"Upanema","SIGLA_UF":"RN"}},{"type":"Feature","geometry":{"type":"Polygon","coordinates":[[[-35.92377,-6.01082],[-35.8315,-5.94722],[-35.77729,-6.01708],[-35.82108,-6.07338],[-35.92377,-6.01082]]]},"properties":{"CD_MUN":"2406403","NM_MUN":"Lagoa de Velhos","SIGLA_UF":"RN"}},{"type":"Feature","geometry":{"type":"Polygon","coordinates":[[[-37.89949,-5.93362],[-37.7968,-5.92163],[-37.73789,-5.90808],[-37.74884,-5.93675],[-37.7723,-5.95969],[-37.765,-5.99357],[-37.77074,-6.00243],[-37.77803,-6.01286],[-37.78429,-6.03892],[-37.77595,-6.0676],[-37.78221,-6.08271],[-37.8114,-6.08688],[-37.83173,-6.08323],[-37.84841,-6.04831],[-37.88177,-6.00816],[-37.92921,-6.0066],[-37.90992,-5.95916],[-37.89949,-5.93362]]]},"properties":{"CD_MUN":"2414506","NM_MUN":"Umarizal","SIGLA_UF":"RN"}},{"type":"Feature","geometry":{"type":"Polygon","coordinates":[[[-35.43793,-6.13543],[-35.41916,-6.13282],[-35.38684,-6.15941],[-35.40613,-6.20737],[-35.44158,-6.25533],[-35.47546,-6.22874],[-35.56669,-6.20528],[-35.54688,-6.19694],[-35.45252,-6.15576],[-35.452,-6.14064],[-35.4421,-6.14064],[-35.43793,-6.13543]]]},"properties":{"CD_MUN":"2406304","NM_MUN":"Lagoa de Pedras","SIGLA_UF":"RN"}},{"type":"Feature","geometry":{"type":"Polygon","coordinates":[[[-35.83199,-5.21114],[-35.79028,-5.07664],[-35.78298,-5.0756],[-35.7564,-5.08968],[-35.70531,-5.10427],[-35.69645,-5.10219],[-35.63442,-5.12148],[-35.61773,-5.11835],[-35.61565,-5.11157],[-35.56717,-5.13503],[-35.48741,-5.15797],[-35.46552,-5.18091],[-35.45613,-5.19864],[-35.41599,-5.22157],[-35.3941,-5.24608],[-35.38263,-5.26745],[-35.41652,-5.33261],[-35.43789,-5.32688],[-35.44206,-5.31541],[-35.4822,-5.33261],[-35.53277,-5.33626],[-35.57916,-5.29977],[-35.58438,-5.30967],[-35.64224,-5.33574],[-35.71992,-5.39099],[-35.76319,-5.45198],[-35.77674,-5.44312],[-35.78717,-5.4525],[-35.83095,-5.30654],[-35.84711,-5.25128],[-35.83199,-5.21114]]]},"properties":{"CD_MUN":"2414407","NM_MUN":"Touros","SIGLA_UF":"RN"}},{"type":"Feature","geometry":{"type":"Polygon","coordinates":[[[-36.95805,-6.52272],[-36.93824,-6.51386],[-36.91739,-6.52376],[-36.89706,-6.51699],[-36.87777,-6.52846],[-36.83346,-6.53784],[-36.81,-6.53315],[-36.78863,-6.52116],[-36.7782,-6.52533],[-36.76882,-6.51438],[-36.74849,-6.51438],[-36.71565,-6.53419],[-36.68229,-6.54202],[-36.67916,-6.54723],[-36.7021,-6.54566],[-36.6875,-6.56652],[-36.69063,-6.58111],[-36.69636,-6.62334],[-36.70992,-6.63116],[-36.71722,-6.64732],[-36.85276,-6.70466],[-36.82721,-6.67599],[-36.85119,-6.66712],[-36.87048,-6.64784],[-36.86944,-6.6275],[-36.90905,-6.60561],[-36.91844,-6.59518],[-36.93981,-6.59101],[-36.94294,-6.57902],[-36.95805,-6.52272]]]},"properties":{"CD_MUN":"2405702","NM_MUN":"Jardim do Seridó","SIGLA_UF":"RN"}},{"type":"Feature","geometry":{"type":"Polygon","coordinates":[[[-38.00479,-5.8575],[-37.9584,-5.87262],[-37.98551,-5.88461],[-38.01001,-5.91641],[-38.03243,-5.92527],[-38.03086,-5.93361],[-38.03607,-5.93726],[-38.04181,-5.93466],[-38.02565,-5.97688],[-38.10228,-5.99982],[-38.11479,-5.95916],[-38.12053,-5.9456],[-38.09811,-5.92006],[-38.05484,-5.90025],[-38.00479,-5.8575]]]},"properties":{"CD_MUN":"2413805","NM_MUN":"Taboleiro Grande","SIGLA_UF":"RN"}},{"type":"Feature","geometry":{"type":"Polygon","coordinates":[[[-37.1603,-6.15206],[-37.14518,-6.1505],[-37.12798,-6.15676],[-37.13528,-6.16875],[-37.13319,-6.175],[-37.13997,-6.18126],[-37.14883,-6.18491],[-37.15822,-6.20002],[-37.17229,-6.20211],[-37.17542,-6.20784],[-37.18741,-6.20889],[-37.20461,-6.22453],[-37.21608,-6.22713],[-37.22442,-6.24225],[-37.20983,-6.28031],[-37.22287,-6.36111],[-37.2677,-6.40073],[-37.28647,-6.432],[-37.32504,-6.44556],[-37.36831,-6.44608],[-37.37926,-6.43669],[-37.39646,-6.44608],[-37.40011,-6.42627],[-37.3975,-6.42053],[-37.40532,-6.40698],[-37.40219,-6.40229],[-37.36049,-6.33139],[-37.30523,-6.28708],[-37.27968,-6.25841],[-37.27916,-6.22974],[-37.24788,-6.20002],[-37.18897,-6.14477],[-37.17542,-6.15415],[-37.1603,-6.15206]]]},"properties":{"CD_MUN":"2405603","NM_MUN":"Jardim de Piranhas","SIGLA_UF":"RN"}},{"type":"Feature","geometry":{"type":"Polygon","coordinates":[[[-36.01187,-6.0593],[-35.92377,-6.01082],[-35.82108,-6.07338],[-35.92117,-6.15158],[-35.92169,-6.162],[-35.93108,-6.16826],[-35.9415,-6.16669],[-35.94828,-6.17191],[-35.96705,-6.17347],[-35.96705,-6.15731],[-35.95871,-6.15366],[-35.96131,-6.14792],[-35.98581,-6.14584],[-35.97799,-6.12186],[-35.9879,-6.1083],[-35.98477,-6.09684],[-35.99519,-6.08641],[-35.99311,-6.07598],[-35.99989,-6.0739],[-36.00927,-6.0838],[-36.0296,-6.07025],[-36.01187,-6.0593]]]},"properties":{"CD_MUN":"2413706","NM_MUN":"Sítio Novo","SIGLA_UF":"RN"}},{"type":"Feature","geometry":{"type":"Polygon","coordinates":[[[-35.99465,-5.47335],[-35.90968,-5.62922],[-35.92272,-5.63496],[-35.92219,-5.64903],[-35.93158,-5.6532],[-35.94096,-5.6678],[-35.9394,-5.70951],[-35.96755,-5.7142],[-35.99987,-5.70533],[-36.06555,-5.65946],[-35.99465,-5.47335]]]},"properties":{"CD_MUN":"2405504","NM_MUN":"Jardim de Angicos","SIGLA_UF":"RN"}},{"type":"Feature","geometry":{"type":"Polygon","coordinates":[[[-38.25348,-6.38506],[-38.13879,-6.38402],[-38.12159,-6.3689],[-38.12002,-6.38611],[-38.09292,-6.39653],[-38.10803,-6.43563],[-38.11846,-6.44189],[-38.10856,-6.46118],[-38.08301,-6.48568],[-38.0924,-6.4961],[-38.09031,-6.50549],[-38.12316,-6.52686],[-38.13306,-6.52634],[-38.14922,-6.50444],[-38.14609,-6.49037],[-38.14974,-6.48672],[-38.16069,-6.48568],[-38.16382,-6.49193],[-38.1732,-6.48985],[-38.18936,-6.49923],[-38.20083,-6.48776],[-38.21855,-6.48724],[-38.22168,-6.48307],[-38.22794,-6.48411],[-38.22794,-6.48932],[-38.23471,-6.49297],[-38.24149,-6.49401],[-38.25296,-6.45961],[-38.24201,-6.42155],[-38.25348,-6.38506]]]},"properties":{"CD_MUN":"2414100","NM_MUN":"Tenente Ananias","SIGLA_UF":"RN"}},{"type":"Feature","geometry":{"type":"Polygon","coordinates":[[[-37.77804,-6.24171],[-37.77231,-6.2438],[-37.76397,-6.25527],[-37.76293,-6.26882],[-37.75354,-6.27195],[-37.7452,-6.26778],[-37.74416,-6.27612],[-37.76032,-6.29072],[-37.77283,-6.29332],[-37.77753,-6.30375],[-37.79056,-6.29801],[-37.79629,-6.29019],[-37.8161,-6.29541],[-37.81141,-6.30271],[-37.82288,-6.30583],[-37.82132,-6.3147],[-37.83591,-6.32408],[-37.87449,-6.32721],[-37.88491,-6.30792],[-37.88595,-6.26413],[-37.84425,-6.26517],[-37.83591,-6.26986],[-37.82027,-6.26726],[-37.79003,-6.25527],[-37.78482,-6.24171],[-37.77804,-6.24171]]]},"properties":{"CD_MUN":"2405900","NM_MUN":"João Dias","SIGLA_UF":"RN"}},{"type":"Feature","geometry":{"type":"Polygon","coordinates":[[[-35.82108,-6.07338],[-35.77729,-6.01708],[-35.81587,-6.12343],[-35.7309,-6.14168],[-35.74028,-6.18442],[-35.76218,-6.18963],[-35.76739,-6.2011],[-35.77469,-6.19693],[-35.77313,-6.20997],[-35.77782,-6.21987],[-35.78981,-6.22248],[-35.79711,-6.2303],[-35.78929,-6.24698],[-35.78981,-6.26627],[-35.79919,-6.28295],[-35.80962,-6.31944],[-35.84924,-6.35906],[-35.85863,-6.36375],[-35.86957,-6.36218],[-35.92117,-6.15158],[-35.82108,-6.07338]]]},"properties":{"CD_MUN":"2414001","NM_MUN":"Tangará","SIGLA_UF":"RN"}},{"type":"Feature","geometry":{"type":"Polygon","coordinates":[[[-36.02436,-5.40402],[-35.97535,-5.33208],[-35.83095,-5.30654],[-35.78717,-5.4525],[-35.77674,-5.44312],[-35.76319,-5.45198],[-35.74964,-5.4598],[-35.73295,-5.45772],[-35.7194,-5.46189],[-35.72201,-5.52288],[-35.74808,-5.61932],[-35.75538,-5.62714],[-35.77154,-5.6188],[-35.76163,-5.63809],[-35.77414,-5.63444],[-35.78144,-5.62662],[-35.82419,-5.61724],[-35.82888,-5.61046],[-35.85286,-5.60837],[-35.86016,-5.61202],[-35.86746,-5.60472],[-35.87215,-5.60785],[-35.86902,-5.62036],[-35.8831,-5.63131],[-35.89665,-5.62401],[-35.90968,-5.62922],[-35.99465,-5.47335],[-36.02436,-5.40402]]]},"properties":{"CD_MUN":"2405801","NM_MUN":"João Câmara","SIGLA_UF":"RN"}},{"type":"Feature","geometry":{"type":"Polygon","coordinates":[[[-35.67196,-5.46919],[-35.6558,-5.47857],[-35.64225,-5.47962],[-35.624,-5.49265],[-35.59429,-5.48692],[-35.57605,-5.49891],[-35.56458,-5.49369],[-35.55571,-5.49474],[-35.53486,-5.51246],[-35.51245,-5.50099],[-35.50359,-5.53905],[-35.52027,-5.57919],[-35.51089,-5.65009],[-35.49369,-5.66573],[-35.5479,-5.68501],[-35.54634,-5.70274],[-35.63131,-5.71421],[-35.6433,-5.61151],[-35.65633,-5.58701],[-35.67196,-5.46919]]]},"properties":{"CD_MUN":"2413904","NM_MUN":"Taipu","SIGLA_UF":"RN"}},{"type":"Feature","geometry":{"type":"Polygon","coordinates":[[[-37.10865,-5.17044],[-37.10396,-5.13447],[-37.10865,-5.13395],[-37.10917,-5.09798],[-37.04766,-5.09798],[-37.04765,-5.06201],[-37.02472,-5.06149],[-37.0242,-5.04325],[-37.00647,-5.04325],[-37.00647,-5.02552],[-36.96112,-5.02552],[-36.96216,-4.9906],[-36.90794,-4.99008],[-36.90847,-5.0813],[-36.95226,-5.08182],[-36.97467,-5.10476],[-36.97415,-5.13083],[-36.92932,-5.13135],[-36.92724,-5.294],[-37.03828,-5.29243],[-37.11856,-5.29295],[-37.15349,-5.29295],[-37.15348,-5.17148],[-37.10865,-5.17044]]]},"properties":{"CD_MUN":"2413359","NM_MUN":"Serra do Mel","SIGLA_UF":"RN"}},{"type":"Feature","geometry":{"type":"Polygon","coordinates":[[[-35.74133,-6.40129],[-35.68138,-6.35281],[-35.67513,-6.37783],[-35.67982,-6.39086],[-35.67096,-6.41015],[-35.66523,-6.42423],[-35.66888,-6.43309],[-35.66262,-6.44664],[-35.66992,-6.45133],[-35.68243,-6.44873],[-35.70797,-6.47062],[-35.72466,-6.46958],[-35.76845,-6.48261],[-35.7747,-6.4727],[-35.7747,-6.4555],[-35.76219,-6.41953],[-35.74133,-6.40129]]]},"properties":{"CD_MUN":"2413300","NM_MUN":"Serra de São Bento","SIGLA_UF":"RN"}},{"type":"Feature","geometry":{"type":"Polygon","coordinates":[[[-36.15728,-5.25648],[-36.11506,-5.25179],[-36.08013,-5.27317],[-36.02436,-5.40402],[-35.99465,-5.47335],[-36.0718,-5.41653],[-36.13175,-5.43529],[-36.22402,-5.43685],[-36.2751,-5.28932],[-36.15728,-5.25648]]]},"properties":{"CD_MUN":"2405108","NM_MUN":"Jandaíra","SIGLA_UF":"RN"}},{"type":"Feature","geometry":{"type":"Polygon","coordinates":[[[-35.15903,-6.1469],[-35.16425,-6.13491],[-35.14861,-6.13543],[-35.14027,-6.14169],[-35.13297,-6.13596],[-35.12932,-6.1469],[-35.10482,-6.14638],[-35.09961,-6.15472],[-35.09544,-6.18287],[-35.10117,-6.18809],[-35.1142,-6.18809],[-35.15903,-6.1469]]]},"properties":{"CD_MUN":"2413201","NM_MUN":"Senador Georgino Avelino","SIGLA_UF":"RN"}},{"type":"Feature","geometry":{"type":"Polygon","coordinates":[[[-36.29704,-6.38668],[-36.08539,-6.41692],[-36.08331,-6.41848],[-36.09426,-6.42786],[-36.09843,-6.44038],[-36.17193,-6.42838],[-36.22041,-6.42942],[-36.2496,-6.42995],[-36.25221,-6.41639],[-36.26889,-6.39919],[-36.28453,-6.39762],[-36.29704,-6.38668]]]},"properties":{"CD_MUN":"2405009","NM_MUN":"Jaçanã","SIGLA_UF":"RN"}},{"type":"Feature","geometry":{"type":"Polygon","coordinates":[[[-38.05535,-5.74751],[-37.90105,-5.72249],[-37.90261,-5.75168],[-37.90991,-5.78192],[-37.97299,-5.81424],[-37.97977,-5.83092],[-37.98863,-5.82831],[-37.99697,-5.83822],[-38.00166,-5.83613],[-38.01418,-5.85438],[-38.0173,-5.84291],[-38.04597,-5.81632],[-38.03763,-5.77774],[-38.05535,-5.74751]]]},"properties":{"CD_MUN":"2413607","NM_MUN":"Severiano Melo","SIGLA_UF":"RN"}},{"type":"Feature","geometry":{"type":"Polygon","coordinates":[[[-35.86957,-6.36218],[-35.86853,-6.36688],[-35.84194,-6.37678],[-35.85342,-6.44351],[-35.82214,-6.48574],[-35.84247,-6.48157],[-35.94673,-6.49199],[-35.96185,-6.48417],[-35.97592,-6.48834],[-36.00199,-6.48365],[-36.00564,-6.47061],[-35.98791,-6.43099],[-35.9681,-6.39398],[-35.89095,-6.36114],[-35.86957,-6.36218]]]},"properties":{"CD_MUN":"2405405","NM_MUN":"Japi","SIGLA_UF":"RN"}},{"type":"Feature","geometry":{"type":"Polygon","coordinates":[[[-35.67512,-6.20111],[-35.66522,-6.20632],[-35.65114,-6.20006],[-35.64228,-6.2058],[-35.62456,-6.20215],[-35.62039,-6.2058],[-35.61257,-6.19746],[-35.60318,-6.20788],[-35.59067,-6.21153],[-35.56669,-6.20528],[-35.47546,-6.22874],[-35.47338,-6.27253],[-35.50258,-6.29703],[-35.50935,-6.28869],[-35.52291,-6.28348],[-35.54845,-6.28765],[-35.55262,-6.28452],[-35.562,-6.29547],[-35.57921,-6.30224],[-35.59797,-6.30068],[-35.6084,-6.3158],[-35.62039,-6.30589],[-35.63394,-6.31267],[-35.65062,-6.26783],[-35.67304,-6.2621],[-35.66313,-6.24594],[-35.67512,-6.20111]]]},"properties":{"CD_MUN":"2413508","NM_MUN":"Serrinha","SIGLA_UF":"RN"}},{"type":"Feature","geometry":{"type":"Polygon","coordinates":[[[-35.56669,-6.07078],[-35.54948,-6.04889],[-35.53541,-6.07443],[-35.54062,-6.09633],[-35.53385,-6.14168],[-35.54688,-6.19694],[-35.56669,-6.20528],[-35.59067,-6.21153],[-35.60318,-6.20788],[-35.61257,-6.19746],[-35.62039,-6.2058],[-35.62456,-6.20215],[-35.64228,-6.2058],[-35.65114,-6.20006],[-35.66522,-6.20632],[-35.67512,-6.20111],[-35.74028,-6.18442],[-35.70744,-6.16618],[-35.66678,-6.1667],[-35.66834,-6.15888],[-35.66417,-6.15575],[-35.6527,-6.15784],[-35.64958,-6.16983],[-35.63654,-6.12812],[-35.58858,-6.09685],[-35.57086,-6.07964],[-35.56669,-6.07078]]]},"properties":{"CD_MUN":"2405306","NM_MUN":"Januário Cicco","SIGLA_UF":"RN"}},{"type":"Feature","geometry":{"type":"Polygon","coordinates":[[[-37.39646,-6.44608],[-37.37926,-6.43669],[-37.36831,-6.44608],[-37.32504,-6.44556],[-37.29272,-6.47371],[-37.26093,-6.51854],[-37.25363,-6.58162],[-37.23017,-6.5884],[-37.22913,-6.5983],[-37.21453,-6.5983],[-37.21245,-6.61238],[-37.25885,-6.61603],[-37.25937,-6.63792],[-37.26667,-6.6374],[-37.30889,-6.67545],[-37.30681,-6.6937],[-37.34486,-6.70308],[-37.35998,-6.69995],[-37.38552,-6.68275],[-37.3923,-6.68796],[-37.3996,-6.68379],[-37.41732,-6.69005],[-37.47467,-6.6963],[-37.47675,-6.69161],[-37.46737,-6.67649],[-37.4731,-6.6718],[-37.4658,-6.65877],[-37.47623,-6.63844],[-37.47466,-6.61602],[-37.47988,-6.60455],[-37.47623,-6.56128],[-37.48248,-6.54825],[-37.47675,-6.53939],[-37.44443,-6.54304],[-37.43556,-6.53991],[-37.42722,-6.54408],[-37.4194,-6.53678],[-37.41575,-6.54721],[-37.40741,-6.55138],[-37.40533,-6.54095],[-37.39334,-6.52844],[-37.38969,-6.5175],[-37.38917,-6.50029],[-37.39594,-6.48622],[-37.39073,-6.46589],[-37.39646,-6.44608]]]},"properties":{"CD_MUN":"2413409","NM_MUN":"Serra Negra do Norte","SIGLA_UF":"RN"}},{"type":"Feature","geometry":{"type":"Polygon","coordinates":[[[-37.59193,-5.98054],[-37.57629,-5.9795],[-37.57577,-5.97012],[-37.55283,-5.95865],[-37.52729,-5.91695],[-37.52989,-5.92424],[-37.51686,-5.91017],[-37.50956,-5.9133],[-37.49444,-5.89505],[-37.45274,-5.89922],[-37.44805,-5.97325],[-37.40218,-5.94249],[-37.37403,-5.96074],[-37.33285,-6.02955],[-37.44128,-6.09784],[-37.51478,-6.06343],[-37.54449,-6.02798],[-37.57681,-6.01651],[-37.59193,-5.98054]]]},"properties":{"CD_MUN":"2405207","NM_MUN":"Janduís","SIGLA_UF":"RN"}},{"type":"Feature","geometry":{"type":"Polygon","coordinates":[[[-36.8939,-5.71157],[-36.86679,-5.71887],[-36.85897,-5.72512],[-36.8475,-5.72356],[-36.83812,-5.73451],[-36.81362,-5.74441],[-36.80267,-5.75692],[-36.78703,-5.75484],[-36.76827,-5.79289],[-36.77557,-5.80332],[-36.77192,-5.85024],[-36.85325,-5.91331],[-36.9059,-5.97535],[-36.9158,-5.96544],[-36.92519,-5.9717],[-36.93613,-5.96753],[-36.95021,-5.93208],[-36.9622,-5.92791],[-36.97106,-5.91331],[-36.97002,-5.90445],[-36.95907,-5.89924],[-36.9549,-5.88568],[-36.93874,-5.87161],[-36.93717,-5.86431],[-36.9648,-5.84606],[-36.97575,-5.85336],[-36.96063,-5.75327],[-36.8939,-5.71157]]]},"properties":{"CD_MUN":"2412807","NM_MUN":"São Rafael","SIGLA_UF":"RN"}},{"type":"Feature","geometry":{"type":"Polygon","coordinates":[[[-35.63131,-5.71421],[-35.54634,-5.70274],[-35.54634,-5.70952],[-35.49369,-5.71682],[-35.48587,-5.72099],[-35.47596,-5.71265],[-35.4598,-5.71577],[-35.44573,-5.73298],[-35.48692,-5.8289],[-35.53488,-5.87998],[-35.59431,-5.86747],[-35.63549,-5.80439],[-35.64018,-5.79032],[-35.6652,-5.71629],[-35.63131,-5.71421]]]},"properties":{"CD_MUN":"2404606","NM_MUN":"Ielmo Marinho","SIGLA_UF":"RN"}},{"type":"Feature","geometry":{"type":"Polygon","coordinates":[[[-35.64018,-5.79032],[-35.63549,-5.80439],[-35.59431,-5.86747],[-35.53488,-5.87998],[-35.57763,-5.92638],[-35.64279,-5.96183],[-35.69127,-5.98216],[-35.68762,-5.89979],[-35.66311,-5.79553],[-35.64018,-5.79032]]]},"properties":{"CD_MUN":"2412708","NM_MUN":"São Pedro","SIGLA_UF":"RN"}},{"type":"Feature","geometry":{"type":"Polygon","coordinates":[[[-36.41793,-5.0735],[-36.36892,-5.0907],[-36.34494,-5.08236],[-36.3366,-5.08445],[-36.30793,-5.09957],[-36.30741,-5.1053],[-36.30637,-5.11156],[-36.29282,-5.11416],[-36.28708,-5.12615],[-36.28917,-5.1298],[-36.30898,-5.1298],[-36.31054,-5.13345],[-36.285,-5.16004],[-36.27666,-5.20174],[-36.2751,-5.28932],[-36.36841,-5.25074],[-36.44451,-5.13293],[-36.41793,-5.0735]]]},"properties":{"CD_MUN":"2404507","NM_MUN":"Guamaré","SIGLA_UF":"RN"}},{"type":"Feature","geometry":{"type":"Polygon","coordinates":[[[-35.69127,-5.98216],[-35.64279,-5.96183],[-35.64748,-6.01708],[-35.57086,-6.07964],[-35.58858,-6.09685],[-35.75018,-6.06452],[-35.77729,-6.01708],[-35.69127,-5.98216]]]},"properties":{"CD_MUN":"2413102","NM_MUN":"Senador Elói de Souza","SIGLA_UF":"RN"}},{"type":"Feature","geometry":{"type":"Polygon","coordinates":[[[-38.01418,-5.85438],[-38.00166,-5.83613],[-37.99697,-5.83822],[-37.98863,-5.82831],[-37.97977,-5.83092],[-37.97299,-5.81424],[-37.90991,-5.78192],[-37.90261,-5.75168],[-37.87238,-5.75272],[-37.87603,-5.81632],[-37.86091,-5.81632],[-37.85049,-5.82414],[-37.87655,-5.85125],[-37.87864,-5.87263],[-37.91148,-5.90025],[-37.91565,-5.89556],[-37.91409,-5.87836],[-37.9047,-5.87054],[-37.91513,-5.85229],[-37.94693,-5.86063],[-37.9584,-5.87262],[-38.00479,-5.8575],[-38.01418,-5.85438]]]},"properties":{"CD_MUN":"2404903","NM_MUN":"Itaú","SIGLA_UF":"RN"}},{"type":"Feature","geometry":{"type":"Polygon","coordinates":[[[-36.65255,-6.09317],[-36.64838,-6.10307],[-36.62909,-6.10099],[-36.61085,-6.10933],[-36.62023,-6.1307],[-36.62701,-6.15156],[-36.61607,-6.16876],[-36.61711,-6.19483],[-36.59834,-6.21568],[-36.60199,-6.22558],[-36.60721,-6.22663],[-36.59834,-6.23132],[-36.59678,-6.24122],[-36.59105,-6.24644],[-36.60721,-6.2798],[-36.60721,-6.2897],[-36.62597,-6.26468],[-36.6463,-6.26468],[-36.6609,-6.2725],[-36.67758,-6.26676],[-36.70208,-6.27406],[-36.73336,-6.29179],[-36.7344,-6.28084],[-36.71512,-6.25321],[-36.70312,-6.22141],[-36.71668,-6.2089],[-36.71251,-6.18388],[-36.71824,-6.17501],[-36.71824,-6.16511],[-36.70677,-6.14165],[-36.67862,-6.13175],[-36.65255,-6.09317]]]},"properties":{"CD_MUN":"2413003","NM_MUN":"São Vicente","SIGLA_UF":"RN"}},{"type":"Feature","geometry":{"type":"Polygon","coordinates":[[[-37.26771,-6.74896],[-37.1645,-6.74323],[-37.15146,-6.72811],[-37.12592,-6.7302],[-37.09777,-6.72394],[-37.08317,-6.73176],[-37.07588,-6.74479],[-37.07535,-6.75626],[-37.0691,-6.75783],[-37.04981,-6.75939],[-37.04877,-6.77347],[-37.07796,-6.79953],[-37.1009,-6.81413],[-37.10924,-6.80005],[-37.13687,-6.78858],[-37.13843,-6.78285],[-37.14469,-6.78337],[-37.15564,-6.79953],[-37.17075,-6.80057],[-37.18692,-6.82455],[-37.20412,-6.83133],[-37.22393,-6.83185],[-37.24582,-6.81621],[-37.25416,-6.81047],[-37.25885,-6.77815],[-37.27345,-6.76825],[-37.26771,-6.74896]]]},"properties":{"CD_MUN":"2404804","NM_MUN":"Ipueira","SIGLA_UF":"RN"}},{"type":"Feature","geometry":{"type":"Polygon","coordinates":[[[-36.11196,-5.83931],[-36.10049,-5.82836],[-36.08328,-5.84035],[-36.07911,-5.83618],[-36.06452,-5.84609],[-36.06504,-5.86068],[-36.04262,-5.84504],[-35.97381,-5.91542],[-35.96183,-5.96338],[-35.97694,-5.98006],[-35.98059,-5.99153],[-35.97799,-6.01655],[-35.98998,-6.03376],[-36.00301,-6.04106],[-36.01187,-6.0593],[-36.0296,-6.07025],[-36.0468,-6.08589],[-36.06818,-6.09996],[-36.07808,-6.10257],[-36.09945,-6.0984],[-36.11405,-6.10465],[-36.12083,-6.08849],[-36.1594,-6.10622],[-36.17035,-6.12133],[-36.2058,-6.13019],[-36.20945,-6.13489],[-36.22144,-6.13906],[-36.22561,-6.1646],[-36.23812,-6.16877],[-36.25689,-6.19066],[-36.30016,-6.12185],[-36.29859,-6.08536],[-36.28086,-6.0473],[-36.2647,-6.03219],[-36.25323,-6.00456],[-36.24385,-5.99465],[-36.24176,-5.88205],[-36.23186,-5.88414],[-36.20475,-5.84243],[-36.18598,-5.85755],[-36.15731,-5.83722],[-36.15001,-5.844],[-36.15105,-5.85807],[-36.13958,-5.85651],[-36.13437,-5.86433],[-36.11665,-5.85651],[-36.11196,-5.83931]]]},"properties":{"CD_MUN":"2412906","NM_MUN":"São Tomé","SIGLA_UF":"RN"}},{"type":"Feature","geometry":{"type":"Polygon","coordinates":[[[-36.85948,-5.43371],[-36.81673,-5.43736],[-36.78233,-5.45873],[-36.68381,-5.5067],[-36.72447,-5.58124],[-36.73855,-5.58489],[-36.75523,-5.60053],[-36.77035,-5.60679],[-36.77087,-5.61721],[-36.75523,-5.62295],[-36.75054,-5.64849],[-36.74741,-5.65475],[-36.73855,-5.65683],[-36.73959,-5.66726],[-36.73386,-5.6683],[-36.73073,-5.68498],[-36.72135,-5.69489],[-36.71509,-5.69489],[-36.71405,-5.7001],[-36.70258,-5.70167],[-36.73907,-5.73294],[-36.75524,-5.75797],[-36.76097,-5.75588],[-36.77244,-5.76422],[-36.78703,-5.75484],[-36.80267,-5.75692],[-36.81362,-5.74441],[-36.83812,-5.73451],[-36.8475,-5.72356],[-36.85897,-5.72512],[-36.86679,-5.71887],[-36.8939,-5.71157],[-36.88712,-5.70062],[-36.88139,-5.65266],[-36.88347,-5.64015],[-36.89181,-5.63128],[-36.89754,-5.60261],[-36.8819,-5.57238],[-36.89858,-5.55517],[-36.90327,-5.53015],[-36.88503,-5.49314],[-36.86887,-5.48115],[-36.87408,-5.4603],[-36.86157,-5.44726],[-36.85948,-5.43371]]]},"properties":{"CD_MUN":"2404705","NM_MUN":"Ipanguaçu","SIGLA_UF":"RN"}},{"type":"Feature","geometry":{"type":"Polygon","coordinates":[[[-35.74028,-6.18442],[-35.67512,-6.20111],[-35.66313,-6.24594],[-35.67304,-6.2621],[-35.65062,-6.26783],[-35.63394,-6.31267],[-35.64228,-6.32622],[-35.6475,-6.32674],[-35.64906,-6.31892],[-35.66209,-6.31371],[-35.66209,-6.33665],[-35.68138,-6.35281],[-35.74133,-6.40129],[-35.82005,-6.38565],[-35.84194,-6.37678],[-35.86853,-6.36688],[-35.86957,-6.36218],[-35.85863,-6.36375],[-35.84924,-6.35906],[-35.80962,-6.31944],[-35.79919,-6.28295],[-35.78981,-6.26627],[-35.78929,-6.24698],[-35.79711,-6.2303],[-35.78981,-6.22248],[-35.77782,-6.21987],[-35.77313,-6.20997],[-35.77469,-6.19693],[-35.76739,-6.2011],[-35.76218,-6.18963],[-35.74028,-6.18442]]]},"properties":{"CD_MUN":"2412302","NM_MUN":"São José do Campestre","SIGLA_UF":"RN"}},{"type":"Feature","geometry":{"type":"Polygon","coordinates":[[[-36.30741,-5.1053],[-36.28291,-5.10269],[-36.28395,-5.09748],[-36.27196,-5.10009],[-36.26571,-5.10895],[-36.26727,-5.10165],[-36.25476,-5.10687],[-36.26258,-5.09905],[-36.25893,-5.09696],[-36.29438,-5.08758],[-36.25424,-5.09488],[-36.15519,-5.0954],[-36.12496,-5.09071],[-36.09941,-5.07663],[-36.15728,-5.25648],[-36.2751,-5.28932],[-36.27666,-5.20174],[-36.285,-5.16004],[-36.31054,-5.13345],[-36.30898,-5.1298],[-36.28917,-5.1298],[-36.28708,-5.12615],[-36.29282,-5.11416],[-36.30637,-5.11156],[-36.30741,-5.1053]]]},"properties":{"CD_MUN":"2404101","NM_MUN":"Galinhos","SIGLA_UF":"RN"}},{"type":"Feature","geometry":{"type":"Polygon","coordinates":[[[-35.30812,-5.96131],[-35.28153,-5.95767],[-35.25077,-5.96288],[-35.24556,-5.95558],[-35.23357,-5.95506],[-35.22784,-5.99207],[-35.2367,-6.00511],[-35.23357,-6.02127],[-35.24139,-6.0687],[-35.23149,-6.07444],[-35.22889,-6.1078],[-35.23827,-6.10155],[-35.23775,-6.11197],[-35.23254,-6.12292],[-35.22732,-6.16775],[-35.24036,-6.16358],[-35.26382,-6.17036],[-35.29353,-6.16254],[-35.29092,-6.20476],[-35.32377,-6.19017],[-35.35504,-6.18287],[-35.29405,-6.07183],[-35.33731,-6.04681],[-35.40248,-6.05045],[-35.40039,-6.03899],[-35.38527,-6.03951],[-35.39726,-6.02387],[-35.38006,-6.0124],[-35.37954,-6.00771],[-35.39153,-6.00458],[-35.39153,-6.00041],[-35.38579,-6.00197],[-35.38579,-5.98946],[-35.37328,-5.98842],[-35.34304,-5.97382],[-35.32793,-5.97435],[-35.30812,-5.96131]]]},"properties":{"CD_MUN":"2412203","NM_MUN":"São José de Mipibu","SIGLA_UF":"RN"}},{"type":"Feature","geometry":{"type":"Polygon","coordinates":[[[-37.87135,-6.11086],[-37.83434,-6.11973],[-37.81349,-6.14371],[-37.80358,-6.14371],[-37.80046,-6.15205],[-37.80098,-6.16091],[-37.8088,-6.16612],[-37.79629,-6.18906],[-37.79577,-6.21408],[-37.8651,-6.18802],[-37.85311,-6.1802],[-37.85728,-6.17394],[-37.85415,-6.17029],[-37.87657,-6.15309],[-37.89064,-6.15934],[-37.9068,-6.15934],[-37.89585,-6.14944],[-37.8896,-6.12859],[-37.87135,-6.11086]]]},"properties":{"CD_MUN":"2404002","NM_MUN":"Frutuoso Gomes","SIGLA_UF":"RN"}},{"type":"Feature","geometry":{"type":"Polygon","coordinates":[[[-37.30681,-6.6937],[-37.30889,-6.67545],[-37.26667,-6.6374],[-37.25937,-6.63792],[-37.25885,-6.61603],[-37.21245,-6.61238],[-37.17544,-6.61342],[-37.14989,-6.62593],[-37.13843,-6.63845],[-37.13269,-6.65252],[-37.12122,-6.6593],[-37.11132,-6.65409],[-37.10819,-6.65721],[-37.10454,-6.68067],[-37.08526,-6.68953],[-37.08421,-6.69735],[-37.06962,-6.70309],[-37.06336,-6.71769],[-37.04407,-6.72446],[-37.03573,-6.73228],[-37.0691,-6.75783],[-37.07535,-6.75626],[-37.07588,-6.74479],[-37.08317,-6.73176],[-37.09777,-6.72394],[-37.12592,-6.7302],[-37.15146,-6.72811],[-37.1645,-6.74323],[-37.26771,-6.74896],[-37.2625,-6.73384],[-37.28491,-6.7156],[-37.30577,-6.70673],[-37.30681,-6.6937]]]},"properties":{"CD_MUN":"2412104","NM_MUN":"São João do Sabugi","SIGLA_UF":"RN"}},{"type":"Feature","geometry":{"type":"Polygon","coordinates":[[[-35.77988,-5.72306],[-35.6652,-5.71629],[-35.64018,-5.79032],[-35.66311,-5.79553],[-35.68762,-5.89979],[-35.69127,-5.98216],[-35.77729,-6.01708],[-35.8315,-5.94722],[-35.85079,-5.92637],[-35.84922,-5.91542],[-35.82159,-5.90969],[-35.77832,-5.81481],[-35.77988,-5.72306]]]},"properties":{"CD_MUN":"2412609","NM_MUN":"São Paulo do Potengi","SIGLA_UF":"RN"}},{"type":"Feature","geometry":{"type":"Polygon","coordinates":[[[-37.35573,-4.85765],[-37.25252,-4.83159],[-37.20925,-4.89623],[-37.17693,-4.91969],[-37.15973,-4.93898],[-37.15399,-4.93742],[-37.13731,-4.95045],[-37.14774,-4.97704],[-37.13315,-4.99059],[-37.13419,-5.00571],[-37.16807,-5.0177],[-37.17381,-5.01092],[-37.17693,-4.97495],[-37.20873,-4.99893],[-37.4454,-4.88059],[-37.35573,-4.85765]]]},"properties":{"CD_MUN":"2404408","NM_MUN":"Grossos","SIGLA_UF":"RN"}},{"type":"Feature","geometry":{"type":"Polygon","coordinates":[[[-38.35877,-6.14004],[-38.35564,-6.15464],[-38.37649,-6.19374],[-38.4208,-6.20781],[-38.4427,-6.2344],[-38.44687,-6.22918],[-38.45678,-6.23075],[-38.47554,-6.25733],[-38.49327,-6.29435],[-38.45939,-6.32823],[-38.47972,-6.34231],[-38.48597,-6.34022],[-38.50318,-6.35534],[-38.51673,-6.35273],[-38.52872,-6.3814],[-38.53706,-6.3861],[-38.55583,-6.37202],[-38.57199,-6.37098],[-38.57564,-6.36316],[-38.56625,-6.36159],[-38.56156,-6.3543],[-38.57616,-6.347],[-38.58033,-6.33084],[-38.58033,-6.31624],[-38.56521,-6.30217],[-38.56938,-6.29956],[-38.57407,-6.27766],[-38.55999,-6.27193],[-38.54957,-6.25942],[-38.54488,-6.24534],[-38.53862,-6.24586],[-38.52298,-6.23231],[-38.51933,-6.22293],[-38.52767,-6.20625],[-38.51881,-6.19478],[-38.51412,-6.18956],[-38.5089,-6.19634],[-38.50473,-6.19426],[-38.49952,-6.17862],[-38.4745,-6.1562],[-38.4698,-6.12857],[-38.4599,-6.11502],[-38.41768,-6.16506],[-38.42914,-6.17341],[-38.43332,-6.19478],[-38.42185,-6.19113],[-38.40516,-6.17497],[-38.39526,-6.17341],[-38.38796,-6.16246],[-38.37701,-6.16976],[-38.35877,-6.14004]]]},"properties":{"CD_MUN":"2412500","NM_MUN":"São Miguel","SIGLA_UF":"RN"}},{"type":"Feature","geometry":{"type":"Polygon","coordinates":[[[-37.79051,-5.22412],[-37.78791,-5.21943],[-37.58408,-5.29763],[-37.42561,-5.31849],[-37.29424,-5.39095],[-37.30258,-5.39825],[-37.29581,-5.40294],[-37.29216,-5.41754],[-37.30102,-5.44256],[-37.29737,-5.45142],[-37.30102,-5.46289],[-37.29373,-5.47645],[-37.30102,-5.48218],[-37.29894,-5.48687],[-37.38495,-5.48218],[-37.43292,-5.59217],[-37.43917,-5.62606],[-37.4913,-5.56663],[-37.57784,-5.57027],[-37.56376,-5.50355],[-37.64091,-5.41336],[-37.89426,-5.41179],[-37.8781,-5.38729],[-37.86037,-5.37061],[-37.84942,-5.33411],[-37.8244,-5.30961],[-37.81867,-5.29658],[-37.8145,-5.29137],[-37.81762,-5.28303],[-37.79051,-5.22412]]]},"properties":{"CD_MUN":"2404309","NM_MUN":"Governador Dix-Sept Rosado","SIGLA_UF":"RN"}},{"type":"Feature","geometry":{"type":"Polygon","coordinates":[[[-36.87308,-6.41846],[-36.81573,-6.44557],[-36.78446,-6.44713],[-36.76465,-6.46799],[-36.76882,-6.51438],[-36.7782,-6.52533],[-36.78863,-6.52116],[-36.81,-6.53315],[-36.83346,-6.53784],[-36.87777,-6.52846],[-36.89706,-6.51699],[-36.91739,-6.52376],[-36.93824,-6.51386],[-36.95805,-6.52272],[-36.96066,-6.50187],[-36.95597,-6.4904],[-36.93355,-6.46642],[-36.93251,-6.44817],[-36.87308,-6.41846]]]},"properties":{"CD_MUN":"2412401","NM_MUN":"São José do Seridó","SIGLA_UF":"RN"}},{"type":"Feature","geometry":{"type":"Polygon","coordinates":[[[-35.29092,-6.20476],[-35.23202,-6.24282],[-35.21169,-6.2324],[-35.20074,-6.21832],[-35.19448,-6.22041],[-35.19031,-6.21363],[-35.18875,-6.21728],[-35.17155,-6.21415],[-35.15174,-6.21989],[-35.15747,-6.26733],[-35.1507,-6.2741],[-35.14705,-6.2986],[-35.14757,-6.31685],[-35.158,-6.3132],[-35.16947,-6.32102],[-35.16425,-6.3377],[-35.16999,-6.35386],[-35.22003,-6.35751],[-35.23828,-6.34865],[-35.26903,-6.30903],[-35.29092,-6.20476]]]},"properties":{"CD_MUN":"2404200","NM_MUN":"Goianinha","SIGLA_UF":"RN"}},{"type":"Feature","geometry":{"type":"Polygon","coordinates":[[[-37.13997,-6.18126],[-37.12955,-6.18908],[-37.13215,-6.20732],[-37.11599,-6.20576],[-37.11495,-6.21254],[-37.10348,-6.21462],[-37.09254,-6.23183],[-37.08055,-6.24017],[-37.06491,-6.23913],[-37.05552,-6.24903],[-37.07951,-6.28969],[-37.07377,-6.3069],[-37.08055,-6.35433],[-37.07169,-6.40334],[-37.13998,-6.42836],[-37.13946,-6.44765],[-37.17699,-6.43722],[-37.18742,-6.4393],[-37.21453,-6.43201],[-37.2677,-6.40073],[-37.22287,-6.36111],[-37.20983,-6.28031],[-37.22442,-6.24225],[-37.21608,-6.22713],[-37.20461,-6.22453],[-37.18741,-6.20889],[-37.17542,-6.20784],[-37.17229,-6.20211],[-37.15822,-6.20002],[-37.14883,-6.18491],[-37.13997,-6.18126]]]},"properties":{"CD_MUN":"2411809","NM_MUN":"São Fernando","SIGLA_UF":"RN"}},{"type":"Feature","geometry":{"type":"Polygon","coordinates":[[[-35.36024,-5.72829],[-35.28882,-5.63289],[-35.2273,-5.61204],[-35.22365,-5.62664],[-35.21635,-5.63133],[-35.21636,-5.68085],[-35.19238,-5.70014],[-35.20385,-5.7408],[-35.23669,-5.71422],[-35.24347,-5.71578],[-35.27318,-5.70066],[-35.27943,-5.70535],[-35.28569,-5.72203],[-35.31228,-5.73767],[-35.32062,-5.73402],[-35.33886,-5.73819],[-35.34512,-5.73089],[-35.36024,-5.72829]]]},"properties":{"CD_MUN":"2403608","NM_MUN":"Extremoz","SIGLA_UF":"RN"}},{"type":"Feature","geometry":{"type":"Polygon","coordinates":[[[-36.08539,-6.41692],[-36.13126,-6.32517],[-36.1224,-6.32569],[-36.07705,-6.30431],[-36.06871,-6.30223],[-36.05359,-6.30796],[-36.03222,-6.29858],[-35.98791,-6.43099],[-36.00564,-6.47061],[-36.01554,-6.45445],[-36.02284,-6.44924],[-36.03691,-6.44872],[-36.04525,-6.43568],[-36.05151,-6.43986],[-36.05099,-6.44663],[-36.06037,-6.44872],[-36.05672,-6.45706],[-36.0708,-6.46019],[-36.06923,-6.44767],[-36.07497,-6.4409],[-36.07236,-6.42422],[-36.08331,-6.41848],[-36.08539,-6.41692]]]},"properties":{"CD_MUN":"2411700","NM_MUN":"São Bento do Trairí","SIGLA_UF":"RN"}},{"type":"Feature","geometry":{"type":"Polygon","coordinates":[[[-35.32377,-6.19017],[-35.29092,-6.20476],[-35.26903,-6.30903],[-35.23828,-6.34865],[-35.27581,-6.37106],[-35.31283,-6.40078],[-35.33837,-6.37732],[-35.33785,-6.36845],[-35.3514,-6.35803],[-35.3514,-6.33665],[-35.32377,-6.19017]]]},"properties":{"CD_MUN":"2403509","NM_MUN":"Espírito Santo","SIGLA_UF":"RN"}},{"type":"Feature","geometry":{"type":"Polygon","coordinates":[[[-36.09941,-5.07663],[-36.07491,-5.06464],[-36.04676,-5.05943],[-36.03738,-5.05109],[-35.99984,-5.04432],[-35.98473,-5.0464],[-35.98003,-5.04119],[-35.94876,-5.04432],[-35.90028,-5.06204],[-35.94981,-5.23772],[-36.08013,-5.27317],[-36.11506,-5.25179],[-36.15728,-5.25648],[-36.09941,-5.07663]]]},"properties":{"CD_MUN":"2411601","NM_MUN":"São Bento do Norte","SIGLA_UF":"RN"}},{"type":"Feature","geometry":{"type":"Polygon","coordinates":[[[-36.73912,-6.85011],[-36.72296,-6.84437],[-36.63225,-6.83499],[-36.63121,-6.81466],[-36.62443,-6.80528],[-36.61036,-6.79954],[-36.60254,-6.80476],[-36.57647,-6.80476],[-36.5697,-6.83291],[-36.55979,-6.84125],[-36.5405,-6.84281],[-36.54937,-6.85376],[-36.53216,-6.85533],[-36.53269,-6.86054],[-36.55354,-6.88712],[-36.5551,-6.91684],[-36.56136,-6.92153],[-36.57387,-6.92101],[-36.59681,-6.93769],[-36.64633,-6.93248],[-36.66666,-6.93248],[-36.68647,-6.92413],[-36.69481,-6.93664],[-36.68178,-6.96532],[-36.70107,-6.96897],[-36.7068,-6.96584],[-36.71462,-6.98304],[-36.72557,-6.97053],[-36.73131,-6.97574],[-36.74121,-6.97522],[-36.7605,-6.94915],[-36.76206,-6.92726],[-36.76571,-6.92048],[-36.75685,-6.89859],[-36.76362,-6.89181],[-36.76362,-6.88034],[-36.73912,-6.85011]]]},"properties":{"CD_MUN":"2403400","NM_MUN":"Equador","SIGLA_UF":"RN"}},{"type":"Feature","geometry":{"type":"Polygon","coordinates":[[[-38.11479,-5.95916],[-38.10228,-5.99982],[-38.07987,-6.02432],[-38.06892,-6.02484],[-38.06006,-6.03475],[-38.04911,-6.03788],[-38.034,-6.07437],[-38.0293,-6.10304],[-38.04286,-6.12493],[-38.16015,-6.09782],[-38.19143,-6.04204],[-38.18256,-6.03266],[-38.18256,-6.01598],[-38.16223,-6.0092],[-38.1664,-5.99982],[-38.15858,-5.9946],[-38.14659,-5.97375],[-38.13095,-5.97062],[-38.12418,-5.96072],[-38.11479,-5.95916]]]},"properties":{"CD_MUN":"2403905","NM_MUN":"Francisco Dantas","SIGLA_UF":"RN"}},{"type":"Feature","geometry":{"type":"Polygon","coordinates":[[[-35.44573,-5.73298],[-35.40507,-5.73767],[-35.36024,-5.72829],[-35.34512,-5.73089],[-35.33886,-5.73819],[-35.32062,-5.73402],[-35.31228,-5.73767],[-35.28569,-5.72203],[-35.27943,-5.70535],[-35.27944,-5.72308],[-35.29038,-5.73246],[-35.28674,-5.76374],[-35.25233,-5.77521],[-35.24712,-5.78303],[-35.25442,-5.80492],[-35.27944,-5.81952],[-35.28152,-5.8263],[-35.29977,-5.83933],[-35.40195,-5.84871],[-35.48692,-5.8289],[-35.44573,-5.73298]]]},"properties":{"CD_MUN":"2412005","NM_MUN":"São Gonçalo do Amarante","SIGLA_UF":"RN"}},{"type":"Feature","geometry":{"type":"Polygon","coordinates":[[[-36.83501,-6.05198],[-36.81937,-6.05876],[-36.81728,-6.05198],[-36.80269,-6.0499],[-36.78913,-6.03791],[-36.77506,-6.06189],[-36.73596,-6.06033],[-36.7198,-6.06919],[-36.72501,-6.08795],[-36.71563,-6.10047],[-36.69165,-6.10568],[-36.688,-6.09682],[-36.67653,-6.09838],[-36.66194,-6.09056],[-36.65255,-6.09317],[-36.67862,-6.13175],[-36.70677,-6.14165],[-36.71824,-6.16511],[-36.71824,-6.17501],[-36.71251,-6.18388],[-36.71668,-6.2089],[-36.70312,-6.22141],[-36.71512,-6.25321],[-36.7344,-6.28084],[-36.73336,-6.29179],[-36.74744,-6.30638],[-36.80113,-6.3142],[-36.83971,-6.26832],[-36.85065,-6.26832],[-36.90487,-6.23131],[-36.94084,-6.2287],[-36.93197,-6.19482],[-36.89444,-6.17918],[-36.88818,-6.16927],[-36.93666,-6.10098],[-36.93093,-6.07335],[-36.89808,-6.08587],[-36.86993,-6.06136],[-36.86107,-6.04729],[-36.84804,-6.03895],[-36.84074,-6.03947],[-36.84022,-6.0499],[-36.83501,-6.05198]]]},"properties":{"CD_MUN":"2403806","NM_MUN":"Florânia","SIGLA_UF":"RN"}},{"type":"Feature","geometry":{"type":"Polygon","coordinates":[[[-38.15649,-5.92475],[-38.14294,-5.91015],[-38.13616,-5.91328],[-38.13043,-5.93935],[-38.12053,-5.9456],[-38.11479,-5.95916],[-38.12418,-5.96072],[-38.13095,-5.97062],[-38.14659,-5.97375],[-38.15858,-5.9946],[-38.1664,-5.99982],[-38.16223,-6.0092],[-38.18256,-6.01598],[-38.18256,-6.03266],[-38.19143,-6.04204],[-38.19508,-6.04256],[-38.2373,-5.99408],[-38.1836,-5.94977],[-38.17683,-5.95551],[-38.16431,-5.94664],[-38.16588,-5.93153],[-38.15649,-5.92475]]]},"properties":{"CD_MUN":"2411908","NM_MUN":"São Francisco do Oeste","SIGLA_UF":"RN"}},{"type":"Feature","geometry":{"type":"Polygon","coordinates":[[[-37.64091,-5.41336],[-37.56376,-5.50355],[-37.57784,-5.57027],[-37.67272,-5.637],[-37.75508,-5.57183],[-37.64091,-5.41336]]]},"properties":{"CD_MUN":"2403707","NM_MUN":"Felipe Guerra","SIGLA_UF":"RN"}},{"type":"Feature","geometry":{"type":"Polygon","coordinates":[[[-36.431,-6.10569],[-36.41745,-6.11038],[-36.39295,-6.09735],[-36.37991,-6.1036],[-36.36271,-6.09161],[-36.30016,-6.12185],[-36.25689,-6.19066],[-36.28035,-6.24071],[-36.28192,-6.24853],[-36.27514,-6.25374],[-36.27931,-6.27042],[-36.29026,-6.27824],[-36.28348,-6.30379],[-36.30485,-6.28241],[-36.34187,-6.30222],[-36.35594,-6.31473],[-36.39348,-6.29388],[-36.43101,-6.36321],[-36.49774,-6.35904],[-36.50087,-6.36165],[-36.49722,-6.37468],[-36.50504,-6.3898],[-36.51703,-6.37781],[-36.54153,-6.37312],[-36.54466,-6.36373],[-36.55039,-6.36112],[-36.54882,-6.34288],[-36.56394,-6.31264],[-36.58427,-6.30482],[-36.58792,-6.29596],[-36.60721,-6.2897],[-36.60721,-6.2798],[-36.59105,-6.24644],[-36.59678,-6.24122],[-36.59834,-6.23132],[-36.60721,-6.22663],[-36.60199,-6.22558],[-36.59834,-6.21568],[-36.61711,-6.19483],[-36.61607,-6.16876],[-36.62701,-6.15156],[-36.62023,-6.1307],[-36.60199,-6.11976],[-36.58687,-6.12758],[-36.56289,-6.12445],[-36.54777,-6.12914],[-36.54412,-6.13592],[-36.54256,-6.12654],[-36.53109,-6.12028],[-36.53161,-6.10412],[-36.52223,-6.1036],[-36.52171,-6.09005],[-36.50972,-6.09734],[-36.49929,-6.09317],[-36.48417,-6.10621],[-36.47271,-6.10777],[-36.48574,-6.11924],[-36.48417,-6.12758],[-36.45655,-6.10934],[-36.431,-6.10569]]]},"properties":{"CD_MUN":"2403103","NM_MUN":"Currais Novos","SIGLA_UF":"RN"}},{"type":"Feature","geometry":{"type":"Polygon","coordinates":[[[-36.0468,-6.08589],[-36.0296,-6.07025],[-36.00927,-6.0838],[-35.99989,-6.0739],[-35.99311,-6.07598],[-35.99519,-6.08641],[-35.98477,-6.09684],[-35.9879,-6.1083],[-35.97799,-6.12186],[-35.98581,-6.14584],[-35.96131,-6.14792],[-35.95871,-6.15366],[-35.96705,-6.15731],[-35.96705,-6.17347],[-35.94828,-6.17191],[-35.9415,-6.16669],[-35.93108,-6.16826],[-35.92169,-6.162],[-35.92117,-6.15158],[-35.86957,-6.36218],[-35.89095,-6.36114],[-35.9681,-6.39398],[-35.98791,-6.43099],[-36.03222,-6.29858],[-36.05359,-6.30796],[-36.06871,-6.30223],[-36.07705,-6.30431],[-36.1224,-6.32569],[-36.13126,-6.32517],[-36.15107,-6.28555],[-36.14794,-6.22612],[-36.07079,-6.20579],[-36.0468,-6.08589]]]},"properties":{"CD_MUN":"2411205","NM_MUN":"Santa Cruz","SIGLA_UF":"RN"}},{"type":"Feature","geometry":{"type":"Polygon","coordinates":[[[-36.90487,-6.23131],[-36.85065,-6.26832],[-36.83971,-6.26832],[-36.80113,-6.3142],[-36.74744,-6.30638],[-36.73858,-6.43827],[-36.74432,-6.46486],[-36.76048,-6.47268],[-36.76465,-6.46799],[-36.78446,-6.44713],[-36.81573,-6.44557],[-36.87308,-6.41846],[-36.86317,-6.39083],[-36.88194,-6.37102],[-36.88089,-6.35695],[-36.90435,-6.34235],[-36.89914,-6.32358],[-36.91321,-6.3069],[-36.9179,-6.30951],[-36.92781,-6.28188],[-36.91269,-6.25842],[-36.91477,-6.24539],[-36.90487,-6.23131]]]},"properties":{"CD_MUN":"2403004","NM_MUN":"Cruzeta","SIGLA_UF":"RN"}},{"type":"Feature","geometry":{"type":"Polygon","coordinates":[[[-36.04262,-5.84504],[-35.99623,-5.81324],[-35.96964,-5.80543],[-35.95973,-5.8096],[-35.92376,-5.80126],[-35.87164,-5.90187],[-35.88624,-5.90969],[-35.89197,-5.90813],[-35.88988,-5.90239],[-35.8951,-5.90343],[-35.90448,-5.89405],[-35.91595,-5.89405],[-35.92273,-5.89874],[-35.92012,-5.90395],[-35.97381,-5.91542],[-36.04262,-5.84504]]]},"properties":{"CD_MUN":"2411106","NM_MUN":"Ruy Barbosa","SIGLA_UF":"RN"}},{"type":"Feature","geometry":{"type":"Polygon","coordinates":[[[-38.37649,-6.19374],[-38.35199,-6.21042],[-38.35981,-6.22814],[-38.38015,-6.25734],[-38.38015,-6.26411],[-38.39787,-6.28549],[-38.41351,-6.29696],[-38.45939,-6.32823],[-38.49327,-6.29435],[-38.47554,-6.25733],[-38.45678,-6.23075],[-38.44687,-6.22918],[-38.4427,-6.2344],[-38.4208,-6.20781],[-38.37649,-6.19374]]]},"properties":{"CD_MUN":"2402907","NM_MUN":"Coronel João Pessoa","SIGLA_UF":"RN"}},{"type":"Feature","geometry":{"type":"Polygon","coordinates":[[[-35.47546,-6.22874],[-35.44158,-6.25533],[-35.42907,-6.27357],[-35.41604,-6.31945],[-35.40249,-6.32153],[-35.41604,-6.34187],[-35.42543,-6.38774],[-35.45254,-6.40494],[-35.45514,-6.41902],[-35.5349,-6.4065],[-35.59589,-6.38409],[-35.62925,-6.34082],[-35.6475,-6.32674],[-35.64228,-6.32622],[-35.63394,-6.31267],[-35.62039,-6.30589],[-35.6084,-6.3158],[-35.59797,-6.30068],[-35.57921,-6.30224],[-35.562,-6.29547],[-35.55262,-6.28452],[-35.54845,-6.28765],[-35.52291,-6.28348],[-35.50935,-6.28869],[-35.50258,-6.29703],[-35.47338,-6.27253],[-35.47546,-6.22874]]]},"properties":{"CD_MUN":"2411502","NM_MUN":"Santo Antônio","SIGLA_UF":"RN"}},{"type":"Feature","geometry":{"type":"Polygon","coordinates":[[[-38.33948,-6.07697],[-38.31758,-6.07697],[-38.30611,-6.08635],[-38.27484,-6.06602],[-38.25711,-6.07801],[-38.26441,-6.11919],[-38.24513,-6.16768],[-38.26963,-6.17549],[-38.31342,-6.17497],[-38.35199,-6.21042],[-38.37649,-6.19374],[-38.35564,-6.15464],[-38.35877,-6.14004],[-38.34626,-6.12128],[-38.33218,-6.11763],[-38.33948,-6.07697]]]},"properties":{"CD_MUN":"2403301","NM_MUN":"Encanto","SIGLA_UF":"RN"}},{"type":"Feature","geometry":{"type":"Polygon","coordinates":[[[-36.85276,-6.70466],[-36.71722,-6.64732],[-36.72295,-6.66556],[-36.70992,-6.67026],[-36.70367,-6.69528],[-36.71357,-6.7203],[-36.7094,-6.74272],[-36.7313,-6.78755],[-36.73078,-6.80371],[-36.75111,-6.82091],[-36.7657,-6.81414],[-36.77405,-6.79954],[-36.77144,-6.76461],[-36.79542,-6.75575],[-36.81158,-6.76096],[-36.82357,-6.73177],[-36.83503,-6.7302],[-36.86683,-6.74063],[-36.87257,-6.72551],[-36.85276,-6.70466]]]},"properties":{"CD_MUN":"2411429","NM_MUN":"Santana do Seridó","SIGLA_UF":"RN"}},{"type":"Feature","geometry":{"type":"Polygon","coordinates":[[[-36.78703,-5.75484],[-36.77244,-5.76422],[-36.76097,-5.75588],[-36.75524,-5.75797],[-36.73907,-5.73294],[-36.70258,-5.70167],[-36.69059,-5.70167],[-36.676,-5.71157],[-36.66296,-5.7392],[-36.62022,-5.76058],[-36.56392,-5.75641],[-36.54984,-5.76892],[-36.52117,-5.76423],[-36.50762,-5.75328],[-36.38928,-5.7976],[-36.35697,-5.84921],[-36.28346,-5.85807],[-36.31943,-5.86589],[-36.33403,-5.89195],[-36.37104,-5.89508],[-36.38147,-5.92949],[-36.36792,-5.97067],[-36.37574,-5.97223],[-36.38199,-5.98422],[-36.39451,-5.99152],[-36.39034,-6.00038],[-36.39972,-6.01967],[-36.41015,-6.02176],[-36.44768,-6.01185],[-36.44351,-6.03583],[-36.52014,-6.04469],[-36.63118,-6.09578],[-36.65255,-6.09317],[-36.66194,-6.09056],[-36.67653,-6.09838],[-36.688,-6.09682],[-36.69165,-6.10568],[-36.71563,-6.10047],[-36.72501,-6.08795],[-36.7198,-6.06919],[-36.73596,-6.06033],[-36.77506,-6.06189],[-36.78913,-6.03791],[-36.80269,-6.0499],[-36.81728,-6.05198],[-36.81937,-6.05876],[-36.83501,-6.05198],[-36.82302,-6.04312],[-36.81989,-6.03061],[-36.84126,-5.99777],[-36.84543,-6.00089],[-36.85586,-5.99464],[-36.85794,-5.98421],[-36.86472,-5.98213],[-36.86784,-5.97326],[-36.87775,-5.97743],[-36.9059,-5.97535],[-36.85325,-5.91331],[-36.77192,-5.85024],[-36.77557,-5.80332],[-36.76827,-5.79289],[-36.78703,-5.75484]]]},"properties":{"CD_MUN":"2411403","NM_MUN":"Santana do Matos","SIGLA_UF":"RN"}},{"type":"Feature","geometry":{"type":"Polygon","coordinates":[[[-35.28153,-5.8508],[-35.2638,-5.85601],[-35.25338,-5.86644],[-35.24347,-5.86487],[-35.22471,-5.88103],[-35.21636,-5.87374],[-35.19134,-5.89876],[-35.15277,-5.89042],[-35.15694,-5.92378],[-35.15016,-5.95715],[-35.14547,-5.96497],[-35.12879,-5.9681],[-35.12097,-5.98269],[-35.12931,-5.98217],[-35.183,-5.93786],[-35.2122,-5.93525],[-35.24556,-5.95558],[-35.25077,-5.96288],[-35.28153,-5.95767],[-35.30812,-5.96131],[-35.28361,-5.88416],[-35.28153,-5.8508]]]},"properties":{"CD_MUN":"2403251","NM_MUN":"Parnamirim","SIGLA_UF":"RN"}},{"type":"Feature","geometry":{"type":"Polygon","coordinates":[[[-38.39943,-6.05403],[-38.3817,-6.05455],[-38.38483,-6.06497],[-38.37805,-6.06654],[-38.37701,-6.0754],[-38.36398,-6.08791],[-38.3499,-6.08114],[-38.34782,-6.06706],[-38.33948,-6.07697],[-38.33218,-6.11763],[-38.34626,-6.12128],[-38.35877,-6.14004],[-38.37701,-6.16976],[-38.38796,-6.16246],[-38.39526,-6.17341],[-38.40516,-6.17497],[-38.42185,-6.19113],[-38.43332,-6.19478],[-38.42914,-6.17341],[-38.41768,-6.16506],[-38.4599,-6.11502],[-38.44947,-6.10355],[-38.44113,-6.10146],[-38.44582,-6.08791],[-38.44009,-6.07905],[-38.43175,-6.07801],[-38.42653,-6.06967],[-38.39943,-6.05403]]]},"properties":{"CD_MUN":"2403202","NM_MUN":"Doutor Severiano","SIGLA_UF":"RN"}},{"type":"Feature","geometry":{"type":"Polygon","coordinates":[[[-38.35981,-6.22814],[-38.31394,-6.22137],[-38.29622,-6.23284],[-38.2738,-6.23649],[-38.2665,-6.2271],[-38.24826,-6.2563],[-38.25868,-6.27819],[-38.27954,-6.28393],[-38.29622,-6.27715],[-38.30091,-6.2834],[-38.3056,-6.28132],[-38.30873,-6.29018],[-38.31655,-6.28914],[-38.3301,-6.30269],[-38.33063,-6.33449],[-38.35304,-6.3371],[-38.37754,-6.33866],[-38.41351,-6.29696],[-38.39787,-6.28549],[-38.38015,-6.26411],[-38.38015,-6.25734],[-38.35981,-6.22814]]]},"properties":{"CD_MUN":"2410801","NM_MUN":"Riacho de Santana","SIGLA_UF":"RN"}},{"type":"Feature","geometry":{"type":"Polygon","coordinates":[[[-35.51245,-5.50099],[-35.50098,-5.49265],[-35.49055,-5.4864],[-35.4697,-5.48536],[-35.45302,-5.46972],[-35.43529,-5.46972],[-35.41131,-5.45721],[-35.40193,-5.4645],[-35.3816,-5.46868],[-35.37065,-5.46451],[-35.35658,-5.46972],[-35.32582,-5.49057],[-35.30862,-5.49109],[-35.30393,-5.48692],[-35.28672,-5.49526],[-35.28099,-5.49318],[-35.26118,-5.52863],[-35.25545,-5.53019],[-35.2544,-5.51872],[-35.24554,-5.55678],[-35.23512,-5.57346],[-35.2273,-5.57763],[-35.2273,-5.61204],[-35.28882,-5.63289],[-35.36024,-5.72829],[-35.40507,-5.73767],[-35.44573,-5.73298],[-35.4598,-5.71577],[-35.47596,-5.71265],[-35.48587,-5.72099],[-35.49369,-5.71682],[-35.54634,-5.70952],[-35.54634,-5.70274],[-35.5479,-5.68501],[-35.49369,-5.66573],[-35.51089,-5.65009],[-35.52027,-5.57919],[-35.50359,-5.53905],[-35.51245,-5.50099]]]},"properties":{"CD_MUN":"2402600","NM_MUN":"Ceará-Mirim","SIGLA_UF":"RN"}},{"type":"Feature","geometry":{"type":"Polygon","coordinates":[[[-37.9584,-5.87262],[-37.94693,-5.86063],[-37.91513,-5.85229],[-37.9047,-5.87054],[-37.91409,-5.87836],[-37.91565,-5.89556],[-37.91148,-5.90025],[-37.91044,-5.91433],[-37.89584,-5.9284],[-37.89949,-5.93362],[-37.90992,-5.95916],[-37.98447,-5.95603],[-37.98812,-5.96229],[-37.9975,-5.95499],[-38.00011,-5.96646],[-38.00793,-5.95916],[-38.01627,-5.96489],[-38.01627,-5.97063],[-38.02357,-5.97584],[-38.02513,-5.97167],[-38.02565,-5.97688],[-38.04181,-5.93466],[-38.03607,-5.93726],[-38.03086,-5.93361],[-38.03243,-5.92527],[-38.01001,-5.91641],[-37.98551,-5.88461],[-37.9584,-5.87262]]]},"properties":{"CD_MUN":"2410702","NM_MUN":"Riacho da Cruz","SIGLA_UF":"RN"}},{"type":"Feature","geometry":{"type":"Polygon","coordinates":[[[-36.90794,-4.99008],[-36.89804,-4.96714],[-36.88761,-4.9661],[-36.87823,-4.95098],[-36.85894,-4.96818],[-36.80629,-5.03439],[-36.77658,-5.05211],[-36.77085,-5.06202],[-36.77502,-5.06932],[-36.76615,-5.06202],[-36.76459,-5.0542],[-36.73852,-5.06358],[-36.73279,-5.06098],[-36.7354,-5.06463],[-36.72914,-5.07505],[-36.71872,-5.08027],[-36.71246,-5.07558],[-36.71715,-5.08339],[-36.7427,-5.08965],[-36.75104,-5.09903],[-36.73801,-5.10842],[-36.71715,-5.11363],[-36.7182,-5.12041],[-36.72758,-5.1178],[-36.73019,-5.12197],[-36.72967,-5.13396],[-36.72132,-5.13761],[-36.7255,-5.15273],[-36.7281,-5.15638],[-36.73436,-5.1496],[-36.74113,-5.15169],[-36.7453,-5.14282],[-36.74948,-5.14856],[-36.72862,-5.17619],[-36.72237,-5.19339],[-36.72498,-5.20173],[-36.71559,-5.2132],[-36.72654,-5.23353],[-36.72133,-5.25334],[-36.72602,-5.2622],[-36.75261,-5.27159],[-36.77711,-5.294],[-36.7818,-5.31173],[-36.80995,-5.34457],[-36.81152,-5.36803],[-36.8355,-5.36855],[-36.84175,-5.37585],[-36.83915,-5.38679],[-36.96582,-5.33987],[-37.0289,-5.32371],[-37.03828,-5.29243],[-36.92724,-5.294],[-36.92932,-5.13135],[-36.97415,-5.13083],[-36.97467,-5.10476],[-36.95226,-5.08182],[-36.90847,-5.0813],[-36.90794,-4.99008]]]},"properties":{"CD_MUN":"2402501","NM_MUN":"Carnaubais","SIGLA_UF":"RN"}},{"type":"Feature","geometry":{"type":"Polygon","coordinates":[[[-37.77074,-6.00243],[-37.74936,-6.00973],[-37.74154,-6.00765],[-37.73477,-6.03371],[-37.72695,-6.03319],[-37.71235,-6.04779],[-37.67482,-6.05717],[-37.68629,-6.10826],[-37.70141,-6.12599],[-37.71236,-6.12963],[-37.72278,-6.12025],[-37.74155,-6.12129],[-37.77595,-6.0676],[-37.78429,-6.03892],[-37.77803,-6.01286],[-37.77074,-6.00243]]]},"properties":{"CD_MUN":"2410603","NM_MUN":"Rafael Godeiro","SIGLA_UF":"RN"}},{"type":"Feature","geometry":{"type":"Polygon","coordinates":[[[-36.53058,-6.44401],[-36.5285,-6.48832],[-36.53632,-6.49145],[-36.53788,-6.50292],[-36.53528,-6.50657],[-36.52068,-6.50136],[-36.51026,-6.50918],[-36.48315,-6.51804],[-36.47741,-6.53941],[-36.45969,-6.54046],[-36.45761,-6.54567],[-36.45969,-6.54828],[-36.4451,-6.55349],[-36.43206,-6.57747],[-36.43936,-6.60666],[-36.44562,-6.61396],[-36.43519,-6.62804],[-36.45135,-6.62335],[-36.46126,-6.63638],[-36.47273,-6.6124],[-36.48993,-6.60823],[-36.50922,-6.59154],[-36.52121,-6.59311],[-36.52538,-6.59676],[-36.52277,-6.60197],[-36.54884,-6.60614],[-36.56083,-6.59676],[-36.57438,-6.59571],[-36.58689,-6.58164],[-36.61921,-6.59936],[-36.62807,-6.58998],[-36.64006,-6.59258],[-36.63798,-6.58164],[-36.66456,-6.5905],[-36.68229,-6.58945],[-36.69063,-6.58111],[-36.5457,-6.43515],[-36.53058,-6.44401]]]},"properties":{"CD_MUN":"2402402","NM_MUN":"Carnaúba dos Dantas","SIGLA_UF":"RN"}},{"type":"Feature","geometry":{"type":"Polygon","coordinates":[[[-38.05535,-5.74751],[-38.03763,-5.77774],[-38.04597,-5.81632],[-38.0173,-5.84291],[-38.01418,-5.85438],[-38.00479,-5.8575],[-38.05484,-5.90025],[-38.09811,-5.92006],[-38.12053,-5.9456],[-38.13043,-5.93935],[-38.13616,-5.91328],[-38.14294,-5.91015],[-38.14242,-5.9039],[-38.12782,-5.89608],[-38.12052,-5.88409],[-38.11896,-5.86793],[-38.12573,-5.85959],[-38.11583,-5.84968],[-38.11948,-5.83665],[-38.11374,-5.82101],[-38.0955,-5.80902],[-38.08976,-5.79182],[-38.08194,-5.78869],[-38.06057,-5.76367],[-38.05535,-5.74751]]]},"properties":{"CD_MUN":"2411007","NM_MUN":"Rodolfo Fernandes","SIGLA_UF":"RN"}},{"type":"Feature","geometry":{"type":"Polygon","coordinates":[[[-36.28035,-6.30744],[-36.24543,-6.30222],[-36.23344,-6.31004],[-36.21467,-6.30848],[-36.2006,-6.30066],[-36.18861,-6.30327],[-36.17557,-6.29545],[-36.16306,-6.29701],[-36.15785,-6.28711],[-36.15107,-6.28555],[-36.13126,-6.32517],[-36.08539,-6.41692],[-36.29704,-6.38668],[-36.29756,-6.37469],[-36.27983,-6.35644],[-36.27306,-6.3408],[-36.28035,-6.30744]]]},"properties":{"CD_MUN":"2402808","NM_MUN":"Coronel Ezequiel","SIGLA_UF":"RN"}},{"type":"Feature","geometry":{"type":"Polygon","coordinates":[[[-35.93836,-5.73296],[-35.77988,-5.72306],[-35.77832,-5.81481],[-35.82159,-5.90969],[-35.84922,-5.91542],[-35.86121,-5.9123],[-35.87164,-5.90187],[-35.92376,-5.80126],[-35.93784,-5.79396],[-35.92272,-5.76685],[-35.92585,-5.75277],[-35.93367,-5.74913],[-35.93836,-5.73296]]]},"properties":{"CD_MUN":"2410900","NM_MUN":"Riachuelo","SIGLA_UF":"RN"}},{"type":"Feature","geometry":{"type":"Polygon","coordinates":[[[-36.28346,-5.85807],[-36.25948,-5.83148],[-36.25271,-5.83357],[-36.25271,-5.87997],[-36.24176,-5.88205],[-36.24385,-5.99465],[-36.25323,-6.00456],[-36.2647,-6.03219],[-36.28086,-6.0473],[-36.29859,-6.08536],[-36.30016,-6.12185],[-36.36271,-6.09161],[-36.37991,-6.1036],[-36.39295,-6.09735],[-36.41745,-6.11038],[-36.431,-6.10569],[-36.44351,-6.03583],[-36.44768,-6.01185],[-36.41015,-6.02176],[-36.39972,-6.01967],[-36.39034,-6.00038],[-36.39451,-5.99152],[-36.38199,-5.98422],[-36.37574,-5.97223],[-36.36792,-5.97067],[-36.38147,-5.92949],[-36.37104,-5.89508],[-36.33403,-5.89195],[-36.31943,-5.86589],[-36.28346,-5.85807]]]},"properties":{"CD_MUN":"2402709","NM_MUN":"Cerro Corá","SIGLA_UF":"RN"}},{"type":"Feature","geometry":{"type":"Polygon","coordinates":[[[-35.77729,-6.01708],[-35.75018,-6.06452],[-35.58858,-6.09685],[-35.63654,-6.12812],[-35.64958,-6.16983],[-35.6527,-6.15784],[-35.66417,-6.15575],[-35.66834,-6.15888],[-35.66678,-6.1667],[-35.70744,-6.16618],[-35.74028,-6.18442],[-35.7309,-6.14168],[-35.81587,-6.12343],[-35.77729,-6.01708]]]},"properties":{"CD_MUN":"2410306","NM_MUN":"Serra Caiada","SIGLA_UF":"RN"}},{"type":"Feature","geometry":{"type":"Polygon","coordinates":[[[-36.25689,-6.19066],[-36.23812,-6.16877],[-36.22561,-6.1646],[-36.22144,-6.13906],[-36.20945,-6.13489],[-36.12761,-6.16929],[-36.11822,-6.17138],[-36.11405,-6.16617],[-36.10571,-6.16982],[-36.14794,-6.22612],[-36.15107,-6.28555],[-36.15785,-6.28711],[-36.16306,-6.29701],[-36.17557,-6.29545],[-36.18861,-6.30327],[-36.2006,-6.30066],[-36.21467,-6.30848],[-36.23344,-6.31004],[-36.24543,-6.30222],[-36.28035,-6.30744],[-36.28348,-6.30379],[-36.29026,-6.27824],[-36.27931,-6.27042],[-36.27514,-6.25374],[-36.28192,-6.24853],[-36.28035,-6.24071],[-36.25689,-6.19066]]]},"properties":{"CD_MUN":"2402105","NM_MUN":"Campo Redondo","SIGLA_UF":"RN"}},{"type":"Feature","geometry":{"type":"Polygon","coordinates":[[[-38.02565,-5.97688],[-38.02513,-5.97167],[-38.02357,-5.97584],[-38.01627,-5.97063],[-38.01627,-5.96489],[-38.00793,-5.95916],[-38.00011,-5.96646],[-37.9975,-5.95499],[-37.98812,-5.96229],[-37.98447,-5.95603],[-37.97456,-5.96646],[-37.9829,-5.97011],[-37.99229,-5.98575],[-37.98812,-6.00034],[-37.96935,-6.01494],[-37.95006,-6.01338],[-37.95059,-6.02641],[-37.96466,-6.05404],[-37.9803,-6.06916],[-37.98082,-6.08062],[-38.0293,-6.10304],[-38.034,-6.07437],[-38.04911,-6.03788],[-38.06006,-6.03475],[-38.06892,-6.02484],[-38.07987,-6.02432],[-38.10228,-5.99982],[-38.02565,-5.97688]]]},"properties":{"CD_MUN":"2410207","NM_MUN":"Portalegre","SIGLA_UF":"RN"}},{"type":"Feature","geometry":{"type":"Polygon","coordinates":[[[-36.93197,-6.19482],[-36.94084,-6.2287],[-36.90487,-6.23131],[-36.91477,-6.24539],[-36.91269,-6.25842],[-36.92781,-6.28188],[-36.9179,-6.30951],[-36.91321,-6.3069],[-36.89914,-6.32358],[-36.90435,-6.34235],[-36.88089,-6.35695],[-36.88194,-6.37102],[-36.86317,-6.39083],[-36.87308,-6.41846],[-36.93251,-6.44817],[-36.93355,-6.46642],[-36.95597,-6.4904],[-36.96066,-6.50187],[-36.95805,-6.52272],[-36.94294,-6.57902],[-36.9763,-6.60821],[-36.96223,-6.67494],[-37.00237,-6.70935],[-37.03573,-6.73228],[-37.04407,-6.72446],[-37.06336,-6.71769],[-37.06962,-6.70309],[-37.08421,-6.69735],[-37.08526,-6.68953],[-37.10454,-6.68067],[-37.10819,-6.65721],[-37.11132,-6.65409],[-37.12122,-6.6593],[-37.13269,-6.65252],[-37.13843,-6.63845],[-37.14989,-6.62593],[-37.17544,-6.61342],[-37.21245,-6.61238],[-37.21453,-6.5983],[-37.22913,-6.5983],[-37.23017,-6.5884],[-37.25363,-6.58162],[-37.23643,-6.5665],[-37.21558,-6.55868],[-37.19993,-6.51437],[-37.20463,-6.5003],[-37.20358,-6.4711],[-37.18742,-6.4393],[-37.17699,-6.43722],[-37.13946,-6.44765],[-37.13998,-6.42836],[-37.07169,-6.40334],[-37.08055,-6.35433],[-37.07377,-6.3069],[-37.07951,-6.28969],[-37.05552,-6.24903],[-37.04979,-6.23965],[-37.04301,-6.24538],[-37.01799,-6.24069],[-36.97263,-6.19377],[-36.93823,-6.187],[-36.93197,-6.19482]]]},"properties":{"CD_MUN":"2402006","NM_MUN":"Caicó","SIGLA_UF":"RN"}},{"type":"Feature","geometry":{"type":"Polygon","coordinates":[[[-35.7194,-5.46189],[-35.68395,-5.46345],[-35.67196,-5.46919],[-35.65633,-5.58701],[-35.6433,-5.61151],[-35.63131,-5.71421],[-35.66571,-5.64643],[-35.70116,-5.6407],[-35.72566,-5.63131],[-35.74235,-5.63444],[-35.74808,-5.61932],[-35.72201,-5.52288],[-35.7194,-5.46189]]]},"properties":{"CD_MUN":"2410108","NM_MUN":"Poço Branco","SIGLA_UF":"RN"}},{"type":"Feature","geometry":{"type":"Polygon","coordinates":[[[-36.06555,-5.65946],[-35.99987,-5.70533],[-35.96755,-5.7142],[-35.9394,-5.70951],[-35.93836,-5.73296],[-35.93367,-5.74913],[-35.92585,-5.75277],[-35.92272,-5.76685],[-35.93784,-5.79396],[-35.92376,-5.80126],[-35.95973,-5.8096],[-35.96964,-5.80543],[-35.99623,-5.81324],[-36.04262,-5.84504],[-36.06504,-5.86068],[-36.06452,-5.84609],[-36.07911,-5.83618],[-36.08328,-5.84035],[-36.10049,-5.82836],[-36.11196,-5.83931],[-36.10935,-5.81637],[-36.11925,-5.80751],[-36.101,-5.72358],[-36.06555,-5.65946]]]},"properties":{"CD_MUN":"2401909","NM_MUN":"Caiçara do Rio do Vento","SIGLA_UF":"RN"}},{"type":"Feature","geometry":{"type":"Polygon","coordinates":[[[-38.26963,-6.17549],[-38.24513,-6.16768],[-38.17944,-6.15986],[-38.1612,-6.18436],[-38.16954,-6.19635],[-38.16485,-6.20886],[-38.17319,-6.21772],[-38.25868,-6.27819],[-38.24826,-6.2563],[-38.2665,-6.2271],[-38.26963,-6.17549]]]},"properties":{"CD_MUN":"2410504","NM_MUN":"Rafael Fernandes","SIGLA_UF":"RN"}},{"type":"Feature","geometry":{"type":"Polygon","coordinates":[[[-37.57784,-5.57027],[-37.4913,-5.56663],[-37.43917,-5.62606],[-37.46159,-5.74283],[-37.45274,-5.89922],[-37.49444,-5.89505],[-37.50956,-5.9133],[-37.51686,-5.91017],[-37.52989,-5.92424],[-37.52729,-5.91695],[-37.55283,-5.95865],[-37.57577,-5.97012],[-37.57629,-5.9795],[-37.59193,-5.98054],[-37.60496,-5.98367],[-37.61852,-5.97585],[-37.63624,-5.94509],[-37.64562,-5.93779],[-37.71235,-5.91225],[-37.73789,-5.90808],[-37.71964,-5.73865],[-37.7066,-5.72145],[-37.68992,-5.6542],[-37.67897,-5.65055],[-37.67272,-5.637],[-37.57784,-5.57027]]]},"properties":{"CD_MUN":"2402303","NM_MUN":"Caraúbas","SIGLA_UF":"RN"}},{"type":"Feature","geometry":{"type":"Polygon","coordinates":[[[-35.76319,-5.45198],[-35.71992,-5.39099],[-35.64224,-5.33574],[-35.58438,-5.30967],[-35.57916,-5.29977],[-35.53277,-5.33626],[-35.4822,-5.33261],[-35.44206,-5.31541],[-35.43789,-5.32688],[-35.41652,-5.33261],[-35.50098,-5.49265],[-35.51245,-5.50099],[-35.53486,-5.51246],[-35.55571,-5.49474],[-35.56458,-5.49369],[-35.57605,-5.49891],[-35.59429,-5.48692],[-35.624,-5.49265],[-35.64225,-5.47962],[-35.6558,-5.47857],[-35.67196,-5.46919],[-35.68395,-5.46345],[-35.7194,-5.46189],[-35.73295,-5.45772],[-35.74964,-5.4598],[-35.76319,-5.45198]]]},"properties":{"CD_MUN":"2410405","NM_MUN":"Pureza","SIGLA_UF":"RN"}},{"type":"Feature","geometry":{"type":"Polygon","coordinates":[[[-35.04487,-6.28297],[-35.03497,-6.28557],[-35.03184,-6.30695],[-35.03914,-6.31372],[-35.07146,-6.34917],[-35.06417,-6.36377],[-35.0944,-6.37889],[-35.09805,-6.3914],[-35.10274,-6.38983],[-35.10535,-6.39817],[-35.11734,-6.4013],[-35.11421,-6.40547],[-35.11786,-6.41121],[-35.12464,-6.40808],[-35.12985,-6.41173],[-35.11161,-6.44614],[-35.11057,-6.50609],[-35.12256,-6.52902],[-35.14445,-6.55144],[-35.15853,-6.55092],[-35.16948,-6.55717],[-35.18615,-6.41642],[-35.23203,-6.42007],[-35.23567,-6.40078],[-35.26018,-6.38879],[-35.27581,-6.37106],[-35.23828,-6.34865],[-35.22003,-6.35751],[-35.16999,-6.35386],[-35.16425,-6.3377],[-35.16947,-6.32102],[-35.158,-6.3132],[-35.14757,-6.31685],[-35.14705,-6.2986],[-35.12463,-6.28349],[-35.0871,-6.34187],[-35.05843,-6.32728],[-35.04487,-6.28297]]]},"properties":{"CD_MUN":"2402204","NM_MUN":"Canguaretama","SIGLA_UF":"RN"}},{"type":"Feature","geometry":{"type":"Polygon","coordinates":[[[-35.90968,-5.62922],[-35.89665,-5.62401],[-35.8831,-5.63131],[-35.86902,-5.62036],[-35.87215,-5.60785],[-35.86746,-5.60472],[-35.86016,-5.61202],[-35.85286,-5.60837],[-35.82888,-5.61046],[-35.82419,-5.61724],[-35.78144,-5.62662],[-35.77414,-5.63444],[-35.76163,-5.63809],[-35.77154,-5.6188],[-35.75538,-5.62714],[-35.74808,-5.61932],[-35.74235,-5.63444],[-35.72566,-5.63131],[-35.70116,-5.6407],[-35.66571,-5.64643],[-35.63131,-5.71421],[-35.6652,-5.71629],[-35.77988,-5.72306],[-35.93836,-5.73296],[-35.9394,-5.70951],[-35.94096,-5.6678],[-35.93158,-5.6532],[-35.92219,-5.64903],[-35.92272,-5.63496],[-35.90968,-5.62922]]]},"properties":{"CD_MUN":"2401602","NM_MUN":"Bento Fernandes","SIGLA_UF":"RN"}},{"type":"Feature","geometry":{"type":"Polygon","coordinates":[[[-36.36841,-5.25074],[-36.2751,-5.28932],[-36.22402,-5.43685],[-36.17919,-5.47856],[-36.2699,-5.67978],[-36.30431,-5.65163],[-36.46434,-5.58073],[-36.42837,-5.40557],[-36.43983,-5.36804],[-36.43827,-5.35552],[-36.35955,-5.34458],[-36.36945,-5.30861],[-36.36841,-5.25074]]]},"properties":{"CD_MUN":"2409704","NM_MUN":"Pedro Avelino","SIGLA_UF":"RN"}},{"type":"Feature","geometry":{"type":"Polygon","coordinates":[[[-35.97381,-5.91542],[-35.92012,-5.90395],[-35.92273,-5.89874],[-35.91595,-5.89405],[-35.90448,-5.89405],[-35.8951,-5.90343],[-35.88988,-5.90239],[-35.89197,-5.90813],[-35.88624,-5.90969],[-35.87164,-5.90187],[-35.86121,-5.9123],[-35.84922,-5.91542],[-35.85079,-5.92637],[-35.8315,-5.94722],[-35.92377,-6.01082],[-36.01187,-6.0593],[-36.00301,-6.04106],[-35.98998,-6.03376],[-35.97799,-6.01655],[-35.98059,-5.99153],[-35.97694,-5.98006],[-35.96183,-5.96338],[-35.97381,-5.91542]]]},"properties":{"CD_MUN":"2401503","NM_MUN":"Barcelona","SIGLA_UF":"RN"}},{"type":"Feature","geometry":{"type":"Polygon","coordinates":[[[-37.63932,-4.92594],[-37.46521,-4.8858],[-37.46782,-4.89831],[-37.49127,-4.92333],[-37.49649,-5.00049],[-37.49388,-5.01091],[-37.48659,-5.01613],[-37.58408,-5.29763],[-37.78791,-5.21943],[-37.70762,-5.04479],[-37.68781,-5.00048],[-37.63932,-4.92594]]]},"properties":{"CD_MUN":"2401453","NM_MUN":"Baraúna","SIGLA_UF":"RN"}},{"type":"Feature","geometry":{"type":"Polygon","coordinates":[[[-35.03914,-6.31372],[-35.03497,-6.31581],[-35.02976,-6.34605],[-35.02038,-6.36533],[-35.01412,-6.37055],[-35.00317,-6.36586],[-34.99327,-6.37159],[-34.98076,-6.3987],[-34.97138,-6.43832],[-34.96825,-6.48628],[-34.97816,-6.4868],[-34.99171,-6.5014],[-34.9964,-6.49827],[-35.01048,-6.50557],[-35.01725,-6.5014],[-35.05687,-6.52694],[-35.09024,-6.49775],[-35.0991,-6.49722],[-35.10118,-6.504],[-35.11057,-6.50609],[-35.11161,-6.44614],[-35.12985,-6.41173],[-35.12464,-6.40808],[-35.11786,-6.41121],[-35.11421,-6.40547],[-35.11734,-6.4013],[-35.10535,-6.39817],[-35.10274,-6.38983],[-35.09805,-6.3914],[-35.0944,-6.37889],[-35.06417,-6.36377],[-35.07146,-6.34917],[-35.03914,-6.31372]]]},"properties":{"CD_MUN":"2401404","NM_MUN":"Baía Formosa","SIGLA_UF":"RN"}},{"type":"Feature","geometry":{"type":"Polygon","coordinates":[[[-36.0718,-5.41653],[-35.99465,-5.47335],[-36.06555,-5.65946],[-36.15261,-5.57917],[-36.17137,-5.54112],[-36.0718,-5.41653]]]},"properties":{"CD_MUN":"2409605","NM_MUN":"Pedra Preta","SIGLA_UF":"RN"}},{"type":"Feature","geometry":{"type":"Polygon","coordinates":[[[-35.38684,-6.15941],[-35.35504,-6.18287],[-35.35557,-6.24803],[-35.40718,-6.24595],[-35.41083,-6.26315],[-35.42907,-6.27357],[-35.44158,-6.25533],[-35.40613,-6.20737],[-35.38684,-6.15941]]]},"properties":{"CD_MUN":"2401800","NM_MUN":"Brejinho","SIGLA_UF":"RN"}},{"type":"Feature","geometry":{"type":"Polygon","coordinates":[[[-38.06893,-6.25213],[-37.96258,-6.25578],[-37.98344,-6.31],[-38.03088,-6.30479],[-38.0387,-6.30009],[-38.08874,-6.30791],[-38.08978,-6.31625],[-38.11376,-6.31677],[-38.06893,-6.25213]]]},"properties":{"CD_MUN":"2410009","NM_MUN":"Pilões","SIGLA_UF":"RN"}},{"type":"Feature","geometry":{"type":"Polygon","coordinates":[[[-36.75261,-5.27159],[-36.72602,-5.2622],[-36.72133,-5.25334],[-36.72654,-5.23353],[-36.71559,-5.2132],[-36.72498,-5.20173],[-36.72237,-5.19339],[-36.72862,-5.17619],[-36.74948,-5.14856],[-36.7453,-5.14282],[-36.74113,-5.15169],[-36.73436,-5.1496],[-36.7281,-5.15638],[-36.7255,-5.15273],[-36.62541,-5.18609],[-36.57276,-5.21946],[-36.55712,-5.22155],[-36.55868,-5.22832],[-36.542,-5.24396],[-36.54252,-5.26064],[-36.5347,-5.26429],[-36.54253,-5.29818],[-36.53262,-5.31538],[-36.53314,-5.32998],[-36.50916,-5.3305],[-36.51021,-5.39983],[-36.66347,-5.37116],[-36.75261,-5.27159]]]},"properties":{"CD_MUN":"2409902","NM_MUN":"Pendências","SIGLA_UF":"RN"}},{"type":"Feature","geometry":{"type":"Polygon","coordinates":[[[-35.64279,-5.96183],[-35.57763,-5.92638],[-35.55469,-5.94827],[-35.53645,-5.99519],[-35.56669,-6.07078],[-35.57086,-6.07964],[-35.64748,-6.01708],[-35.64279,-5.96183]]]},"properties":{"CD_MUN":"2401701","NM_MUN":"Bom Jesus","SIGLA_UF":"RN"}},{"type":"Feature","geometry":{"type":"Polygon","coordinates":[[[-35.31283,-6.40078],[-35.27581,-6.37106],[-35.26018,-6.38879],[-35.23567,-6.40078],[-35.23203,-6.42007],[-35.18615,-6.41642],[-35.16948,-6.55717],[-35.19346,-6.54935],[-35.20753,-6.54049],[-35.21848,-6.51651],[-35.22995,-6.53163],[-35.25132,-6.53423],[-35.29093,-6.44769],[-35.31804,-6.44874],[-35.31648,-6.43622],[-35.30501,-6.4185],[-35.31543,-6.41016],[-35.31283,-6.40078]]]},"properties":{"CD_MUN":"2409803","NM_MUN":"Pedro Velho","SIGLA_UF":"RN"}},{"type":"Feature","geometry":{"type":"Polygon","coordinates":[[[-35.42907,-6.27357],[-35.41083,-6.26315],[-35.40718,-6.24595],[-35.35557,-6.24803],[-35.3587,-6.27097],[-35.40249,-6.32153],[-35.41604,-6.31945],[-35.42907,-6.27357]]]},"properties":{"CD_MUN":"2409209","NM_MUN":"Passagem","SIGLA_UF":"RN"}},{"type":"Feature","geometry":{"type":"Polygon","coordinates":[[[-37.89426,-5.41179],[-37.64091,-5.41336],[-37.75508,-5.57183],[-37.67272,-5.637],[-37.67897,-5.65055],[-37.68992,-5.6542],[-37.7066,-5.72145],[-37.71964,-5.73865],[-37.73789,-5.90808],[-37.7968,-5.92163],[-37.89949,-5.93362],[-37.89584,-5.9284],[-37.91044,-5.91433],[-37.91148,-5.90025],[-37.87864,-5.87263],[-37.87655,-5.85125],[-37.85049,-5.82414],[-37.86091,-5.81632],[-37.87603,-5.81632],[-37.87238,-5.75272],[-37.90261,-5.75168],[-37.90105,-5.72249],[-38.05535,-5.74751],[-38.04441,-5.73864],[-38.04597,-5.73187],[-38.07151,-5.72353],[-38.0835,-5.72665],[-38.08924,-5.7204],[-38.08142,-5.67244],[-38.06578,-5.65419],[-38.03241,-5.63334],[-38.02094,-5.60884],[-38.02511,-5.59164],[-37.99905,-5.58695],[-37.98914,-5.55827],[-37.96673,-5.54681],[-37.98236,-5.52178],[-37.97819,-5.47174],[-37.9662,-5.46757],[-37.93649,-5.46965],[-37.92293,-5.45089],[-37.90364,-5.44672],[-37.89999,-5.43681],[-37.90104,-5.42534],[-37.89426,-5.41179]]]},"properties":{"CD_MUN":"2401008","NM_MUN":"Apodi","SIGLA_UF":"RN"}},{"type":"Feature","geometry":{"type":"Polygon","coordinates":[[[-35.67096,-6.41015],[-35.61362,-6.42683],[-35.56305,-6.43413],[-35.58026,-6.4701],[-35.58026,-6.48626],[-35.59954,-6.4602],[-35.61518,-6.46333],[-35.61779,-6.45759],[-35.63708,-6.45394],[-35.66262,-6.44664],[-35.66888,-6.43309],[-35.66523,-6.42423],[-35.67096,-6.41015]]]},"properties":{"CD_MUN":"2409100","NM_MUN":"Passa e Fica","SIGLA_UF":"RN"}},{"type":"Feature","geometry":{"type":"Polygon","coordinates":[[[-38.06163,-6.20469],[-38.05433,-6.16038],[-38.04078,-6.15986],[-38.04547,-6.17967],[-38.03035,-6.19323],[-38.02149,-6.20886],[-38.00116,-6.21356],[-37.98135,-6.20157],[-37.95268,-6.16664],[-37.92348,-6.16873],[-37.9068,-6.15934],[-37.89064,-6.15934],[-37.87657,-6.15309],[-37.85415,-6.17029],[-37.85728,-6.17394],[-37.85311,-6.1802],[-37.8651,-6.18802],[-37.79577,-6.21408],[-37.79108,-6.23181],[-37.78013,-6.23598],[-37.77804,-6.24171],[-37.78482,-6.24171],[-37.79003,-6.25527],[-37.82027,-6.26726],[-37.83591,-6.26986],[-37.84425,-6.26517],[-37.88595,-6.26413],[-37.96258,-6.25578],[-38.06893,-6.25213],[-38.06163,-6.20469]]]},"properties":{"CD_MUN":"2400901","NM_MUN":"Antônio Martins","SIGLA_UF":"RN"}},{"type":"Feature","geometry":{"type":"Polygon","coordinates":[[[-37.46159,-5.74283],[-37.42458,-5.74127],[-37.36359,-5.72094],[-37.33544,-5.7199],[-37.31042,-5.71051],[-37.25203,-5.71781],[-37.24161,-5.70791],[-37.22075,-5.71521],[-37.22493,-5.80539],[-37.14882,-5.86535],[-37.1311,-5.8716],[-37.0993,-5.87212],[-37.04039,-5.85805],[-37.06281,-5.98525],[-37.13423,-5.9498],[-37.13475,-5.96544],[-37.15195,-5.97169],[-37.14987,-5.97586],[-37.15664,-5.98681],[-37.15195,-5.99776],[-37.16759,-6.01444],[-37.16082,-6.02539],[-37.16499,-6.03894],[-37.17646,-6.04937],[-37.18428,-6.04884],[-37.20304,-6.03894],[-37.22442,-6.04259],[-37.22285,-6.03581],[-37.23276,-6.02903],[-37.25413,-6.02747],[-37.27446,-6.05562],[-37.28541,-6.05979],[-37.29166,-6.05614],[-37.29948,-6.06292],[-37.32242,-6.06031],[-37.35579,-6.08325],[-37.38967,-6.08377],[-37.33285,-6.02955],[-37.37403,-5.96074],[-37.40218,-5.94249],[-37.44805,-5.97325],[-37.45274,-5.89922],[-37.46159,-5.74283]]]},"properties":{"CD_MUN":"2401305","NM_MUN":"Augusto Severo","SIGLA_UF":"RN"}},{"type":"Feature","geometry":{"type":"Polygon","coordinates":[[[-35.90028,-5.06204],[-35.79028,-5.07664],[-35.83199,-5.21114],[-35.94981,-5.23772],[-35.90028,-5.06204]]]},"properties":{"CD_MUN":"2409506","NM_MUN":"Pedra Grande","SIGLA_UF":"RN"}},{"type":"Feature","geometry":{"type":"Polygon","coordinates":[[[-38.2373,-5.99408],[-38.19508,-6.04256],[-38.19143,-6.04204],[-38.16015,-6.09782],[-38.04286,-6.12493],[-38.05433,-6.16038],[-38.06163,-6.20469],[-38.13253,-6.18905],[-38.15234,-6.20886],[-38.17319,-6.21772],[-38.16485,-6.20886],[-38.16954,-6.19635],[-38.1612,-6.18436],[-38.17944,-6.15986],[-38.24513,-6.16768],[-38.26441,-6.11919],[-38.25711,-6.07801],[-38.27484,-6.06602],[-38.25346,-6.0436],[-38.25242,-6.01076],[-38.2373,-5.99408]]]},"properties":{"CD_MUN":"2409407","NM_MUN":"Pau dos Ferros","SIGLA_UF":"RN"}},{"type":"Feature","geometry":{"type":"Polygon","coordinates":[[[-35.22732,-6.16775],[-35.21586,-6.17401],[-35.19813,-6.16254],[-35.17676,-6.16411],[-35.15903,-6.1469],[-35.1142,-6.18809],[-35.15174,-6.21989],[-35.17155,-6.21415],[-35.18875,-6.21728],[-35.19031,-6.21363],[-35.19448,-6.22041],[-35.20074,-6.21832],[-35.21169,-6.2324],[-35.23202,-6.24282],[-35.29092,-6.20476],[-35.29353,-6.16254],[-35.26382,-6.17036],[-35.24036,-6.16358],[-35.22732,-6.16775]]]},"properties":{"CD_MUN":"2401206","NM_MUN":"Arês","SIGLA_UF":"RN"}},{"type":"Feature","geometry":{"type":"Polygon","coordinates":[[[-37.64562,-5.93779],[-37.63624,-5.94509],[-37.61852,-5.97585],[-37.60496,-5.98367],[-37.59193,-5.98054],[-37.57681,-6.01651],[-37.57629,-6.03476],[-37.54189,-6.14893],[-37.55805,-6.16457],[-37.56639,-6.1557],[-37.59089,-6.15466],[-37.59089,-6.16926],[-37.62478,-6.19271],[-37.65032,-6.20575],[-37.67326,-6.19845],[-37.68212,-6.20053],[-37.69516,-6.18646],[-37.70454,-6.18698],[-37.68629,-6.10826],[-37.67482,-6.05717],[-37.64562,-5.93779]]]},"properties":{"CD_MUN":"2409308","NM_MUN":"Patu","SIGLA_UF":"RN"}},{"type":"Feature","geometry":{"type":"Polygon","coordinates":[[[-37.15399,-4.93742],[-37.1248,-4.93585],[-37.10291,-4.92282],[-37.0831,-4.93221],[-37.08101,-4.9296],[-37.05808,-4.94524],[-37.0367,-4.94993],[-37.00021,-4.93064],[-36.98301,-4.93482],[-36.97206,-4.93221],[-36.9632,-4.927],[-36.96216,-4.9197],[-36.91837,-4.94941],[-36.87823,-4.95098],[-36.88761,-4.9661],[-36.89804,-4.96714],[-36.90794,-4.99008],[-36.96216,-4.9906],[-36.96112,-5.02552],[-37.00647,-5.02552],[-37.00647,-5.04325],[-37.0242,-5.04325],[-37.02472,-5.06149],[-37.04765,-5.06201],[-37.04766,-5.09798],[-37.10917,-5.09798],[-37.10865,-5.13395],[-37.10396,-5.13447],[-37.10865,-5.17044],[-37.14514,-5.12509],[-37.1467,-5.10945],[-37.154,-5.10267],[-37.16078,-5.07765],[-37.18111,-5.06097],[-37.15973,-5.04272],[-37.13002,-5.03021],[-37.13419,-5.00571],[-37.13315,-4.99059],[-37.14774,-4.97704],[-37.13731,-4.95045],[-37.15399,-4.93742]]]},"properties":{"CD_MUN":"2401107","NM_MUN":"Areia Branca","SIGLA_UF":"RN"}},{"type":"Feature","geometry":{"type":"Polygon","coordinates":[[[-37.96258,-6.25578],[-37.88595,-6.26413],[-37.88491,-6.30792],[-37.87449,-6.32721],[-37.83591,-6.32408],[-37.84217,-6.33294],[-37.84686,-6.33711],[-37.83278,-6.34128],[-37.83279,-6.34754],[-37.83956,-6.34858],[-37.85885,-6.37465],[-37.86928,-6.371],[-37.87241,-6.38403],[-37.88909,-6.40071],[-37.89482,-6.39758],[-37.90629,-6.40019],[-37.91307,-6.39133],[-37.93236,-6.39445],[-37.936,-6.39914],[-37.94539,-6.40331],[-37.96415,-6.40227],[-37.96989,-6.42208],[-38.00482,-6.42938],[-38.02046,-6.44502],[-38.01368,-6.46535],[-38.02411,-6.46743],[-38.02619,-6.47369],[-38.04027,-6.47265],[-38.03662,-6.45596],[-38.04183,-6.45284],[-38.04339,-6.44241],[-38.04913,-6.44085],[-38.05382,-6.45284],[-38.0705,-6.46066],[-38.08301,-6.48568],[-38.10856,-6.46118],[-38.11846,-6.44189],[-38.10803,-6.43563],[-38.09292,-6.39653],[-38.12002,-6.38611],[-38.12159,-6.3689],[-38.08978,-6.31625],[-38.08874,-6.30791],[-38.0387,-6.30009],[-38.03088,-6.30479],[-37.98344,-6.31],[-37.96258,-6.25578]]]},"properties":{"CD_MUN":"2400505","NM_MUN":"Alexandria","SIGLA_UF":"RN"}},{"type":"Feature","geometry":{"type":"Polygon","coordinates":[[[-37.22075,-5.71521],[-37.18166,-5.71729],[-37.17488,-5.72146],[-37.129,-5.67872],[-37.08417,-5.67768],[-37.07948,-5.68758],[-37.01015,-5.73033],[-37.01067,-5.75118],[-36.99295,-5.77151],[-37.04039,-5.85805],[-37.0993,-5.87212],[-37.1311,-5.8716],[-37.14882,-5.86535],[-37.22493,-5.80539],[-37.22075,-5.71521]]]},"properties":{"CD_MUN":"2408706","NM_MUN":"Paraú","SIGLA_UF":"RN"}},{"type":"Feature","geometry":{"type":"Polygon","coordinates":[[[-38.27485,-6.38193],[-38.26338,-6.38767],[-38.25348,-6.38506],[-38.24201,-6.42155],[-38.25296,-6.45961],[-38.24149,-6.49401],[-38.28528,-6.49766],[-38.29623,-6.48776],[-38.30874,-6.48932],[-38.31656,-6.48515],[-38.31603,-6.47577],[-38.3275,-6.46013],[-38.3421,-6.457],[-38.33897,-6.44397],[-38.30456,-6.42937],[-38.29622,-6.41738],[-38.29674,-6.40383],[-38.28684,-6.39861],[-38.28527,-6.39132],[-38.27485,-6.38193]]]},"properties":{"CD_MUN":"2408607","NM_MUN":"Paraná","SIGLA_UF":"RN"}},{"type":"Feature","geometry":{"type":"Polygon","coordinates":[[[-38.35199,-6.21042],[-38.31342,-6.17497],[-38.26963,-6.17549],[-38.2665,-6.2271],[-38.2738,-6.23649],[-38.29622,-6.23284],[-38.31394,-6.22137],[-38.35981,-6.22814],[-38.35199,-6.21042]]]},"properties":{"CD_MUN":"2400406","NM_MUN":"Água Nova","SIGLA_UF":"RN"}},{"type":"Feature","geometry":{"type":"Polygon","coordinates":[[[-36.68381,-5.5067],[-36.46434,-5.58073],[-36.30431,-5.65163],[-36.2699,-5.67978],[-36.28346,-5.85807],[-36.35697,-5.84921],[-36.38928,-5.7976],[-36.50762,-5.75328],[-36.52117,-5.76423],[-36.54984,-5.76892],[-36.56392,-5.75641],[-36.62022,-5.76058],[-36.66296,-5.7392],[-36.676,-5.71157],[-36.69059,-5.70167],[-36.70258,-5.70167],[-36.71405,-5.7001],[-36.71509,-5.69489],[-36.72135,-5.69489],[-36.73073,-5.68498],[-36.73386,-5.6683],[-36.73959,-5.66726],[-36.73855,-5.65683],[-36.74741,-5.65475],[-36.75054,-5.64849],[-36.75523,-5.62295],[-36.77087,-5.61721],[-36.77035,-5.60679],[-36.75523,-5.60053],[-36.73855,-5.58489],[-36.72447,-5.58124],[-36.68381,-5.5067]]]},"properties":{"CD_MUN":"2400802","NM_MUN":"Angicos","SIGLA_UF":"RN"}},{"type":"Feature","geometry":{"type":"Polygon","coordinates":[[[-36.69063,-6.58111],[-36.68229,-6.58945],[-36.66456,-6.5905],[-36.63798,-6.58164],[-36.64006,-6.59258],[-36.62807,-6.58998],[-36.61921,-6.59936],[-36.58689,-6.58164],[-36.57438,-6.59571],[-36.56083,-6.59676],[-36.54884,-6.60614],[-36.52277,-6.60197],[-36.52277,-6.61657],[-36.53737,-6.6369],[-36.53476,-6.64159],[-36.54363,-6.67547],[-36.53946,-6.68329],[-36.53998,-6.68955],[-36.55822,-6.70675],[-36.55614,-6.71301],[-36.54467,-6.73021],[-36.52903,-6.7323],[-36.52121,-6.74429],[-36.50245,-6.75367],[-36.50401,-6.7667],[-36.49411,-6.78443],[-36.50714,-6.81154],[-36.51705,-6.81571],[-36.51861,-6.82196],[-36.53112,-6.82457],[-36.5405,-6.84281],[-36.55979,-6.84125],[-36.5697,-6.83291],[-36.57647,-6.80476],[-36.60254,-6.80476],[-36.61036,-6.79954],[-36.62443,-6.80528],[-36.63121,-6.81466],[-36.63225,-6.83499],[-36.72296,-6.84437],[-36.73912,-6.85011],[-36.73026,-6.83916],[-36.73078,-6.80371],[-36.7313,-6.78755],[-36.7094,-6.74272],[-36.71357,-6.7203],[-36.70367,-6.69528],[-36.70992,-6.67026],[-36.72295,-6.66556],[-36.71722,-6.64732],[-36.70992,-6.63116],[-36.69636,-6.62334],[-36.69063,-6.58111]]]},"properties":{"CD_MUN":"2408904","NM_MUN":"Parelhas","SIGLA_UF":"RN"}},{"type":"Feature","geometry":{"type":"Polygon","coordinates":[[[-36.83915,-5.38679],[-36.84175,-5.37585],[-36.8355,-5.36855],[-36.81152,-5.36803],[-36.80995,-5.34457],[-36.7818,-5.31173],[-36.77711,-5.294],[-36.75261,-5.27159],[-36.66347,-5.37116],[-36.51021,-5.39983],[-36.83967,-5.40817],[-36.8355,-5.3993],[-36.83915,-5.38679]]]},"properties":{"CD_MUN":"2400703","NM_MUN":"Alto do Rodrigues","SIGLA_UF":"RN"}},{"type":"Feature","geometry":{"type":"Polygon","coordinates":[[[-37.78221,-6.08271],[-37.77595,-6.0676],[-37.74155,-6.12129],[-37.72278,-6.12025],[-37.71236,-6.12963],[-37.70141,-6.12599],[-37.68629,-6.10826],[-37.70454,-6.18698],[-37.71132,-6.18072],[-37.72591,-6.1875],[-37.74364,-6.18646],[-37.75354,-6.20209],[-37.75146,-6.21461],[-37.77127,-6.22764],[-37.75876,-6.24067],[-37.77231,-6.2438],[-37.77804,-6.24171],[-37.78013,-6.23598],[-37.79108,-6.23181],[-37.79577,-6.21408],[-37.79629,-6.18906],[-37.8088,-6.16612],[-37.80098,-6.16091],[-37.80046,-6.15205],[-37.79733,-6.14579],[-37.80723,-6.13276],[-37.80932,-6.11347],[-37.80515,-6.09887],[-37.7942,-6.09731],[-37.78221,-6.08271]]]},"properties":{"CD_MUN":"2400604","NM_MUN":"Almino Afonso","SIGLA_UF":"RN"}},{"type":"Feature","geometry":{"type":"Polygon","coordinates":[[[-35.94981,-5.23772],[-35.83199,-5.21114],[-35.84711,-5.25128],[-35.83095,-5.30654],[-35.97535,-5.33208],[-36.02436,-5.40402],[-36.08013,-5.27317],[-35.94981,-5.23772]]]},"properties":{"CD_MUN":"2408805","NM_MUN":"Parazinho","SIGLA_UF":"RN"}},{"type":"Feature","geometry":{"type":"Polygon","coordinates":[[[-35.24556,-5.95558],[-35.2122,-5.93525],[-35.183,-5.93786],[-35.12931,-5.98217],[-35.12097,-5.98269],[-35.11367,-5.98791],[-35.10794,-6.00563],[-35.11107,-6.04942],[-35.09856,-6.0588],[-35.10221,-6.0734],[-35.09961,-6.15472],[-35.10482,-6.14638],[-35.12932,-6.1469],[-35.13297,-6.13596],[-35.14027,-6.14169],[-35.14861,-6.13543],[-35.16425,-6.13491],[-35.15903,-6.1469],[-35.17676,-6.16411],[-35.19813,-6.16254],[-35.21586,-6.17401],[-35.22732,-6.16775],[-35.23254,-6.12292],[-35.23775,-6.11197],[-35.23827,-6.10155],[-35.22889,-6.1078],[-35.23149,-6.07444],[-35.24139,-6.0687],[-35.23357,-6.02127],[-35.2367,-6.00511],[-35.22784,-5.99207],[-35.23357,-5.95506],[-35.24556,-5.95558]]]},"properties":{"CD_MUN":"2408201","NM_MUN":"Nísia Floresta","SIGLA_UF":"RN"}},{"type":"Feature","geometry":{"type":"Polygon","coordinates":[[[-35.27943,-5.70535],[-35.27318,-5.70066],[-35.24347,-5.71578],[-35.23669,-5.71422],[-35.20385,-5.7408],[-35.20333,-5.7554],[-35.19551,-5.75957],[-35.1929,-5.78147],[-35.17935,-5.79919],[-35.17831,-5.86957],[-35.17049,-5.88208],[-35.15954,-5.88051],[-35.15277,-5.89042],[-35.19134,-5.89876],[-35.21636,-5.87374],[-35.22471,-5.88103],[-35.24347,-5.86487],[-35.25338,-5.86644],[-35.2638,-5.85601],[-35.28153,-5.8508],[-35.28152,-5.8263],[-35.27944,-5.81952],[-35.25442,-5.80492],[-35.24712,-5.78303],[-35.25233,-5.77521],[-35.28674,-5.76374],[-35.29038,-5.73246],[-35.27944,-5.72308],[-35.27943,-5.70535]]]},"properties":{"CD_MUN":"2408102","NM_MUN":"Natal","SIGLA_UF":"RN"}},{"type":"Feature","geometry":{"type":"Polygon","coordinates":[[[-36.94294,-6.57902],[-36.93981,-6.59101],[-36.91844,-6.59518],[-36.90905,-6.60561],[-36.86944,-6.6275],[-36.87048,-6.64784],[-36.85119,-6.66712],[-36.82721,-6.67599],[-36.85276,-6.70466],[-36.87257,-6.72551],[-36.86683,-6.74063],[-36.90958,-6.75522],[-36.95806,-6.79067],[-36.95911,-6.78598],[-36.98048,-6.70101],[-37.00237,-6.70935],[-36.96223,-6.67494],[-36.9763,-6.60821],[-36.94294,-6.57902]]]},"properties":{"CD_MUN":"2408508","NM_MUN":"Ouro Branco","SIGLA_UF":"RN"}},{"type":"Feature","geometry":{"type":"Polygon","coordinates":[[[-36.51021,-5.39983],[-36.43983,-5.36804],[-36.42837,-5.40557],[-36.46434,-5.58073],[-36.68381,-5.5067],[-36.78233,-5.45873],[-36.81673,-5.43736],[-36.85948,-5.43371],[-36.84853,-5.41442],[-36.83967,-5.40817],[-36.51021,-5.39983]]]},"properties":{"CD_MUN":"2400307","NM_MUN":"Afonso Bezerra","SIGLA_UF":"RN"}},{"type":"Feature","geometry":{"type":"Polygon","coordinates":[[[-37.73789,-5.90808],[-37.71235,-5.91225],[-37.64562,-5.93779],[-37.67482,-6.05717],[-37.71235,-6.04779],[-37.72695,-6.03319],[-37.73477,-6.03371],[-37.74154,-6.00765],[-37.74936,-6.00973],[-37.77074,-6.00243],[-37.765,-5.99357],[-37.7723,-5.95969],[-37.74884,-5.93675],[-37.73789,-5.90808]]]},"properties":{"CD_MUN":"2408409","NM_MUN":"Olho d'Água do Borges","SIGLA_UF":"RN"}},{"type":"Feature","geometry":{"type":"Polygon","coordinates":[[[-37.11856,-5.29295],[-37.03828,-5.29243],[-37.0289,-5.32371],[-36.96582,-5.33987],[-36.83915,-5.38679],[-36.8355,-5.3993],[-36.83967,-5.40817],[-36.84853,-5.41442],[-36.85948,-5.43371],[-36.86157,-5.44726],[-36.87408,-5.4603],[-36.86887,-5.48115],[-36.88503,-5.49314],[-36.90327,-5.53015],[-36.89858,-5.55517],[-36.8819,-5.57238],[-36.89754,-5.60261],[-36.89181,-5.63128],[-36.88347,-5.64015],[-36.88139,-5.65266],[-36.88712,-5.70062],[-36.8939,-5.71157],[-36.96063,-5.75327],[-36.97575,-5.85336],[-36.99087,-5.84867],[-36.99921,-5.85492],[-37.01902,-5.85284],[-37.03101,-5.86014],[-37.04039,-5.85805],[-36.99295,-5.77151],[-37.01067,-5.75118],[-37.01015,-5.73033],[-37.07948,-5.68758],[-37.08417,-5.67768],[-37.16914,-5.49417],[-37.13681,-5.38939],[-37.14202,-5.33048],[-37.11856,-5.29295]]]},"properties":{"CD_MUN":"2400208","NM_MUN":"Açu","SIGLA_UF":"RN"}},{"type":"Feature","geometry":{"type":"Polygon","coordinates":[[[-36.73336,-6.29179],[-36.70208,-6.27406],[-36.67758,-6.26676],[-36.6609,-6.2725],[-36.6463,-6.26468],[-36.62597,-6.26468],[-36.60721,-6.2897],[-36.58792,-6.29596],[-36.58427,-6.30482],[-36.56394,-6.31264],[-36.54882,-6.34288],[-36.55039,-6.36112],[-36.54466,-6.36373],[-36.54153,-6.37312],[-36.51703,-6.37781],[-36.50504,-6.3898],[-36.50764,-6.40387],[-36.51911,-6.41638],[-36.5212,-6.43046],[-36.53058,-6.44401],[-36.5457,-6.43515],[-36.69063,-6.58111],[-36.6875,-6.56652],[-36.7021,-6.54566],[-36.67916,-6.54723],[-36.68229,-6.54202],[-36.71565,-6.53419],[-36.74849,-6.51438],[-36.76882,-6.51438],[-36.76465,-6.46799],[-36.76048,-6.47268],[-36.74432,-6.46486],[-36.73858,-6.43827],[-36.74744,-6.30638],[-36.73336,-6.29179]]]},"properties":{"CD_MUN":"2400109","NM_MUN":"Acari","SIGLA_UF":"RN"}},{"type":"Feature","geometry":{"type":"Polygon","coordinates":[[[-35.42543,-6.38774],[-35.39467,-6.38774],[-35.38007,-6.40494],[-35.31283,-6.40078],[-35.31543,-6.41016],[-35.30501,-6.4185],[-35.31648,-6.43622],[-35.31804,-6.44874],[-35.32169,-6.50608],[-35.33994,-6.5384],[-35.37591,-6.53006],[-35.39207,-6.49513],[-35.41136,-6.48679],[-35.43846,-6.48835],[-35.44003,-6.4847],[-35.44055,-6.47793],[-35.44576,-6.48627],[-35.45775,-6.47584],[-35.47443,-6.48575],[-35.48799,-6.47949],[-35.52448,-6.47688],[-35.53334,-6.48314],[-35.54481,-6.48105],[-35.55732,-6.49304],[-35.56358,-6.49252],[-35.5641,-6.48731],[-35.58026,-6.48626],[-35.58026,-6.4701],[-35.56305,-6.43413],[-35.5349,-6.4065],[-35.45514,-6.41902],[-35.45254,-6.40494],[-35.42543,-6.38774]]]},"properties":{"CD_MUN":"2408300","NM_MUN":"Nova Cruz","SIGLA_UF":"RN"}},{"type":"Feature","geometry":{"type":"Polygon","coordinates":[[[-35.31804,-6.44874],[-35.29093,-6.44769],[-35.25132,-6.53423],[-35.27321,-6.54466],[-35.33108,-6.54466],[-35.33994,-6.5384],[-35.32169,-6.50608],[-35.31804,-6.44874]]]},"properties":{"CD_MUN":"2407708","NM_MUN":"Montanhas","SIGLA_UF":"RN"}},{"type":"Feature","geometry":{"type":"Polygon","coordinates":[[[-37.33285,-6.02955],[-37.38967,-6.08377],[-37.39541,-6.12495],[-37.43815,-6.12599],[-37.47308,-6.14267],[-37.4955,-6.13381],[-37.54189,-6.14893],[-37.57629,-6.03476],[-37.57681,-6.01651],[-37.54449,-6.02798],[-37.51478,-6.06343],[-37.44128,-6.09784],[-37.33285,-6.02955]]]},"properties":{"CD_MUN":"2407609","NM_MUN":"Messias Targino","SIGLA_UF":"RN"}},{"type":"Feature","geometry":{"type":"Polygon","coordinates":[[[-35.41652,-5.33261],[-35.38263,-5.26745],[-35.367,-5.29404],[-35.3524,-5.3592],[-35.33416,-5.37901],[-35.32477,-5.38162],[-35.31904,-5.37745],[-35.30861,-5.39152],[-35.30966,-5.40873],[-35.29715,-5.42645],[-35.29141,-5.42802],[-35.28777,-5.46034],[-35.27108,-5.48015],[-35.26483,-5.4838],[-35.25962,-5.48067],[-35.25962,-5.50621],[-35.2544,-5.51872],[-35.25545,-5.53019],[-35.26118,-5.52863],[-35.28099,-5.49318],[-35.28672,-5.49526],[-35.30393,-5.48692],[-35.30862,-5.49109],[-35.32582,-5.49057],[-35.35658,-5.46972],[-35.37065,-5.46451],[-35.3816,-5.46868],[-35.40193,-5.4645],[-35.41131,-5.45721],[-35.43529,-5.46972],[-35.45302,-5.46972],[-35.4697,-5.48536],[-35.49055,-5.4864],[-35.50098,-5.49265],[-35.41652,-5.33261]]]},"properties":{"CD_MUN":"2407500","NM_MUN":"Maxaranguape","SIGLA_UF":"RN"}},{"type":"Feature","geometry":{"type":"Polygon","coordinates":[[[-37.46521,-4.8858],[-37.4454,-4.88059],[-37.20873,-4.99893],[-37.17693,-4.97495],[-37.17381,-5.01092],[-37.16807,-5.0177],[-37.13419,-5.00571],[-37.13002,-5.03021],[-37.15973,-5.04272],[-37.18111,-5.06097],[-37.16078,-5.07765],[-37.154,-5.10267],[-37.1467,-5.10945],[-37.14514,-5.12509],[-37.10865,-5.17044],[-37.15348,-5.17148],[-37.15349,-5.29295],[-37.11856,-5.29295],[-37.14202,-5.33048],[-37.13681,-5.38939],[-37.16914,-5.49417],[-37.29894,-5.48687],[-37.30102,-5.48218],[-37.29373,-5.47645],[-37.30102,-5.46289],[-37.29737,-5.45142],[-37.30102,-5.44256],[-37.29216,-5.41754],[-37.29581,-5.40294],[-37.30258,-5.39825],[-37.29424,-5.39095],[-37.42561,-5.31849],[-37.58408,-5.29763],[-37.48659,-5.01613],[-37.49388,-5.01091],[-37.49649,-5.00049],[-37.49127,-4.92333],[-37.46782,-4.89831],[-37.46521,-4.8858]]]},"properties":{"CD_MUN":"2408003","NM_MUN":"Mossoró","SIGLA_UF":"RN"}},{"type":"Feature","geometry":{"type":"Polygon","coordinates":[[[-35.84194,-6.37678],[-35.82005,-6.38565],[-35.74133,-6.40129],[-35.76219,-6.41953],[-35.7747,-6.4555],[-35.7747,-6.4727],[-35.76845,-6.48261],[-35.82214,-6.48574],[-35.85342,-6.44351],[-35.84194,-6.37678]]]},"properties":{"CD_MUN":"2407906","NM_MUN":"Monte das Gameleiras","SIGLA_UF":"RN"}},{"type":"Feature","geometry":{"type":"Polygon","coordinates":[[[-35.5255,-6.09059],[-35.50465,-6.08277],[-35.49892,-6.07443],[-35.48171,-6.07131],[-35.452,-6.04837],[-35.43219,-6.05098],[-35.43271,-6.04472],[-35.41864,-6.05358],[-35.40248,-6.05045],[-35.33731,-6.04681],[-35.29405,-6.07183],[-35.35504,-6.18287],[-35.38684,-6.15941],[-35.41916,-6.13282],[-35.43793,-6.13543],[-35.4447,-6.12604],[-35.49214,-6.11927],[-35.5255,-6.09059]]]},"properties":{"CD_MUN":"2407807","NM_MUN":"Monte Alegre","SIGLA_UF":"RN"}},{"type":"Feature","geometry":{"type":"Polygon","coordinates":[[[-36.71246,-5.07558],[-36.7036,-5.06776],[-36.70151,-5.086],[-36.67753,-5.10738],[-36.67806,-5.10112],[-36.67024,-5.10321],[-36.6817,-5.09643],[-36.68275,-5.09069],[-36.66502,-5.08705],[-36.62593,-5.09122],[-36.60977,-5.09643],[-36.60716,-5.10425],[-36.60612,-5.1006],[-36.60142,-5.10373],[-36.60038,-5.10008],[-36.62019,-5.07766],[-36.60664,-5.08392],[-36.59621,-5.07662],[-36.59725,-5.08548],[-36.59048,-5.09018],[-36.59204,-5.08236],[-36.55868,-5.08444],[-36.5347,-5.07819],[-36.50707,-5.07819],[-36.5102,-5.0761],[-36.50498,-5.07089],[-36.47683,-5.06672],[-36.48257,-5.06307],[-36.51593,-5.07245],[-36.50603,-5.06255],[-36.48205,-5.06151],[-36.41793,-5.0735],[-36.44451,-5.13293],[-36.36841,-5.25074],[-36.36945,-5.30861],[-36.35955,-5.34458],[-36.43827,-5.35552],[-36.43983,-5.36804],[-36.51021,-5.39983],[-36.50916,-5.3305],[-36.53314,-5.32998],[-36.53262,-5.31538],[-36.54253,-5.29818],[-36.5347,-5.26429],[-36.54252,-5.26064],[-36.542,-5.24396],[-36.55868,-5.22832],[-36.55712,-5.22155],[-36.57276,-5.21946],[-36.62541,-5.18609],[-36.7255,-5.15273],[-36.72132,-5.13761],[-36.72967,-5.13396],[-36.73019,-5.12197],[-36.72758,-5.1178],[-36.7182,-5.12041],[-36.71715,-5.11363],[-36.73801,-5.10842],[-36.75104,-5.09903],[-36.7427,-5.08965],[-36.71715,-5.08339],[-36.71246,-5.07558]]]},"properties":{"CD_MUN":"2407203","NM_MUN":"Macau","SIGLA_UF":"RN"}},{"type":"Feature","geometry":{"type":"Polygon","coordinates":[[[-35.48692,-5.8289],[-35.40195,-5.84871],[-35.29977,-5.83933],[-35.28152,-5.8263],[-35.28153,-5.8508],[-35.28361,-5.88416],[-35.30812,-5.96131],[-35.32793,-5.97435],[-35.34304,-5.97382],[-35.37328,-5.98842],[-35.38579,-5.98946],[-35.40247,-5.99832],[-35.41863,-5.99259],[-35.43896,-6.00875],[-35.46086,-5.99832],[-35.54948,-6.04889],[-35.56669,-6.07078],[-35.53645,-5.99519],[-35.55469,-5.94827],[-35.57763,-5.92638],[-35.53488,-5.87998],[-35.48692,-5.8289]]]},"properties":{"CD_MUN":"2407104","NM_MUN":"Macaíba","SIGLA_UF":"RN"}},{"type":"Feature","geometry":{"type":"Polygon","coordinates":[[[-38.45939,-6.32823],[-38.41351,-6.29696],[-38.37754,-6.33866],[-38.35304,-6.3371],[-38.36086,-6.34805],[-38.34835,-6.35117],[-38.33428,-6.37515],[-38.31447,-6.38402],[-38.30717,-6.37724],[-38.27485,-6.38193],[-38.28527,-6.39132],[-38.28684,-6.39861],[-38.29674,-6.40383],[-38.29622,-6.41738],[-38.30456,-6.42937],[-38.33897,-6.44397],[-38.35878,-6.45804],[-38.37286,-6.45543],[-38.3739,-6.43771],[-38.3812,-6.43093],[-38.38537,-6.41738],[-38.40048,-6.41008],[-38.41925,-6.41164],[-38.43697,-6.42624],[-38.45105,-6.42989],[-38.48598,-6.42415],[-38.48128,-6.39444],[-38.48962,-6.36525],[-38.48076,-6.35221],[-38.47972,-6.34231],[-38.45939,-6.32823]]]},"properties":{"CD_MUN":"2407005","NM_MUN":"Luís Gomes","SIGLA_UF":"RN"}},{"type":"Feature","geometry":{"type":"Polygon","coordinates":[[[-37.95006,-6.01338],[-37.94172,-6.00295],[-37.92921,-6.0066],[-37.88177,-6.00816],[-37.84841,-6.04831],[-37.83173,-6.08323],[-37.87135,-6.11086],[-37.8896,-6.12859],[-37.89585,-6.14944],[-37.9068,-6.15934],[-37.92348,-6.16873],[-37.95268,-6.16664],[-37.98135,-6.20157],[-38.00116,-6.21356],[-38.02149,-6.20886],[-38.03035,-6.19323],[-38.04547,-6.17967],[-38.04078,-6.15986],[-38.05433,-6.16038],[-38.04286,-6.12493],[-38.0293,-6.10304],[-37.98082,-6.08062],[-37.9803,-6.06916],[-37.96466,-6.05404],[-37.95059,-6.02641],[-37.95006,-6.01338]]]},"properties":{"CD_MUN":"2407401","NM_MUN":"Martins","SIGLA_UF":"RN"}},{"type":"Feature","geometry":{"type":"Polygon","coordinates":[[[-38.17319,-6.21772],[-38.15234,-6.20886],[-38.13253,-6.18905],[-38.06163,-6.20469],[-38.06893,-6.25213],[-38.11376,-6.31677],[-38.08978,-6.31625],[-38.12159,-6.3689],[-38.13879,-6.38402],[-38.25348,-6.38506],[-38.25868,-6.27819],[-38.17319,-6.21772]]]},"properties":{"CD_MUN":"2407302","NM_MUN":"Marcelino Vieira","SIGLA_UF":"RN"}},{"type":"Feature","geometry":{"type":"Polygon","coordinates":[[[-37.98447,-5.95603],[-37.90992,-5.95916],[-37.92921,-6.0066],[-37.94172,-6.00295],[-37.95006,-6.01338],[-37.96935,-6.01494],[-37.98812,-6.00034],[-37.99229,-5.98575],[-37.9829,-5.97011],[-37.97456,-5.96646],[-37.98447,-5.95603]]]},"properties":{"CD_MUN":"2414902","NM_MUN":"Viçosa","SIGLA_UF":"RN"}},{"type":"Feature","geometry":{"type":"Polygon","coordinates":[[[-36.22402,-5.43685],[-36.13175,-5.43529],[-36.0718,-5.41653],[-36.17137,-5.54112],[-36.15261,-5.57917],[-36.06555,-5.65946],[-36.101,-5.72358],[-36.11925,-5.80751],[-36.10935,-5.81637],[-36.11196,-5.83931],[-36.11665,-5.85651],[-36.13437,-5.86433],[-36.13958,-5.85651],[-36.15105,-5.85807],[-36.15001,-5.844],[-36.15731,-5.83722],[-36.18598,-5.85755],[-36.20475,-5.84243],[-36.23186,-5.88414],[-36.24176,-5.88205],[-36.25271,-5.87997],[-36.25271,-5.83357],[-36.25948,-5.83148],[-36.28346,-5.85807],[-36.2699,-5.67978],[-36.17919,-5.47856],[-36.22402,-5.43685]]]},"properties":{"CD_MUN":"2406700","NM_MUN":"Lajes","SIGLA_UF":"RN"}},{"type":"Feature","geometry":{"type":"Polygon","coordinates":[[[-35.54948,-6.04889],[-35.46086,-5.99832],[-35.43896,-6.00875],[-35.41863,-5.99259],[-35.40247,-5.99832],[-35.38579,-5.98946],[-35.38579,-6.00197],[-35.39153,-6.00041],[-35.39153,-6.00458],[-35.37954,-6.00771],[-35.38006,-6.0124],[-35.39726,-6.02387],[-35.38527,-6.03951],[-35.40039,-6.03899],[-35.40248,-6.05045],[-35.41864,-6.05358],[-35.43271,-6.04472],[-35.43219,-6.05098],[-35.452,-6.04837],[-35.48171,-6.07131],[-35.49892,-6.07443],[-35.50465,-6.08277],[-35.5255,-6.09059],[-35.54062,-6.09633],[-35.53541,-6.07443],[-35.54948,-6.04889]]]},"properties":{"CD_MUN":"2414803","NM_MUN":"Vera Cruz","SIGLA_UF":"RN"}},{"type":"Feature","geometry":{"type":"Polygon","coordinates":[[[-35.54062,-6.09633],[-35.5255,-6.09059],[-35.49214,-6.11927],[-35.4447,-6.12604],[-35.43793,-6.13543],[-35.4421,-6.14064],[-35.452,-6.14064],[-35.45252,-6.15576],[-35.54688,-6.19694],[-35.53385,-6.14168],[-35.54062,-6.09633]]]},"properties":{"CD_MUN":"2406601","NM_MUN":"Lagoa Salgada","SIGLA_UF":"RN"}},{"type":"Feature","geometry":{"type":"Polygon","coordinates":[[[-35.35504,-6.18287],[-35.32377,-6.19017],[-35.3514,-6.33665],[-35.3514,-6.35803],[-35.33785,-6.36845],[-35.33837,-6.37732],[-35.31283,-6.40078],[-35.38007,-6.40494],[-35.39467,-6.38774],[-35.42543,-6.38774],[-35.41604,-6.34187],[-35.40249,-6.32153],[-35.3587,-6.27097],[-35.35557,-6.24803],[-35.35504,-6.18287]]]},"properties":{"CD_MUN":"2414704","NM_MUN":"Várzea","SIGLA_UF":"RN"}},{"type":"Feature","geometry":{"type":"Polygon","coordinates":[[[-36.65255,-6.09317],[-36.63118,-6.09578],[-36.52014,-6.04469],[-36.44351,-6.03583],[-36.431,-6.10569],[-36.45655,-6.10934],[-36.48417,-6.12758],[-36.48574,-6.11924],[-36.47271,-6.10777],[-36.48417,-6.10621],[-36.49929,-6.09317],[-36.50972,-6.09734],[-36.52171,-6.09005],[-36.52223,-6.1036],[-36.53161,-6.10412],[-36.53109,-6.12028],[-36.54256,-6.12654],[-36.54412,-6.13592],[-36.54777,-6.12914],[-36.56289,-6.12445],[-36.58687,-6.12758],[-36.60199,-6.11976],[-36.62023,-6.1307],[-36.61085,-6.10933],[-36.62909,-6.10099],[-36.64838,-6.10307],[-36.65255,-6.09317]]]},"properties":{"CD_MUN":"2406502","NM_MUN":"Lagoa Nova","SIGLA_UF":"RN"}},{"type":"Feature","geometry":{"type":"Polygon","coordinates":[[[-37.83173,-6.08323],[-37.8114,-6.08688],[-37.78221,-6.08271],[-37.7942,-6.09731],[-37.80515,-6.09887],[-37.80932,-6.11347],[-37.80723,-6.13276],[-37.79733,-6.14579],[-37.80046,-6.15205],[-37.80358,-6.14371],[-37.81349,-6.14371],[-37.83434,-6.11973],[-37.87135,-6.11086],[-37.83173,-6.08323]]]},"properties":{"CD_MUN":"2406908","NM_MUN":"Lucrécia","SIGLA_UF":"RN"}},{"type":"Feature","geometry":{"type":"Polygon","coordinates":[[[-35.12463,-6.28349],[-35.10378,-6.26941],[-35.07824,-6.26472],[-35.06103,-6.2788],[-35.04487,-6.28297],[-35.05843,-6.32728],[-35.0871,-6.34187],[-35.12463,-6.28349]]]},"properties":{"CD_MUN":"2415008","NM_MUN":"Vila Flor","SIGLA_UF":"RN"}},{"type":"Feature","geometry":{"type":"Polygon","coordinates":[[[-36.20945,-6.13489],[-36.2058,-6.13019],[-36.17035,-6.12133],[-36.1594,-6.10622],[-36.12083,-6.08849],[-36.11405,-6.10465],[-36.09945,-6.0984],[-36.07808,-6.10257],[-36.06818,-6.09996],[-36.0468,-6.08589],[-36.07079,-6.20579],[-36.14794,-6.22612],[-36.10571,-6.16982],[-36.11405,-6.16617],[-36.11822,-6.17138],[-36.12761,-6.16929],[-36.20945,-6.13489]]]},"properties":{"CD_MUN":"2406809","NM_MUN":"Lajes Pintadas","SIGLA_UF":"RN"}},{"type":"Feature","geometry":{"type":"Polygon","coordinates":[[[-35.68138,-6.35281],[-35.66209,-6.33665],[-35.66209,-6.31371],[-35.64906,-6.31892],[-35.6475,-6.32674],[-35.62925,-6.34082],[-35.59589,-6.38409],[-35.5349,-6.4065],[-35.56305,-6.43413],[-35.61362,-6.42683],[-35.67096,-6.41015],[-35.67982,-6.39086],[-35.67513,-6.37783],[-35.68138,-6.35281]]]},"properties":{"CD_MUN":"2406205","NM_MUN":"Lagoa d'Anta","SIGLA_UF":"RN"}},{"type":"Feature","geometry":{"type":"Polygon","coordinates":[[[-37.2677,-6.40073],[-37.21453,-6.43201],[-37.18742,-6.4393],[-37.20358,-6.4711],[-37.20463,-6.5003],[-37.19993,-6.51437],[-37.21558,-6.55868],[-37.23643,-6.5665],[-37.25363,-6.58162],[-37.26093,-6.51854],[-37.29272,-6.47371],[-37.32504,-6.44556],[-37.28647,-6.432],[-37.2677,-6.40073]]]},"properties":{"CD_MUN":"2414308","NM_MUN":"Timbaúba dos Batistas","SIGLA_UF":"RN"}}]}