{"type":"FeatureCollection","features":[{"type":"Feature","geometry":{"type":"Polygon","coordinates":[[[-36.49942,-9.26377],[-36.489,-9.24604],[-36.48118,-9.24604],[-36.47961,-9.24135],[-36.4744,-9.24396],[-36.45511,-9.23353],[-36.45511,-9.22624],[-36.44208,-9.21946],[-36.43895,-9.21164],[-36.42435,-9.21581],[-36.42592,-9.22467],[-36.42175,-9.22936],[-36.40871,-9.22102],[-36.33886,-9.28671],[-36.38995,-9.29296],[-36.37536,-9.3378],[-36.39777,-9.33936],[-36.42436,-9.35865],[-36.44417,-9.3967],[-36.48483,-9.40713],[-36.54999,-9.34353],[-36.54947,-9.35395],[-36.57397,-9.3576],[-36.58283,-9.35343],[-36.59222,-9.36073],[-36.62402,-9.33154],[-36.62297,-9.32632],[-36.61359,-9.32267],[-36.61463,-9.30651],[-36.50255,-9.27107],[-36.49942,-9.26377]]]},"properties":{"CD_MUN":"2707602","NM_MUN":"Quebrangulo","SIGLA_UF":"AL"}},{"type":"Feature","geometry":{"type":"Polygon","coordinates":[[[-37.16825,-9.26584],[-37.16825,-9.27261],[-37.16356,-9.27574],[-37.14166,-9.26792],[-37.12863,-9.25958],[-37.1156,-9.24082],[-37.10726,-9.23873],[-37.08953,-9.24603],[-37.05617,-9.28148],[-37.06086,-9.29712],[-37.05617,-9.31797],[-37.07285,-9.31797],[-37.08589,-9.32996],[-37.08849,-9.34821],[-37.10205,-9.36176],[-37.10883,-9.38053],[-37.14584,-9.41754],[-37.14793,-9.43578],[-37.19745,-9.43213],[-37.20683,-9.43474],[-37.21309,-9.44517],[-37.25427,-9.44673],[-37.26887,-9.4535],[-37.31787,-9.42066],[-37.3309,-9.42379],[-37.44454,-9.35706],[-37.40232,-9.36227],[-37.38876,-9.35237],[-37.36426,-9.35758],[-37.33611,-9.35028],[-37.31265,-9.35133],[-37.2819,-9.34194],[-37.21413,-9.31119],[-37.20214,-9.29138],[-37.16825,-9.26584]]]},"properties":{"CD_MUN":"2708006","NM_MUN":"Santana do Ipanema","SIGLA_UF":"AL"}},{"type":"Feature","geometry":{"type":"Polygon","coordinates":[[[-35.81497,-9.57709],[-35.79256,-9.60003],[-35.8108,-9.61619],[-35.82592,-9.63965],[-35.84,-9.64173],[-35.86658,-9.62662],[-35.85407,-9.60993],[-35.84938,-9.61202],[-35.85146,-9.60681],[-35.84469,-9.60628],[-35.82435,-9.57761],[-35.81497,-9.57709]]]},"properties":{"CD_MUN":"2707909","NM_MUN":"Santa Luzia do Norte","SIGLA_UF":"AL"}},{"type":"Feature","geometry":{"type":"Polygon","coordinates":[[[-36.02558,-9.81115],[-36.01464,-9.80803],[-36.00473,-9.81115],[-35.99691,-9.8195],[-35.99066,-9.81845],[-35.98284,-9.82575],[-35.96772,-9.8294],[-35.95,-9.84504],[-35.91559,-9.83983],[-35.9036,-9.85651],[-35.90204,-9.87006],[-35.93436,-9.89926],[-35.96147,-9.94148],[-35.9672,-9.92949],[-35.97711,-9.92532],[-35.9818,-9.9102],[-35.999,-9.91542],[-36.01308,-9.9076],[-36.02038,-9.92011],[-36.04331,-9.84973],[-36.03653,-9.82679],[-36.0381,-9.81532],[-36.02558,-9.81115]]]},"properties":{"CD_MUN":"2707800","NM_MUN":"Roteiro","SIGLA_UF":"AL"}},{"type":"Feature","geometry":{"type":"Polygon","coordinates":[[[-37.23341,-9.24029],[-37.21152,-9.221],[-37.19744,-9.21527],[-37.15782,-9.23925],[-37.16721,-9.25176],[-37.16825,-9.26584],[-37.20214,-9.29138],[-37.21413,-9.31119],[-37.2819,-9.34194],[-37.31265,-9.35133],[-37.33611,-9.35028],[-37.36426,-9.35758],[-37.38876,-9.35237],[-37.40232,-9.36227],[-37.44454,-9.35706],[-37.48833,-9.34246],[-37.56027,-9.27052],[-37.40231,-9.30441],[-37.26782,-9.24238],[-37.26313,-9.25541],[-37.23341,-9.24029]]]},"properties":{"CD_MUN":"2707206","NM_MUN":"Poço das Trincheiras","SIGLA_UF":"AL"}},{"type":"Feature","geometry":{"type":"Polygon","coordinates":[[[-37.72709,-9.33359],[-37.65567,-9.40814],[-37.67027,-9.46236],[-37.66297,-9.48321],[-37.6734,-9.49885],[-37.66975,-9.50615],[-37.67548,-9.52126],[-37.67131,-9.53586],[-37.63691,-9.60363],[-37.65829,-9.6542],[-37.65516,-9.66723],[-37.65933,-9.67661],[-37.66506,-9.66671],[-37.66767,-9.65889],[-37.68383,-9.64534],[-37.71511,-9.63022],[-37.74639,-9.62552],[-37.78392,-9.63856],[-37.79017,-9.62292],[-37.80633,-9.6104],[-37.81728,-9.5932],[-37.8324,-9.59424],[-37.84126,-9.57913],[-37.84387,-9.56922],[-37.8324,-9.55045],[-37.81519,-9.5442],[-37.80894,-9.54837],[-37.80164,-9.54628],[-37.80164,-9.54211],[-37.79278,-9.5442],[-37.79382,-9.53482],[-37.78652,-9.5223],[-37.79538,-9.5051],[-37.77922,-9.48842],[-37.77297,-9.46913],[-37.77453,-9.44828],[-37.72187,-9.38416],[-37.72709,-9.33359]]]},"properties":{"CD_MUN":"2707107","NM_MUN":"Piranhas","SIGLA_UF":"AL"}},{"type":"Feature","geometry":{"type":"Polygon","coordinates":[[[-36.68503,-9.96284],[-36.64594,-9.9863],[-36.64229,-9.9936],[-36.65272,-10.00611],[-36.6449,-10.00871],[-36.64959,-10.0181],[-36.65428,-10.01445],[-36.65063,-10.02696],[-36.65689,-10.03426],[-36.67149,-10.07075],[-36.67305,-10.09473],[-36.68296,-10.12601],[-36.74395,-10.14477],[-36.73561,-10.15728],[-36.72102,-10.23652],[-36.72206,-10.26311],[-36.73665,-10.2506],[-36.74604,-10.23339],[-36.76063,-10.22922],[-36.77158,-10.22036],[-36.80129,-10.22192],[-36.82058,-10.21463],[-36.83779,-10.20211],[-36.84665,-10.18335],[-36.84665,-10.17657],[-36.82214,-10.1505],[-36.76897,-10.12392],[-36.76063,-10.10567],[-36.74603,-10.08951],[-36.73613,-10.08639],[-36.72622,-10.06553],[-36.71371,-10.05407],[-36.71267,-10.04312],[-36.70432,-10.01966],[-36.70589,-9.99985],[-36.68503,-9.96284]]]},"properties":{"CD_MUN":"2707503","NM_MUN":"Porto Real do Colégio","SIGLA_UF":"AL"}},{"type":"Feature","geometry":{"type":"Polygon","coordinates":[[[-35.50008,-9.08082],[-35.4808,-9.073],[-35.46516,-9.07612],[-35.45525,-9.0683],[-35.43805,-9.06726],[-35.42554,-9.06987],[-35.41928,-9.07717],[-35.39843,-9.06101],[-35.3854,-9.06049],[-35.3682,-9.07665],[-35.36924,-9.08343],[-35.36298,-9.0902],[-35.36663,-9.09542],[-35.35881,-9.09177],[-35.36403,-9.10323],[-35.35412,-9.10324],[-35.34787,-9.11105],[-35.35673,-9.10949],[-35.34578,-9.12044],[-35.35152,-9.12565],[-35.34005,-9.12357],[-35.33901,-9.12878],[-35.33119,-9.13243],[-35.33588,-9.13764],[-35.32076,-9.14703],[-35.31138,-9.14703],[-35.29105,-9.14598],[-35.29417,-9.15589],[-35.29418,-9.17049],[-35.30356,-9.19029],[-35.31868,-9.19864],[-35.3291,-9.22262],[-35.34162,-9.23096],[-35.3583,-9.22939],[-35.37706,-9.20958],[-35.42659,-9.19394],[-35.46412,-9.18977],[-35.46777,-9.18091],[-35.4636,-9.16996],[-35.48288,-9.14389],[-35.50738,-9.12721],[-35.51885,-9.12513],[-35.52302,-9.11887],[-35.50008,-9.08082]]]},"properties":{"CD_MUN":"2707404","NM_MUN":"Porto de Pedras","SIGLA_UF":"AL"}},{"type":"Feature","geometry":{"type":"Polygon","coordinates":[[[-35.4516,-8.96092],[-35.44899,-8.96456],[-35.42084,-8.92078],[-35.37757,-8.96822],[-35.36558,-8.94319],[-35.35307,-8.96352],[-35.35724,-8.98125],[-35.34369,-9.00314],[-35.33796,-9.00367],[-35.33014,-9.01305],[-35.30981,-9.01983],[-35.30929,-9.02452],[-35.30199,-9.02817],[-35.33535,-9.03182],[-35.3364,-9.04276],[-35.33327,-9.05423],[-35.33744,-9.073],[-35.32493,-9.12044],[-35.29991,-9.13608],[-35.31138,-9.14025],[-35.31138,-9.14703],[-35.32076,-9.14703],[-35.33588,-9.13764],[-35.33119,-9.13243],[-35.33901,-9.12878],[-35.34005,-9.12357],[-35.35152,-9.12565],[-35.34578,-9.12044],[-35.35673,-9.10949],[-35.34787,-9.11105],[-35.35412,-9.10324],[-35.36403,-9.10323],[-35.35881,-9.09177],[-35.36663,-9.09542],[-35.36298,-9.0902],[-35.36924,-9.08343],[-35.3682,-9.07665],[-35.3854,-9.06049],[-35.39843,-9.06101],[-35.41928,-9.07717],[-35.42554,-9.06987],[-35.43805,-9.06726],[-35.45525,-9.0683],[-35.46516,-9.07612],[-35.4808,-9.073],[-35.50008,-9.08082],[-35.52041,-9.0094],[-35.4516,-8.96092]]]},"properties":{"CD_MUN":"2707305","NM_MUN":"Porto Calvo","SIGLA_UF":"AL"}},{"type":"Feature","geometry":{"type":"Polygon","coordinates":[[[-36.4541,-10.03218],[-36.45254,-10.03843],[-36.44785,-10.06033],[-36.43377,-10.07388],[-36.41709,-10.06658],[-36.41344,-10.08379],[-36.39832,-10.08379],[-36.39885,-10.10151],[-36.37278,-10.10777],[-36.36131,-10.12132],[-36.36079,-10.15521],[-36.34255,-10.16459],[-36.33577,-10.17398],[-36.33734,-10.18597],[-36.35298,-10.20265],[-36.35089,-10.21255],[-36.35611,-10.22037],[-36.36393,-10.22611],[-36.37174,-10.22402],[-36.37279,-10.23288],[-36.38582,-10.23653],[-36.39677,-10.24644],[-36.39573,-10.25791],[-36.39156,-10.26833],[-36.38321,-10.27146],[-36.37696,-10.2944],[-36.39156,-10.31004],[-36.39781,-10.30274],[-36.41606,-10.3288],[-36.42753,-10.32672],[-36.44682,-10.33506],[-36.45933,-10.33297],[-36.49373,-10.3533],[-36.48956,-10.35643],[-36.49061,-10.36477],[-36.50625,-10.3679],[-36.50781,-10.37885],[-36.48904,-10.37885],[-36.48748,-10.3825],[-36.5052,-10.39553],[-36.48644,-10.42316],[-36.50677,-10.43254],[-36.52084,-10.42889],[-36.51198,-10.41951],[-36.54795,-10.42628],[-36.56203,-10.41273],[-36.56046,-10.38771],[-36.56776,-10.36268],[-36.56567,-10.32723],[-36.58809,-10.30169],[-36.59278,-10.28657],[-36.63031,-10.25321],[-36.6595,-10.24382],[-36.59747,-10.1943],[-36.52292,-10.1771],[-36.50363,-10.12601],[-36.50154,-10.09525],[-36.49059,-10.07127],[-36.4541,-10.03218]]]},"properties":{"CD_MUN":"2706703","NM_MUN":"Penedo","SIGLA_UF":"AL"}},{"type":"Feature","geometry":{"type":"Polygon","coordinates":[[[-36.48483,-9.40713],[-36.44417,-9.3967],[-36.42436,-9.35865],[-36.39777,-9.33936],[-36.37536,-9.3378],[-36.38995,-9.29296],[-36.33886,-9.28671],[-36.36545,-9.36282],[-36.36337,-9.38315],[-36.37379,-9.37585],[-36.38839,-9.42486],[-36.45929,-9.45353],[-36.48483,-9.40713]]]},"properties":{"CD_MUN":"2706604","NM_MUN":"Paulo Jacinto","SIGLA_UF":"AL"}},{"type":"Feature","geometry":{"type":"Polygon","coordinates":[[[-35.57724,-9.25597],[-35.46412,-9.18977],[-35.41877,-9.25076],[-35.39427,-9.27162],[-35.38593,-9.28621],[-35.39583,-9.30342],[-35.41929,-9.31332],[-35.41408,-9.32062],[-35.43285,-9.32427],[-35.43962,-9.33886],[-35.46308,-9.34773],[-35.51261,-9.30811],[-35.57724,-9.25597]]]},"properties":{"CD_MUN":"2706505","NM_MUN":"Passo de Camaragibe","SIGLA_UF":"AL"}},{"type":"Feature","geometry":{"type":"Polygon","coordinates":[[[-36.35086,-9.45249],[-36.35086,-9.44884],[-36.33314,-9.44258],[-36.3175,-9.45092],[-36.24295,-9.44102],[-36.21063,-9.45405],[-36.22679,-9.51296],[-36.27788,-9.52756],[-36.30082,-9.514],[-36.28883,-9.48898],[-36.35086,-9.45249]]]},"properties":{"CD_MUN":"2707008","NM_MUN":"Pindoba","SIGLA_UF":"AL"}},{"type":"Feature","geometry":{"type":"Polygon","coordinates":[[[-35.95885,-9.52809],[-35.88587,-9.58856],[-35.95624,-9.64747],[-35.96667,-9.64069],[-35.97762,-9.64382],[-35.98596,-9.66258],[-35.97918,-9.67301],[-36.02349,-9.64642],[-36.0188,-9.65997],[-36.02871,-9.67144],[-36.07406,-9.67353],[-36.08918,-9.6558],[-36.09804,-9.65163],[-36.10377,-9.6386],[-36.1142,-9.64955],[-36.1314,-9.65111],[-36.15486,-9.62504],[-36.17623,-9.62139],[-36.18092,-9.61253],[-36.15799,-9.61879],[-36.14912,-9.61201],[-36.13766,-9.61305],[-36.12723,-9.59898],[-36.11889,-9.59585],[-36.08344,-9.60002],[-36.01671,-9.57604],[-36.00524,-9.58595],[-35.99951,-9.57448],[-35.97553,-9.55571],[-35.97866,-9.5505],[-35.95885,-9.52809]]]},"properties":{"CD_MUN":"2706901","NM_MUN":"Pilar","SIGLA_UF":"AL"}},{"type":"Feature","geometry":{"type":"Polygon","coordinates":[[[-36.39156,-10.31004],[-36.32952,-10.33558],[-36.31284,-10.34705],[-36.30137,-10.34236],[-36.29303,-10.35487],[-36.31962,-10.37989],[-36.38114,-10.49406],[-36.39052,-10.50136],[-36.39834,-10.49823],[-36.42701,-10.43306],[-36.4536,-10.40752],[-36.46454,-10.40856],[-36.48644,-10.42316],[-36.5052,-10.39553],[-36.48748,-10.3825],[-36.48904,-10.37885],[-36.50781,-10.37885],[-36.50625,-10.3679],[-36.49061,-10.36477],[-36.48956,-10.35643],[-36.49373,-10.3533],[-36.45933,-10.33297],[-36.44682,-10.33506],[-36.42753,-10.32672],[-36.41606,-10.3288],[-36.39781,-10.30274],[-36.39156,-10.31004]]]},"properties":{"CD_MUN":"2706802","NM_MUN":"Piaçabuçu","SIGLA_UF":"AL"}},{"type":"Feature","geometry":{"type":"Polygon","coordinates":[[[-37.30224,-9.63596],[-37.28764,-9.68653],[-37.23864,-9.73658],[-37.32779,-9.71103],[-37.34551,-9.68861],[-37.37157,-9.6761],[-37.33508,-9.67193],[-37.31684,-9.66046],[-37.30224,-9.63596]]]},"properties":{"CD_MUN":"2706208","NM_MUN":"Palestina","SIGLA_UF":"AL"}},{"type":"Feature","geometry":{"type":"Polygon","coordinates":[[[-37.3997,-9.05209],[-37.33402,-9.08129],[-37.32672,-9.09328],[-37.31629,-9.09224],[-37.28137,-9.14854],[-37.26156,-9.16001],[-37.29492,-9.1892],[-37.46539,-9.20796],[-37.44193,-9.19128],[-37.42212,-9.16209],[-37.42472,-9.15531],[-37.41899,-9.13811],[-37.42576,-9.10214],[-37.41899,-9.07555],[-37.3997,-9.05209]]]},"properties":{"CD_MUN":"2706109","NM_MUN":"Ouro Branco","SIGLA_UF":"AL"}},{"type":"Feature","geometry":{"type":"Polygon","coordinates":[[[-37.26887,-9.4535],[-37.25427,-9.44673],[-37.21309,-9.44517],[-37.20683,-9.43474],[-37.19745,-9.43213],[-37.14793,-9.43578],[-37.11665,-9.43787],[-37.11665,-9.45976],[-37.10205,-9.45612],[-37.10258,-9.49],[-37.113,-9.49521],[-37.10883,-9.51659],[-37.11978,-9.53848],[-37.15679,-9.58279],[-37.26887,-9.4535]]]},"properties":{"CD_MUN":"2706000","NM_MUN":"Olivença","SIGLA_UF":"AL"}},{"type":"Feature","geometry":{"type":"Polygon","coordinates":[[[-37.3575,-9.64378],[-37.30224,-9.63596],[-37.31684,-9.66046],[-37.33508,-9.67193],[-37.37157,-9.6761],[-37.34551,-9.68861],[-37.32779,-9.71103],[-37.23864,-9.73658],[-37.24803,-9.73918],[-37.25064,-9.75169],[-37.27253,-9.76733],[-37.27462,-9.77411],[-37.28608,-9.77202],[-37.28452,-9.7788],[-37.30016,-9.7887],[-37.30902,-9.80382],[-37.29755,-9.81738],[-37.29651,-9.82676],[-37.32206,-9.8205],[-37.34551,-9.79287],[-37.39608,-9.77671],[-37.42162,-9.76107],[-37.46228,-9.7496],[-37.56394,-9.7397],[-37.58062,-9.73448],[-37.64995,-9.6886],[-37.65933,-9.67661],[-37.65516,-9.66723],[-37.65829,-9.6542],[-37.63691,-9.60363],[-37.67131,-9.53586],[-37.65724,-9.5197],[-37.63899,-9.52127],[-37.6025,-9.53586],[-37.58999,-9.5343],[-37.54933,-9.55932],[-37.47635,-9.62501],[-37.43048,-9.64795],[-37.3575,-9.64378]]]},"properties":{"CD_MUN":"2706406","NM_MUN":"Pão de Açúcar","SIGLA_UF":"AL"}},{"type":"Feature","geometry":{"type":"Polygon","coordinates":[[[-36.79604,-9.29295],[-36.75903,-9.27106],[-36.69283,-9.27523],[-36.65321,-9.31381],[-36.6433,-9.31381],[-36.62402,-9.33154],[-36.59222,-9.36073],[-36.58283,-9.35343],[-36.57397,-9.3576],[-36.54947,-9.35395],[-36.54999,-9.34353],[-36.48483,-9.40713],[-36.45929,-9.45353],[-36.45199,-9.4577],[-36.45616,-9.46604],[-36.46659,-9.48324],[-36.48744,-9.50201],[-36.49943,-9.49627],[-36.50152,-9.50044],[-36.51716,-9.50357],[-36.52446,-9.51504],[-36.5255,-9.52807],[-36.53123,-9.53224],[-36.56929,-9.48741],[-36.6136,-9.48271],[-36.64018,-9.502],[-36.68762,-9.4848],[-36.7924,-9.48532],[-36.83202,-9.50669],[-36.82733,-9.47385],[-36.79188,-9.43266],[-36.79501,-9.42537],[-36.78302,-9.41963],[-36.7705,-9.40139],[-36.77207,-9.38679],[-36.77884,-9.35864],[-36.75382,-9.31641],[-36.79604,-9.29295]]]},"properties":{"CD_MUN":"2706307","NM_MUN":"Palmeira dos Índios","SIGLA_UF":"AL"}},{"type":"Feature","geometry":{"type":"Polygon","coordinates":[[[-37.37209,-9.52492],[-37.31005,-9.46706],[-37.26887,-9.4535],[-37.15679,-9.58279],[-37.11978,-9.53848],[-37.15888,-9.60208],[-37.16253,-9.60781],[-37.25428,-9.58123],[-37.30432,-9.53587],[-37.31266,-9.55307],[-37.37209,-9.52492]]]},"properties":{"CD_MUN":"2705705","NM_MUN":"Olho d'Água das Flores","SIGLA_UF":"AL"}},{"type":"Feature","geometry":{"type":"Polygon","coordinates":[[[-35.65438,-8.87385],[-35.64813,-8.87907],[-35.63301,-8.87907],[-35.62102,-8.87125],[-35.62571,-8.86291],[-35.59808,-8.85978],[-35.57775,-8.83945],[-35.57254,-8.84153],[-35.584,-8.86395],[-35.58766,-9.02086],[-35.67211,-9.03024],[-35.70652,-9.03546],[-35.71016,-8.99896],[-35.6768,-8.94579],[-35.68045,-8.9338],[-35.64552,-8.89679],[-35.65438,-8.87385]]]},"properties":{"CD_MUN":"2705606","NM_MUN":"Novo Lino","SIGLA_UF":"AL"}},{"type":"Feature","geometry":{"type":"Polygon","coordinates":[[[-35.86135,-9.13711],[-35.84154,-9.25023],[-35.83529,-9.26431],[-35.83737,-9.30862],[-35.82956,-9.31331],[-35.82956,-9.32269],[-35.877,-9.41027],[-35.92756,-9.37534],[-35.9823,-9.38316],[-36.14807,-9.25492],[-35.98751,-9.27838],[-35.9677,-9.25075],[-35.86135,-9.13711]]]},"properties":{"CD_MUN":"2705507","NM_MUN":"Murici","SIGLA_UF":"AL"}},{"type":"Feature","geometry":{"type":"Polygon","coordinates":[[[-36.84247,-10.01027],[-36.83309,-10.01288],[-36.81953,-10.00245],[-36.80858,-10.00975],[-36.79868,-10.0061],[-36.78565,-10.01497],[-36.78721,-10.02122],[-36.71267,-10.04312],[-36.71371,-10.05407],[-36.72622,-10.06553],[-36.73613,-10.08639],[-36.74603,-10.08951],[-36.76063,-10.10567],[-36.76897,-10.12392],[-36.78878,-10.10515],[-36.81276,-10.0916],[-36.82058,-10.07439],[-36.87166,-10.05823],[-36.87375,-10.05354],[-36.86801,-10.04728],[-36.86019,-10.02748],[-36.84247,-10.01027]]]},"properties":{"CD_MUN":"2705903","NM_MUN":"Olho d'Água Grande","SIGLA_UF":"AL"}},{"type":"Feature","geometry":{"type":"Polygon","coordinates":[[[-37.77035,-9.29293],[-37.72709,-9.33359],[-37.72187,-9.38416],[-37.77453,-9.44828],[-37.77297,-9.46913],[-37.77922,-9.48842],[-37.79538,-9.5051],[-37.78652,-9.5223],[-37.79382,-9.53482],[-37.79278,-9.5442],[-37.80164,-9.54211],[-37.80164,-9.54628],[-37.80894,-9.54837],[-37.81519,-9.5442],[-37.8324,-9.55045],[-37.84387,-9.56922],[-37.84126,-9.57913],[-37.88609,-9.54941],[-37.89339,-9.53898],[-37.89391,-9.53429],[-37.88713,-9.53012],[-37.88765,-9.52074],[-37.89443,-9.515],[-37.89234,-9.50249],[-37.89704,-9.49624],[-37.89703,-9.47486],[-37.89182,-9.46183],[-37.89599,-9.4488],[-37.87566,-9.41283],[-37.87357,-9.40449],[-37.86992,-9.40657],[-37.86106,-9.40188],[-37.85116,-9.39093],[-37.84751,-9.37425],[-37.83604,-9.36383],[-37.83447,-9.3534],[-37.82718,-9.35079],[-37.81988,-9.33567],[-37.80632,-9.32838],[-37.77869,-9.32525],[-37.77035,-9.29293]]]},"properties":{"CD_MUN":"2705804","NM_MUN":"Olho d'Água do Casado","SIGLA_UF":"AL"}},{"type":"Feature","geometry":{"type":"Polygon","coordinates":[[[-35.83529,-9.26431],[-35.80349,-9.26639],[-35.76804,-9.30914],[-35.76857,-9.38838],[-35.877,-9.41027],[-35.82956,-9.32269],[-35.82956,-9.31331],[-35.83737,-9.30862],[-35.83529,-9.26431]]]},"properties":{"CD_MUN":"2705200","NM_MUN":"Messias","SIGLA_UF":"AL"}},{"type":"Feature","geometry":{"type":"Polygon","coordinates":[[[-35.58766,-9.02086],[-35.52041,-9.0094],[-35.50008,-9.08082],[-35.52302,-9.11887],[-35.51885,-9.12513],[-35.50738,-9.12721],[-35.48288,-9.14389],[-35.4636,-9.16996],[-35.46777,-9.18091],[-35.46412,-9.18977],[-35.57724,-9.25597],[-35.58037,-9.25024],[-35.56734,-9.23564],[-35.5663,-9.22626],[-35.56682,-9.21844],[-35.58193,-9.20332],[-35.57046,-9.16162],[-35.58037,-9.13972],[-35.62989,-9.09958],[-35.68567,-9.09853],[-35.6987,-9.08342],[-35.70808,-9.04536],[-35.68775,-9.03494],[-35.67941,-9.0365],[-35.67211,-9.03024],[-35.58766,-9.02086]]]},"properties":{"CD_MUN":"2705101","NM_MUN":"Matriz de Camaragibe","SIGLA_UF":"AL"}},{"type":"Feature","geometry":{"type":"Polygon","coordinates":[[[-37.53002,-8.95826],[-37.5295,-8.96347],[-37.54201,-9.00048],[-37.60822,-9.09119],[-37.63481,-9.11047],[-37.66921,-9.15531],[-37.69163,-9.17668],[-37.72343,-9.19597],[-37.84072,-9.20639],[-37.84125,-9.22255],[-37.95332,-9.10942],[-37.95071,-9.09691],[-37.90692,-9.05208],[-37.90484,-9.04113],[-37.88868,-9.03488],[-37.88034,-9.04009],[-37.87408,-9.02445],[-37.87773,-9.01403],[-37.86626,-9.01142],[-37.85218,-8.99995],[-37.83811,-8.97806],[-37.82507,-8.92905],[-37.83029,-8.92071],[-37.82038,-8.9082],[-37.82559,-8.88579],[-37.79692,-8.87692],[-37.77398,-8.85347],[-37.76721,-8.85451],[-37.76147,-8.84773],[-37.74896,-8.86077],[-37.74271,-8.87901],[-37.73124,-8.88527],[-37.73228,-8.89152],[-37.72394,-8.89778],[-37.71873,-8.91238],[-37.70517,-8.92593],[-37.701,-8.94365],[-37.6838,-8.96555],[-37.68432,-8.97598],[-37.70101,-8.9864],[-37.6984,-8.99266],[-37.68745,-8.99005],[-37.68328,-8.99891],[-37.65982,-8.98797],[-37.66191,-9.00048],[-37.64679,-9.01664],[-37.63115,-9.01664],[-37.61551,-9.00048],[-37.61082,-8.98484],[-37.59831,-8.97494],[-37.58371,-8.97024],[-37.56495,-8.97285],[-37.54409,-8.95982],[-37.53002,-8.95826]]]},"properties":{"CD_MUN":"2705002","NM_MUN":"Mata Grande","SIGLA_UF":"AL"}},{"type":"Feature","geometry":{"type":"Polygon","coordinates":[[[-37.31266,-9.55307],[-37.30432,-9.53587],[-37.25428,-9.58123],[-37.23499,-9.6125],[-37.24907,-9.63231],[-37.30224,-9.63596],[-37.3575,-9.64378],[-37.31266,-9.55307]]]},"properties":{"CD_MUN":"2705408","NM_MUN":"Monteirópolis","SIGLA_UF":"AL"}},{"type":"Feature","geometry":{"type":"Polygon","coordinates":[[[-36.88206,-9.27731],[-36.86746,-9.26845],[-36.84661,-9.27679],[-36.83879,-9.28878],[-36.79604,-9.29295],[-36.75382,-9.31641],[-36.77884,-9.35864],[-36.77207,-9.38679],[-36.90031,-9.39773],[-36.9368,-9.37688],[-36.93106,-9.36958],[-36.93888,-9.35238],[-36.92324,-9.33935],[-36.92168,-9.33205],[-36.92793,-9.32475],[-36.92324,-9.31015],[-36.90135,-9.282],[-36.88206,-9.27731]]]},"properties":{"CD_MUN":"2705309","NM_MUN":"Minador do Negrão","SIGLA_UF":"AL"}},{"type":"Feature","geometry":{"type":"Polygon","coordinates":[[[-35.88587,-9.58856],[-35.86658,-9.62662],[-35.86345,-9.65477],[-35.81185,-9.65477],[-35.80246,-9.67614],[-35.78995,-9.68292],[-35.78161,-9.69752],[-35.79517,-9.70794],[-35.7936,-9.71315],[-35.85408,-9.78822],[-35.90464,-9.81168],[-35.91403,-9.80959],[-35.92549,-9.79552],[-35.93644,-9.79447],[-35.94061,-9.7877],[-35.96042,-9.78978],[-35.99014,-9.78196],[-36.00369,-9.76684],[-35.98701,-9.73765],[-35.98753,-9.70012],[-35.9917,-9.69334],[-36.01724,-9.6876],[-36.02871,-9.67144],[-36.0188,-9.65997],[-36.02349,-9.64642],[-35.97918,-9.67301],[-35.98596,-9.66258],[-35.97762,-9.64382],[-35.96667,-9.64069],[-35.95624,-9.64747],[-35.88587,-9.58856]]]},"properties":{"CD_MUN":"2704708","NM_MUN":"Marechal Deodoro","SIGLA_UF":"AL"}},{"type":"Feature","geometry":{"type":"Polygon","coordinates":[[[-37.46539,-9.20796],[-37.29492,-9.1892],[-37.26156,-9.16001],[-37.24592,-9.1793],[-37.24227,-9.18607],[-37.24592,-9.19024],[-37.23289,-9.20641],[-37.22768,-9.22569],[-37.23341,-9.24029],[-37.26313,-9.25541],[-37.26782,-9.24238],[-37.40231,-9.30441],[-37.56027,-9.27052],[-37.5415,-9.25749],[-37.53107,-9.25801],[-37.52013,-9.24393],[-37.47999,-9.2236],[-37.47581,-9.21109],[-37.46539,-9.20796]]]},"properties":{"CD_MUN":"2704609","NM_MUN":"Maravilha","SIGLA_UF":"AL"}},{"type":"Feature","geometry":{"type":"Polygon","coordinates":[[[-35.34994,-8.86083],[-35.27383,-8.87543],[-35.2509,-8.88742],[-35.23369,-8.88325],[-35.20867,-8.89211],[-35.19407,-8.88638],[-35.17009,-8.89107],[-35.15602,-8.90254],[-35.15185,-8.91453],[-35.16749,-8.93694],[-35.18105,-8.97813],[-35.21962,-9.01357],[-35.23735,-9.04746],[-35.23943,-9.06466],[-35.25299,-9.07196],[-35.28635,-9.0339],[-35.30199,-9.02817],[-35.30929,-9.02452],[-35.30981,-9.01983],[-35.33014,-9.01305],[-35.33796,-9.00367],[-35.34369,-9.00314],[-35.35724,-8.98125],[-35.35307,-8.96352],[-35.36558,-8.94319],[-35.37132,-8.91244],[-35.3661,-8.90879],[-35.3588,-8.88481],[-35.34108,-8.87438],[-35.34994,-8.86083]]]},"properties":{"CD_MUN":"2704500","NM_MUN":"Maragogi","SIGLA_UF":"AL"}},{"type":"Feature","geometry":{"type":"Polygon","coordinates":[[[-36.38839,-9.42486],[-36.36911,-9.44675],[-36.35086,-9.45249],[-36.28883,-9.48898],[-36.30082,-9.514],[-36.30551,-9.52286],[-36.32845,-9.51035],[-36.33575,-9.51348],[-36.37641,-9.50149],[-36.41655,-9.47855],[-36.45616,-9.46604],[-36.45199,-9.4577],[-36.45929,-9.45353],[-36.38839,-9.42486]]]},"properties":{"CD_MUN":"2704906","NM_MUN":"Mar Vermelho","SIGLA_UF":"AL"}},{"type":"Feature","geometry":{"type":"Polygon","coordinates":[[[-36.37641,-9.50149],[-36.33575,-9.51348],[-36.32845,-9.51035],[-36.30551,-9.52286],[-36.30082,-9.514],[-36.27788,-9.52756],[-36.22679,-9.51296],[-36.21793,-9.56405],[-36.19083,-9.60002],[-36.26329,-9.59585],[-36.25286,-9.624],[-36.28727,-9.60888],[-36.293,-9.60158],[-36.32011,-9.60836],[-36.35035,-9.60731],[-36.34357,-9.60054],[-36.34982,-9.5922],[-36.37849,-9.57239],[-36.38266,-9.54111],[-36.37536,-9.52807],[-36.38631,-9.51608],[-36.38475,-9.5067],[-36.37641,-9.50149]]]},"properties":{"CD_MUN":"2704807","NM_MUN":"Maribondo","SIGLA_UF":"AL"}},{"type":"Feature","geometry":{"type":"Polygon","coordinates":[[[-36.77104,-9.73346],[-36.75175,-9.70948],[-36.69024,-9.80384],[-36.68451,-9.85805],[-36.75071,-9.88308],[-36.76375,-9.84919],[-36.75749,-9.83876],[-36.75749,-9.82052],[-36.76427,-9.80227],[-36.7455,-9.76839],[-36.77104,-9.73346]]]},"properties":{"CD_MUN":"2704104","NM_MUN":"Lagoa da Canoa","SIGLA_UF":"AL"}},{"type":"Feature","geometry":{"type":"Polygon","coordinates":[[[-36.54428,-9.84242],[-36.48902,-9.8273],[-36.41499,-9.77934],[-36.3931,-9.77413],[-36.3931,-9.7929],[-36.33628,-9.85285],[-36.32481,-9.87683],[-36.3123,-9.88674],[-36.39519,-9.87422],[-36.3978,-9.88778],[-36.44993,-9.96128],[-36.45931,-9.96232],[-36.4687,-9.97171],[-36.4786,-9.96128],[-36.47234,-9.95346],[-36.47026,-9.93886],[-36.48538,-9.92739],[-36.48694,-9.91592],[-36.49684,-9.90081],[-36.4958,-9.86692],[-36.50258,-9.8565],[-36.54167,-9.87161],[-36.54428,-9.84242]]]},"properties":{"CD_MUN":"2704005","NM_MUN":"Junqueiro","SIGLA_UF":"AL"}},{"type":"Feature","geometry":{"type":"Polygon","coordinates":[[[-37.10205,-9.45612],[-37.03793,-9.41702],[-37.02959,-9.39252],[-37.01916,-9.41389],[-37.01708,-9.43474],[-36.98215,-9.47645],[-36.97955,-9.48688],[-36.87581,-9.53484],[-36.83619,-9.53171],[-36.83776,-9.53953],[-36.83046,-9.55204],[-36.84141,-9.56508],[-36.84141,-9.5729],[-36.84923,-9.57029],[-36.87321,-9.58645],[-36.8779,-9.59687],[-36.88728,-9.59948],[-37.00197,-9.63023],[-37.05149,-9.61981],[-37.10884,-9.60573],[-37.15888,-9.60208],[-37.11978,-9.53848],[-37.10883,-9.51659],[-37.113,-9.49521],[-37.10258,-9.49],[-37.10205,-9.45612]]]},"properties":{"CD_MUN":"2704401","NM_MUN":"Major Isidoro","SIGLA_UF":"AL"}},{"type":"Feature","geometry":{"type":"Polygon","coordinates":[[[-35.76857,-9.38838],[-35.74354,-9.38473],[-35.71279,-9.3545],[-35.68672,-9.37066],[-35.66431,-9.43009],[-35.64085,-9.44416],[-35.62469,-9.44781],[-35.62417,-9.46137],[-35.61687,-9.46971],[-35.60123,-9.47388],[-35.58299,-9.46971],[-35.56161,-9.47961],[-35.55744,-9.48743],[-35.58664,-9.51141],[-35.59133,-9.53018],[-35.60436,-9.53122],[-35.61583,-9.54843],[-35.6346,-9.5552],[-35.67474,-9.59899],[-35.69612,-9.63496],[-35.69872,-9.64904],[-35.69403,-9.66468],[-35.70811,-9.6652],[-35.72323,-9.68448],[-35.72844,-9.6824],[-35.72166,-9.68083],[-35.72792,-9.67145],[-35.74929,-9.67562],[-35.7936,-9.71315],[-35.79517,-9.70794],[-35.78161,-9.69752],[-35.78995,-9.68292],[-35.76806,-9.63757],[-35.79256,-9.60003],[-35.81497,-9.57709],[-35.79568,-9.53122],[-35.78421,-9.51141],[-35.76857,-9.38838]]]},"properties":{"CD_MUN":"2704302","NM_MUN":"Maceió","SIGLA_UF":"AL"}},{"type":"Feature","geometry":{"type":"Polygon","coordinates":[[[-36.53541,-9.66309],[-36.52551,-9.68811],[-36.50935,-9.69228],[-36.38736,-9.65162],[-36.37485,-9.66622],[-36.36964,-9.69802],[-36.34201,-9.71314],[-36.34201,-9.73868],[-36.3467,-9.74859],[-36.35244,-9.74702],[-36.36026,-9.75276],[-36.35348,-9.75693],[-36.35921,-9.76892],[-36.36808,-9.76579],[-36.3931,-9.77413],[-36.41499,-9.77934],[-36.48902,-9.8273],[-36.54428,-9.84242],[-36.55366,-9.83773],[-36.54793,-9.80853],[-36.56461,-9.80332],[-36.5521,-9.77256],[-36.56617,-9.74024],[-36.55783,-9.71209],[-36.57607,-9.70688],[-36.58285,-9.7001],[-36.56565,-9.68238],[-36.53541,-9.66309]]]},"properties":{"CD_MUN":"2704203","NM_MUN":"Limoeiro de Anadia","SIGLA_UF":"AL"}},{"type":"Feature","geometry":{"type":"Polygon","coordinates":[[[-35.30199,-9.02817],[-35.28635,-9.0339],[-35.25299,-9.07196],[-35.23943,-9.06466],[-35.24517,-9.07926],[-35.25612,-9.08916],[-35.26967,-9.12253],[-35.28218,-9.12826],[-35.28375,-9.15015],[-35.29417,-9.15589],[-35.29105,-9.14598],[-35.31138,-9.14703],[-35.31138,-9.14025],[-35.29991,-9.13608],[-35.32493,-9.12044],[-35.33744,-9.073],[-35.33327,-9.05423],[-35.3364,-9.04276],[-35.33535,-9.03182],[-35.30199,-9.02817]]]},"properties":{"CD_MUN":"2703601","NM_MUN":"Japaratinga","SIGLA_UF":"AL"}},{"type":"Feature","geometry":{"type":"Polygon","coordinates":[[[-35.53813,-8.81703],[-35.53344,-8.81599],[-35.52979,-8.82433],[-35.51258,-8.81338],[-35.49903,-8.81808],[-35.49799,-8.8259],[-35.49069,-8.82485],[-35.48756,-8.83007],[-35.46775,-8.81234],[-35.4615,-8.81808],[-35.46515,-8.82798],[-35.45941,-8.83007],[-35.45524,-8.83997],[-35.43804,-8.84049],[-35.4297,-8.83528],[-35.41354,-8.83841],[-35.40051,-8.84884],[-35.34994,-8.86083],[-35.34108,-8.87438],[-35.3588,-8.88481],[-35.3661,-8.90879],[-35.37132,-8.91244],[-35.36558,-8.94319],[-35.37757,-8.96822],[-35.42084,-8.92078],[-35.44899,-8.96456],[-35.4516,-8.96092],[-35.44795,-8.95414],[-35.45681,-8.94632],[-35.46359,-8.94736],[-35.47401,-8.9385],[-35.47245,-8.94319],[-35.4761,-8.94423],[-35.49434,-8.9385],[-35.49487,-8.92338],[-35.50112,-8.9239],[-35.49747,-8.90826],[-35.51102,-8.91191],[-35.52249,-8.90148],[-35.54751,-8.84414],[-35.53813,-8.81703]]]},"properties":{"CD_MUN":"2703502","NM_MUN":"Jacuípe","SIGLA_UF":"AL"}},{"type":"Feature","geometry":{"type":"Polygon","coordinates":[[[-35.57254,-8.84153],[-35.56211,-8.82798],[-35.54647,-8.82537],[-35.53813,-8.81703],[-35.54751,-8.84414],[-35.52249,-8.90148],[-35.51102,-8.91191],[-35.49747,-8.90826],[-35.50112,-8.9239],[-35.49487,-8.92338],[-35.49434,-8.9385],[-35.4761,-8.94423],[-35.47245,-8.94319],[-35.47401,-8.9385],[-35.46359,-8.94736],[-35.45681,-8.94632],[-35.44795,-8.95414],[-35.4516,-8.96092],[-35.52041,-9.0094],[-35.58766,-9.02086],[-35.584,-8.86395],[-35.57254,-8.84153]]]},"properties":{"CD_MUN":"2703908","NM_MUN":"Jundiá","SIGLA_UF":"AL"}},{"type":"Feature","geometry":{"type":"Polygon","coordinates":[[[-35.70652,-9.03546],[-35.67211,-9.03024],[-35.67941,-9.0365],[-35.68775,-9.03494],[-35.70808,-9.04536],[-35.6987,-9.08342],[-35.68567,-9.09853],[-35.62989,-9.09958],[-35.58037,-9.13972],[-35.59132,-9.1564],[-35.63979,-9.12981],[-35.72425,-9.12512],[-35.7842,-9.15588],[-35.81287,-9.16265],[-35.83268,-9.14649],[-35.8504,-9.14493],[-35.86135,-9.13711],[-35.85978,-9.05005],[-35.70652,-9.03546]]]},"properties":{"CD_MUN":"2703809","NM_MUN":"Joaquim Gomes","SIGLA_UF":"AL"}},{"type":"Feature","geometry":{"type":"Polygon","coordinates":[[[-36.88728,-9.59948],[-36.88833,-9.60678],[-36.90397,-9.61616],[-36.90188,-9.62607],[-36.94202,-9.62867],[-36.94567,-9.63336],[-36.94254,-9.64014],[-36.95141,-9.64327],[-36.95349,-9.66256],[-36.96392,-9.67455],[-36.96861,-9.69384],[-36.97591,-9.69331],[-36.98529,-9.70583],[-36.98425,-9.71521],[-36.99259,-9.72042],[-37.06609,-9.65838],[-37.06661,-9.63701],[-37.05149,-9.61981],[-37.00197,-9.63023],[-36.88728,-9.59948]]]},"properties":{"CD_MUN":"2703700","NM_MUN":"Jaramataia","SIGLA_UF":"AL"}},{"type":"Feature","geometry":{"type":"Polygon","coordinates":[[[-36.83619,-9.53171],[-36.83046,-9.52806],[-36.83984,-9.5119],[-36.83202,-9.50669],[-36.7924,-9.48532],[-36.68762,-9.4848],[-36.64018,-9.502],[-36.6136,-9.48271],[-36.56929,-9.48741],[-36.53123,-9.53224],[-36.55417,-9.54058],[-36.56564,-9.56091],[-36.57294,-9.5656],[-36.58493,-9.5729],[-36.60057,-9.56821],[-36.60161,-9.57603],[-36.62298,-9.58124],[-36.61986,-9.5875],[-36.62298,-9.60418],[-36.61464,-9.60835],[-36.60995,-9.61878],[-36.61308,-9.62295],[-36.62246,-9.62086],[-36.62924,-9.63024],[-36.61308,-9.62816],[-36.60787,-9.63442],[-36.61048,-9.64328],[-36.60526,-9.65318],[-36.60839,-9.65423],[-36.62194,-9.65527],[-36.63654,-9.6365],[-36.65374,-9.64276],[-36.69232,-9.63389],[-36.68658,-9.62712],[-36.68241,-9.60053],[-36.68763,-9.59688],[-36.69805,-9.60001],[-36.6944,-9.57968],[-36.70639,-9.58437],[-36.72672,-9.5729],[-36.75331,-9.57707],[-36.75591,-9.56456],[-36.76321,-9.55778],[-36.78459,-9.54996],[-36.81117,-9.56351],[-36.83046,-9.55204],[-36.83776,-9.53953],[-36.83619,-9.53171]]]},"properties":{"CD_MUN":"2703106","NM_MUN":"Igaci","SIGLA_UF":"AL"}},{"type":"Feature","geometry":{"type":"Polygon","coordinates":[[[-35.84413,-8.87124],[-35.82328,-8.87072],[-35.85978,-9.05005],[-35.95831,-9.05213],[-35.97551,-9.0],[-35.94214,-8.96507],[-35.94996,-8.9437],[-35.94423,-8.93275],[-35.94944,-8.91711],[-35.94683,-8.90773],[-35.95726,-8.89313],[-35.94892,-8.89209],[-35.94214,-8.88427],[-35.9192,-8.88114],[-35.91503,-8.86498],[-35.90877,-8.85925],[-35.89887,-8.85977],[-35.89418,-8.85247],[-35.88323,-8.86029],[-35.85977,-8.85664],[-35.84413,-8.87124]]]},"properties":{"CD_MUN":"2703007","NM_MUN":"Ibateguara","SIGLA_UF":"AL"}},{"type":"Feature","geometry":{"type":"Polygon","coordinates":[[[-37.25428,-9.58123],[-37.16253,-9.60781],[-37.1521,-9.61407],[-37.19016,-9.69018],[-37.21154,-9.69331],[-37.21414,-9.70373],[-37.21936,-9.70321],[-37.21831,-9.70999],[-37.2204,-9.72302],[-37.22822,-9.7225],[-37.22874,-9.73032],[-37.23864,-9.73658],[-37.28764,-9.68653],[-37.30224,-9.63596],[-37.24907,-9.63231],[-37.23499,-9.6125],[-37.25428,-9.58123]]]},"properties":{"CD_MUN":"2703403","NM_MUN":"Jacaré dos Homens","SIGLA_UF":"AL"}},{"type":"Feature","geometry":{"type":"Polygon","coordinates":[[[-37.84125,-9.22255],[-37.84072,-9.20639],[-37.72343,-9.19597],[-37.69163,-9.17668],[-37.62073,-9.19441],[-37.61761,-9.20535],[-37.62386,-9.22047],[-37.61031,-9.22777],[-37.60979,-9.23246],[-37.61969,-9.23924],[-37.61969,-9.2481],[-37.60927,-9.25436],[-37.60771,-9.28094],[-37.59624,-9.28876],[-37.58998,-9.2872],[-37.59415,-9.31274],[-37.62335,-9.36383],[-37.63742,-9.37738],[-37.65567,-9.40814],[-37.72709,-9.33359],[-37.77035,-9.29293],[-37.84125,-9.22255]]]},"properties":{"CD_MUN":"2703304","NM_MUN":"Inhapi","SIGLA_UF":"AL"}},{"type":"Feature","geometry":{"type":"Polygon","coordinates":[[[-36.65689,-10.03426],[-36.51614,-10.04052],[-36.50884,-10.06815],[-36.49059,-10.07127],[-36.50154,-10.09525],[-36.50363,-10.12601],[-36.52292,-10.1771],[-36.59747,-10.1943],[-36.6595,-10.24382],[-36.63031,-10.25321],[-36.64595,-10.25269],[-36.66002,-10.26624],[-36.67879,-10.26937],[-36.68244,-10.2751],[-36.70277,-10.27041],[-36.72206,-10.26311],[-36.72102,-10.23652],[-36.73561,-10.15728],[-36.74395,-10.14477],[-36.68296,-10.12601],[-36.67305,-10.09473],[-36.67149,-10.07075],[-36.65689,-10.03426]]]},"properties":{"CD_MUN":"2703205","NM_MUN":"Igreja Nova","SIGLA_UF":"AL"}},{"type":"Feature","geometry":{"type":"Polygon","coordinates":[[[-36.69024,-9.80384],[-36.6647,-9.81218],[-36.63029,-9.83355],[-36.62091,-9.86014],[-36.60319,-9.87265],[-36.60267,-9.90237],[-36.61101,-9.90497],[-36.61361,-9.91227],[-36.61257,-9.95085],[-36.62978,-9.95241],[-36.62404,-9.96545],[-36.6303,-9.96909],[-36.62769,-9.98004],[-36.64594,-9.9863],[-36.68503,-9.96284],[-36.672,-9.93729],[-36.68816,-9.92739],[-36.69129,-9.91227],[-36.70484,-9.91175],[-36.71839,-9.9008],[-36.72674,-9.90393],[-36.73455,-9.88829],[-36.74185,-9.89037],[-36.75071,-9.88308],[-36.68451,-9.85805],[-36.69024,-9.80384]]]},"properties":{"CD_MUN":"2702603","NM_MUN":"Feira Grande","SIGLA_UF":"AL"}},{"type":"Feature","geometry":{"type":"Polygon","coordinates":[[[-37.05617,-9.31797],[-37.05304,-9.3065],[-37.04105,-9.31484],[-37.01968,-9.31484],[-37.00196,-9.35186],[-36.97642,-9.36176],[-36.99101,-9.37479],[-37.02177,-9.36958],[-37.02959,-9.39252],[-37.03793,-9.41702],[-37.10205,-9.45612],[-37.11665,-9.45976],[-37.11665,-9.43787],[-37.14793,-9.43578],[-37.14584,-9.41754],[-37.10883,-9.38053],[-37.10205,-9.36176],[-37.08849,-9.34821],[-37.08589,-9.32996],[-37.07285,-9.31797],[-37.05617,-9.31797]]]},"properties":{"CD_MUN":"2702504","NM_MUN":"Dois Riachos","SIGLA_UF":"AL"}},{"type":"Feature","geometry":{"type":"Polygon","coordinates":[[[-36.96861,-9.69384],[-36.96392,-9.67455],[-36.95349,-9.66256],[-36.95141,-9.64327],[-36.94254,-9.64014],[-36.94567,-9.63336],[-36.94202,-9.62867],[-36.90188,-9.62607],[-36.87217,-9.64588],[-36.86748,-9.65995],[-36.81587,-9.68706],[-36.81639,-9.69905],[-36.79241,-9.71104],[-36.77104,-9.73346],[-36.7455,-9.76839],[-36.76427,-9.80227],[-36.75749,-9.82052],[-36.75749,-9.83876],[-36.76375,-9.84919],[-36.75071,-9.88308],[-36.75958,-9.90184],[-36.77991,-9.91279],[-36.78981,-9.92843],[-36.78408,-9.9425],[-36.79294,-9.94667],[-36.79711,-9.95866],[-36.81015,-9.96075],[-36.81953,-9.95501],[-36.82839,-9.94302],[-36.82631,-9.92895],[-36.8482,-9.92947],[-36.88052,-9.90288],[-36.90919,-9.8935],[-36.92222,-9.88203],[-36.91857,-9.81947],[-36.90241,-9.81061],[-36.8998,-9.73971],[-36.96861,-9.69384]]]},"properties":{"CD_MUN":"2702900","NM_MUN":"Girau do Ponciano","SIGLA_UF":"AL"}},{"type":"Feature","geometry":{"type":"Polygon","coordinates":[[[-35.86135,-9.13711],[-35.8504,-9.14493],[-35.83268,-9.14649],[-35.81287,-9.16265],[-35.7842,-9.15588],[-35.72425,-9.12512],[-35.69402,-9.26692],[-35.68672,-9.37066],[-35.71279,-9.3545],[-35.74354,-9.38473],[-35.76857,-9.38838],[-35.76804,-9.30914],[-35.80349,-9.26639],[-35.83529,-9.26431],[-35.84154,-9.25023],[-35.86135,-9.13711]]]},"properties":{"CD_MUN":"2702801","NM_MUN":"Flexeiras","SIGLA_UF":"AL"}},{"type":"Feature","geometry":{"type":"Polygon","coordinates":[[[-36.38582,-10.23653],[-36.27114,-10.27511],[-36.29825,-10.31473],[-36.30137,-10.34236],[-36.31284,-10.34705],[-36.32952,-10.33558],[-36.39156,-10.31004],[-36.37696,-10.2944],[-36.38321,-10.27146],[-36.39156,-10.26833],[-36.39573,-10.25791],[-36.39677,-10.24644],[-36.38582,-10.23653]]]},"properties":{"CD_MUN":"2702702","NM_MUN":"Feliz Deserto","SIGLA_UF":"AL"}},{"type":"Feature","geometry":{"type":"Polygon","coordinates":[[[-35.72371,-8.90461],[-35.69713,-8.90148],[-35.68045,-8.89053],[-35.67106,-8.89575],[-35.65438,-8.87385],[-35.64552,-8.89679],[-35.68045,-8.9338],[-35.6768,-8.94579],[-35.71016,-8.99896],[-35.70652,-9.03546],[-35.85978,-9.05005],[-35.82328,-8.87072],[-35.81963,-8.85717],[-35.80504,-8.86134],[-35.78887,-8.84726],[-35.77219,-8.85977],[-35.77272,-8.86916],[-35.78001,-8.88115],[-35.77584,-8.89001],[-35.77949,-8.89835],[-35.76125,-8.90044],[-35.76177,-8.9093],[-35.74874,-8.91608],[-35.73466,-8.90617],[-35.72371,-8.90461]]]},"properties":{"CD_MUN":"2702108","NM_MUN":"Colônia Leopoldina","SIGLA_UF":"AL"}},{"type":"Feature","geometry":{"type":"Polygon","coordinates":[[[-36.60839,-9.65423],[-36.60526,-9.65318],[-36.61048,-9.64328],[-36.60787,-9.63442],[-36.61308,-9.62816],[-36.62924,-9.63024],[-36.62246,-9.62086],[-36.61308,-9.62295],[-36.60995,-9.61878],[-36.61464,-9.60835],[-36.62298,-9.60418],[-36.61986,-9.5875],[-36.62298,-9.58124],[-36.60161,-9.57603],[-36.60057,-9.56821],[-36.58493,-9.5729],[-36.57294,-9.5656],[-36.56981,-9.56404],[-36.55052,-9.62086],[-36.54271,-9.62764],[-36.53541,-9.66309],[-36.56565,-9.68238],[-36.58285,-9.7001],[-36.5865,-9.69228],[-36.5938,-9.69228],[-36.59484,-9.68394],[-36.60735,-9.66934],[-36.60839,-9.65423]]]},"properties":{"CD_MUN":"2702009","NM_MUN":"Coité do Nóia","SIGLA_UF":"AL"}},{"type":"Feature","geometry":{"type":"Polygon","coordinates":[[[-36.28673,-9.17359],[-36.28047,-9.1861],[-36.17986,-9.21321],[-36.23565,-9.2914],[-36.2982,-9.31226],[-36.30029,-9.30235],[-36.3128,-9.30235],[-36.31541,-9.29714],[-36.32479,-9.29609],[-36.32114,-9.28932],[-36.32583,-9.28463],[-36.33886,-9.28671],[-36.40871,-9.22102],[-36.38786,-9.22415],[-36.37483,-9.21685],[-36.36493,-9.22259],[-36.35241,-9.21998],[-36.34824,-9.21529],[-36.35294,-9.20122],[-36.34042,-9.20695],[-36.3326,-9.20434],[-36.31019,-9.17254],[-36.30706,-9.1788],[-36.28673,-9.17359]]]},"properties":{"CD_MUN":"2701902","NM_MUN":"Chã Preta","SIGLA_UF":"AL"}},{"type":"Feature","geometry":{"type":"Polygon","coordinates":[[[-38.23692,-9.32941],[-38.20355,-9.29761],[-38.17592,-9.28823],[-38.15768,-9.26373],[-38.15611,-9.25226],[-37.87566,-9.41283],[-37.89599,-9.4488],[-37.89182,-9.46183],[-37.89703,-9.47486],[-37.89704,-9.49624],[-37.89234,-9.50249],[-37.89443,-9.515],[-37.88765,-9.52074],[-37.88713,-9.53012],[-37.89391,-9.53429],[-37.89339,-9.53898],[-37.92258,-9.54784],[-37.95803,-9.53325],[-37.97627,-9.53168],[-38.00234,-9.515],[-37.99713,-9.49832],[-38.01172,-9.47851],[-38.02736,-9.46808],[-38.04352,-9.46808],[-38.05812,-9.45974],[-38.0675,-9.45974],[-38.06854,-9.44983],[-38.07845,-9.44097],[-38.1092,-9.43576],[-38.11806,-9.44254],[-38.14048,-9.43784],[-38.15456,-9.44358],[-38.17801,-9.42533],[-38.20408,-9.41855],[-38.20095,-9.40031],[-38.19313,-9.39405],[-38.19417,-9.38519],[-38.2072,-9.36017],[-38.22388,-9.34557],[-38.23692,-9.32941]]]},"properties":{"CD_MUN":"2702405","NM_MUN":"Delmiro Gouveia","SIGLA_UF":"AL"}},{"type":"Feature","geometry":{"type":"Polygon","coordinates":[[[-36.88728,-9.59948],[-36.8779,-9.59687],[-36.87321,-9.58645],[-36.84923,-9.57029],[-36.84141,-9.5729],[-36.84141,-9.56508],[-36.83046,-9.55204],[-36.81117,-9.56351],[-36.78459,-9.54996],[-36.76321,-9.55778],[-36.75591,-9.56456],[-36.75331,-9.57707],[-36.72672,-9.5729],[-36.70639,-9.58437],[-36.6944,-9.57968],[-36.69805,-9.60001],[-36.68763,-9.59688],[-36.68241,-9.60053],[-36.68658,-9.62712],[-36.69232,-9.63389],[-36.75175,-9.70948],[-36.77104,-9.73346],[-36.79241,-9.71104],[-36.81639,-9.69905],[-36.81587,-9.68706],[-36.86748,-9.65995],[-36.87217,-9.64588],[-36.90188,-9.62607],[-36.90397,-9.61616],[-36.88833,-9.60678],[-36.88728,-9.59948]]]},"properties":{"CD_MUN":"2702355","NM_MUN":"Craíbas","SIGLA_UF":"AL"}},{"type":"Feature","geometry":{"type":"Polygon","coordinates":[[[-36.45254,-10.03843],[-36.30345,-10.03114],[-36.30449,-10.01915],[-36.29041,-10.00038],[-36.27998,-9.9347],[-36.10848,-9.93366],[-36.09701,-9.94356],[-36.06469,-9.95712],[-36.03185,-9.95973],[-36.02715,-9.96338],[-36.02246,-10.0056],[-36.03081,-10.02593],[-36.02612,-10.04157],[-36.03081,-10.05096],[-36.0454,-10.07546],[-36.0574,-10.08484],[-36.06886,-10.08484],[-36.08659,-10.09318],[-36.10796,-10.12915],[-36.12047,-10.13749],[-36.13403,-10.15886],[-36.14498,-10.15469],[-36.17,-10.17137],[-36.18564,-10.19744],[-36.21275,-10.21412],[-36.27114,-10.27511],[-36.38582,-10.23653],[-36.37279,-10.23288],[-36.37174,-10.22402],[-36.36393,-10.22611],[-36.35611,-10.22037],[-36.35089,-10.21255],[-36.35298,-10.20265],[-36.33734,-10.18597],[-36.33577,-10.17398],[-36.34255,-10.16459],[-36.36079,-10.15521],[-36.36131,-10.12132],[-36.37278,-10.10777],[-36.39885,-10.10151],[-36.39832,-10.08379],[-36.41344,-10.08379],[-36.41709,-10.06658],[-36.43377,-10.07388],[-36.44785,-10.06033],[-36.45254,-10.03843]]]},"properties":{"CD_MUN":"2702306","NM_MUN":"Coruripe","SIGLA_UF":"AL"}},{"type":"Feature","geometry":{"type":"Polygon","coordinates":[[[-35.86658,-9.62662],[-35.84,-9.64173],[-35.82592,-9.63965],[-35.8108,-9.61619],[-35.79256,-9.60003],[-35.76806,-9.63757],[-35.78995,-9.68292],[-35.80246,-9.67614],[-35.81185,-9.65477],[-35.86345,-9.65477],[-35.86658,-9.62662]]]},"properties":{"CD_MUN":"2702207","NM_MUN":"Coqueiro Seco","SIGLA_UF":"AL"}},{"type":"Feature","geometry":{"type":"Polygon","coordinates":[[[-37.5295,-8.96347],[-37.51594,-8.96712],[-37.48936,-8.96555],[-37.48623,-8.97546],[-37.49301,-9.00048],[-37.47789,-9.01925],[-37.46851,-9.02759],[-37.43462,-9.02863],[-37.3997,-9.05209],[-37.41899,-9.07555],[-37.42576,-9.10214],[-37.41899,-9.13811],[-37.42472,-9.15531],[-37.42212,-9.16209],[-37.44193,-9.19128],[-37.46539,-9.20796],[-37.47581,-9.21109],[-37.47999,-9.2236],[-37.52013,-9.24393],[-37.53107,-9.25801],[-37.5415,-9.25749],[-37.56027,-9.27052],[-37.5733,-9.28147],[-37.58998,-9.2872],[-37.59624,-9.28876],[-37.60771,-9.28094],[-37.60927,-9.25436],[-37.61969,-9.2481],[-37.61969,-9.23924],[-37.60979,-9.23246],[-37.61031,-9.22777],[-37.62386,-9.22047],[-37.61761,-9.20535],[-37.62073,-9.19441],[-37.69163,-9.17668],[-37.66921,-9.15531],[-37.63481,-9.11047],[-37.60822,-9.09119],[-37.54201,-9.00048],[-37.5295,-8.96347]]]},"properties":{"CD_MUN":"2701605","NM_MUN":"Canapi","SIGLA_UF":"AL"}},{"type":"Feature","geometry":{"type":"Polygon","coordinates":[[[-36.79711,-9.95866],[-36.79294,-9.94667],[-36.78408,-9.9425],[-36.78981,-9.92843],[-36.77991,-9.91279],[-36.75958,-9.90184],[-36.75071,-9.88308],[-36.74185,-9.89037],[-36.73455,-9.88829],[-36.72674,-9.90393],[-36.71839,-9.9008],[-36.70484,-9.91175],[-36.69129,-9.91227],[-36.68816,-9.92739],[-36.672,-9.93729],[-36.68503,-9.96284],[-36.70589,-9.99985],[-36.70432,-10.01966],[-36.71267,-10.04312],[-36.78721,-10.02122],[-36.78565,-10.01497],[-36.79868,-10.0061],[-36.80858,-10.00975],[-36.81953,-10.00245],[-36.83309,-10.01288],[-36.84247,-10.01027],[-36.83778,-10.00245],[-36.80963,-9.98369],[-36.79711,-9.95866]]]},"properties":{"CD_MUN":"2701506","NM_MUN":"Campo Grande","SIGLA_UF":"AL"}},{"type":"Feature","geometry":{"type":"Polygon","coordinates":[[[-36.34201,-9.73868],[-36.33419,-9.72826],[-36.33158,-9.71262],[-36.32272,-9.71314],[-36.31699,-9.72305],[-36.27789,-9.73399],[-36.25183,-9.7293],[-36.24557,-9.73243],[-36.18614,-9.79499],[-36.20752,-9.80541],[-36.19657,-9.82627],[-36.19657,-9.83774],[-36.20856,-9.84295],[-36.21847,-9.83669],[-36.2388,-9.87162],[-36.18093,-9.87996],[-36.17833,-9.88935],[-36.21847,-9.90446],[-36.27633,-9.89925],[-36.27685,-9.89247],[-36.3123,-9.88674],[-36.32481,-9.87683],[-36.33628,-9.85285],[-36.3931,-9.7929],[-36.3931,-9.77413],[-36.36808,-9.76579],[-36.35921,-9.76892],[-36.35348,-9.75693],[-36.36026,-9.75276],[-36.35244,-9.74702],[-36.3467,-9.74859],[-36.34201,-9.73868]]]},"properties":{"CD_MUN":"2701407","NM_MUN":"Campo Alegre","SIGLA_UF":"AL"}},{"type":"Feature","geometry":{"type":"Polygon","coordinates":[[[-37.3309,-9.42379],[-37.31787,-9.42066],[-37.26887,-9.4535],[-37.31005,-9.46706],[-37.37209,-9.52492],[-37.44455,-9.47644],[-37.44924,-9.45298],[-37.3309,-9.42379]]]},"properties":{"CD_MUN":"2701803","NM_MUN":"Carneiros","SIGLA_UF":"AL"}},{"type":"Feature","geometry":{"type":"Polygon","coordinates":[[[-36.17986,-9.21321],[-36.14807,-9.25492],[-35.9823,-9.38316],[-36.05685,-9.41965],[-36.05789,-9.42799],[-36.07092,-9.43164],[-36.07249,-9.43946],[-36.16111,-9.47386],[-36.10532,-9.35292],[-36.11106,-9.31122],[-36.19864,-9.32998],[-36.17986,-9.21321]]]},"properties":{"CD_MUN":"2701704","NM_MUN":"Capela","SIGLA_UF":"AL"}},{"type":"Feature","geometry":{"type":"Polygon","coordinates":[[[-35.95831,-9.05213],[-35.85978,-9.05005],[-35.86135,-9.13711],[-36.00002,-9.1981],[-36.05944,-9.21582],[-36.06622,-9.20644],[-36.08759,-9.20226],[-36.1074,-9.20956],[-36.12773,-9.20226],[-36.17986,-9.21321],[-36.11783,-9.14179],[-36.11783,-9.1371],[-36.11261,-9.13658],[-36.11365,-9.05526],[-36.09072,-9.0589],[-36.0928,-9.07298],[-36.08811,-9.06777],[-36.07403,-9.06829],[-36.07143,-9.06151],[-36.03859,-9.05421],[-35.95831,-9.05213]]]},"properties":{"CD_MUN":"2709301","NM_MUN":"União dos Palmares","SIGLA_UF":"AL"}},{"type":"Feature","geometry":{"type":"Polygon","coordinates":[[[-36.17986,-9.21321],[-36.12773,-9.20226],[-36.1074,-9.20956],[-36.08759,-9.20226],[-36.06622,-9.20644],[-36.05944,-9.21582],[-36.00002,-9.1981],[-35.86135,-9.13711],[-35.9677,-9.25075],[-35.98751,-9.27838],[-36.14807,-9.25492],[-36.17986,-9.21321]]]},"properties":{"CD_MUN":"2701100","NM_MUN":"Branquinha","SIGLA_UF":"AL"}},{"type":"Feature","geometry":{"type":"Polygon","coordinates":[[[-36.99259,-9.72042],[-36.98425,-9.71521],[-36.98529,-9.70583],[-36.97591,-9.69331],[-36.96861,-9.69384],[-36.8998,-9.73971],[-36.90241,-9.81061],[-36.91857,-9.81947],[-36.92222,-9.88203],[-36.90919,-9.8935],[-36.88052,-9.90288],[-36.8482,-9.92947],[-36.82631,-9.92895],[-36.82839,-9.94302],[-36.81953,-9.95501],[-36.81015,-9.96075],[-36.79711,-9.95866],[-36.80963,-9.98369],[-36.83778,-10.00245],[-36.84247,-10.01027],[-36.86019,-10.02748],[-36.86801,-10.04728],[-36.93995,-10.077],[-36.95142,-10.07491],[-36.95403,-10.06449],[-36.95872,-10.0478],[-36.95611,-10.02017],[-36.96393,-9.99411],[-36.99521,-9.97638],[-37.0317,-9.98837],[-37.04734,-9.98785],[-37.13179,-9.91382],[-37.12762,-9.90809],[-37.13387,-9.89923],[-37.12761,-9.90079],[-37.12449,-9.89349],[-37.11823,-9.89089],[-37.11823,-9.87577],[-37.1078,-9.86795],[-37.10415,-9.85022],[-37.04003,-9.80852],[-37.0343,-9.81061],[-37.03169,-9.7934],[-37.0197,-9.78506],[-37.01449,-9.77203],[-36.99728,-9.76317],[-37.00197,-9.73345],[-36.99259,-9.72042]]]},"properties":{"CD_MUN":"2709202","NM_MUN":"Traipu","SIGLA_UF":"AL"}},{"type":"Feature","geometry":{"type":"Polygon","coordinates":[[[-36.19083,-9.60002],[-36.18092,-9.61253],[-36.17623,-9.62139],[-36.15486,-9.62504],[-36.1314,-9.65111],[-36.1142,-9.64955],[-36.10377,-9.6386],[-36.09804,-9.65163],[-36.08918,-9.6558],[-36.07406,-9.67353],[-36.07823,-9.67978],[-36.0678,-9.68917],[-36.07823,-9.69438],[-36.1778,-9.71731],[-36.17989,-9.72513],[-36.24557,-9.73243],[-36.23879,-9.67509],[-36.25286,-9.624],[-36.26329,-9.59585],[-36.19083,-9.60002]]]},"properties":{"CD_MUN":"2701001","NM_MUN":"Boca da Mata","SIGLA_UF":"AL"}},{"type":"Feature","geometry":{"type":"Polygon","coordinates":[[[-36.3123,-9.88674],[-36.27685,-9.89247],[-36.27633,-9.89925],[-36.27998,-9.9347],[-36.29041,-10.00038],[-36.30449,-10.01915],[-36.30345,-10.03114],[-36.45254,-10.03843],[-36.4541,-10.03218],[-36.48277,-10.02696],[-36.48746,-10.01967],[-36.47287,-9.99673],[-36.4713,-9.97431],[-36.4786,-9.96128],[-36.4687,-9.97171],[-36.45931,-9.96232],[-36.44993,-9.96128],[-36.3978,-9.88778],[-36.39519,-9.87422],[-36.3123,-9.88674]]]},"properties":{"CD_MUN":"2709152","NM_MUN":"Teotônio Vilela","SIGLA_UF":"AL"}},{"type":"Feature","geometry":{"type":"Polygon","coordinates":[[[-36.57294,-9.5656],[-36.56564,-9.56091],[-36.55417,-9.54058],[-36.53123,-9.53224],[-36.50361,-9.56091],[-36.49683,-9.58385],[-36.4838,-9.58907],[-36.47285,-9.60262],[-36.45721,-9.6167],[-36.44522,-9.60523],[-36.43219,-9.6167],[-36.41655,-9.61148],[-36.40039,-9.61878],[-36.39831,-9.62452],[-36.40769,-9.63651],[-36.39309,-9.6485],[-36.38736,-9.65162],[-36.50935,-9.69228],[-36.52551,-9.68811],[-36.53541,-9.66309],[-36.54271,-9.62764],[-36.55052,-9.62086],[-36.56981,-9.56404],[-36.57294,-9.5656]]]},"properties":{"CD_MUN":"2709103","NM_MUN":"Taquarana","SIGLA_UF":"AL"}},{"type":"Feature","geometry":{"type":"Polygon","coordinates":[[[-37.23864,-9.73658],[-37.22874,-9.73032],[-37.22822,-9.7225],[-37.2204,-9.72302],[-37.21831,-9.70999],[-37.18391,-9.73658],[-37.16671,-9.74231],[-37.15472,-9.76056],[-37.10207,-9.79132],[-37.08174,-9.79444],[-37.06714,-9.79027],[-37.04003,-9.80852],[-37.10415,-9.85022],[-37.1078,-9.86795],[-37.11823,-9.87577],[-37.11823,-9.89089],[-37.12449,-9.89349],[-37.12761,-9.90079],[-37.13387,-9.89923],[-37.12762,-9.90809],[-37.13179,-9.91382],[-37.15472,-9.89818],[-37.22562,-9.89922],[-37.24386,-9.88775],[-37.26054,-9.85335],[-37.29651,-9.82676],[-37.29755,-9.81738],[-37.30902,-9.80382],[-37.30016,-9.7887],[-37.28452,-9.7788],[-37.28608,-9.77202],[-37.27462,-9.77411],[-37.27253,-9.76733],[-37.25064,-9.75169],[-37.24803,-9.73918],[-37.23864,-9.73658]]]},"properties":{"CD_MUN":"2700904","NM_MUN":"Belo Monte","SIGLA_UF":"AL"}},{"type":"Feature","geometry":{"type":"Polygon","coordinates":[[[-36.21063,-9.45405],[-36.19655,-9.38785],[-36.20802,-9.38107],[-36.19864,-9.32998],[-36.11106,-9.31122],[-36.10532,-9.35292],[-36.16111,-9.47386],[-36.21063,-9.45405]]]},"properties":{"CD_MUN":"2701308","NM_MUN":"Cajueiro","SIGLA_UF":"AL"}},{"type":"Feature","geometry":{"type":"Polygon","coordinates":[[[-36.33886,-9.28671],[-36.32583,-9.28463],[-36.32114,-9.28932],[-36.32479,-9.29609],[-36.31541,-9.29714],[-36.3128,-9.30235],[-36.30029,-9.30235],[-36.2982,-9.31226],[-36.23565,-9.2914],[-36.17986,-9.21321],[-36.19864,-9.32998],[-36.20802,-9.38107],[-36.19655,-9.38785],[-36.21063,-9.45405],[-36.24295,-9.44102],[-36.3175,-9.45092],[-36.33314,-9.44258],[-36.35086,-9.44884],[-36.35086,-9.45249],[-36.36911,-9.44675],[-36.38839,-9.42486],[-36.37379,-9.37585],[-36.36337,-9.38315],[-36.36545,-9.36282],[-36.33886,-9.28671]]]},"properties":{"CD_MUN":"2709400","NM_MUN":"Viçosa","SIGLA_UF":"AL"}},{"type":"Feature","geometry":{"type":"Polygon","coordinates":[[[-36.97642,-9.36176],[-36.95348,-9.38209],[-36.9368,-9.37688],[-36.90031,-9.39773],[-36.77207,-9.38679],[-36.7705,-9.40139],[-36.78302,-9.41963],[-36.79501,-9.42537],[-36.79188,-9.43266],[-36.82733,-9.47385],[-36.83202,-9.50669],[-36.83984,-9.5119],[-36.83046,-9.52806],[-36.83619,-9.53171],[-36.87581,-9.53484],[-36.97955,-9.48688],[-36.98215,-9.47645],[-37.01708,-9.43474],[-37.01916,-9.41389],[-37.02959,-9.39252],[-37.02177,-9.36958],[-36.99101,-9.37479],[-36.97642,-9.36176]]]},"properties":{"CD_MUN":"2701209","NM_MUN":"Cacimbinhas","SIGLA_UF":"AL"}},{"type":"Feature","geometry":{"type":"Polygon","coordinates":[[[-36.02558,-9.81115],[-36.00369,-9.76684],[-35.99014,-9.78196],[-35.96042,-9.78978],[-35.94061,-9.7877],[-35.93644,-9.79447],[-35.92549,-9.79552],[-35.91403,-9.80959],[-35.90464,-9.81168],[-35.85408,-9.78822],[-35.88901,-9.83983],[-35.90204,-9.87006],[-35.9036,-9.85651],[-35.91559,-9.83983],[-35.95,-9.84504],[-35.96772,-9.8294],[-35.98284,-9.82575],[-35.99066,-9.81845],[-35.99691,-9.8195],[-36.00473,-9.81115],[-36.01464,-9.80803],[-36.02558,-9.81115]]]},"properties":{"CD_MUN":"2700607","NM_MUN":"Barra de São Miguel","SIGLA_UF":"AL"}},{"type":"Feature","geometry":{"type":"Polygon","coordinates":[[[-35.46412,-9.18977],[-35.42659,-9.19394],[-35.37706,-9.20958],[-35.3583,-9.22939],[-35.34162,-9.23096],[-35.35309,-9.25546],[-35.38593,-9.28621],[-35.39427,-9.27162],[-35.41877,-9.25076],[-35.46412,-9.18977]]]},"properties":{"CD_MUN":"2708709","NM_MUN":"São Miguel dos Milagres","SIGLA_UF":"AL"}},{"type":"Feature","geometry":{"type":"Polygon","coordinates":[[[-35.51261,-9.30811],[-35.46308,-9.34773],[-35.4928,-9.3863],[-35.49697,-9.41967],[-35.50114,-9.41758],[-35.51209,-9.44],[-35.52408,-9.4426],[-35.52981,-9.4572],[-35.55275,-9.4744],[-35.55744,-9.48743],[-35.56161,-9.47961],[-35.58299,-9.46971],[-35.60123,-9.47388],[-35.61687,-9.46971],[-35.62417,-9.46137],[-35.62469,-9.44781],[-35.64085,-9.44416],[-35.66431,-9.43009],[-35.68672,-9.37066],[-35.56057,-9.35815],[-35.53502,-9.34668],[-35.51678,-9.3545],[-35.51261,-9.34564],[-35.51938,-9.32374],[-35.51261,-9.30811]]]},"properties":{"CD_MUN":"2700508","NM_MUN":"Barra de Santo Antônio","SIGLA_UF":"AL"}},{"type":"Feature","geometry":{"type":"Polygon","coordinates":[[[-36.07406,-9.67353],[-36.02871,-9.67144],[-36.01724,-9.6876],[-35.9917,-9.69334],[-35.98753,-9.70012],[-35.98701,-9.73765],[-36.00369,-9.76684],[-36.02558,-9.81115],[-36.0381,-9.81532],[-36.03653,-9.82679],[-36.04331,-9.84973],[-36.02038,-9.92011],[-36.01308,-9.9076],[-35.999,-9.91542],[-35.9818,-9.9102],[-35.97711,-9.92532],[-35.9672,-9.92949],[-35.96147,-9.94148],[-36.03081,-10.05096],[-36.02612,-10.04157],[-36.03081,-10.02593],[-36.02246,-10.0056],[-36.02715,-9.96338],[-36.03185,-9.95973],[-36.06469,-9.95712],[-36.09701,-9.94356],[-36.10848,-9.93366],[-36.27998,-9.9347],[-36.27633,-9.89925],[-36.21847,-9.90446],[-36.17833,-9.88935],[-36.18093,-9.87996],[-36.2388,-9.87162],[-36.21847,-9.83669],[-36.20856,-9.84295],[-36.19657,-9.83774],[-36.19657,-9.82627],[-36.20752,-9.80541],[-36.18614,-9.79499],[-36.24557,-9.73243],[-36.17989,-9.72513],[-36.1778,-9.71731],[-36.07823,-9.69438],[-36.0678,-9.68917],[-36.07823,-9.67978],[-36.07406,-9.67353]]]},"properties":{"CD_MUN":"2708600","NM_MUN":"São Miguel dos Campos","SIGLA_UF":"AL"}},{"type":"Feature","geometry":{"type":"Polygon","coordinates":[[[-35.9823,-9.38316],[-35.92756,-9.37534],[-35.9359,-9.40141],[-35.93174,-9.4796],[-35.95885,-9.52809],[-35.97866,-9.5505],[-35.97553,-9.55571],[-35.99951,-9.57448],[-36.00524,-9.58595],[-36.01671,-9.57604],[-36.08344,-9.60002],[-36.11889,-9.59585],[-36.12723,-9.59898],[-36.13766,-9.61305],[-36.14912,-9.61201],[-36.15799,-9.61879],[-36.18092,-9.61253],[-36.19083,-9.60002],[-36.21793,-9.56405],[-36.22679,-9.51296],[-36.21063,-9.45405],[-36.16111,-9.47386],[-36.07249,-9.43946],[-36.07092,-9.43164],[-36.05789,-9.42799],[-36.05685,-9.41965],[-35.9823,-9.38316]]]},"properties":{"CD_MUN":"2700409","NM_MUN":"Atalaia","SIGLA_UF":"AL"}},{"type":"Feature","geometry":{"type":"Polygon","coordinates":[[[-36.45616,-9.46604],[-36.41655,-9.47855],[-36.37641,-9.50149],[-36.38475,-9.5067],[-36.38631,-9.51608],[-36.37536,-9.52807],[-36.38266,-9.54111],[-36.37849,-9.57239],[-36.34982,-9.5922],[-36.39101,-9.60262],[-36.38788,-9.62869],[-36.38006,-9.63546],[-36.39309,-9.6485],[-36.40769,-9.63651],[-36.39831,-9.62452],[-36.40039,-9.61878],[-36.41655,-9.61148],[-36.43219,-9.6167],[-36.44522,-9.60523],[-36.45721,-9.6167],[-36.47285,-9.60262],[-36.44366,-9.58646],[-36.46294,-9.57186],[-36.48744,-9.50201],[-36.46659,-9.48324],[-36.45616,-9.46604]]]},"properties":{"CD_MUN":"2709004","NM_MUN":"Tanque d'Arca","SIGLA_UF":"AL"}},{"type":"Feature","geometry":{"type":"Polygon","coordinates":[[[-37.58998,-9.2872],[-37.5733,-9.28147],[-37.56027,-9.27052],[-37.48833,-9.34246],[-37.44454,-9.35706],[-37.3309,-9.42379],[-37.44924,-9.45298],[-37.44455,-9.47644],[-37.65567,-9.40814],[-37.63742,-9.37738],[-37.62335,-9.36383],[-37.59415,-9.31274],[-37.58998,-9.2872]]]},"properties":{"CD_MUN":"2708956","NM_MUN":"Senador Rui Palmeira","SIGLA_UF":"AL"}},{"type":"Feature","geometry":{"type":"Polygon","coordinates":[[[-36.53123,-9.53224],[-36.5255,-9.52807],[-36.52446,-9.51504],[-36.51716,-9.50357],[-36.50152,-9.50044],[-36.49943,-9.49627],[-36.48744,-9.50201],[-36.46294,-9.57186],[-36.44366,-9.58646],[-36.47285,-9.60262],[-36.4838,-9.58907],[-36.49683,-9.58385],[-36.50361,-9.56091],[-36.53123,-9.53224]]]},"properties":{"CD_MUN":"2700805","NM_MUN":"Belém","SIGLA_UF":"AL"}},{"type":"Feature","geometry":{"type":"Polygon","coordinates":[[[-35.79568,-9.53122],[-35.81497,-9.57709],[-35.82435,-9.57761],[-35.84469,-9.60628],[-35.85146,-9.60681],[-35.84938,-9.61202],[-35.85407,-9.60993],[-35.86658,-9.62662],[-35.88587,-9.58856],[-35.87596,-9.56406],[-35.83321,-9.55468],[-35.82957,-9.54529],[-35.8181,-9.54425],[-35.81705,-9.53747],[-35.79568,-9.53122]]]},"properties":{"CD_MUN":"2708907","NM_MUN":"Satuba","SIGLA_UF":"AL"}},{"type":"Feature","geometry":{"type":"Polygon","coordinates":[[[-37.16253,-9.60781],[-37.15888,-9.60208],[-37.10884,-9.60573],[-37.05149,-9.61981],[-37.06661,-9.63701],[-37.06609,-9.65838],[-36.99259,-9.72042],[-37.00197,-9.73345],[-36.99728,-9.76317],[-37.01449,-9.77203],[-37.0197,-9.78506],[-37.03169,-9.7934],[-37.0343,-9.81061],[-37.04003,-9.80852],[-37.06714,-9.79027],[-37.08174,-9.79444],[-37.10207,-9.79132],[-37.15472,-9.76056],[-37.16671,-9.74231],[-37.18391,-9.73658],[-37.21831,-9.70999],[-37.21936,-9.70321],[-37.21414,-9.70373],[-37.21154,-9.69331],[-37.19016,-9.69018],[-37.1521,-9.61407],[-37.16253,-9.60781]]]},"properties":{"CD_MUN":"2700706","NM_MUN":"Batalha","SIGLA_UF":"AL"}},{"type":"Feature","geometry":{"type":"Polygon","coordinates":[[[-36.60319,-9.87265],[-36.5912,-9.87265],[-36.5839,-9.88152],[-36.56044,-9.87422],[-36.54063,-9.88204],[-36.54167,-9.87161],[-36.50258,-9.8565],[-36.4958,-9.86692],[-36.49684,-9.90081],[-36.48694,-9.91592],[-36.48538,-9.92739],[-36.47026,-9.93886],[-36.47234,-9.95346],[-36.4786,-9.96128],[-36.4713,-9.97431],[-36.47287,-9.99673],[-36.48746,-10.01967],[-36.48277,-10.02696],[-36.4541,-10.03218],[-36.49059,-10.07127],[-36.50884,-10.06815],[-36.51614,-10.04052],[-36.65689,-10.03426],[-36.65063,-10.02696],[-36.65428,-10.01445],[-36.64959,-10.0181],[-36.6449,-10.00871],[-36.65272,-10.00611],[-36.64229,-9.9936],[-36.64594,-9.9863],[-36.62769,-9.98004],[-36.6303,-9.96909],[-36.62404,-9.96545],[-36.62978,-9.95241],[-36.61257,-9.95085],[-36.61361,-9.91227],[-36.61101,-9.90497],[-36.60267,-9.90237],[-36.60319,-9.87265]]]},"properties":{"CD_MUN":"2708808","NM_MUN":"São Sebastião","SIGLA_UF":"AL"}},{"type":"Feature","geometry":{"type":"Polygon","coordinates":[[[-38.04924,-9.16781],[-38.02943,-9.16468],[-38.02474,-9.1553],[-37.98668,-9.15373],[-37.97782,-9.14748],[-37.97052,-9.12402],[-37.9601,-9.11985],[-37.95332,-9.10942],[-37.84125,-9.22255],[-37.77035,-9.29293],[-37.77869,-9.32525],[-37.80632,-9.32838],[-37.81988,-9.33567],[-37.82718,-9.35079],[-37.83447,-9.3534],[-37.83604,-9.36383],[-37.84751,-9.37425],[-37.85116,-9.39093],[-37.86106,-9.40188],[-37.86992,-9.40657],[-37.87357,-9.40449],[-37.87566,-9.41283],[-38.15611,-9.25226],[-38.15559,-9.24131],[-38.1436,-9.21837],[-38.11545,-9.19804],[-38.10189,-9.1798],[-38.08886,-9.17198],[-38.0654,-9.17406],[-38.04924,-9.16781]]]},"properties":{"CD_MUN":"2700102","NM_MUN":"Água Branca","SIGLA_UF":"AL"}},{"type":"Feature","geometry":{"type":"Polygon","coordinates":[[[-36.95142,-10.07491],[-36.93995,-10.077],[-36.86801,-10.04728],[-36.87375,-10.05354],[-36.87166,-10.05823],[-36.82058,-10.07439],[-36.81276,-10.0916],[-36.78878,-10.10515],[-36.76897,-10.12392],[-36.82214,-10.1505],[-36.84665,-10.17657],[-36.84977,-10.16041],[-36.86541,-10.15832],[-36.88053,-10.14477],[-36.9165,-10.1333],[-36.95142,-10.07491]]]},"properties":{"CD_MUN":"2708204","NM_MUN":"São Brás","SIGLA_UF":"AL"}},{"type":"Feature","geometry":{"type":"Polygon","coordinates":[[[-36.14128,-9.03909],[-36.11365,-9.05526],[-36.11261,-9.13658],[-36.11783,-9.1371],[-36.11783,-9.14179],[-36.17986,-9.21321],[-36.28047,-9.1861],[-36.28673,-9.17359],[-36.27317,-9.16681],[-36.27109,-9.1715],[-36.26014,-9.17098],[-36.26223,-9.17776],[-36.25754,-9.18245],[-36.25337,-9.18141],[-36.25389,-9.17411],[-36.24659,-9.17776],[-36.22313,-9.17046],[-36.23877,-9.16003],[-36.24711,-9.14387],[-36.25753,-9.13918],[-36.26744,-9.10217],[-36.23407,-9.10113],[-36.22313,-9.08705],[-36.22156,-9.0735],[-36.21062,-9.0735],[-36.20384,-9.06724],[-36.19602,-9.04483],[-36.14128,-9.03909]]]},"properties":{"CD_MUN":"2708105","NM_MUN":"Santana do Mundaú","SIGLA_UF":"AL"}},{"type":"Feature","geometry":{"type":"Polygon","coordinates":[[[-35.72425,-9.12512],[-35.63979,-9.12981],[-35.59132,-9.1564],[-35.58037,-9.13972],[-35.57046,-9.16162],[-35.58193,-9.20332],[-35.56682,-9.21844],[-35.5663,-9.22626],[-35.56734,-9.23564],[-35.58037,-9.25024],[-35.57724,-9.25597],[-35.51261,-9.30811],[-35.51938,-9.32374],[-35.51261,-9.34564],[-35.51678,-9.3545],[-35.53502,-9.34668],[-35.56057,-9.35815],[-35.68672,-9.37066],[-35.69402,-9.26692],[-35.72425,-9.12512]]]},"properties":{"CD_MUN":"2708501","NM_MUN":"São Luís do Quitunde","SIGLA_UF":"AL"}},{"type":"Feature","geometry":{"type":"Polygon","coordinates":[[[-36.69232,-9.63389],[-36.65374,-9.64276],[-36.63654,-9.6365],[-36.62194,-9.65527],[-36.60839,-9.65423],[-36.60735,-9.66934],[-36.59484,-9.68394],[-36.5938,-9.69228],[-36.5865,-9.69228],[-36.58285,-9.7001],[-36.57607,-9.70688],[-36.55783,-9.71209],[-36.56617,-9.74024],[-36.5521,-9.77256],[-36.56461,-9.80332],[-36.54793,-9.80853],[-36.55366,-9.83773],[-36.54428,-9.84242],[-36.54167,-9.87161],[-36.54063,-9.88204],[-36.56044,-9.87422],[-36.5839,-9.88152],[-36.5912,-9.87265],[-36.60319,-9.87265],[-36.62091,-9.86014],[-36.63029,-9.83355],[-36.6647,-9.81218],[-36.69024,-9.80384],[-36.75175,-9.70948],[-36.69232,-9.63389]]]},"properties":{"CD_MUN":"2700300","NM_MUN":"Arapiraca","SIGLA_UF":"AL"}},{"type":"Feature","geometry":{"type":"Polygon","coordinates":[[[-37.65567,-9.40814],[-37.44455,-9.47644],[-37.37209,-9.52492],[-37.31266,-9.55307],[-37.3575,-9.64378],[-37.43048,-9.64795],[-37.47635,-9.62501],[-37.54933,-9.55932],[-37.58999,-9.5343],[-37.6025,-9.53586],[-37.63899,-9.52127],[-37.65724,-9.5197],[-37.67131,-9.53586],[-37.67548,-9.52126],[-37.66975,-9.50615],[-37.6734,-9.49885],[-37.66297,-9.48321],[-37.67027,-9.46236],[-37.65567,-9.40814]]]},"properties":{"CD_MUN":"2708402","NM_MUN":"São José da Tapera","SIGLA_UF":"AL"}},{"type":"Feature","geometry":{"type":"Polygon","coordinates":[[[-36.34982,-9.5922],[-36.34357,-9.60054],[-36.35035,-9.60731],[-36.32011,-9.60836],[-36.293,-9.60158],[-36.28727,-9.60888],[-36.25286,-9.624],[-36.23879,-9.67509],[-36.24557,-9.73243],[-36.25183,-9.7293],[-36.27789,-9.73399],[-36.31699,-9.72305],[-36.32272,-9.71314],[-36.33158,-9.71262],[-36.33419,-9.72826],[-36.34201,-9.73868],[-36.34201,-9.71314],[-36.36964,-9.69802],[-36.37485,-9.66622],[-36.38736,-9.65162],[-36.39309,-9.6485],[-36.38006,-9.63546],[-36.38788,-9.62869],[-36.39101,-9.60262],[-36.34982,-9.5922]]]},"properties":{"CD_MUN":"2700201","NM_MUN":"Anadia","SIGLA_UF":"AL"}},{"type":"Feature","geometry":{"type":"Polygon","coordinates":[[[-36.0464,-8.91242],[-36.03545,-8.90773],[-36.0047,-8.91294],[-35.98593,-8.90304],[-35.96977,-8.90043],[-35.9656,-8.90356],[-35.95726,-8.89313],[-35.94683,-8.90773],[-35.94944,-8.91711],[-35.94423,-8.93275],[-35.94996,-8.9437],[-35.94214,-8.96507],[-35.97551,-9.0],[-35.95831,-9.05213],[-36.03859,-9.05421],[-36.07143,-9.06151],[-36.07403,-9.06829],[-36.08811,-9.06777],[-36.0928,-9.07298],[-36.09072,-9.0589],[-36.11365,-9.05526],[-36.14128,-9.03909],[-36.12721,-9.03336],[-36.11157,-9.01772],[-36.11157,-9.01147],[-36.10479,-9.00834],[-36.10427,-8.99426],[-36.12564,-8.98279],[-36.12668,-8.95829],[-36.0855,-8.94578],[-36.06464,-8.91763],[-36.0464,-8.91242]]]},"properties":{"CD_MUN":"2708303","NM_MUN":"São José da Laje","SIGLA_UF":"AL"}},{"type":"Feature","geometry":{"type":"Polygon","coordinates":[[[-35.877,-9.41027],[-35.76857,-9.38838],[-35.78421,-9.51141],[-35.79568,-9.53122],[-35.81705,-9.53747],[-35.8181,-9.54425],[-35.82957,-9.54529],[-35.83321,-9.55468],[-35.87596,-9.56406],[-35.88587,-9.58856],[-35.95885,-9.52809],[-35.93174,-9.4796],[-35.9359,-9.40141],[-35.92756,-9.37534],[-35.877,-9.41027]]]},"properties":{"CD_MUN":"2707701","NM_MUN":"Rio Largo","SIGLA_UF":"AL"}}]}