{"type":"FeatureCollection","features":[{"type":"Feature","geometry":{"type":"Polygon","coordinates":[[[-67.13411,-9.67377],[-66.84375,-9.79733],[-66.8938,-9.83799],[-66.90631,-9.8578],[-66.97877,-9.93703],[-67.04029,-9.9386],[-67.16123,-9.98238],[-67.24725,-10.02617],[-67.29781,-10.06162],[-67.34682,-10.06162],[-67.42606,-10.0955],[-67.42866,-10.12678],[-67.44065,-10.15858],[-67.45942,-10.17787],[-67.48288,-10.22218],[-67.49748,-10.23312],[-67.50478,-10.26388],[-67.59601,-10.30558],[-67.61008,-10.29828],[-67.61165,-10.30141],[-67.64814,-10.28525],[-67.65908,-10.25918],[-67.67472,-10.25345],[-67.69453,-10.218],[-67.69974,-10.19194],[-67.73675,-10.15492],[-67.75708,-10.11322],[-67.75135,-10.09758],[-67.75187,-10.06213],[-67.77063,-10.05587],[-67.77167,-10.04232],[-67.78627,-10.02147],[-67.78627,-10.01052],[-67.66064,-10.01313],[-67.57462,-10.0736],[-67.55951,-10.071],[-67.54387,-10.07725],[-67.52719,-10.07256],[-67.50633,-10.0465],[-67.50894,-10.0319],[-67.47297,-10.00844],[-67.47401,-9.99541],[-67.44742,-9.98238],[-67.45264,-9.95631],[-67.41823,-9.93494],[-67.42084,-9.92243],[-67.4151,-9.90679],[-67.39477,-9.90001],[-67.38226,-9.90679],[-67.35619,-9.89532],[-67.35776,-9.87395],[-67.34629,-9.86248],[-67.3369,-9.86144],[-67.32908,-9.85101],[-67.31553,-9.85205],[-67.31501,-9.8458],[-67.30823,-9.8484],[-67.28686,-9.83329],[-67.28842,-9.82599],[-67.28164,-9.81191],[-67.26705,-9.80305],[-67.26392,-9.78689],[-67.25193,-9.77855],[-67.25401,-9.77334],[-67.23368,-9.76291],[-67.22534,-9.7431],[-67.20657,-9.7358],[-67.20032,-9.7113],[-67.18989,-9.7087],[-67.19302,-9.70609],[-67.18833,-9.69358],[-67.17269,-9.69201],[-67.17112,-9.68524],[-67.16695,-9.68941],[-67.16278,-9.68628],[-67.15809,-9.69306],[-67.15496,-9.68628],[-67.13985,-9.68472],[-67.13411,-9.67377]]]},"properties":{"CD_MUN":"1200450","NM_MUN":"Senador Guiomard","SIGLA_UF":"AC"}},{"type":"Feature","geometry":{"type":"Polygon","coordinates":[[[-68.18295,-9.23376],[-67.32542,-9.59453],[-67.13411,-9.67377],[-67.13985,-9.68472],[-67.15496,-9.68628],[-67.15809,-9.69306],[-67.16278,-9.68628],[-67.16695,-9.68941],[-67.17112,-9.68524],[-67.17269,-9.69201],[-67.18833,-9.69358],[-67.19302,-9.70609],[-67.18989,-9.7087],[-67.20032,-9.7113],[-67.20657,-9.7358],[-67.22534,-9.7431],[-67.23368,-9.76291],[-67.25401,-9.77334],[-67.25193,-9.77855],[-67.26392,-9.78689],[-67.26705,-9.80305],[-67.28164,-9.81191],[-67.28842,-9.82599],[-67.28686,-9.83329],[-67.30823,-9.8484],[-67.31501,-9.8458],[-67.31553,-9.85205],[-67.32908,-9.85101],[-67.3369,-9.86144],[-67.34629,-9.86248],[-67.35776,-9.87395],[-67.35619,-9.89532],[-67.38226,-9.90679],[-67.39477,-9.90001],[-67.4151,-9.90679],[-67.42084,-9.92243],[-67.41823,-9.93494],[-67.45264,-9.95631],[-67.44742,-9.98238],[-67.47401,-9.99541],[-67.47297,-10.00844],[-67.50894,-10.0319],[-67.50633,-10.0465],[-67.52719,-10.07256],[-67.54387,-10.07725],[-67.55951,-10.071],[-67.57462,-10.0736],[-67.66064,-10.01313],[-67.78627,-10.01052],[-67.78627,-10.02147],[-67.77167,-10.04232],[-67.77063,-10.05587],[-67.75187,-10.06213],[-67.75135,-10.09758],[-67.75708,-10.11322],[-67.73675,-10.15492],[-67.69974,-10.19194],[-67.69453,-10.218],[-67.67472,-10.25345],[-67.65908,-10.25918],[-67.64814,-10.28525],[-67.61165,-10.30141],[-67.61269,-10.31444],[-67.62364,-10.3207],[-67.62051,-10.328],[-67.62729,-10.33373],[-67.62624,-10.34259],[-67.63771,-10.35094],[-67.63719,-10.3671],[-67.64606,-10.38899],[-67.65805,-10.39733],[-67.66743,-10.39055],[-67.67942,-10.39003],[-67.68724,-10.41141],[-67.69558,-10.41662],[-67.70549,-10.43278],[-67.6961,-10.43904],[-67.6961,-10.45259],[-67.68724,-10.45207],[-67.65857,-10.4797],[-67.62417,-10.47918],[-67.60592,-10.50316],[-67.58715,-10.50941],[-67.61218,-10.56311],[-67.63355,-10.57875],[-67.63877,-10.59647],[-67.66014,-10.61576],[-67.6763,-10.60429],[-67.70706,-10.71011],[-67.71384,-10.70699],[-67.72062,-10.71116],[-67.72583,-10.70647],[-67.72843,-10.71272],[-67.73573,-10.7122],[-67.74355,-10.70699],[-67.74407,-10.69604],[-67.7545,-10.695],[-67.75605,-10.47448],[-67.77169,-10.45207],[-67.77013,-10.43538],[-67.77586,-10.42496],[-67.77169,-10.40411],[-67.76178,-10.39368],[-67.76231,-10.3796],[-67.76648,-10.36657],[-67.78889,-10.35719],[-67.79984,-10.34468],[-67.82642,-10.34572],[-67.84154,-10.31548],[-67.83528,-10.2988],[-67.84362,-10.29515],[-67.84467,-10.28837],[-67.85144,-10.28994],[-67.85301,-10.30088],[-67.86031,-10.29828],[-67.86813,-10.30401],[-67.85874,-10.30714],[-67.85874,-10.31183],[-67.96926,-10.31183],[-68.00002,-10.31652],[-68.01461,-10.33424],[-68.02869,-10.33998],[-68.02712,-10.34311],[-68.03859,-10.35093],[-68.03442,-10.36344],[-68.02452,-10.37178],[-68.02608,-10.37803],[-68.04068,-10.38794],[-68.06205,-10.37908],[-68.06935,-10.38272],[-68.09124,-10.36344],[-68.10271,-10.36813],[-68.1121,-10.36552],[-68.12357,-10.3749],[-68.15119,-10.37021],[-68.1856,-10.3822],[-68.20749,-10.3749],[-68.22991,-10.3895],[-68.23304,-10.38481],[-68.25598,-10.39054],[-68.27266,-10.38845],[-68.28256,-10.40357],[-68.3128,-10.41712],[-68.31853,-10.43172],[-68.34251,-10.4411],[-68.35346,-10.45414],[-68.36337,-10.45518],[-68.36806,-10.46404],[-68.38213,-10.46665],[-68.39673,-10.49167],[-68.41133,-10.49584],[-68.41446,-10.49063],[-68.41601,-10.16637],[-68.42487,-10.18201],[-68.43894,-10.19087],[-68.45041,-10.18305],[-68.46501,-10.18462],[-68.47126,-10.19452],[-68.47127,-10.21694],[-68.48899,-10.22684],[-68.49577,-10.25343],[-68.50672,-10.25864],[-68.52652,-10.25551],[-68.52861,-10.26959],[-68.53591,-10.2748],[-68.55311,-10.27845],[-68.56562,-10.27272],[-68.56875,-10.27949],[-68.5797,-10.28366],[-68.58074,-10.29357],[-68.59117,-10.29305],[-68.61775,-10.3066],[-68.63965,-10.30451],[-68.66154,-10.32797],[-68.68083,-10.33006],[-68.685,-10.33892],[-68.68344,-10.35456],[-68.68761,-10.35873],[-68.69439,-10.35508],[-68.70638,-10.3629],[-68.71211,-10.38271],[-68.72932,-10.39261],[-68.73297,-10.40043],[-68.75799,-10.40564],[-68.76529,-10.40095],[-68.78718,-10.41242],[-68.8122,-10.4145],[-68.82628,-10.42024],[-68.84765,-10.44213],[-68.84661,-10.451],[-69.24697,-10.44994],[-69.24853,-10.45463],[-69.26938,-10.45828],[-69.28972,-10.47027],[-69.32308,-10.47236],[-69.34185,-10.48591],[-69.39554,-10.48591],[-69.37104,-10.47444],[-69.3627,-10.47861],[-69.34237,-10.47392],[-69.33246,-10.46245],[-69.3382,-10.45307],[-69.33246,-10.43378],[-69.32621,-10.42857],[-69.3262,-10.41553],[-69.31943,-10.40876],[-69.309,-10.41293],[-69.30692,-10.40719],[-69.2991,-10.40928],[-69.28398,-10.38738],[-69.26521,-10.3853],[-69.25374,-10.35923],[-69.24436,-10.35663],[-69.22924,-10.33786],[-69.21621,-10.33734],[-69.21099,-10.32691],[-69.20161,-10.32639],[-69.19796,-10.31545],[-69.19171,-10.31597],[-69.18701,-10.31075],[-69.18597,-10.29772],[-69.16981,-10.29772],[-69.16512,-10.28104],[-69.15156,-10.27843],[-69.14687,-10.2873],[-69.14062,-10.28886],[-69.12289,-10.27218],[-69.11194,-10.27427],[-69.10725,-10.2628],[-69.07962,-10.25341],[-69.07858,-10.2336],[-69.06867,-10.22422],[-69.05773,-10.22161],[-69.04782,-10.20702],[-69.05199,-10.1919],[-69.03948,-10.17939],[-69.02853,-10.17939],[-69.01654,-10.16375],[-69.01133,-10.14029],[-68.99673,-10.13247],[-68.99204,-10.11579],[-68.95868,-10.10954],[-68.94877,-10.09755],[-68.94408,-10.10015],[-68.91801,-10.08139],[-68.91958,-10.07513],[-68.91071,-10.06835],[-68.90342,-10.05428],[-68.90341,-10.02873],[-68.87735,-10.00215],[-68.87214,-10.00371],[-68.86432,-9.98651],[-68.8565,-9.98755],[-68.84607,-9.98025],[-68.8273,-9.9839],[-68.78612,-9.96774],[-68.76892,-9.9667],[-68.7465,-9.93178],[-68.7392,-9.9078],[-68.71783,-9.90988],[-68.7147,-9.9005],[-68.70271,-9.89216],[-68.68446,-9.89685],[-68.66309,-9.89007],[-68.6584,-9.87287],[-68.64641,-9.86661],[-68.64849,-9.8223],[-68.65892,-9.79415],[-68.66778,-9.79102],[-68.68706,-9.75557],[-68.67507,-9.73837],[-68.68393,-9.69875],[-68.68185,-9.66956],[-68.67507,-9.65913],[-68.68289,-9.63672],[-68.65109,-9.58146],[-68.64327,-9.57625],[-68.60573,-9.57312],[-68.61043,-9.55957],[-68.60573,-9.54497],[-68.61147,-9.53715],[-68.60365,-9.52203],[-68.60938,-9.51369],[-68.60729,-9.50274],[-68.59583,-9.49388],[-68.58123,-9.46104],[-68.54891,-9.4454],[-68.55568,-9.43028],[-68.55151,-9.41777],[-68.48739,-9.35991],[-68.43682,-9.35261],[-68.40502,-9.35574],[-68.40137,-9.32394],[-68.3654,-9.29735],[-68.3409,-9.28849],[-68.31588,-9.29162],[-68.28773,-9.2838],[-68.27574,-9.27598],[-68.26948,-9.26451],[-68.25124,-9.26399],[-68.24133,-9.25148],[-68.22726,-9.24783],[-68.21475,-9.23689],[-68.18295,-9.23376]]]},"properties":{"CD_MUN":"1200401","NM_MUN":"Rio Branco","SIGLA_UF":"AC"}},{"type":"Feature","geometry":{"type":"Polygon","coordinates":[[[-66.84375,-9.79733],[-66.8057,-9.81349],[-66.61908,-9.89325],[-66.62585,-9.89899],[-66.62377,-9.90629],[-66.63524,-9.91254],[-66.62585,-9.92088],[-66.63524,-9.92557],[-66.62638,-9.93131],[-66.63732,-9.95112],[-66.64983,-9.94486],[-66.6514,-9.936],[-66.65505,-9.94121],[-66.65713,-9.93548],[-66.66443,-9.94069],[-66.66964,-9.95946],[-66.6759,-9.95633],[-66.6759,-9.96728],[-66.69519,-9.96676],[-66.69415,-9.97041],[-66.71187,-9.9777],[-66.7176,-9.97405],[-66.7223,-9.97875],[-66.72021,-9.98292],[-66.73324,-9.98239],[-66.73898,-9.99491],[-66.764,-9.9996],[-66.764,-10.00585],[-66.77234,-10.01054],[-66.7713,-10.01993],[-66.77912,-10.0168],[-66.79007,-10.02149],[-66.80623,-10.03713],[-66.80206,-10.04234],[-66.80727,-10.04756],[-66.83542,-10.06215],[-66.83438,-10.06684],[-66.83959,-10.07049],[-66.83803,-10.08248],[-66.85158,-10.08613],[-66.85158,-10.0804],[-66.87452,-10.08144],[-66.87296,-10.10021],[-66.87973,-10.09656],[-66.88286,-10.1075],[-66.88703,-10.09864],[-66.8886,-10.11376],[-66.89798,-10.11011],[-66.89746,-10.1221],[-66.90319,-10.12627],[-66.90945,-10.12471],[-66.90945,-10.13148],[-66.91779,-10.13044],[-66.91049,-10.13826],[-66.91101,-10.14712],[-66.92248,-10.14243],[-66.93343,-10.14712],[-66.93239,-10.15442],[-66.94229,-10.15494],[-66.9522,-10.18726],[-66.95741,-10.19091],[-66.96054,-10.18257],[-66.96992,-10.19143],[-66.97514,-10.18935],[-66.97409,-10.18466],[-66.98087,-10.18935],[-66.97461,-10.1956],[-66.98087,-10.19508],[-66.9913,-10.20342],[-66.99547,-10.19873],[-66.99338,-10.20968],[-66.99912,-10.21698],[-66.98817,-10.22063],[-66.99755,-10.23209],[-67.00485,-10.23053],[-67.00433,-10.24356],[-67.0158,-10.25712],[-67.02206,-10.25451],[-67.03561,-10.26389],[-67.04812,-10.26494],[-67.05229,-10.27067],[-67.0476,-10.27536],[-67.07888,-10.28891],[-67.08774,-10.28996],[-67.08774,-10.28526],[-67.09817,-10.28162],[-67.11433,-10.29204],[-67.12944,-10.29204],[-67.13622,-10.29725],[-67.13883,-10.3082],[-67.1284,-10.31602],[-67.13883,-10.3155],[-67.14352,-10.32645],[-67.14665,-10.32384],[-67.16333,-10.32905],[-67.16802,-10.33635],[-67.17897,-10.33948],[-67.18679,-10.34],[-67.19565,-10.32384],[-67.21859,-10.32384],[-67.2238,-10.3155],[-67.23527,-10.31654],[-67.26446,-10.3327],[-67.27854,-10.32123],[-67.29418,-10.32436],[-67.31451,-10.31862],[-67.32128,-10.32175],[-67.32702,-10.33426],[-67.31555,-10.34625],[-67.31816,-10.35928],[-67.31138,-10.37649],[-67.32806,-10.38274],[-67.33797,-10.37597],[-67.35048,-10.37857],[-67.35361,-10.38639],[-67.35048,-10.39161],[-67.35465,-10.39265],[-67.36716,-10.37597],[-67.37759,-10.38274],[-67.39531,-10.37701],[-67.39792,-10.37179],[-67.4073,-10.37336],[-67.42242,-10.39369],[-67.41304,-10.40099],[-67.41304,-10.42653],[-67.42972,-10.42966],[-67.43597,-10.43904],[-67.43493,-10.44686],[-67.44327,-10.45468],[-67.48967,-10.4724],[-67.50218,-10.47032],[-67.51365,-10.47814],[-67.51834,-10.49065],[-67.54649,-10.48908],[-67.58715,-10.50941],[-67.60592,-10.50316],[-67.62417,-10.47918],[-67.65857,-10.4797],[-67.68724,-10.45207],[-67.6961,-10.45259],[-67.6961,-10.43904],[-67.70549,-10.43278],[-67.69558,-10.41662],[-67.68724,-10.41141],[-67.67942,-10.39003],[-67.66743,-10.39055],[-67.65805,-10.39733],[-67.64606,-10.38899],[-67.63719,-10.3671],[-67.63771,-10.35094],[-67.62624,-10.34259],[-67.62729,-10.33373],[-67.62051,-10.328],[-67.62364,-10.3207],[-67.61269,-10.31444],[-67.61165,-10.30141],[-67.61008,-10.29828],[-67.59601,-10.30558],[-67.50478,-10.26388],[-67.49748,-10.23312],[-67.48288,-10.22218],[-67.45942,-10.17787],[-67.44065,-10.15858],[-67.42866,-10.12678],[-67.42606,-10.0955],[-67.34682,-10.06162],[-67.29781,-10.06162],[-67.24725,-10.02617],[-67.16123,-9.98238],[-67.04029,-9.9386],[-66.97877,-9.93703],[-66.90631,-9.8578],[-66.8938,-9.83799],[-66.84375,-9.79733]]]},"properties":{"CD_MUN":"1200385","NM_MUN":"Plácido de Castro","SIGLA_UF":"AC"}},{"type":"Feature","geometry":{"type":"Polygon","coordinates":[[[-69.54924,-8.57896],[-69.43404,-8.641],[-68.99668,-8.87195],[-69.029,-8.92095],[-69.06237,-8.9418],[-69.07279,-8.95588],[-69.07957,-8.9564],[-69.09364,-8.93867],[-69.10407,-8.93867],[-69.11919,-8.95953],[-69.15047,-8.97412],[-69.1562,-8.98351],[-69.17393,-8.97986],[-69.21407,-9.02469],[-69.23701,-9.03824],[-69.26046,-9.06274],[-69.3298,-9.05857],[-69.35534,-9.0888],[-69.40695,-9.13468],[-69.43406,-9.14093],[-69.46534,-9.16752],[-69.48619,-9.19671],[-69.50496,-9.18524],[-69.54875,-9.19254],[-69.55917,-9.17899],[-69.56751,-9.18055],[-69.57064,-9.19358],[-69.60766,-9.2014],[-69.62173,-9.19775],[-69.64884,-9.22329],[-69.65509,-9.22121],[-69.67178,-9.25144],[-69.68116,-9.2478],[-69.69263,-9.25509],[-69.70931,-9.26813],[-69.71192,-9.28012],[-69.73851,-9.2968],[-69.7432,-9.30357],[-69.74789,-9.34945],[-69.7531,-9.36144],[-69.76562,-9.36613],[-69.77187,-9.35205],[-69.80628,-9.36561],[-69.81566,-9.38073],[-69.81045,-9.42764],[-69.81514,-9.43963],[-69.82348,-9.44537],[-69.83652,-9.42243],[-69.84903,-9.41826],[-69.85945,-9.42712],[-69.86727,-9.4412],[-69.87249,-9.48186],[-69.86258,-9.50115],[-69.87614,-9.54233],[-69.89438,-9.54911],[-69.89543,-9.56162],[-69.90481,-9.57256],[-69.9314,-9.57361],[-69.9241,-9.59029],[-69.92775,-9.59498],[-69.92566,-9.60384],[-69.93505,-9.61427],[-69.92984,-9.63564],[-69.94287,-9.67057],[-69.95642,-9.6836],[-69.96894,-9.70862],[-69.97519,-9.70706],[-69.98041,-9.71175],[-69.97676,-9.73208],[-69.97989,-9.75658],[-69.97311,-9.77587],[-69.98041,-9.78421],[-69.98302,-9.80246],[-69.98979,-9.80976],[-70.02837,-9.8207],[-70.03202,-9.86189],[-70.0388,-9.8744],[-70.03098,-9.88482],[-70.03828,-9.88952],[-70.04662,-9.90828],[-70.04349,-9.91975],[-70.0487,-9.92601],[-70.03724,-9.95155],[-70.03776,-9.9698],[-70.04923,-9.99221],[-70.03255,-10.02818],[-70.03464,-10.05842],[-70.02317,-10.0678],[-70.02994,-10.08449],[-70.02004,-10.09231],[-70.02161,-10.1215],[-70.03516,-10.13453],[-70.05966,-10.14235],[-70.08051,-10.14496],[-70.0925,-10.13818],[-70.11075,-10.14496],[-70.11127,-10.15799],[-70.13317,-10.1778],[-70.13212,-10.19656],[-70.15141,-10.20543],[-70.15923,-10.22106],[-70.16809,-10.2268],[-70.17383,-10.24713],[-70.19833,-10.26016],[-70.22648,-10.28988],[-70.22648,-10.29561],[-70.21502,-10.3076],[-70.23639,-10.33158],[-70.2562,-10.37016],[-70.2562,-10.39622],[-70.24786,-10.40144],[-70.62111,-10.36285],[-70.62109,-9.82434],[-70.61327,-9.80453],[-70.60336,-9.79879],[-70.59085,-9.8014],[-70.58199,-9.78003],[-70.57677,-9.77794],[-70.56218,-9.78889],[-70.5481,-9.77742],[-70.53872,-9.76439],[-70.54133,-9.75292],[-70.53298,-9.73572],[-70.53611,-9.73259],[-70.52777,-9.72112],[-70.52777,-9.71174],[-70.54236,-9.67994],[-70.54758,-9.68098],[-70.55488,-9.66586],[-70.56687,-9.66586],[-70.59084,-9.63145],[-70.59814,-9.60852],[-70.58876,-9.59809],[-70.58563,-9.58819],[-70.59084,-9.58558],[-70.58615,-9.57567],[-70.60022,-9.56264],[-70.5997,-9.55743],[-70.59553,-9.55117],[-70.58719,-9.55013],[-70.58876,-9.56473],[-70.57833,-9.56316],[-70.55904,-9.57359],[-70.55539,-9.56212],[-70.56217,-9.56212],[-70.56895,-9.55378],[-70.56425,-9.54283],[-70.56947,-9.53136],[-70.56373,-9.53084],[-70.55696,-9.53866],[-70.54288,-9.53658],[-70.53975,-9.52928],[-70.54757,-9.52824],[-70.54809,-9.51885],[-70.54444,-9.51468],[-70.53402,-9.51625],[-70.53402,-9.50634],[-70.52463,-9.50478],[-70.51525,-9.49331],[-70.50587,-9.50582],[-70.50482,-9.49487],[-70.52098,-9.47819],[-70.52203,-9.46829],[-70.53037,-9.47037],[-70.52098,-9.45682],[-70.51733,-9.4662],[-70.50795,-9.4636],[-70.51264,-9.44691],[-70.49961,-9.44379],[-70.49596,-9.42658],[-70.51003,-9.42345],[-70.52359,-9.42971],[-70.5215,-9.4344],[-70.52932,-9.43857],[-70.52828,-9.42815],[-70.54131,-9.43753],[-70.53923,-9.43232],[-70.54809,-9.4271],[-70.55226,-9.43649],[-70.57155,-9.42971],[-70.57155,-9.43857],[-70.57572,-9.43596],[-70.58927,-9.44431],[-70.59657,-9.44013],[-70.60022,-9.46099],[-70.61377,-9.45734],[-70.6169,-9.47506],[-70.62107,-9.47141],[-70.63723,-9.48809],[-70.63306,-9.49591],[-70.63723,-9.50008],[-70.64453,-9.49591],[-70.65235,-9.5006],[-70.65444,-9.51937],[-70.66382,-9.52406],[-70.66538,-9.51989],[-70.67164,-9.52563],[-70.66851,-9.52615],[-70.6706,-9.53084],[-70.67477,-9.52823],[-70.71439,-9.54648],[-70.72951,-9.56472],[-70.73733,-9.55795],[-70.74775,-9.55899],[-70.75818,-9.58245],[-70.75714,-9.60121],[-70.78633,-9.60955],[-70.79467,-9.6351],[-70.8051,-9.63927],[-70.82908,-9.63927],[-70.83794,-9.64344],[-70.84159,-9.65334],[-70.84941,-9.65126],[-70.86713,-9.66012],[-70.92552,-9.73884],[-70.95159,-9.73883],[-70.97192,-9.75239],[-70.99746,-9.79931],[-70.99903,-9.81338],[-71.01675,-9.8139],[-71.02405,-9.80921],[-71.02822,-9.81494],[-71.05168,-9.8139],[-71.06576,-9.8238],[-71.11789,-9.8311],[-71.11059,-9.7993],[-71.10746,-9.73831],[-71.04907,-9.67315],[-71.04177,-9.62258],[-70.94063,-9.53709],[-70.89528,-9.486],[-70.86765,-9.46307],[-70.8395,-9.45629],[-70.8004,-9.46463],[-70.7613,-9.43387],[-70.73054,-9.41824],[-70.64766,-9.39061],[-70.63462,-9.36142],[-70.63149,-9.32909],[-70.64348,-9.27331],[-70.63357,-9.24152],[-70.59604,-9.21076],[-70.56059,-9.1628],[-70.50794,-9.10911],[-70.49647,-9.10181],[-70.47614,-9.10285],[-70.47144,-9.09607],[-70.46102,-9.10859],[-70.46102,-9.10442],[-70.45268,-9.10546],[-70.436,-9.08304],[-70.42244,-9.08148],[-70.42192,-9.0648],[-70.4141,-9.05437],[-70.40993,-9.05594],[-70.41149,-9.04968],[-70.3995,-9.03769],[-70.39898,-9.02466],[-70.40524,-9.01684],[-70.38803,-8.9939],[-70.37656,-8.99025],[-70.37031,-8.98087],[-70.35363,-8.9767],[-70.34476,-8.98765],[-70.3359,-8.98869],[-70.30827,-8.97878],[-70.29941,-8.98921],[-70.277,-8.99703],[-70.25771,-8.9913],[-70.23738,-9.03144],[-70.22852,-9.02779],[-70.21548,-9.03144],[-70.20975,-9.0158],[-70.19411,-9.02101],[-70.18577,-9.01007],[-70.17639,-9.0085],[-70.16961,-8.99338],[-70.13155,-8.97253],[-70.12165,-8.9741],[-70.12008,-8.97983],[-70.08359,-8.98661],[-70.07525,-8.97618],[-70.05857,-8.97358],[-70.05179,-8.95585],[-70.03303,-8.94908],[-70.02364,-8.93813],[-69.99132,-8.93709],[-69.98298,-8.95064],[-69.96161,-8.96263],[-69.92824,-8.95742],[-69.92981,-8.9741],[-69.91678,-8.98661],[-69.89123,-8.98192],[-69.85683,-8.94856],[-69.84692,-8.91676],[-69.82659,-8.90634],[-69.81251,-8.87297],[-69.79322,-8.86724],[-69.79374,-8.84639],[-69.75673,-8.82501],[-69.76611,-8.78487],[-69.73223,-8.76089],[-69.72389,-8.76454],[-69.71137,-8.73639],[-69.66602,-8.69938],[-69.66394,-8.71241],[-69.64256,-8.7171],[-69.63422,-8.71189],[-69.62849,-8.6999],[-69.6191,-8.69521],[-69.60242,-8.67697],[-69.59773,-8.66133],[-69.58522,-8.65507],[-69.57375,-8.64047],[-69.5701,-8.62014],[-69.54924,-8.57896]]]},"properties":{"CD_MUN":"1200344","NM_MUN":"Manoel Urbano","SIGLA_UF":"AC"}},{"type":"Feature","geometry":{"type":"Polygon","coordinates":[[[-73.74095,-7.14265],[-72.86727,-7.52792],[-72.86727,-7.5347],[-72.84694,-7.54877],[-72.82922,-7.59256],[-72.81514,-7.59986],[-72.81619,-7.60924],[-72.8068,-7.60768],[-72.80315,-7.61759],[-72.79169,-7.61237],[-72.77917,-7.62123],[-72.77292,-7.61394],[-72.76771,-7.61759],[-72.75624,-7.61237],[-72.74738,-7.61811],[-72.73851,-7.6155],[-72.7505,-7.66555],[-72.76302,-7.67389],[-72.77761,-7.66972],[-72.79899,-7.67545],[-72.81202,-7.68796],[-72.85216,-7.689],[-72.89334,-7.71976],[-72.90116,-7.74687],[-72.9314,-7.76146],[-72.94965,-7.79326],[-72.95225,-7.80838],[-72.93922,-7.81985],[-72.94183,-7.83653],[-72.93714,-7.86103],[-72.95382,-7.85061],[-72.99031,-7.85895],[-73.00386,-7.84696],[-73.02315,-7.86051],[-73.05182,-7.87041],[-73.06329,-7.86937],[-73.08154,-7.88136],[-73.09249,-7.88188],[-73.12846,-7.89856],[-73.16234,-7.89856],[-73.16651,-7.89439],[-73.18111,-7.90325],[-73.19779,-7.90273],[-73.20092,-7.90951],[-73.21291,-7.91211],[-73.22803,-7.92567],[-73.23741,-7.94078],[-73.24419,-7.93453],[-73.2567,-7.95173],[-73.26139,-7.95017],[-73.29267,-7.98092],[-73.32238,-7.99239],[-73.3276,-7.98614],[-73.33125,-7.98874],[-73.34219,-7.98249],[-73.38338,-7.99083],[-73.39641,-8.02419],[-73.63204,-8.05703],[-73.6237,-8.0393],[-73.62734,-8.02106],[-73.64611,-8.00281],[-73.66905,-8.00802],[-73.67843,-8.00385],[-73.68886,-7.97101],[-73.69824,-7.96006],[-73.71805,-7.95954],[-73.7316,-7.96788],[-73.74568,-7.95433],[-73.75037,-7.92513],[-73.77226,-7.90167],[-73.7707,-7.89646],[-73.75297,-7.89177],[-73.76653,-7.86987],[-73.76131,-7.85736],[-73.74255,-7.87248],[-73.71335,-7.87509],[-73.6998,-7.86831],[-73.68416,-7.84381],[-73.68572,-7.77343],[-73.74045,-7.73329],[-73.8223,-7.71713],[-73.84471,-7.67542],[-73.86244,-7.67647],[-73.87964,-7.66187],[-73.88642,-7.65248],[-73.8885,-7.63111],[-73.90883,-7.62381],[-73.93281,-7.60765],[-73.96878,-7.56699],[-73.98389,-7.56595],[-73.99015,-7.54405],[-73.98806,-7.53102],[-73.94792,-7.52581],[-73.92968,-7.47732],[-73.91977,-7.46481],[-73.92759,-7.45126],[-73.93176,-7.42259],[-73.96773,-7.35951],[-73.96408,-7.347],[-73.95104,-7.347],[-73.94375,-7.36055],[-73.93123,-7.35169],[-73.90986,-7.37723],[-73.87024,-7.37828],[-73.86034,-7.36837],[-73.85252,-7.34648],[-73.8301,-7.33605],[-73.81759,-7.33449],[-73.79309,-7.34179],[-73.7665,-7.33084],[-73.75973,-7.33449],[-73.76442,-7.347],[-73.75556,-7.34596],[-73.7175,-7.32771],[-73.7003,-7.30373],[-73.69978,-7.29227],[-73.71593,-7.26672],[-73.71437,-7.23336],[-73.72427,-7.22085],[-73.75347,-7.20051],[-73.7592,-7.1708],[-73.7936,-7.13222],[-73.79256,-7.12336],[-73.79881,-7.11606],[-73.74095,-7.14265]]]},"properties":{"CD_MUN":"1200336","NM_MUN":"Mâncio Lima","SIGLA_UF":"AC"}},{"type":"Feature","geometry":{"type":"Polygon","coordinates":[[[-70.57514,-8.09516],[-70.36871,-8.13948],[-69.75984,-8.46531],[-69.54924,-8.57896],[-69.5701,-8.62014],[-69.57375,-8.64047],[-69.58522,-8.65507],[-69.59773,-8.66133],[-69.60242,-8.67697],[-69.6191,-8.69521],[-69.62849,-8.6999],[-69.63422,-8.71189],[-69.64256,-8.7171],[-69.66394,-8.71241],[-69.66602,-8.69938],[-69.71137,-8.73639],[-69.72389,-8.76454],[-69.73223,-8.76089],[-69.76611,-8.78487],[-69.75673,-8.82501],[-69.79374,-8.84639],[-69.79322,-8.86724],[-69.81251,-8.87297],[-69.82659,-8.90634],[-69.84692,-8.91676],[-69.85683,-8.94856],[-69.89123,-8.98192],[-69.91678,-8.98661],[-69.92981,-8.9741],[-69.92824,-8.95742],[-69.96161,-8.96263],[-69.98298,-8.95064],[-69.99132,-8.93709],[-70.02364,-8.93813],[-70.03303,-8.94908],[-70.05179,-8.95585],[-70.05857,-8.97358],[-70.07525,-8.97618],[-70.08359,-8.98661],[-70.12008,-8.97983],[-70.12165,-8.9741],[-70.13155,-8.97253],[-70.16961,-8.99338],[-70.17639,-9.0085],[-70.18577,-9.01007],[-70.19411,-9.02101],[-70.20975,-9.0158],[-70.21548,-9.03144],[-70.22852,-9.02779],[-70.23738,-9.03144],[-70.25771,-8.9913],[-70.277,-8.99703],[-70.29941,-8.98921],[-70.30827,-8.97878],[-70.3359,-8.98869],[-70.34476,-8.98765],[-70.35363,-8.9767],[-70.37031,-8.98087],[-70.37656,-8.99025],[-70.38803,-8.9939],[-70.40524,-9.01684],[-70.39898,-9.02466],[-70.3995,-9.03769],[-70.41149,-9.04968],[-70.40993,-9.05594],[-70.4141,-9.05437],[-70.42192,-9.0648],[-70.42244,-9.08148],[-70.436,-9.08304],[-70.45268,-9.10546],[-70.46102,-9.10442],[-70.46102,-9.10859],[-70.47144,-9.09607],[-70.47614,-9.10285],[-70.49647,-9.10181],[-70.50794,-9.10911],[-70.56059,-9.1628],[-70.59604,-9.21076],[-70.63357,-9.24152],[-70.64348,-9.27331],[-70.63149,-9.32909],[-70.63462,-9.36142],[-70.64766,-9.39061],[-70.73054,-9.41824],[-70.7613,-9.43387],[-70.8004,-9.46463],[-70.8395,-9.45629],[-70.86765,-9.46307],[-70.89528,-9.486],[-70.94063,-9.53709],[-71.04177,-9.62258],[-71.04907,-9.67315],[-71.10746,-9.73831],[-71.11059,-9.7993],[-71.11789,-9.8311],[-71.12571,-9.83788],[-71.133,-9.85456],[-71.16324,-9.87489],[-71.18201,-9.91712],[-71.18983,-9.92337],[-71.19452,-9.93797],[-71.20599,-9.94683],[-71.2112,-9.96612],[-71.22789,-9.96925],[-71.25343,-9.96351],[-71.25969,-9.97811],[-71.27168,-9.97811],[-71.30817,-9.99166],[-71.31807,-9.99114],[-71.33944,-9.97185],[-71.35352,-9.97654],[-71.35769,-9.98905],[-71.36447,-9.98488],[-71.37541,-10.0],[-71.8206,-9.99999],[-71.81746,-9.59337],[-71.82424,-9.58868],[-71.82319,-9.58033],[-71.8086,-9.55635],[-71.80599,-9.53498],[-71.80964,-9.5256],[-71.79556,-9.51934],[-71.7966,-9.49276],[-71.7575,-9.46096],[-71.74708,-9.44167],[-71.73822,-9.44375],[-71.73769,-9.43541],[-71.733,-9.43646],[-71.72831,-9.4229],[-71.72205,-9.41977],[-71.72414,-9.38015],[-71.73144,-9.37181],[-71.72622,-9.34575],[-71.71892,-9.33845],[-71.71475,-9.30561],[-71.70641,-9.30352],[-71.70328,-9.29518],[-71.69911,-9.29675],[-71.69546,-9.27589],[-71.70224,-9.26547],[-71.69755,-9.25973],[-71.69129,-9.26234],[-71.68504,-9.25452],[-71.67148,-9.25087],[-71.66992,-9.24305],[-71.65741,-9.24097],[-71.65845,-9.23315],[-71.65167,-9.23054],[-71.6475,-9.23471],[-71.63864,-9.20656],[-71.64489,-9.20291],[-71.64281,-9.19874],[-71.63812,-9.20083],[-71.63759,-9.19301],[-71.63238,-9.19353],[-71.63134,-9.20135],[-71.62613,-9.19301],[-71.62977,-9.19092],[-71.61257,-9.18519],[-71.62195,-9.1758],[-71.61726,-9.14713],[-71.62404,-9.14713],[-71.62612,-9.13775],[-71.61413,-9.13149],[-71.61101,-9.12315],[-71.60319,-9.12315],[-71.61413,-9.11221],[-71.60475,-9.10908],[-71.60423,-9.09187],[-71.6084,-9.09187],[-71.60788,-9.08823],[-71.60214,-9.08927],[-71.60944,-9.08301],[-71.60423,-9.07988],[-71.60996,-9.07571],[-71.6037,-9.06789],[-71.59589,-9.06894],[-71.59015,-9.05955],[-71.60058,-9.03766],[-71.59223,-9.00742],[-71.58233,-9.00794],[-71.58233,-8.99543],[-71.57607,-8.99283],[-71.58285,-8.98344],[-71.56669,-8.97562],[-71.56617,-8.96468],[-71.57294,-8.9579],[-71.56147,-8.94278],[-71.5474,-8.94122],[-71.54688,-8.93131],[-71.54271,-8.93288],[-71.54271,-8.92871],[-71.53645,-8.93392],[-71.52602,-8.90368],[-71.5083,-8.90056],[-71.50517,-8.89378],[-71.49996,-8.89899],[-71.501,-8.89222],[-71.49475,-8.88596],[-71.48484,-8.8917],[-71.48223,-8.88023],[-71.46816,-8.86459],[-71.4593,-8.86302],[-71.45513,-8.87084],[-71.44157,-8.86355],[-71.43375,-8.87189],[-71.42906,-8.86876],[-71.42437,-8.88231],[-71.41029,-8.8698],[-71.39726,-8.87032],[-71.39049,-8.88231],[-71.38006,-8.8771],[-71.38371,-8.88857],[-71.37537,-8.8844],[-71.37276,-8.88909],[-71.36338,-8.88075],[-71.36494,-8.87397],[-71.3493,-8.87085],[-71.34305,-8.86668],[-71.34461,-8.86094],[-71.33054,-8.86511],[-71.33418,-8.85834],[-71.32011,-8.8599],[-71.3149,-8.84739],[-71.31177,-8.85729],[-71.29978,-8.84218],[-71.29561,-8.84322],[-71.29248,-8.83384],[-71.28935,-8.83801],[-71.28257,-8.8354],[-71.27736,-8.84322],[-71.26485,-8.83227],[-71.26902,-8.84478],[-71.26016,-8.84478],[-71.25495,-8.83749],[-71.24191,-8.84687],[-71.2367,-8.84114],[-71.2367,-8.82758],[-71.22627,-8.83384],[-71.22419,-8.81507],[-71.22054,-8.8182],[-71.21689,-8.80829],[-71.20751,-8.80881],[-71.19395,-8.79995],[-71.18301,-8.80777],[-71.18457,-8.79735],[-71.17466,-8.78379],[-71.16841,-8.78327],[-71.1585,-8.7937],[-71.14704,-8.78849],[-71.14599,-8.77962],[-71.13609,-8.77337],[-71.12566,-8.77858],[-71.13087,-8.77441],[-71.12097,-8.76138],[-71.11576,-8.76816],[-71.10168,-8.7619],[-71.10012,-8.77076],[-71.08813,-8.75617],[-71.08083,-8.7619],[-71.07822,-8.77285],[-71.07405,-8.76346],[-71.08031,-8.75304],[-71.07718,-8.74939],[-71.06258,-8.74835],[-71.05737,-8.75252],[-71.05685,-8.73636],[-71.04225,-8.73323],[-71.03808,-8.72541],[-71.03183,-8.73114],[-71.02348,-8.71446],[-71.01306,-8.72124],[-71.01827,-8.71238],[-71.01045,-8.71342],[-71.00576,-8.70821],[-71.01358,-8.68162],[-71.00732,-8.68788],[-70.99742,-8.68371],[-70.99168,-8.67015],[-70.97813,-8.66442],[-70.97917,-8.64617],[-70.96874,-8.64565],[-70.9677,-8.63992],[-70.96353,-8.64826],[-70.95988,-8.62845],[-70.95102,-8.62011],[-70.94268,-8.62271],[-70.94581,-8.61646],[-70.93799,-8.6076],[-70.93434,-8.61072],[-70.93121,-8.60134],[-70.92339,-8.59665],[-70.92495,-8.58831],[-70.9187,-8.59092],[-70.91818,-8.58414],[-70.91244,-8.5857],[-70.91505,-8.57945],[-70.92339,-8.57945],[-70.92391,-8.5685],[-70.90619,-8.55859],[-70.89732,-8.56537],[-70.90566,-8.54921],[-70.89576,-8.54452],[-70.89472,-8.52523],[-70.88481,-8.51637],[-70.87595,-8.52002],[-70.86656,-8.51689],[-70.87073,-8.51168],[-70.87647,-8.51741],[-70.87438,-8.50751],[-70.88429,-8.51011],[-70.88585,-8.50334],[-70.86709,-8.49395],[-70.85927,-8.49969],[-70.85509,-8.4877],[-70.86239,-8.46476],[-70.84623,-8.46007],[-70.84727,-8.45173],[-70.83581,-8.44652],[-70.83997,-8.42879],[-70.80661,-8.42671],[-70.8087,-8.41837],[-70.80296,-8.40533],[-70.79723,-8.40377],[-70.80348,-8.40012],[-70.80557,-8.38761],[-70.80244,-8.38187],[-70.79775,-8.38292],[-70.79566,-8.37249],[-70.78524,-8.36676],[-70.77898,-8.37145],[-70.56576,-8.21767],[-70.56472,-8.20985],[-70.5741,-8.20568],[-70.57932,-8.19577],[-70.55481,-8.1572],[-70.57723,-8.11549],[-70.57514,-8.09516]]]},"properties":{"CD_MUN":"1200302","NM_MUN":"Feijó","SIGLA_UF":"AC"}},{"type":"Feature","geometry":{"type":"Polygon","coordinates":[[[-72.86727,-7.52792],[-72.65719,-7.62384],[-72.17187,-7.73542],[-72.17812,-7.75992],[-72.17969,-7.8183],[-72.17343,-7.84489],[-72.17396,-7.86887],[-72.19012,-7.88138],[-72.18803,-7.91058],[-72.19898,-7.92986],[-72.21618,-7.92986],[-72.22713,-7.94394],[-72.24486,-7.98095],[-72.24851,-8.00128],[-72.2777,-8.05237],[-72.27875,-8.05967],[-72.25373,-8.10815],[-72.26467,-8.17071],[-72.24018,-8.21398],[-72.23861,-8.23118],[-72.28762,-8.40112],[-72.28919,-8.41781],[-72.28345,-8.46577],[-72.24957,-8.59505],[-72.25687,-8.62737],[-72.24645,-8.64875],[-72.25479,-8.6769],[-72.22508,-8.6842],[-72.21778,-8.70348],[-72.16461,-8.70296],[-72.15887,-8.71965],[-72.15679,-8.76031],[-72.15158,-8.77282],[-72.08954,-8.79003],[-72.07182,-8.80775],[-72.07495,-8.82078],[-72.08277,-8.83069],[-72.18234,-8.90367],[-72.18651,-8.91044],[-72.18443,-8.92348],[-72.17296,-8.9313],[-72.09685,-8.92765],[-72.0786,-8.93703],[-72.06609,-8.96727],[-72.06453,-8.99959],[-72.05723,-9.02409],[-72.02908,-9.06736],[-72.02544,-9.08978],[-72.0588,-9.13096],[-72.07288,-9.17684],[-72.07392,-9.21958],[-72.08435,-9.25816],[-72.11302,-9.30508],[-72.1271,-9.3473],[-72.13753,-9.35616],[-72.15525,-9.36138],[-72.17402,-9.39526],[-72.2079,-9.40256],[-72.27255,-9.4281],[-72.28402,-9.44322],[-72.28871,-9.47345],[-72.35335,-9.49535],[-72.36378,-9.4943],[-72.36743,-9.48857],[-72.37525,-9.49326],[-72.38463,-9.49066],[-72.40861,-9.47658],[-72.42633,-9.48231],[-72.44197,-9.47501],[-72.45657,-9.48648],[-72.48941,-9.47918],[-72.51235,-9.48492],[-72.51652,-9.49065],[-72.52694,-9.48127],[-72.52486,-9.47762],[-72.53528,-9.47449],[-72.53528,-9.46928],[-72.53841,-9.47188],[-72.5431,-9.46511],[-72.55196,-9.46928],[-72.55457,-9.46511],[-72.55874,-9.47136],[-72.56031,-9.46459],[-72.57542,-9.4625],[-72.57386,-9.45572],[-72.58116,-9.45937],[-72.61191,-9.44999],[-72.61869,-9.45207],[-72.62182,-9.4453],[-72.64111,-9.44217],[-72.65518,-9.45103],[-72.66873,-9.44164],[-72.66717,-9.43747],[-72.67968,-9.43747],[-72.68177,-9.43226],[-72.68542,-9.43747],[-72.68906,-9.43382],[-72.6948,-9.43747],[-72.70001,-9.42965],[-72.71096,-9.42809],[-72.71826,-9.40984],[-73.21088,-9.41192],[-73.21193,-9.40722],[-73.19264,-9.38898],[-73.18847,-9.36083],[-73.15719,-9.3504],[-73.1478,-9.3332],[-73.13842,-9.32851],[-73.12852,-9.31235],[-73.10141,-9.30401],[-73.11183,-9.27899],[-73.09567,-9.26595],[-73.08316,-9.24145],[-73.05657,-9.22529],[-73.04563,-9.23676],[-73.04041,-9.23572],[-73.00809,-9.21435],[-72.99401,-9.19193],[-73.01174,-9.18724],[-73.01695,-9.17629],[-73.00183,-9.1643],[-72.96482,-9.14658],[-72.94657,-9.11165],[-72.94657,-9.07672],[-72.94084,-9.0689],[-72.94084,-9.059],[-72.94866,-9.02563],[-72.95752,-9.01052],[-72.93979,-8.99644],[-72.93666,-8.98914],[-72.97107,-8.97455],[-72.99505,-8.91981],[-73.00912,-8.91251],[-73.04874,-8.91355],[-73.05656,-8.90677],[-73.07793,-8.8609],[-73.07845,-8.84265],[-73.09461,-8.83692],[-73.10921,-8.82232],[-73.11181,-8.79156],[-73.13162,-8.76706],[-73.14257,-8.72223],[-73.17541,-8.68782],[-73.18062,-8.68417],[-73.19991,-8.68573],[-73.21659,-8.67844],[-73.23848,-8.68626],[-73.25099,-8.68417],[-73.2927,-8.65915],[-73.29999,-8.63204],[-73.31355,-8.63099],[-73.31511,-8.61483],[-73.3417,-8.61535],[-73.34378,-8.59607],[-73.32814,-8.51683],[-73.32918,-8.47617],[-73.33596,-8.46678],[-73.34743,-8.47043],[-73.36567,-8.46313],[-73.37505,-8.46678],[-73.37714,-8.46209],[-73.38965,-8.46834],[-73.40216,-8.44697],[-73.41259,-8.41048],[-73.44282,-8.40683],[-73.48244,-8.39171],[-73.48609,-8.37763],[-73.50694,-8.37711],[-73.53717,-8.34531],[-73.52987,-8.31195],[-73.5403,-8.29475],[-73.53665,-8.26972],[-73.55854,-8.2447],[-73.56063,-8.23479],[-73.5721,-8.22958],[-73.57835,-8.21029],[-73.59399,-8.20508],[-73.58565,-8.17224],[-73.5919,-8.142],[-73.58356,-8.12688],[-73.59451,-8.09717],[-73.60754,-8.08622],[-73.61588,-8.06954],[-73.63204,-8.05703],[-73.39641,-8.02419],[-73.38338,-7.99083],[-73.34219,-7.98249],[-73.33125,-7.98874],[-73.3276,-7.98614],[-73.32238,-7.99239],[-73.29267,-7.98092],[-73.26139,-7.95017],[-73.2567,-7.95173],[-73.24419,-7.93453],[-73.23741,-7.94078],[-73.22803,-7.92567],[-73.21291,-7.91211],[-73.20092,-7.90951],[-73.19779,-7.90273],[-73.18111,-7.90325],[-73.16651,-7.89439],[-73.16234,-7.89856],[-73.12846,-7.89856],[-73.09249,-7.88188],[-73.08154,-7.88136],[-73.06329,-7.86937],[-73.05182,-7.87041],[-73.02315,-7.86051],[-73.00386,-7.84696],[-72.99031,-7.85895],[-72.95382,-7.85061],[-72.93714,-7.86103],[-72.94183,-7.83653],[-72.93922,-7.81985],[-72.95225,-7.80838],[-72.94965,-7.79326],[-72.9314,-7.76146],[-72.90116,-7.74687],[-72.89334,-7.71976],[-72.85216,-7.689],[-72.81202,-7.68796],[-72.79899,-7.67545],[-72.77761,-7.66972],[-72.76302,-7.67389],[-72.7505,-7.66555],[-72.73851,-7.6155],[-72.74738,-7.61811],[-72.75624,-7.61237],[-72.76771,-7.61759],[-72.77292,-7.61394],[-72.77917,-7.62123],[-72.79169,-7.61237],[-72.80315,-7.61759],[-72.8068,-7.60768],[-72.81619,-7.60924],[-72.81514,-7.59986],[-72.82922,-7.59256],[-72.84694,-7.54877],[-72.86727,-7.5347],[-72.86727,-7.52792]]]},"properties":{"CD_MUN":"1200203","NM_MUN":"Cruzeiro do Sul","SIGLA_UF":"AC"}},{"type":"Feature","geometry":{"type":"Polygon","coordinates":[[[-69.42004,-10.48799],[-69.39554,-10.48591],[-69.34185,-10.48591],[-69.32308,-10.47236],[-69.28972,-10.47027],[-69.26938,-10.45828],[-69.24853,-10.45463],[-69.24697,-10.44994],[-68.84661,-10.451],[-68.84765,-10.44213],[-68.82628,-10.42024],[-68.8122,-10.4145],[-68.78718,-10.41242],[-68.76529,-10.40095],[-68.75799,-10.40564],[-68.73297,-10.40043],[-68.72932,-10.39261],[-68.71211,-10.38271],[-68.70638,-10.3629],[-68.69439,-10.35508],[-68.68761,-10.35873],[-68.68344,-10.35456],[-68.685,-10.33892],[-68.68083,-10.33006],[-68.66154,-10.32797],[-68.63965,-10.30451],[-68.61775,-10.3066],[-68.59117,-10.29305],[-68.58074,-10.29357],[-68.5797,-10.28366],[-68.56875,-10.27949],[-68.56562,-10.27272],[-68.55311,-10.27845],[-68.53591,-10.2748],[-68.52861,-10.26959],[-68.52652,-10.25551],[-68.50672,-10.25864],[-68.49577,-10.25343],[-68.48899,-10.22684],[-68.47127,-10.21694],[-68.47126,-10.19452],[-68.46501,-10.18462],[-68.45041,-10.18305],[-68.43894,-10.19087],[-68.42487,-10.18201],[-68.41601,-10.16637],[-68.41446,-10.49063],[-68.41133,-10.49584],[-68.39673,-10.49167],[-68.38213,-10.46665],[-68.36806,-10.46404],[-68.36337,-10.45518],[-68.35346,-10.45414],[-68.34251,-10.4411],[-68.31853,-10.43172],[-68.3128,-10.41712],[-68.28256,-10.40357],[-68.27266,-10.38845],[-68.25598,-10.39054],[-68.23304,-10.38481],[-68.22991,-10.3895],[-68.20749,-10.3749],[-68.1856,-10.3822],[-68.15119,-10.37021],[-68.12357,-10.3749],[-68.1121,-10.36552],[-68.10271,-10.36813],[-68.09124,-10.36344],[-68.06935,-10.38272],[-68.06205,-10.37908],[-68.04068,-10.38794],[-68.02608,-10.37803],[-68.02452,-10.37178],[-68.03442,-10.36344],[-68.03859,-10.35093],[-68.02712,-10.34311],[-68.02869,-10.33998],[-68.01461,-10.33424],[-68.00002,-10.31652],[-67.96926,-10.31183],[-67.85874,-10.31183],[-67.85874,-10.30714],[-67.86813,-10.30401],[-67.86031,-10.29828],[-67.85301,-10.30088],[-67.85144,-10.28994],[-67.84467,-10.28837],[-67.84362,-10.29515],[-67.83528,-10.2988],[-67.84154,-10.31548],[-67.82642,-10.34572],[-67.79984,-10.34468],[-67.78889,-10.35719],[-67.76648,-10.36657],[-67.76231,-10.3796],[-67.76178,-10.39368],[-67.77169,-10.40411],[-67.77586,-10.42496],[-67.77013,-10.43538],[-67.77169,-10.45207],[-67.75605,-10.47448],[-67.7545,-10.695],[-67.76128,-10.68405],[-67.76857,-10.6877],[-67.78056,-10.67727],[-67.79151,-10.67727],[-67.80767,-10.66684],[-67.81028,-10.66059],[-67.8181,-10.66319],[-67.82331,-10.65173],[-67.85459,-10.64964],[-67.86397,-10.64026],[-67.87648,-10.6439],[-67.87596,-10.63921],[-67.8916,-10.64025],[-67.88951,-10.64338],[-67.89473,-10.64703],[-67.90776,-10.64078],[-67.91297,-10.64964],[-67.92861,-10.65537],[-67.96093,-10.64964],[-67.97605,-10.66215],[-68.00211,-10.64755],[-68.02192,-10.65068],[-68.02766,-10.65693],[-68.03287,-10.65433],[-68.03079,-10.66423],[-68.05477,-10.66944],[-68.06519,-10.68352],[-68.0751,-10.683],[-68.07875,-10.6929],[-68.10429,-10.71375],[-68.10742,-10.72418],[-68.10429,-10.72522],[-68.10481,-10.73982],[-68.09699,-10.74816],[-68.10638,-10.76276],[-68.10325,-10.77423],[-68.11785,-10.78309],[-68.14287,-10.81384],[-68.17363,-10.83939],[-68.17832,-10.85242],[-68.19448,-10.85763],[-68.1997,-10.87536],[-68.20491,-10.87796],[-68.207,-10.90246],[-68.22316,-10.91081],[-68.23046,-10.94208],[-68.2388,-10.95772],[-68.27008,-10.97805],[-68.2779,-10.98952],[-68.30761,-10.99213],[-68.33211,-11.01246],[-68.34097,-11.00464],[-68.35348,-11.00359],[-68.38476,-11.01715],[-68.3905,-11.02862],[-68.38893,-11.04217],[-68.39571,-11.05051],[-68.40614,-11.05207],[-68.40979,-11.04373],[-68.42282,-11.04113],[-68.43116,-11.03122],[-68.44523,-11.0453],[-68.48642,-11.04999],[-68.50571,-11.06511],[-68.50779,-11.07605],[-68.51822,-11.08856],[-68.54168,-11.0969],[-68.52447,-11.02601],[-68.5693,-11.0333],[-68.5938,-11.0234],[-68.60058,-10.99942],[-68.59537,-10.98326],[-68.60266,-10.97804],[-68.60214,-10.97335],[-68.62039,-10.97439],[-68.61674,-10.97075],[-68.62195,-10.94937],[-68.62716,-10.9452],[-68.63551,-10.94729],[-68.6355,-10.94155],[-68.64332,-10.93582],[-68.64176,-10.928],[-68.65323,-10.91705],[-68.64072,-10.90506],[-68.64228,-10.89672],[-68.62925,-10.90089],[-68.62143,-10.8889],[-68.60422,-10.89359],[-68.59536,-10.8717],[-68.58337,-10.87013],[-68.58754,-10.85032],[-68.58337,-10.84668],[-68.57555,-10.84824],[-68.57086,-10.83729],[-68.57555,-10.82217],[-68.5693,-10.8253],[-68.56356,-10.81748],[-68.57868,-10.80184],[-68.5646,-10.78255],[-68.55574,-10.78308],[-68.56095,-10.79246],[-68.54896,-10.78725],[-68.55157,-10.78203],[-68.56043,-10.77265],[-68.57086,-10.77786],[-68.58493,-10.77473],[-68.58493,-10.78568],[-68.59327,-10.79454],[-68.6209,-10.80914],[-68.63341,-10.80758],[-68.64071,-10.82374],[-68.65166,-10.83364],[-68.68137,-10.83155],[-68.70223,-10.84876],[-68.87113,-10.84823],[-68.86331,-10.82477],[-68.84402,-10.79558],[-68.85705,-10.76222],[-68.82368,-10.72364],[-68.80596,-10.71582],[-68.8044,-10.708],[-68.81274,-10.69028],[-68.80283,-10.68089],[-68.80492,-10.6762],[-68.80648,-10.67099],[-68.7924,-10.6689],[-68.78354,-10.66265],[-68.75591,-10.67255],[-68.74914,-10.65744],[-68.73767,-10.65587],[-68.73037,-10.6444],[-68.72151,-10.64857],[-68.71056,-10.64545],[-68.70952,-10.63554],[-68.68293,-10.63085],[-68.67198,-10.61886],[-68.6725,-10.62251],[-68.65426,-10.62095],[-68.64748,-10.61365],[-68.63549,-10.61834],[-68.63549,-10.62564],[-68.62454,-10.6246],[-68.61464,-10.60062],[-68.62298,-10.59228],[-68.62767,-10.59332],[-68.62506,-10.58758],[-68.6308,-10.5855],[-68.6308,-10.57455],[-68.63601,-10.57924],[-68.63914,-10.57455],[-68.64435,-10.57559],[-68.64435,-10.56986],[-68.64852,-10.57507],[-68.65426,-10.57455],[-68.6626,-10.56882],[-68.65791,-10.56725],[-68.66416,-10.55787],[-68.67146,-10.56777],[-68.67354,-10.55839],[-68.68293,-10.57351],[-68.70639,-10.55526],[-68.71368,-10.55943],[-68.72724,-10.55839],[-68.73819,-10.57038],[-68.7434,-10.5636],[-68.74809,-10.56464],[-68.74757,-10.5563],[-68.75956,-10.55161],[-68.76373,-10.55839],[-68.77103,-10.55213],[-68.77207,-10.55995],[-68.77885,-10.56569],[-68.78041,-10.56151],[-68.79449,-10.55734],[-68.79918,-10.56099],[-68.80439,-10.55682],[-68.8023,-10.55317],[-68.807,-10.55369],[-68.81065,-10.54848],[-68.81846,-10.55734],[-68.82889,-10.55369],[-68.84088,-10.55734],[-68.86382,-10.57298],[-68.86903,-10.56777],[-68.88259,-10.56568],[-68.90657,-10.58236],[-68.91438,-10.57507],[-68.91803,-10.57924],[-68.92846,-10.57402],[-68.93055,-10.57924],[-68.93836,-10.57559],[-68.94306,-10.5808],[-68.95452,-10.57871],[-68.95713,-10.58236],[-68.96443,-10.57767],[-68.9686,-10.58236],[-68.97694,-10.57298],[-68.99519,-10.57767],[-69.00196,-10.58601],[-69.02229,-10.58445],[-69.02542,-10.58914],[-69.03637,-10.58288],[-69.05514,-10.5834],[-69.06035,-10.58966],[-69.08172,-10.57558],[-69.09892,-10.58132],[-69.11508,-10.56933],[-69.14949,-10.57714],[-69.16669,-10.56568],[-69.1792,-10.56985],[-69.18807,-10.5615],[-69.1865,-10.55108],[-69.19849,-10.54743],[-69.2011,-10.55264],[-69.20892,-10.5516],[-69.22612,-10.53492],[-69.23863,-10.53752],[-69.2574,-10.55733],[-69.28086,-10.56671],[-69.31318,-10.54899],[-69.33351,-10.55472],[-69.3455,-10.54273],[-69.35436,-10.55003],[-69.37782,-10.54013],[-69.39085,-10.54117],[-69.39711,-10.55993],[-69.43725,-10.59643],[-69.45654,-10.60164],[-69.47374,-10.61571],[-69.47843,-10.61206],[-69.42004,-10.48799]]]},"properties":{"CD_MUN":"1200708","NM_MUN":"Xapuri","SIGLA_UF":"AC"}},{"type":"Feature","geometry":{"type":"Polygon","coordinates":[[[-72.17187,-7.73542],[-71.99984,-7.77817],[-71.50878,-7.88036],[-71.49992,-7.89026],[-71.23979,-7.9497],[-70.57514,-8.09516],[-70.57723,-8.11549],[-70.55481,-8.1572],[-70.57932,-8.19577],[-70.5741,-8.20568],[-70.56472,-8.20985],[-70.56576,-8.21767],[-70.77898,-8.37145],[-70.78524,-8.36676],[-70.79566,-8.37249],[-70.79775,-8.38292],[-70.80244,-8.38187],[-70.80557,-8.38761],[-70.80348,-8.40012],[-70.79723,-8.40377],[-70.80296,-8.40533],[-70.8087,-8.41837],[-70.80661,-8.42671],[-70.83997,-8.42879],[-70.83581,-8.44652],[-70.84727,-8.45173],[-70.84623,-8.46007],[-70.86239,-8.46476],[-70.85509,-8.4877],[-70.85927,-8.49969],[-70.86709,-8.49395],[-70.88585,-8.50334],[-70.88429,-8.51011],[-70.87438,-8.50751],[-70.87647,-8.51741],[-70.87073,-8.51168],[-70.86656,-8.51689],[-70.87595,-8.52002],[-70.88481,-8.51637],[-70.89472,-8.52523],[-70.89576,-8.54452],[-70.90566,-8.54921],[-70.89732,-8.56537],[-70.90619,-8.55859],[-70.92391,-8.5685],[-70.92339,-8.57945],[-70.91505,-8.57945],[-70.91244,-8.5857],[-70.91818,-8.58414],[-70.9187,-8.59092],[-70.92495,-8.58831],[-70.92339,-8.59665],[-70.93121,-8.60134],[-70.93434,-8.61072],[-70.93799,-8.6076],[-70.94581,-8.61646],[-70.94268,-8.62271],[-70.95102,-8.62011],[-70.95988,-8.62845],[-70.96353,-8.64826],[-70.9677,-8.63992],[-70.96874,-8.64565],[-70.97917,-8.64617],[-70.97813,-8.66442],[-70.99168,-8.67015],[-70.99742,-8.68371],[-71.00732,-8.68788],[-71.01358,-8.68162],[-71.00576,-8.70821],[-71.01045,-8.71342],[-71.01827,-8.71238],[-71.01306,-8.72124],[-71.02348,-8.71446],[-71.03183,-8.73114],[-71.03808,-8.72541],[-71.04225,-8.73323],[-71.05685,-8.73636],[-71.05737,-8.75252],[-71.06258,-8.74835],[-71.07718,-8.74939],[-71.08031,-8.75304],[-71.07405,-8.76346],[-71.07822,-8.77285],[-71.08083,-8.7619],[-71.08813,-8.75617],[-71.10012,-8.77076],[-71.10168,-8.7619],[-71.11576,-8.76816],[-71.12097,-8.76138],[-71.13087,-8.77441],[-71.12566,-8.77858],[-71.13609,-8.77337],[-71.14599,-8.77962],[-71.14704,-8.78849],[-71.1585,-8.7937],[-71.16841,-8.78327],[-71.17466,-8.78379],[-71.18457,-8.79735],[-71.18301,-8.80777],[-71.19395,-8.79995],[-71.20751,-8.80881],[-71.21689,-8.80829],[-71.22054,-8.8182],[-71.22419,-8.81507],[-71.22627,-8.83384],[-71.2367,-8.82758],[-71.2367,-8.84114],[-71.24191,-8.84687],[-71.25495,-8.83749],[-71.26016,-8.84478],[-71.26902,-8.84478],[-71.26485,-8.83227],[-71.27736,-8.84322],[-71.28257,-8.8354],[-71.28935,-8.83801],[-71.29248,-8.83384],[-71.29561,-8.84322],[-71.29978,-8.84218],[-71.31177,-8.85729],[-71.3149,-8.84739],[-71.32011,-8.8599],[-71.33418,-8.85834],[-71.33054,-8.86511],[-71.34461,-8.86094],[-71.34305,-8.86668],[-71.3493,-8.87085],[-71.36494,-8.87397],[-71.36338,-8.88075],[-71.37276,-8.88909],[-71.37537,-8.8844],[-71.38371,-8.88857],[-71.38006,-8.8771],[-71.39049,-8.88231],[-71.39726,-8.87032],[-71.41029,-8.8698],[-71.42437,-8.88231],[-71.42906,-8.86876],[-71.43375,-8.87189],[-71.44157,-8.86355],[-71.45513,-8.87084],[-71.4593,-8.86302],[-71.46816,-8.86459],[-71.48223,-8.88023],[-71.48484,-8.8917],[-71.49475,-8.88596],[-71.501,-8.89222],[-71.49996,-8.89899],[-71.50517,-8.89378],[-71.5083,-8.90056],[-71.52602,-8.90368],[-71.53645,-8.93392],[-71.54271,-8.92871],[-71.54271,-8.93288],[-71.54688,-8.93131],[-71.5474,-8.94122],[-71.56147,-8.94278],[-71.57294,-8.9579],[-71.56617,-8.96468],[-71.56669,-8.97562],[-71.58285,-8.98344],[-71.57607,-8.99283],[-71.58233,-8.99543],[-71.58233,-9.00794],[-71.59223,-9.00742],[-71.60058,-9.03766],[-71.59015,-9.05955],[-71.59589,-9.06894],[-71.6037,-9.06789],[-71.60996,-9.07571],[-71.60423,-9.07988],[-71.60944,-9.08301],[-71.60214,-9.08927],[-71.60788,-9.08823],[-71.6084,-9.09187],[-71.60423,-9.09187],[-71.60475,-9.10908],[-71.61413,-9.11221],[-71.60319,-9.12315],[-71.61101,-9.12315],[-71.61413,-9.13149],[-71.62612,-9.13775],[-71.62404,-9.14713],[-71.61726,-9.14713],[-71.62195,-9.1758],[-71.61257,-9.18519],[-71.62977,-9.19092],[-71.62613,-9.19301],[-71.63134,-9.20135],[-71.63238,-9.19353],[-71.63759,-9.19301],[-71.63812,-9.20083],[-71.64281,-9.19874],[-71.64489,-9.20291],[-71.63864,-9.20656],[-71.6475,-9.23471],[-71.65167,-9.23054],[-71.65845,-9.23315],[-71.65741,-9.24097],[-71.66992,-9.24305],[-71.67148,-9.25087],[-71.68504,-9.25452],[-71.69129,-9.26234],[-71.69755,-9.25973],[-71.70224,-9.26547],[-71.69546,-9.27589],[-71.69911,-9.29675],[-71.70328,-9.29518],[-71.70641,-9.30352],[-71.71475,-9.30561],[-71.71892,-9.33845],[-71.72622,-9.34575],[-71.73144,-9.37181],[-71.72414,-9.38015],[-71.72205,-9.41977],[-71.72831,-9.4229],[-71.733,-9.43646],[-71.73769,-9.43541],[-71.73822,-9.44375],[-71.74708,-9.44167],[-71.7575,-9.46096],[-71.7966,-9.49276],[-71.79556,-9.51934],[-71.80964,-9.5256],[-71.80599,-9.53498],[-71.8086,-9.55635],[-71.82319,-9.58033],[-71.82424,-9.58868],[-71.81746,-9.59337],[-71.8206,-9.99999],[-72.18082,-9.99894],[-72.18134,-9.98434],[-72.16258,-9.97391],[-72.15632,-9.96349],[-72.16101,-9.93951],[-72.173,-9.93586],[-72.17456,-9.92126],[-72.1412,-9.87747],[-72.15579,-9.86027],[-72.15527,-9.84202],[-72.1657,-9.82795],[-72.15162,-9.79875],[-72.1756,-9.78155],[-72.21522,-9.77373],[-72.22721,-9.76174],[-72.24389,-9.76539],[-72.25223,-9.7534],[-72.26891,-9.74923],[-72.271,-9.74193],[-72.26213,-9.72577],[-72.26422,-9.71274],[-72.25118,-9.6898],[-72.25223,-9.6752],[-72.24493,-9.65643],[-72.25952,-9.64027],[-72.25222,-9.61369],[-72.25848,-9.61056],[-72.27047,-9.61421],[-72.28819,-9.60013],[-72.28298,-9.53914],[-72.29653,-9.5334],[-72.31269,-9.54331],[-72.32051,-9.54122],[-72.33459,-9.52767],[-72.33615,-9.51985],[-72.34345,-9.51776],[-72.34136,-9.50525],[-72.35074,-9.50265],[-72.35335,-9.49535],[-72.28871,-9.47345],[-72.28402,-9.44322],[-72.27255,-9.4281],[-72.2079,-9.40256],[-72.17402,-9.39526],[-72.15525,-9.36138],[-72.13753,-9.35616],[-72.1271,-9.3473],[-72.11302,-9.30508],[-72.08435,-9.25816],[-72.07392,-9.21958],[-72.07288,-9.17684],[-72.0588,-9.13096],[-72.02544,-9.08978],[-72.02908,-9.06736],[-72.05723,-9.02409],[-72.06453,-8.99959],[-72.06609,-8.96727],[-72.0786,-8.93703],[-72.09685,-8.92765],[-72.17296,-8.9313],[-72.18443,-8.92348],[-72.18651,-8.91044],[-72.18234,-8.90367],[-72.08277,-8.83069],[-72.07495,-8.82078],[-72.07182,-8.80775],[-72.08954,-8.79003],[-72.15158,-8.77282],[-72.15679,-8.76031],[-72.15887,-8.71965],[-72.16461,-8.70296],[-72.21778,-8.70348],[-72.22508,-8.6842],[-72.25479,-8.6769],[-72.24645,-8.64875],[-72.25687,-8.62737],[-72.24957,-8.59505],[-72.28345,-8.46577],[-72.28919,-8.41781],[-72.28762,-8.40112],[-72.23861,-8.23118],[-72.24018,-8.21398],[-72.26467,-8.17071],[-72.25373,-8.10815],[-72.27875,-8.05967],[-72.2777,-8.05237],[-72.24851,-8.00128],[-72.24486,-7.98095],[-72.22713,-7.94394],[-72.21618,-7.92986],[-72.19898,-7.92986],[-72.18803,-7.91058],[-72.19012,-7.88138],[-72.17396,-7.86887],[-72.17343,-7.84489],[-72.17969,-7.8183],[-72.17812,-7.75992],[-72.17187,-7.73542]]]},"properties":{"CD_MUN":"1200609","NM_MUN":"Tarauacá","SIGLA_UF":"AC"}},{"type":"Feature","geometry":{"type":"Polygon","coordinates":[[[-68.99668,-8.87195],[-68.73395,-8.99968],[-68.18295,-9.23376],[-68.21475,-9.23689],[-68.22726,-9.24783],[-68.24133,-9.25148],[-68.25124,-9.26399],[-68.26948,-9.26451],[-68.27574,-9.27598],[-68.28773,-9.2838],[-68.31588,-9.29162],[-68.3409,-9.28849],[-68.3654,-9.29735],[-68.40137,-9.32394],[-68.40502,-9.35574],[-68.43682,-9.35261],[-68.48739,-9.35991],[-68.55151,-9.41777],[-68.55568,-9.43028],[-68.54891,-9.4454],[-68.58123,-9.46104],[-68.59583,-9.49388],[-68.60729,-9.50274],[-68.60938,-9.51369],[-68.60365,-9.52203],[-68.61147,-9.53715],[-68.60573,-9.54497],[-68.61043,-9.55957],[-68.60573,-9.57312],[-68.64327,-9.57625],[-68.65109,-9.58146],[-68.68289,-9.63672],[-68.67507,-9.65913],[-68.68185,-9.66956],[-68.68393,-9.69875],[-68.67507,-9.73837],[-68.68706,-9.75557],[-68.66778,-9.79102],[-68.65892,-9.79415],[-68.64849,-9.8223],[-68.64641,-9.86661],[-68.6584,-9.87287],[-68.66309,-9.89007],[-68.68446,-9.89685],[-68.70271,-9.89216],[-68.7147,-9.9005],[-68.71783,-9.90988],[-68.7392,-9.9078],[-68.7465,-9.93178],[-68.76892,-9.9667],[-68.78612,-9.96774],[-68.8273,-9.9839],[-68.84607,-9.98025],[-68.8565,-9.98755],[-68.86432,-9.98651],[-68.87214,-10.00371],[-68.87735,-10.00215],[-68.90341,-10.02873],[-68.90342,-10.05428],[-68.91071,-10.06835],[-68.91958,-10.07513],[-68.91801,-10.08139],[-68.94408,-10.10015],[-68.94877,-10.09755],[-68.95868,-10.10954],[-68.99204,-10.11579],[-68.99673,-10.13247],[-69.01133,-10.14029],[-69.01654,-10.16375],[-69.02853,-10.17939],[-69.03948,-10.17939],[-69.05199,-10.1919],[-69.04782,-10.20702],[-69.05773,-10.22161],[-69.06867,-10.22422],[-69.07858,-10.2336],[-69.07962,-10.25341],[-69.10725,-10.2628],[-69.11194,-10.27427],[-69.12289,-10.27218],[-69.14062,-10.28886],[-69.14687,-10.2873],[-69.15156,-10.27843],[-69.16512,-10.28104],[-69.16981,-10.29772],[-69.18597,-10.29772],[-69.18701,-10.31075],[-69.19171,-10.31597],[-69.19796,-10.31545],[-69.20161,-10.32639],[-69.21099,-10.32691],[-69.21621,-10.33734],[-69.22924,-10.33786],[-69.24436,-10.35663],[-69.25374,-10.35923],[-69.26521,-10.3853],[-69.28398,-10.38738],[-69.2991,-10.40928],[-69.30692,-10.40719],[-69.309,-10.41293],[-69.31943,-10.40876],[-69.3262,-10.41553],[-69.32621,-10.42857],[-69.33246,-10.43378],[-69.3382,-10.45307],[-69.33246,-10.46245],[-69.34237,-10.47392],[-69.3627,-10.47861],[-69.37104,-10.47444],[-69.39554,-10.48591],[-69.42004,-10.48799],[-69.42838,-10.49425],[-69.45705,-10.48851],[-69.47113,-10.49112],[-69.48781,-10.50937],[-69.48885,-10.52136],[-69.4998,-10.5323],[-69.50919,-10.55524],[-69.53577,-10.56567],[-69.53369,-10.59434],[-69.53942,-10.60476],[-69.53838,-10.62197],[-69.56653,-10.63865],[-69.5853,-10.63708],[-69.61814,-10.66002],[-69.627,-10.6741],[-69.64056,-10.684],[-69.66141,-10.72466],[-69.6953,-10.73613],[-69.71876,-10.73352],[-70.22129,-10.85602],[-70.20461,-10.82057],[-70.20044,-10.7872],[-70.20513,-10.77521],[-70.18063,-10.74133],[-70.18792,-10.70744],[-70.18167,-10.70223],[-70.18532,-10.69545],[-70.17854,-10.69389],[-70.18323,-10.68868],[-70.19157,-10.69233],[-70.20096,-10.6892],[-70.20721,-10.70379],[-70.20773,-10.69441],[-70.21399,-10.6965],[-70.21764,-10.68607],[-70.21242,-10.68086],[-70.22024,-10.68138],[-70.22285,-10.67669],[-70.22233,-10.68555],[-70.2338,-10.68398],[-70.22806,-10.6918],[-70.251,-10.69806],[-70.25674,-10.71318],[-70.25986,-10.70588],[-70.2656,-10.71266],[-70.27342,-10.69493],[-70.2755,-10.70692],[-70.27863,-10.7064],[-70.28176,-10.69128],[-70.29114,-10.6991],[-70.3,-10.69493],[-70.30417,-10.70066],[-70.31043,-10.70014],[-70.31616,-10.71422],[-70.33076,-10.71578],[-70.33441,-10.7064],[-70.34275,-10.70483],[-70.34223,-10.7163],[-70.34953,-10.7163],[-70.35005,-10.71109],[-70.36517,-10.7137],[-70.36882,-10.73038],[-70.38133,-10.73038],[-70.38445,-10.71891],[-70.39488,-10.72725],[-70.40426,-10.72151],[-70.40583,-10.71474],[-70.4199,-10.71474],[-70.41938,-10.70744],[-70.42512,-10.71682],[-70.42199,-10.7236],[-70.43658,-10.71422],[-70.44545,-10.72203],[-70.44545,-10.71004],[-70.45639,-10.71369],[-70.45952,-10.71109],[-70.45587,-10.70118],[-70.459,-10.70066],[-70.46526,-10.70275],[-70.46526,-10.71682],[-70.47308,-10.71317],[-70.48559,-10.72308],[-70.50123,-10.71369],[-70.50175,-10.72308],[-70.51269,-10.72516],[-70.51217,-10.71995],[-70.52625,-10.71838],[-70.53459,-10.71004],[-70.53302,-10.70379],[-70.52364,-10.69962],[-70.55596,-10.6871],[-70.55961,-10.69284],[-70.57212,-10.68919],[-70.57056,-10.69492],[-70.57786,-10.70326],[-70.60184,-10.69597],[-70.60496,-10.70378],[-70.6133,-10.70378],[-70.618,-10.71265],[-70.62112,-10.70743],[-70.62111,-10.36285],[-70.24786,-10.40144],[-70.2562,-10.39622],[-70.2562,-10.37016],[-70.23639,-10.33158],[-70.21502,-10.3076],[-70.22648,-10.29561],[-70.22648,-10.28988],[-70.19833,-10.26016],[-70.17383,-10.24713],[-70.16809,-10.2268],[-70.15923,-10.22106],[-70.15141,-10.20543],[-70.13212,-10.19656],[-70.13317,-10.1778],[-70.11127,-10.15799],[-70.11075,-10.14496],[-70.0925,-10.13818],[-70.08051,-10.14496],[-70.05966,-10.14235],[-70.03516,-10.13453],[-70.02161,-10.1215],[-70.02004,-10.09231],[-70.02994,-10.08449],[-70.02317,-10.0678],[-70.03464,-10.05842],[-70.03255,-10.02818],[-70.04923,-9.99221],[-70.03776,-9.9698],[-70.03724,-9.95155],[-70.0487,-9.92601],[-70.04349,-9.91975],[-70.04662,-9.90828],[-70.03828,-9.88952],[-70.03098,-9.88482],[-70.0388,-9.8744],[-70.03202,-9.86189],[-70.02837,-9.8207],[-69.98979,-9.80976],[-69.98302,-9.80246],[-69.98041,-9.78421],[-69.97311,-9.77587],[-69.97989,-9.75658],[-69.97676,-9.73208],[-69.98041,-9.71175],[-69.97519,-9.70706],[-69.96894,-9.70862],[-69.95642,-9.6836],[-69.94287,-9.67057],[-69.92984,-9.63564],[-69.93505,-9.61427],[-69.92566,-9.60384],[-69.92775,-9.59498],[-69.9241,-9.59029],[-69.9314,-9.57361],[-69.90481,-9.57256],[-69.89543,-9.56162],[-69.89438,-9.54911],[-69.87614,-9.54233],[-69.86258,-9.50115],[-69.87249,-9.48186],[-69.86727,-9.4412],[-69.85945,-9.42712],[-69.84903,-9.41826],[-69.83652,-9.42243],[-69.82348,-9.44537],[-69.81514,-9.43963],[-69.81045,-9.42764],[-69.81566,-9.38073],[-69.80628,-9.36561],[-69.77187,-9.35205],[-69.76562,-9.36613],[-69.7531,-9.36144],[-69.74789,-9.34945],[-69.7432,-9.30357],[-69.73851,-9.2968],[-69.71192,-9.28012],[-69.70931,-9.26813],[-69.69263,-9.25509],[-69.68116,-9.2478],[-69.67178,-9.25144],[-69.65509,-9.22121],[-69.64884,-9.22329],[-69.62173,-9.19775],[-69.60766,-9.2014],[-69.57064,-9.19358],[-69.56751,-9.18055],[-69.55917,-9.17899],[-69.54875,-9.19254],[-69.50496,-9.18524],[-69.48619,-9.19671],[-69.46534,-9.16752],[-69.43406,-9.14093],[-69.40695,-9.13468],[-69.35534,-9.0888],[-69.3298,-9.05857],[-69.26046,-9.06274],[-69.23701,-9.03824],[-69.21407,-9.02469],[-69.17393,-8.97986],[-69.1562,-8.98351],[-69.15047,-8.97412],[-69.11919,-8.95953],[-69.10407,-8.93867],[-69.09364,-8.93867],[-69.07957,-8.9564],[-69.07279,-8.95588],[-69.06237,-8.9418],[-69.029,-8.92095],[-68.99668,-8.87195]]]},"properties":{"CD_MUN":"1200500","NM_MUN":"Sena Madureira","SIGLA_UF":"AC"}},{"type":"Feature","geometry":{"type":"Polygon","coordinates":[[[-69.42004,-10.48799],[-69.47843,-10.61206],[-69.47374,-10.61571],[-69.45654,-10.60164],[-69.43725,-10.59643],[-69.39711,-10.55993],[-69.39085,-10.54117],[-69.37782,-10.54013],[-69.35436,-10.55003],[-69.3455,-10.54273],[-69.33351,-10.55472],[-69.31318,-10.54899],[-69.28086,-10.56671],[-69.2574,-10.55733],[-69.23863,-10.53752],[-69.22612,-10.53492],[-69.20892,-10.5516],[-69.2011,-10.55264],[-69.19849,-10.54743],[-69.1865,-10.55108],[-69.18807,-10.5615],[-69.1792,-10.56985],[-69.16669,-10.56568],[-69.14949,-10.57714],[-69.11508,-10.56933],[-69.09892,-10.58132],[-69.08172,-10.57558],[-69.06035,-10.58966],[-69.05514,-10.5834],[-69.03637,-10.58288],[-69.02542,-10.58914],[-69.02229,-10.58445],[-69.00196,-10.58601],[-68.99519,-10.57767],[-68.97694,-10.57298],[-68.9686,-10.58236],[-68.96443,-10.57767],[-68.95713,-10.58236],[-68.95452,-10.57871],[-68.94306,-10.5808],[-68.93836,-10.57559],[-68.93055,-10.57924],[-68.92846,-10.57402],[-68.91803,-10.57924],[-68.91438,-10.57507],[-68.90657,-10.58236],[-68.88259,-10.56568],[-68.86903,-10.56777],[-68.86382,-10.57298],[-68.84088,-10.55734],[-68.82889,-10.55369],[-68.81846,-10.55734],[-68.81065,-10.54848],[-68.807,-10.55369],[-68.8023,-10.55317],[-68.80439,-10.55682],[-68.79918,-10.56099],[-68.79449,-10.55734],[-68.78041,-10.56151],[-68.77885,-10.56569],[-68.77207,-10.55995],[-68.77103,-10.55213],[-68.76373,-10.55839],[-68.75956,-10.55161],[-68.74757,-10.5563],[-68.74809,-10.56464],[-68.7434,-10.5636],[-68.73819,-10.57038],[-68.72724,-10.55839],[-68.71368,-10.55943],[-68.70639,-10.55526],[-68.68293,-10.57351],[-68.67354,-10.55839],[-68.67146,-10.56777],[-68.66416,-10.55787],[-68.65791,-10.56725],[-68.6626,-10.56882],[-68.65426,-10.57455],[-68.64852,-10.57507],[-68.64435,-10.56986],[-68.64435,-10.57559],[-68.63914,-10.57455],[-68.63601,-10.57924],[-68.6308,-10.57455],[-68.6308,-10.5855],[-68.62506,-10.58758],[-68.62767,-10.59332],[-68.62298,-10.59228],[-68.61464,-10.60062],[-68.62454,-10.6246],[-68.63549,-10.62564],[-68.63549,-10.61834],[-68.64748,-10.61365],[-68.65426,-10.62095],[-68.6725,-10.62251],[-68.67198,-10.61886],[-68.68293,-10.63085],[-68.70952,-10.63554],[-68.71056,-10.64545],[-68.72151,-10.64857],[-68.73037,-10.6444],[-68.73767,-10.65587],[-68.74914,-10.65744],[-68.75591,-10.67255],[-68.78354,-10.66265],[-68.7924,-10.6689],[-68.80648,-10.67099],[-68.80492,-10.6762],[-68.80283,-10.68089],[-68.81274,-10.69028],[-68.8044,-10.708],[-68.80596,-10.71582],[-68.82368,-10.72364],[-68.85705,-10.76222],[-68.84402,-10.79558],[-68.86331,-10.82477],[-68.87113,-10.84823],[-68.70223,-10.84876],[-68.68137,-10.83155],[-68.65166,-10.83364],[-68.64071,-10.82374],[-68.63341,-10.80758],[-68.6209,-10.80914],[-68.59327,-10.79454],[-68.58493,-10.78568],[-68.58493,-10.77473],[-68.57086,-10.77786],[-68.56043,-10.77265],[-68.55157,-10.78203],[-68.54896,-10.78725],[-68.56095,-10.79246],[-68.55574,-10.78308],[-68.5646,-10.78255],[-68.57868,-10.80184],[-68.56356,-10.81748],[-68.5693,-10.8253],[-68.57555,-10.82217],[-68.57086,-10.83729],[-68.57555,-10.84824],[-68.58337,-10.84668],[-68.58754,-10.85032],[-68.58337,-10.87013],[-68.59536,-10.8717],[-68.60422,-10.89359],[-68.62143,-10.8889],[-68.62925,-10.90089],[-68.64228,-10.89672],[-68.64072,-10.90506],[-68.65323,-10.91705],[-68.64176,-10.928],[-68.64332,-10.93582],[-68.6355,-10.94155],[-68.63551,-10.94729],[-68.62716,-10.9452],[-68.62195,-10.94937],[-68.61674,-10.97075],[-68.62039,-10.97439],[-68.60214,-10.97335],[-68.60266,-10.97804],[-68.59537,-10.98326],[-68.60058,-10.99942],[-68.5938,-11.0234],[-68.5693,-11.0333],[-68.52447,-11.02601],[-68.54168,-11.0969],[-68.54376,-11.10994],[-68.71579,-11.14382],[-68.7111,-11.12766],[-68.72257,-11.11254],[-68.721,-11.10211],[-68.73404,-11.09221],[-68.74238,-11.09533],[-68.74863,-11.08752],[-68.75802,-11.08543],[-68.75593,-11.07657],[-68.76583,-11.0677],[-68.75958,-11.05728],[-68.7674,-11.05259],[-68.75906,-11.0406],[-68.75124,-11.03799],[-68.74863,-11.02079],[-68.74759,-11.01036],[-68.75436,-11.01088],[-68.75958,-11.01818],[-68.76375,-11.0161],[-68.75697,-11.00932],[-68.75749,-11.00046],[-68.77,-11.00723],[-68.77939,-11.00463],[-68.77991,-10.99889],[-68.78668,-11.00567],[-68.78773,-11.01505],[-68.78929,-11.00046],[-68.79815,-10.99785],[-68.79242,-10.99003],[-68.81171,-10.99472],[-68.80389,-11.0015],[-68.82318,-11.00306],[-68.82839,-11.00775],[-68.83099,-11.00098],[-68.82578,-10.99733],[-68.83412,-10.9942],[-68.8409,-11.00254],[-68.84455,-10.99837],[-68.8409,-10.99576],[-68.84663,-10.99263],[-68.86019,-11.00619],[-68.86019,-11.01766],[-68.88208,-11.00932],[-68.88417,-11.01766],[-68.89511,-11.00619],[-68.9118,-11.0213],[-68.92118,-11.01401],[-68.92483,-11.01766],[-68.93421,-11.00462],[-68.94724,-11.01192],[-68.94724,-11.00462],[-68.95559,-11.00306],[-68.95298,-10.98898],[-68.96028,-10.99263],[-68.97331,-10.98898],[-68.98738,-10.99784],[-68.98426,-11.00723],[-68.98999,-11.01088],[-68.99468,-11.01036],[-68.99468,-11.00306],[-69.00042,-11.00671],[-69.01293,-11.00462],[-69.01188,-10.99107],[-69.0244,-10.99107],[-69.02544,-10.98273],[-69.03326,-10.98481],[-69.03847,-10.97647],[-69.04681,-10.98064],[-69.0489,-10.97386],[-69.06245,-10.98325],[-69.07235,-10.96552],[-69.07809,-10.97438],[-69.08643,-10.96969],[-69.10155,-10.9796],[-69.10989,-10.97073],[-69.12084,-10.97959],[-69.1224,-10.96604],[-69.13647,-10.97282],[-69.13752,-10.96396],[-69.14951,-10.97021],[-69.14429,-10.96291],[-69.1542,-10.96395],[-69.15263,-10.95457],[-69.16254,-10.965],[-69.18078,-10.95561],[-69.18548,-10.94779],[-69.19851,-10.94779],[-69.21467,-10.95665],[-69.23187,-10.93945],[-69.24178,-10.9504],[-69.25689,-10.94571],[-69.25064,-10.93893],[-69.27045,-10.94154],[-69.2741,-10.95405],[-69.28192,-10.9431],[-69.28817,-10.94935],[-69.30433,-10.94727],[-69.31945,-10.94362],[-69.32362,-10.9358],[-69.32727,-10.94831],[-69.33352,-10.94727],[-69.33613,-10.94049],[-69.34239,-10.95144],[-69.34499,-10.93841],[-69.3549,-10.93632],[-69.35646,-10.94414],[-69.3721,-10.93893],[-69.37419,-10.953],[-69.37836,-10.94049],[-69.38513,-10.94153],[-69.38774,-10.93319],[-69.39452,-10.93423],[-69.39452,-10.9431],[-69.40234,-10.9285],[-69.41276,-10.93788],[-69.41537,-10.92641],[-69.42267,-10.92641],[-69.41954,-10.91442],[-69.43518,-10.90243],[-69.44925,-10.90452],[-69.45499,-10.89774],[-69.48574,-10.90035],[-69.50659,-10.89044],[-69.52171,-10.89774],[-69.53683,-10.88992],[-69.54204,-10.87689],[-69.56811,-10.85603],[-69.59209,-10.86229],[-69.63744,-10.84456],[-69.65464,-10.86124],[-69.66455,-10.85864],[-69.66246,-10.84456],[-69.66819,-10.83674],[-69.67758,-10.83466],[-69.69478,-10.81433],[-69.71407,-10.80494],[-69.72032,-10.79608],[-69.71876,-10.73352],[-69.6953,-10.73613],[-69.66141,-10.72466],[-69.64056,-10.684],[-69.627,-10.6741],[-69.61814,-10.66002],[-69.5853,-10.63708],[-69.56653,-10.63865],[-69.53838,-10.62197],[-69.53942,-10.60476],[-69.53369,-10.59434],[-69.53577,-10.56567],[-69.50919,-10.55524],[-69.4998,-10.5323],[-69.48885,-10.52136],[-69.48781,-10.50937],[-69.47113,-10.49112],[-69.45705,-10.48851],[-69.42838,-10.49425],[-69.42004,-10.48799]]]},"properties":{"CD_MUN":"1200104","NM_MUN":"Brasiléia","SIGLA_UF":"AC"}},{"type":"Feature","geometry":{"type":"Polygon","coordinates":[[[-70.62112,-10.70743],[-70.618,-10.71265],[-70.6133,-10.70378],[-70.60496,-10.70378],[-70.60184,-10.69597],[-70.57786,-10.70326],[-70.57056,-10.69492],[-70.57212,-10.68919],[-70.55961,-10.69284],[-70.55596,-10.6871],[-70.52364,-10.69962],[-70.53302,-10.70379],[-70.53459,-10.71004],[-70.52625,-10.71838],[-70.51217,-10.71995],[-70.51269,-10.72516],[-70.50175,-10.72308],[-70.50123,-10.71369],[-70.48559,-10.72308],[-70.47308,-10.71317],[-70.46526,-10.71682],[-70.46526,-10.70275],[-70.459,-10.70066],[-70.45587,-10.70118],[-70.45952,-10.71109],[-70.45639,-10.71369],[-70.44545,-10.71004],[-70.44545,-10.72203],[-70.43658,-10.71422],[-70.42199,-10.7236],[-70.42512,-10.71682],[-70.41938,-10.70744],[-70.4199,-10.71474],[-70.40583,-10.71474],[-70.40426,-10.72151],[-70.39488,-10.72725],[-70.38445,-10.71891],[-70.38133,-10.73038],[-70.36882,-10.73038],[-70.36517,-10.7137],[-70.35005,-10.71109],[-70.34953,-10.7163],[-70.34223,-10.7163],[-70.34275,-10.70483],[-70.33441,-10.7064],[-70.33076,-10.71578],[-70.31616,-10.71422],[-70.31043,-10.70014],[-70.30417,-10.70066],[-70.3,-10.69493],[-70.29114,-10.6991],[-70.28176,-10.69128],[-70.27863,-10.7064],[-70.2755,-10.70692],[-70.27342,-10.69493],[-70.2656,-10.71266],[-70.25986,-10.70588],[-70.25674,-10.71318],[-70.251,-10.69806],[-70.22806,-10.6918],[-70.2338,-10.68398],[-70.22233,-10.68555],[-70.22285,-10.67669],[-70.22024,-10.68138],[-70.21242,-10.68086],[-70.21764,-10.68607],[-70.21399,-10.6965],[-70.20773,-10.69441],[-70.20721,-10.70379],[-70.20096,-10.6892],[-70.19157,-10.69233],[-70.18323,-10.68868],[-70.17854,-10.69389],[-70.18532,-10.69545],[-70.18167,-10.70223],[-70.18792,-10.70744],[-70.18063,-10.74133],[-70.20513,-10.77521],[-70.20044,-10.7872],[-70.20461,-10.82057],[-70.22129,-10.85602],[-69.71876,-10.73352],[-69.72032,-10.79608],[-69.71407,-10.80494],[-69.69478,-10.81433],[-69.67758,-10.83466],[-69.66819,-10.83674],[-69.66246,-10.84456],[-69.66455,-10.85864],[-69.65464,-10.86124],[-69.63744,-10.84456],[-69.59209,-10.86229],[-69.56811,-10.85603],[-69.54204,-10.87689],[-69.53683,-10.88992],[-69.52171,-10.89774],[-69.50659,-10.89044],[-69.48574,-10.90035],[-69.45499,-10.89774],[-69.44925,-10.90452],[-69.43518,-10.90243],[-69.41954,-10.91442],[-69.42267,-10.92641],[-69.4284,-10.93684],[-69.44977,-10.9358],[-69.45394,-10.94935],[-69.4602,-10.94362],[-69.46333,-10.94987],[-69.47428,-10.94414],[-69.48001,-10.95404],[-69.49565,-10.94883],[-69.50034,-10.93632],[-69.50764,-10.94101],[-69.52588,-10.93423],[-69.54257,-10.93788],[-69.541,-10.94987],[-69.54622,-10.95143],[-69.55508,-10.94466],[-69.5801,-10.93944],[-69.58844,-10.93996],[-69.58635,-10.94726],[-69.60095,-10.94101],[-69.61138,-10.94622],[-69.61138,-10.95508],[-69.61972,-10.94987],[-69.63484,-10.95664],[-69.65882,-10.95143],[-69.66924,-10.96133],[-69.69114,-10.9629],[-69.69896,-10.97124],[-69.70208,-10.96498],[-69.71407,-10.97437],[-69.72294,-10.96446],[-69.73649,-10.97384],[-69.74066,-10.9728],[-69.7391,-10.96394],[-69.74587,-10.96133],[-69.75995,-10.93944],[-69.76412,-10.93839],[-69.76047,-10.94413],[-69.77298,-10.93839],[-69.76985,-10.92901],[-69.78132,-10.9337],[-69.81156,-10.92484],[-69.81364,-10.92953],[-69.83084,-10.93318],[-69.83241,-10.92745],[-69.8517,-10.9238],[-69.85795,-10.93318],[-69.86264,-10.92588],[-69.87463,-10.92849],[-69.8788,-10.92327],[-69.89965,-10.91962],[-69.91425,-10.92275],[-69.91894,-10.93161],[-69.92363,-10.93109],[-69.92468,-10.92379],[-69.93562,-10.92171],[-69.95439,-10.92744],[-69.95439,-10.93474],[-69.96221,-10.93422],[-69.95856,-10.93943],[-69.97055,-10.94569],[-69.97524,-10.94725],[-69.98202,-10.94204],[-69.98515,-10.95351],[-69.99401,-10.95038],[-69.99818,-10.96289],[-70.00809,-10.96133],[-70.02581,-10.97071],[-70.0279,-10.97696],[-70.03624,-10.96967],[-70.03728,-10.97749],[-70.04718,-10.97801],[-70.04354,-10.98218],[-70.04979,-10.97905],[-70.05188,-10.98478],[-70.06543,-10.98583],[-70.06699,-10.99208],[-70.07951,-10.99052],[-70.08211,-10.98374],[-70.08628,-10.98843],[-70.09514,-10.98791],[-70.09775,-10.99729],[-70.10505,-10.99677],[-70.09827,-10.99156],[-70.10818,-10.99417],[-70.10714,-11.00668],[-70.11131,-11.00199],[-70.11652,-11.00511],[-70.11391,-11.00824],[-70.12277,-11.0098],[-70.13216,-11.02075],[-70.13894,-11.02075],[-70.14206,-11.02909],[-70.15562,-11.03326],[-70.15875,-11.04056],[-70.17647,-11.03848],[-70.19993,-11.05307],[-70.2286,-11.04838],[-70.23016,-11.05203],[-70.24111,-11.04525],[-70.26405,-11.05046],[-70.27135,-11.05933],[-70.28594,-11.05724],[-70.3068,-11.06923],[-70.34381,-11.0661],[-70.35319,-11.05828],[-70.37404,-11.05984],[-70.38551,-11.04681],[-70.40584,-11.04681],[-70.41001,-11.04108],[-70.4366,-11.03847],[-70.44077,-11.01449],[-70.45328,-10.99572],[-70.46892,-10.9879],[-70.48612,-10.96392],[-70.49446,-10.96288],[-70.53043,-10.9342],[-70.62114,-10.99937],[-70.62112,-10.70743]]]},"properties":{"CD_MUN":"1200054","NM_MUN":"Assis Brasil","SIGLA_UF":"AC"}}]}