{"type":"FeatureCollection","features":[{"type":"Feature","geometry":{"type":"Polygon","coordinates":[[[-51.38103,1.32334],[-51.37738,1.36817],[-51.38207,1.37599],[-51.3706,1.37912],[-51.36904,1.38485],[-51.37425,1.39371],[-51.37112,1.4057],[-51.35549,1.41196],[-51.35549,1.42603],[-51.36435,1.4276],[-51.36226,1.43907],[-51.36747,1.45627],[-51.37946,1.45314],[-51.3852,1.45835],[-51.38468,1.46357],[-51.39458,1.47399],[-51.39093,1.48651],[-51.41022,1.50423],[-51.40605,1.50736],[-51.41282,1.52039],[-51.4342,1.52404],[-51.43576,1.57409],[-51.44931,1.59025],[-51.42481,1.6111],[-51.42429,1.64029],[-51.40604,1.6455],[-51.36799,1.67105],[-51.30804,1.69607],[-51.31221,1.71223],[-51.3268,1.72109],[-51.33775,1.73673],[-51.31533,1.78052],[-51.27936,1.77948],[-51.25903,1.76801],[-51.25069,1.75758],[-51.23557,1.75758],[-51.21316,1.74142],[-51.20638,1.72995],[-51.19648,1.73047],[-51.19439,1.7263],[-51.18814,1.73047],[-51.14122,1.72682],[-51.12871,1.73464],[-51.09691,1.72578],[-51.0844,1.73777],[-51.06146,1.72995],[-51.04843,1.73464],[-51.03904,1.73255],[-51.03331,1.74454],[-50.98639,1.7044],[-50.95564,1.70492],[-50.9499,1.68824],[-50.9546,1.67781],[-50.95095,1.66791],[-50.95773,1.63507],[-50.94886,1.62464],[-50.93531,1.62151],[-50.93166,1.61421],[-50.92488,1.61265],[-50.9129,1.58711],[-50.88996,1.58241],[-50.85972,1.59336],[-50.55946,1.47345],[-50.43123,1.23573],[-50.41976,1.22687],[-50.41507,1.19872],[-50.42289,1.18986],[-50.41455,1.17891],[-50.45313,1.14033],[-50.45052,1.09446],[-50.45834,1.07673],[-50.47503,1.05692],[-50.50683,1.03399],[-50.5209,1.0319],[-50.52507,1.03659],[-50.52716,1.06162],[-50.5454,1.08299],[-50.57355,1.06475],[-50.5845,1.08195],[-50.59492,1.0856],[-50.62151,1.07778],[-50.63037,1.06944],[-50.62985,1.05015],[-50.61786,1.02773],[-50.6262,1.01731],[-50.65175,1.01783],[-50.6653,1.0392],[-50.6825,1.05015],[-50.71535,1.03243],[-50.73933,1.03556],[-50.78572,1.02513],[-50.79511,1.0194],[-50.80501,1.00063],[-50.80188,0.97248],[-50.82065,0.95841],[-50.84984,0.95371],[-50.86757,0.96206],[-50.87539,0.98604],[-50.88477,0.99386],[-50.92543,0.98864],[-50.93794,0.99177],[-50.95619,0.97978],[-50.97548,0.97822],[-50.98278,0.9704],[-50.98069,0.95424],[-50.9932,0.93443],[-50.99581,0.94329],[-51.00571,0.94642],[-51.00936,0.95424],[-51.00571,0.9605],[-51.01249,0.96102],[-51.00988,0.96675],[-51.02031,0.97822],[-51.01249,0.98813],[-51.03073,0.99178],[-51.02813,1.00637],[-51.04429,1.01002],[-51.04846,1.0194],[-51.08286,1.02514],[-51.1204,1.01054],[-51.14542,1.0314],[-51.17305,1.03713],[-51.18504,1.02879],[-51.20276,0.99543],[-51.2158,0.98761],[-51.22674,0.97145],[-51.22831,0.95998],[-51.23508,0.95372],[-51.24447,0.96415],[-51.24759,0.97771],[-51.25594,0.97354],[-51.27887,0.97771],[-51.28878,0.97406],[-51.30702,0.98344],[-51.34247,0.98031],[-51.34925,0.96415],[-51.35863,0.9579],[-51.36385,0.94799],[-51.37167,0.94799],[-51.41649,1.00065],[-51.40346,1.05174],[-51.40607,1.05695],[-51.45872,1.06946],[-51.478,1.08927],[-51.46549,1.10752],[-51.45037,1.11169],[-51.44464,1.12733],[-51.44829,1.13254],[-51.44047,1.14505],[-51.43838,1.18832],[-51.42796,1.19457],[-51.43421,1.24097],[-51.44151,1.24775],[-51.42274,1.25869],[-51.41909,1.26704],[-51.3972,1.27016],[-51.39146,1.27538],[-51.39511,1.28528],[-51.38103,1.32334]]]},"properties":{"CD_MUN":"1600709","NM_MUN":"Tartarugalzinho","SIGLA_UF":"AP"}},{"type":"Feature","geometry":{"type":"Polygon","coordinates":[[[-51.5724,0.21713],[-51.54998,0.23485],[-51.54633,0.24892],[-51.54998,0.26144],[-51.53642,0.2729],[-51.53799,0.2802],[-51.53069,0.29793],[-51.53225,0.31357],[-51.54111,0.32139],[-51.53225,0.33442],[-51.53798,0.35684],[-51.53277,0.36622],[-51.53329,0.38916],[-51.52756,0.40062],[-51.53642,0.40584],[-51.53798,0.41939],[-51.51765,0.4319],[-51.51244,0.45484],[-51.51556,0.46631],[-51.49992,0.47413],[-51.49106,0.46839],[-51.48533,0.45015],[-51.49054,0.43555],[-51.46396,0.42877],[-51.4577,0.39489],[-51.44624,0.37299],[-51.4306,0.36517],[-51.41235,0.3683],[-51.39254,0.34693],[-51.38264,0.31408],[-51.36387,0.30209],[-51.34459,0.26664],[-51.33937,0.24266],[-51.30966,0.21608],[-51.29037,0.20721],[-51.29298,0.19992],[-51.27317,0.18063],[-51.27265,0.16811],[-51.26222,0.16759],[-51.25232,0.17593],[-51.22782,0.17645],[-51.18872,0.1556],[-51.18716,0.11963],[-51.19029,0.10764],[-51.19811,0.10816],[-51.19081,0.10034],[-51.19811,0.08992],[-51.20541,0.09096],[-51.20384,0.08105],[-51.21688,0.07636],[-51.21427,0.06333],[-51.22678,0.05708],[-51.23564,0.02892],[-51.21531,0.02892],[-51.22001,0.01016],[-51.19707,0.00911],[-51.19133,0.00494],[-51.19134,-0.00131],[-51.14755,-0.00027],[-51.11419,-0.06544],[-51.09594,-0.08785],[-51.1121,-0.09567],[-51.17362,-0.10401],[-51.21532,-0.11808],[-51.21949,-0.09515],[-51.22835,-0.08889],[-51.25077,-0.08628],[-51.27214,-0.09827],[-51.28465,-0.08785],[-51.31437,-0.07951],[-51.3274,-0.08263],[-51.36545,-0.07325],[-51.39882,-0.07168],[-51.4082,-0.05448],[-51.42019,-0.05031],[-51.43791,-0.03467],[-51.45563,0.01277],[-51.48691,0.0258],[-51.489,0.03779],[-51.53018,0.05031],[-51.53383,0.08158],[-51.56197,0.10974],[-51.55885,0.11651],[-51.56771,0.13111],[-51.5651,0.13945],[-51.56875,0.14675],[-51.57396,0.14049],[-51.5797,0.15718],[-51.5724,0.16395],[-51.57605,0.19471],[-51.57292,0.20096],[-51.5677,0.20096],[-51.5724,0.21713]]]},"properties":{"CD_MUN":"1600600","NM_MUN":"Santana","SIGLA_UF":"AP"}},{"type":"Feature","geometry":{"type":"Polygon","coordinates":[[[-53.05751,1.94738],[-53.04656,1.97293],[-53.02414,1.98179],[-53.00746,1.97918],[-52.99756,1.95572],[-52.98869,1.95103],[-52.96054,1.95155],[-52.94543,1.94582],[-52.9277,1.95103],[-52.91988,1.94269],[-52.89903,1.96354],[-52.90633,1.99273],[-52.90216,2.00003],[-52.90737,2.00942],[-52.9032,2.00994],[-52.90268,2.01724],[-52.88808,2.03235],[-52.86671,2.02558],[-52.85784,2.04069],[-52.84377,2.03548],[-52.83595,2.03704],[-52.82761,2.05268],[-52.83074,2.05894],[-52.82761,2.06728],[-52.83751,2.06989],[-52.82813,2.08448],[-52.80884,2.08448],[-52.79529,2.07197],[-52.7588,2.07875],[-52.75358,2.06832],[-52.72752,2.07353],[-52.71396,2.06363],[-52.69728,2.0678],[-52.69051,2.06363],[-52.67956,2.06988],[-52.68164,2.05476],[-52.66705,2.05737],[-52.65558,2.04538],[-52.64932,2.05268],[-52.64411,2.05164],[-52.63316,2.03391],[-52.61544,2.02557],[-52.60866,2.01045],[-52.5925,2.0042],[-52.58781,2.00628],[-52.59042,2.01566],[-52.56435,2.01723],[-52.55706,2.02244],[-52.55132,2.01045],[-52.53308,2.01566],[-52.52734,2.02505],[-52.51014,2.02922],[-52.49867,2.04173],[-52.46374,2.03599],[-52.45697,2.03756],[-52.45644,2.04277],[-52.4382,2.0459],[-52.42673,2.03703],[-52.41682,2.0386],[-52.40796,2.0313],[-52.41317,2.08864],[-52.37043,2.11992],[-52.36365,2.11992],[-52.35426,2.14234],[-52.34592,2.14077],[-52.33341,2.15641],[-52.31777,2.15902],[-52.29849,2.15537],[-52.26773,2.16058],[-52.25105,2.16944],[-52.24114,2.19394],[-52.21925,2.18612],[-52.23019,2.20228],[-52.24531,2.20385],[-52.24218,2.22731],[-52.24739,2.24242],[-52.23593,2.25129],[-52.23019,2.26484],[-52.21455,2.26067],[-52.20465,2.26588],[-52.19266,2.26223],[-52.18849,2.27996],[-52.17858,2.27891],[-52.18327,2.29143],[-52.17441,2.30394],[-52.15877,2.29872],[-52.14991,2.30394],[-52.15043,2.32062],[-52.13218,2.33052],[-52.11811,2.35502],[-52.12332,2.37588],[-52.11811,2.38317],[-52.11029,2.38578],[-52.11811,2.39464],[-52.11185,2.40194],[-52.09413,2.39986],[-52.09048,2.4108],[-52.07171,2.39516],[-52.05868,2.39203],[-52.04982,2.40246],[-52.04356,2.43895],[-52.01437,2.43739],[-52.01801,2.428],[-52.04095,2.42279],[-52.04408,2.40507],[-52.0373,2.39047],[-52.04095,2.3863],[-52.03679,2.34251],[-52.05347,2.30133],[-52.06389,2.28934],[-52.06546,2.27578],[-52.06285,2.26327],[-52.04461,2.25128],[-52.03575,2.23356],[-52.04305,2.20697],[-52.03836,2.1955],[-52.03731,2.15588],[-52.03367,2.1564],[-52.0295,2.14389],[-52.02637,2.11574],[-52.00812,2.09072],[-52.00969,2.06726],[-52.00135,2.05996],[-52.00396,2.04901],[-51.99614,2.03963],[-52.00865,1.99949],[-52.02012,1.98541],[-52.01386,1.98281],[-52.0222,1.96821],[-52.01804,1.91973],[-52.0295,1.91035],[-52.03368,1.88897],[-52.04358,1.8848],[-52.06443,1.85926],[-52.0587,1.85978],[-52.05401,1.84101],[-52.05297,1.8113],[-52.05922,1.79618],[-52.05349,1.79566],[-52.05505,1.78471],[-52.05036,1.77585],[-52.05714,1.75604],[-52.05036,1.72737],[-52.0561,1.70391],[-52.05402,1.68775],[-52.04672,1.67941],[-52.04724,1.66116],[-52.03629,1.65595],[-52.03264,1.64187],[-52.02639,1.64239],[-52.02274,1.63092],[-52.03317,1.58922],[-52.04203,1.58349],[-52.03943,1.51832],[-52.03004,1.51519],[-52.03004,1.50737],[-52.02118,1.5006],[-52.02796,1.48652],[-52.03891,1.48392],[-52.03995,1.47818],[-52.03109,1.47714],[-52.0264,1.4688],[-52.03369,1.46567],[-52.03369,1.45994],[-52.04203,1.45837],[-52.04568,1.44795],[-52.0363,1.4224],[-52.0436,1.4125],[-52.03682,1.40937],[-52.03161,1.39373],[-52.00503,1.37496],[-52.01076,1.32961],[-51.98835,1.32387],[-51.98574,1.32387],[-51.98053,1.31762],[-51.9847,1.29364],[-51.99982,1.28634],[-52.00294,1.27748],[-51.99565,1.26132],[-51.99826,1.23577],[-51.98679,1.23525],[-51.98262,1.23056],[-52.00295,1.21492],[-52.00816,1.19042],[-52.00191,1.18312],[-51.98731,1.18051],[-51.99461,1.16957],[-51.99305,1.16383],[-51.97897,1.15966],[-51.99409,1.1508],[-51.99252,1.13985],[-51.98001,1.13412],[-51.98523,1.12213],[-51.98001,1.1117],[-51.98002,1.09398],[-51.98575,1.07834],[-51.9795,1.07104],[-51.98888,1.05957],[-51.98523,1.05384],[-51.95395,1.05957],[-51.93936,1.0408],[-51.92997,1.04966],[-51.92476,1.04862],[-51.92111,1.0554],[-51.92841,1.06322],[-51.92163,1.07156],[-51.91068,1.06582],[-51.91329,1.058],[-51.90495,1.04706],[-51.89713,1.04341],[-51.88879,1.05592],[-51.88253,1.05331],[-51.88618,1.04028],[-51.87367,1.03559],[-51.86742,1.03976],[-51.85908,1.03506],[-51.85699,1.02672],[-51.84292,1.03976],[-51.83614,1.03454],[-51.83718,1.0236],[-51.82936,1.01161],[-51.81737,1.00535],[-51.81633,0.97563],[-51.81216,0.97303],[-51.80121,0.97511],[-51.79652,0.99649],[-51.77776,0.99753],[-51.76524,0.9871],[-51.75273,0.98658],[-51.75743,0.97459],[-51.75534,0.97042],[-51.71311,0.99388],[-51.70373,0.98762],[-51.70217,0.97772],[-51.69539,0.97511],[-51.69018,0.98032],[-51.68548,1.009],[-51.67297,1.01056],[-51.66203,0.98449],[-51.66828,0.97928],[-51.6589,0.95686],[-51.63492,0.95165],[-51.5927,0.91985],[-51.59166,0.91359],[-51.60052,0.90734],[-51.60208,0.88544],[-51.62085,0.87762],[-51.62502,0.86668],[-51.61668,0.83853],[-51.60678,0.83123],[-51.61147,0.80829],[-51.60782,0.79109],[-51.5854,0.78014],[-51.58071,0.76919],[-51.58541,0.73948],[-51.58176,0.72696],[-51.56351,0.73374],[-51.54735,0.72071],[-51.52077,0.73426],[-51.46447,0.73635],[-51.4629,0.71549],[-51.44622,0.70455],[-51.40191,0.7254],[-51.39878,0.69464],[-51.36959,0.68317],[-51.35708,0.65189],[-51.27941,0.62843],[-51.25647,0.61123],[-51.20121,0.60132],[-51.19809,0.59506],[-51.16942,0.5789],[-51.15274,0.57577],[-51.14231,0.55075],[-51.12459,0.54137],[-51.1298,0.52416],[-51.10061,0.48402],[-51.0907,0.47672],[-51.07871,0.47777],[-51.07298,0.46265],[-51.0563,0.45744],[-51.0391,0.44388],[-51.04223,0.43345],[-51.0245,0.43919],[-51.02867,0.46525],[-51.01147,0.46525],[-51.00782,0.48715],[-50.99739,0.50383],[-50.93692,0.50174],[-50.92597,0.51008],[-50.92701,0.51895],[-50.95204,0.53198],[-50.95308,0.5398],[-50.95986,0.53824],[-50.96455,0.54918],[-50.96976,0.54866],[-50.97602,0.55909],[-50.98279,0.55752],[-50.988,0.57316],[-50.99635,0.58203],[-50.9953,0.59558],[-50.98696,0.60288],[-50.98592,0.61591],[-50.99634,0.64406],[-50.99009,0.67065],[-50.9734,0.69776],[-50.90772,0.72173],[-50.89938,0.73425],[-50.91137,0.75614],[-50.91032,0.76396],[-50.8999,0.77804],[-50.8853,0.76969],[-50.88477,0.99386],[-50.87539,0.98604],[-50.86757,0.96206],[-50.84984,0.95371],[-50.82065,0.95841],[-50.80188,0.97248],[-50.80501,1.00063],[-50.79511,1.0194],[-50.78572,1.02513],[-50.73933,1.03556],[-50.71535,1.03243],[-50.6825,1.05015],[-50.6653,1.0392],[-50.65175,1.01783],[-50.6262,1.01731],[-50.61786,1.02773],[-50.62985,1.05015],[-50.63037,1.06944],[-50.62151,1.07778],[-50.59492,1.0856],[-50.5845,1.08195],[-50.57355,1.06475],[-50.5454,1.08299],[-50.52716,1.06162],[-50.52507,1.03659],[-50.5209,1.0319],[-50.50683,1.03399],[-50.47503,1.05692],[-50.45834,1.07673],[-50.45052,1.09446],[-50.45313,1.14033],[-50.41455,1.17891],[-50.38536,1.18412],[-50.36399,1.1617],[-50.34313,1.15858],[-50.3129,1.16639],[-50.29517,1.17682],[-50.28058,1.19454],[-50.2738,1.21435],[-50.29882,1.26388],[-50.29882,1.28108],[-50.29204,1.30141],[-50.27744,1.31653],[-50.21124,1.33425],[-50.16588,1.32852],[-50.14399,1.33529],[-50.13044,1.32383],[-50.12783,1.29411],[-50.13617,1.22999],[-50.12627,1.21487],[-50.10385,1.20809],[-50.0512,1.21174],[-49.98187,1.22425],[-49.95424,1.2378],[-49.90524,1.27482],[-49.89064,1.2034],[-49.91671,1.13771],[-49.94434,1.10904],[-49.94069,1.10331],[-49.94747,1.04075],[-49.94226,1.03293],[-49.93965,0.99435],[-49.94487,0.98393],[-49.96937,0.95995],[-49.97563,0.95943],[-49.98501,0.94535],[-50.02359,0.86976],[-50.04131,0.85725],[-50.04236,0.85152],[-50.05278,0.85569],[-50.05226,0.84683],[-50.05747,0.84005],[-50.05226,0.83588],[-50.0606,0.8265],[-50.05278,0.82232],[-50.05226,0.80669],[-50.05643,0.80408],[-50.06425,0.80929],[-50.06738,0.79313],[-50.09188,0.78271],[-50.09293,0.70295],[-50.15548,0.70608],[-50.20188,0.70086],[-50.32751,0.67532],[-50.35723,0.66073],[-50.42396,0.61225],[-50.43543,0.60078],[-50.45107,0.57159],[-50.46619,0.53145],[-50.47505,0.48244],[-50.48496,0.45951],[-50.50268,0.43605],[-50.52249,0.37297],[-50.55169,0.31302],[-50.5788,0.27079],[-50.59861,0.24994],[-50.62259,0.23274],[-50.6669,0.18582],[-50.74666,0.12848],[-50.7941,0.10972],[-50.91974,0.07688],[-50.94424,0.06384],[-50.97916,0.03726],[-50.99585,0.0039],[-51.00627,0.00025],[-51.01826,-0.01279],[-51.06466,-0.07534],[-51.07978,-0.08577],[-51.09594,-0.08785],[-51.11419,-0.06544],[-51.14755,-0.00027],[-51.19134,-0.00131],[-51.19133,0.00494],[-51.19707,0.00911],[-51.22001,0.01016],[-51.21531,0.02892],[-51.23564,0.02892],[-51.22678,0.05708],[-51.21427,0.06333],[-51.21688,0.07636],[-51.20384,0.08105],[-51.20541,0.09096],[-51.19811,0.08992],[-51.19081,0.10034],[-51.19811,0.10816],[-51.19029,0.10764],[-51.18716,0.11963],[-51.18872,0.1556],[-51.22782,0.17645],[-51.25232,0.17593],[-51.26222,0.16759],[-51.27265,0.16811],[-51.27317,0.18063],[-51.29298,0.19992],[-51.29037,0.20721],[-51.30966,0.21608],[-51.33937,0.24266],[-51.34459,0.26664],[-51.36387,0.30209],[-51.38264,0.31408],[-51.39254,0.34693],[-51.41235,0.3683],[-51.4306,0.36517],[-51.44624,0.37299],[-51.4577,0.39489],[-51.46396,0.42877],[-51.49054,0.43555],[-51.48533,0.45015],[-51.49106,0.46839],[-51.49992,0.47413],[-51.51556,0.46631],[-51.51244,0.45484],[-51.51765,0.4319],[-51.53798,0.41939],[-51.53642,0.40584],[-51.52756,0.40062],[-51.53329,0.38916],[-51.53277,0.36622],[-51.53798,0.35684],[-51.53225,0.33442],[-51.54111,0.32139],[-51.53225,0.31357],[-51.53069,0.29793],[-51.53799,0.2802],[-51.53642,0.2729],[-51.54998,0.26144],[-51.54633,0.24892],[-51.54998,0.23485],[-51.5724,0.21713],[-51.57709,0.21608],[-51.57604,0.23068],[-51.5922,0.24215],[-51.60732,0.2458],[-51.60941,0.2557],[-51.62504,0.27551],[-51.62974,0.27082],[-51.64642,0.28907],[-51.67352,0.30106],[-51.68239,0.31878],[-51.69073,0.32243],[-51.6949,0.33025],[-51.69073,0.33911],[-51.69646,0.34485],[-51.69073,0.34433],[-51.67978,0.35632],[-51.68864,0.36049],[-51.69698,0.38603],[-51.69385,0.39333],[-51.70063,0.40167],[-51.71262,0.4048],[-51.71992,0.4147],[-51.72982,0.41314],[-51.73608,0.40636],[-51.74598,0.41314],[-51.76318,0.41314],[-51.76631,0.422],[-51.78143,0.4293],[-51.7929,0.45485],[-51.80384,0.4585],[-51.8174,0.4585],[-51.82991,0.45224],[-51.83668,0.45537],[-51.83512,0.45068],[-51.84033,0.44651],[-51.85597,0.44807],[-51.85702,0.44286],[-51.87265,0.44755],[-51.88881,0.4585],[-51.89872,0.45016],[-51.90915,0.45641],[-51.91227,0.45224],[-51.93417,0.45277],[-51.94459,0.4585],[-51.95189,0.45329],[-51.95606,0.46476],[-51.99516,0.47779],[-52.01601,0.48144],[-52.02852,0.47206],[-52.07022,0.50646],[-52.07909,0.51168],[-52.09733,0.51116],[-52.10828,0.49969],[-52.14269,0.48926],[-52.16302,0.46945],[-52.19899,0.45851],[-52.20055,0.44287],[-52.22297,0.41889],[-52.23705,0.39178],[-52.23444,0.36624],[-52.27979,0.36884],[-52.29543,0.39752],[-52.2996,0.38918],[-52.3142,0.37927],[-52.32306,0.38709],[-52.32775,0.3824],[-52.33557,0.38501],[-52.33766,0.40221],[-52.34652,0.41003],[-52.33713,0.42306],[-52.33609,0.44026],[-52.34756,0.43297],[-52.36372,0.44965],[-52.37571,0.45226],[-52.38561,0.46894],[-52.38301,0.48562],[-52.39291,0.48614],[-52.39447,0.4997],[-52.41585,0.51116],[-52.41376,0.54974],[-52.43722,0.57059],[-52.45963,0.57477],[-52.46537,0.58363],[-52.46797,0.6024],[-52.47944,0.61699],[-52.48048,0.63263],[-52.50238,0.64306],[-52.50602,0.6514],[-52.49664,0.66026],[-52.50446,0.67903],[-52.51801,0.68372],[-52.5227,0.69363],[-52.53209,0.69832],[-52.54512,0.72178],[-52.56753,0.72595],[-52.57796,0.74054],[-52.61341,0.74107],[-52.61758,0.76036],[-52.63113,0.77547],[-52.64364,0.77704],[-52.65928,0.79111],[-52.66449,0.80936],[-52.65928,0.82865],[-52.66189,0.8349],[-52.6744,0.82708],[-52.72079,0.82709],[-52.73591,0.81614],[-52.74582,0.81718],[-52.75416,0.82656],[-52.74686,0.85628],[-52.76041,0.86149],[-52.77084,0.87713],[-52.78804,0.88652],[-52.81515,0.87505],[-52.82192,0.87661],[-52.82296,0.886],[-52.83443,0.8959],[-52.83652,0.90581],[-52.82296,0.93083],[-52.82296,0.95741],[-52.8287,0.96054],[-52.83547,0.95272],[-52.84486,0.9522],[-52.86675,0.96993],[-52.87665,0.99651],[-52.8704,1.01111],[-52.873,1.02519],[-52.87769,1.04135],[-52.89021,1.05229],[-52.89177,1.0867],[-52.91158,1.09713],[-52.93608,1.12059],[-52.95901,1.12736],[-52.96318,1.13883],[-52.971,1.20713],[-52.9637,1.24049],[-52.95223,1.26655],[-52.93086,1.26551],[-52.92721,1.27124],[-52.92669,1.31868],[-52.91574,1.33745],[-52.91365,1.3583],[-52.88915,1.38958],[-52.86829,1.44223],[-52.86986,1.46569],[-52.86204,1.52095],[-52.86725,1.53659],[-52.8782,1.54806],[-52.89748,1.55796],[-52.91469,1.56057],[-52.95066,1.55484],[-52.96369,1.55953],[-52.97463,1.57204],[-52.99288,1.62991],[-52.98401,1.68152],[-52.96942,1.70654],[-52.98766,1.7545],[-53.0033,1.76336],[-53.01164,1.7863],[-53.00747,1.8009],[-52.99339,1.8181],[-53.02467,1.85303],[-53.02571,1.87544],[-53.04083,1.8989],[-53.04135,1.90829],[-53.05125,1.91454],[-53.05751,1.94738]]]},"properties":{"CD_MUN":"1600303","NM_MUN":"Macapá","SIGLA_UF":"AP"}},{"type":"Feature","geometry":{"type":"Polygon","coordinates":[[[-54.87109,2.43485],[-54.79602,2.44007],[-54.74284,2.47239],[-54.68342,2.44788],[-54.69072,2.36239],[-54.66101,2.32798],[-54.60053,2.33788],[-54.43529,2.21068],[-54.18767,2.17992],[-54.0,2.231],[-53.98853,2.2383],[-53.97342,2.23309],[-53.96612,2.24403],[-53.9411,2.24351],[-53.94162,2.25342],[-53.93432,2.26019],[-53.94057,2.27896],[-53.93484,2.29773],[-53.92806,2.29147],[-53.91451,2.29147],[-53.91503,2.27792],[-53.90669,2.27479],[-53.8973,2.28886],[-53.89157,2.28469],[-53.88792,2.2873],[-53.89157,2.29199],[-53.88271,2.31701],[-53.8702,2.31701],[-53.86446,2.31232],[-53.85821,2.32066],[-53.85091,2.31128],[-53.841,2.30867],[-53.82276,2.31858],[-53.81337,2.31805],[-53.81911,2.33057],[-53.83214,2.33057],[-53.8337,2.34047],[-53.81337,2.34308],[-53.81077,2.35767],[-53.76958,2.37905],[-53.74039,2.37592],[-53.74248,2.36758],[-53.75238,2.36497],[-53.74352,2.35976],[-53.73726,2.36288],[-53.72684,2.35194],[-53.72215,2.35506],[-53.72736,2.3436],[-53.73831,2.3363],[-53.73518,2.32483],[-53.74925,2.32066],[-53.74769,2.31388],[-53.73518,2.30971],[-53.7258,2.31545],[-53.70651,2.31023],[-53.694,2.31336],[-53.68514,2.29563],[-53.6794,2.29772],[-53.68096,2.30189],[-53.66272,2.30606],[-53.66011,2.30085],[-53.65229,2.30345],[-53.6549,2.28521],[-53.62519,2.28521],[-53.61372,2.27947],[-53.61111,2.28729],[-53.60016,2.28729],[-53.58296,2.26957],[-53.56628,2.27217],[-53.55377,2.26175],[-53.53969,2.2581],[-53.53031,2.25862],[-53.51884,2.26748],[-53.49434,2.26174],[-53.48392,2.26591],[-53.47193,2.25757],[-53.45733,2.26174],[-53.45316,2.27113],[-53.46411,2.2779],[-53.46828,2.28989],[-53.45993,2.29198],[-53.43908,2.28103],[-53.41406,2.29823],[-53.40363,2.29823],[-53.3979,2.30918],[-53.38435,2.30918],[-53.3661,2.32169],[-53.3588,2.33472],[-53.3588,2.35036],[-53.34264,2.3561],[-53.3369,2.35453],[-53.33221,2.34515],[-53.31866,2.34515],[-53.31397,2.32742],[-53.30459,2.31648],[-53.29364,2.3097],[-53.28165,2.31074],[-53.27644,2.29979],[-53.2608,2.29093],[-53.2608,2.27738],[-53.23369,2.27633],[-53.22952,2.26956],[-53.22848,2.2633],[-53.24881,2.24923],[-53.26028,2.25183],[-53.25924,2.23672],[-53.26601,2.22473],[-53.27852,2.2242],[-53.27853,2.20544],[-53.28582,2.19762],[-53.27801,2.18667],[-53.26862,2.17155],[-53.23526,2.14549],[-53.20138,2.13454],[-53.16489,2.11212],[-53.13778,2.10169],[-53.13361,2.09231],[-53.13778,2.06729],[-53.13153,2.01985],[-53.11485,2.00786],[-53.10911,1.98127],[-53.08982,1.97606],[-53.0721,1.94582],[-53.05751,1.94738],[-53.05125,1.91454],[-53.04135,1.90829],[-53.04083,1.8989],[-53.02571,1.87544],[-53.02467,1.85303],[-52.99339,1.8181],[-53.00747,1.8009],[-53.01164,1.7863],[-53.0033,1.76336],[-52.98766,1.7545],[-52.96942,1.70654],[-52.98401,1.68152],[-52.99288,1.62991],[-52.97463,1.57204],[-52.96369,1.55953],[-52.95066,1.55484],[-52.91469,1.56057],[-52.89748,1.55796],[-52.8782,1.54806],[-52.86725,1.53659],[-52.86204,1.52095],[-52.86986,1.46569],[-52.86829,1.44223],[-52.88915,1.38958],[-52.91365,1.3583],[-52.91574,1.33745],[-52.92669,1.31868],[-52.92721,1.27124],[-52.93086,1.26551],[-52.95223,1.26655],[-52.9637,1.24049],[-52.971,1.20713],[-52.96318,1.13883],[-52.95901,1.12736],[-52.93608,1.12059],[-52.91158,1.09713],[-52.89177,1.0867],[-52.89021,1.05229],[-52.87769,1.04135],[-52.873,1.02519],[-52.8704,1.01111],[-52.87665,0.99651],[-52.86675,0.96993],[-52.84486,0.9522],[-52.83547,0.95272],[-52.8287,0.96054],[-52.82296,0.95741],[-52.82296,0.93083],[-52.83652,0.90581],[-52.83443,0.8959],[-52.82296,0.886],[-52.82192,0.87661],[-52.81515,0.87505],[-52.78804,0.88652],[-52.77084,0.87713],[-52.76041,0.86149],[-52.74686,0.85628],[-52.75416,0.82656],[-52.74582,0.81718],[-52.73591,0.81614],[-52.66658,0.78486],[-52.6645,0.76192],[-52.65407,0.74472],[-52.66658,0.66861],[-52.65981,0.617],[-52.66294,0.59927],[-52.65668,0.59458],[-52.64678,0.56434],[-52.63114,0.54088],[-52.60977,0.52785],[-52.58788,0.4997],[-52.58683,0.48563],[-52.57641,0.46894],[-52.57172,0.46738],[-52.57015,0.45278],[-52.58371,0.44027],[-52.57537,0.43819],[-52.56494,0.40951],[-52.56859,0.38345],[-52.56338,0.37771],[-52.55556,0.37876],[-52.55712,0.36468],[-52.53836,0.35686],[-52.53419,0.34435],[-52.49509,0.29795],[-52.49353,0.28127],[-52.48519,0.27762],[-52.4831,0.27084],[-52.48936,0.26876],[-52.48884,0.25573],[-52.49666,0.25468],[-52.49405,0.24582],[-52.49874,0.23748],[-52.48467,0.2281],[-52.48467,0.2208],[-52.49718,0.21976],[-52.48519,0.19473],[-52.48676,0.18222],[-52.49458,0.17284],[-52.49301,0.14573],[-52.50344,0.13843],[-52.49666,0.12071],[-52.50553,0.1009],[-52.49875,0.08578],[-52.51126,0.07275],[-52.50709,0.06962],[-52.51126,0.06284],[-52.50032,0.05346],[-52.51335,0.04303],[-52.50188,0.03469],[-52.51074,0.01853],[-52.50292,0.00863],[-52.50292,-0.00597],[-52.50553,-0.01692],[-52.52273,-0.01848],[-52.52743,-0.02682],[-52.53473,-0.08729],[-52.54515,-0.09616],[-52.55297,-0.09198],[-52.55923,-0.09616],[-52.54672,-0.11075],[-52.55714,-0.11701],[-52.5561,-0.14255],[-52.53942,-0.14203],[-52.5316,-0.14933],[-52.49719,-0.11336],[-52.46175,-0.10502],[-52.43516,-0.10711],[-52.36374,-0.13943],[-52.3309,-0.14621],[-52.30692,-0.17279],[-52.29546,-0.20355],[-52.25219,-0.25151],[-52.23968,-0.25829],[-52.19641,-0.25621],[-52.17504,-0.26976],[-52.12708,-0.28644],[-52.10727,-0.31147],[-52.08903,-0.32554],[-52.08016,-0.34014],[-52.08434,-0.39592],[-52.08121,-0.44649],[-52.07339,-0.46213],[-52.06609,-0.46421],[-52.06245,-0.48141],[-52.08121,-0.51321],[-52.07496,-0.51947],[-52.07652,-0.52677],[-52.07131,-0.52885],[-52.0734,-0.54918],[-52.0833,-0.56326],[-52.06089,-0.56899],[-52.05411,-0.64146],[-52.04369,-0.64563],[-52.01762,-0.68525],[-52.00511,-0.68264],[-51.98478,-0.68994],[-51.97957,-0.70245],[-51.97905,-0.72435],[-51.9681,-0.74781],[-51.95872,-0.74676],[-51.94986,-0.75458],[-51.94673,-0.75198],[-51.941,-0.76032],[-51.93787,-0.77022],[-51.94204,-0.77387],[-51.94621,-0.79994],[-51.94048,-0.79889],[-51.93943,-0.81088],[-51.95507,-0.83695],[-51.95716,-0.84842],[-51.95299,-0.85884],[-51.94361,-0.86041],[-51.92901,-0.88126],[-51.9238,-0.88178],[-51.92223,-0.8724],[-51.91181,-0.88387],[-51.90868,-0.87344],[-51.90295,-0.87553],[-51.90242,-0.88595],[-51.89617,-0.88126],[-51.88731,-0.89169],[-51.87949,-0.8823],[-51.86281,-0.89273],[-51.85864,-0.90368],[-51.84612,-0.90472],[-51.83414,-0.92088],[-51.83361,-0.90837],[-51.82371,-0.91202],[-51.81537,-0.8896],[-51.82371,-0.88074],[-51.82214,-0.86145],[-51.80859,-0.87344],[-51.80494,-0.87136],[-51.8065,-0.86458],[-51.79139,-0.86823],[-51.78305,-0.85676],[-51.77001,-0.8698],[-51.75073,-0.86354],[-51.73926,-0.86667],[-51.73978,-0.85781],[-51.7257,-0.85781],[-51.72883,-0.84477],[-51.73613,-0.84165],[-51.71945,-0.83331],[-51.73873,-0.82757],[-51.71163,-0.80359],[-51.68243,-0.79682],[-51.69443,-0.92401],[-51.68453,-1.01212],[-51.68609,-1.03505],[-51.7033,-1.06685],[-51.77732,-1.13983],[-51.80808,-1.15651],[-51.88628,-1.1659],[-51.89618,-1.1612],[-51.92485,-1.13149],[-51.93215,-1.1367],[-51.9457,-1.16537],[-51.95457,-1.16902],[-51.96499,-1.15912],[-51.96082,-1.13357],[-51.96447,-1.12523],[-51.98428,-1.12054],[-51.99262,-1.13409],[-51.98689,-1.16694],[-51.99001,-1.17111],[-52.02859,-1.16746],[-52.05413,-1.17632],[-52.063,-1.18518],[-52.06195,-1.19196],[-52.0458,-1.21854],[-52.05362,-1.23366],[-52.06925,-1.23523],[-52.0974,-1.22741],[-52.10887,-1.2175],[-52.10574,-1.18257],[-52.1193,-1.14556],[-52.14536,-1.14817],[-52.16152,-1.13357],[-52.17247,-1.1294],[-52.21782,-1.13409],[-52.23763,-1.12575],[-52.27204,-1.12783],[-52.29966,-1.11532],[-52.33198,-1.11532],[-52.357,-1.06162],[-52.39923,-1.04285],[-52.41904,-1.05224],[-52.42582,-1.05015],[-52.4279,-1.04181],[-52.41539,-1.02513],[-52.4133,-1.00845],[-52.41904,-0.96518],[-52.43467,-0.94954],[-52.43832,-0.9339],[-52.42842,-0.91982],[-52.40392,-0.91253],[-52.40183,-0.87656],[-52.41851,-0.85414],[-52.44301,-0.83329],[-52.45448,-0.82964],[-52.46751,-0.84059],[-52.51599,-0.85779],[-52.53737,-0.85414],[-52.53372,-0.8411],[-52.50869,-0.81295],[-52.52016,-0.80044],[-52.52172,-0.79106],[-52.50087,-0.74623],[-52.49618,-0.72225],[-52.50035,-0.69201],[-52.51494,-0.66282],[-52.50869,-0.65083],[-52.51077,-0.62581],[-52.5238,-0.58462],[-52.53892,-0.57211],[-52.58166,-0.5768],[-52.6119,-0.594],[-52.62806,-0.59296],[-52.63901,-0.5841],[-52.66663,-0.54343],[-52.66611,-0.52415],[-52.68123,-0.51528],[-52.69426,-0.49547],[-52.69009,-0.47619],[-52.70156,-0.45846],[-52.6781,-0.42301],[-52.69738,-0.38652],[-52.6807,-0.33908],[-52.68748,-0.30363],[-52.69999,-0.29216],[-52.7151,-0.29216],[-52.73908,-0.276],[-52.75316,-0.2614],[-52.75941,-0.2369],[-52.835,-0.18529],[-52.85012,-0.14932],[-52.87566,-0.14202],[-52.90277,-0.15401],[-52.93144,-0.1415],[-52.95906,-0.06226],[-52.96793,-0.04923],[-52.97626,0.0248],[-52.98408,0.03627],[-53.00233,0.04461],[-53.01379,0.06025],[-53.01014,0.0957],[-53.02787,0.1056],[-53.0508,0.15826],[-53.09303,0.19631],[-53.10502,0.23228],[-53.09355,0.26304],[-53.11075,0.28754],[-53.13316,0.3011],[-53.13785,0.33133],[-53.14984,0.35271],[-53.16287,0.36053],[-53.17278,0.37512],[-53.17434,0.38242],[-53.1587,0.40379],[-53.15818,0.421],[-53.16652,0.44654],[-53.15401,0.48095],[-53.1686,0.4945],[-53.15818,0.51483],[-53.1613,0.52317],[-53.14723,0.54246],[-53.14671,0.55289],[-53.15348,0.56436],[-53.15244,0.57739],[-53.14618,0.60085],[-53.11907,0.63473],[-53.105,0.68478],[-53.12272,0.69833],[-53.13575,0.69364],[-53.14253,0.69729],[-53.15608,0.72961],[-53.18319,0.74838],[-53.18892,0.76923],[-53.20143,0.77653],[-53.2056,0.77392],[-53.21342,0.78644],[-53.27337,0.82554],[-53.2864,0.84639],[-53.301,0.85994],[-53.35365,0.88914],[-53.41047,0.93032],[-53.40942,0.98297],[-53.42558,0.9934],[-53.42715,1.00018],[-53.42871,1.02051],[-53.42037,1.02989],[-53.42089,1.03458],[-53.4334,1.04866],[-53.43496,1.06065],[-53.45477,1.07837],[-53.45842,1.12842],[-53.45216,1.14458],[-53.43861,1.15449],[-53.41984,1.14823],[-53.40316,1.15188],[-53.39482,1.18003],[-53.40159,1.19462],[-53.41619,1.20349],[-53.42401,1.22225],[-53.42505,1.24363],[-53.44173,1.23268],[-53.47249,1.23998],[-53.49178,1.22747],[-53.52879,1.21131],[-53.53765,1.2134],[-53.54391,1.22226],[-53.54495,1.22956],[-53.52931,1.24624],[-53.52201,1.2624],[-53.53296,1.27699],[-53.55172,1.28117],[-53.56059,1.30202],[-53.56006,1.3114],[-53.53191,1.32339],[-53.53504,1.33747],[-53.54442,1.34841],[-53.56267,1.3505],[-53.56423,1.3406],[-53.56945,1.33799],[-53.59395,1.35884],[-53.632,1.34842],[-53.64086,1.33591],[-53.66015,1.34581],[-53.66172,1.3505],[-53.64243,1.36458],[-53.64399,1.38126],[-53.6393,1.39325],[-53.64555,1.40837],[-53.6565,1.40472],[-53.6638,1.37605],[-53.67266,1.37292],[-53.67944,1.37344],[-53.68205,1.38543],[-53.68622,1.38647],[-53.70029,1.37865],[-53.7102,1.38491],[-53.71228,1.39742],[-53.69456,1.41879],[-53.6956,1.42401],[-53.71593,1.43235],[-53.7227,1.42922],[-53.71489,1.4188],[-53.71437,1.40628],[-53.73,1.39638],[-53.73105,1.387],[-53.75398,1.39534],[-53.76128,1.40941],[-53.76702,1.3969],[-53.77327,1.39794],[-53.79047,1.41775],[-53.80299,1.42453],[-53.81445,1.42297],[-53.82175,1.41463],[-53.80611,1.40264],[-53.80559,1.39273],[-53.84938,1.39273],[-53.8499,1.39951],[-53.84052,1.40316],[-53.84313,1.40733],[-53.85355,1.40264],[-53.87232,1.40889],[-53.88431,1.40316],[-53.88639,1.40889],[-53.87545,1.43652],[-53.89213,1.44434],[-53.89473,1.45581],[-53.91611,1.4579],[-53.92132,1.4433],[-53.93696,1.43653],[-53.93904,1.44435],[-53.92914,1.4506],[-53.92445,1.46624],[-53.92757,1.46989],[-53.9526,1.46885],[-53.95468,1.48084],[-53.96563,1.48501],[-53.97501,1.47302],[-53.98492,1.4798],[-53.99638,1.47667],[-54.00212,1.49022],[-53.99847,1.50586],[-54.00785,1.52046],[-54.0261,1.51785],[-54.01984,1.50743],[-54.02349,1.50065],[-54.03861,1.5069],[-54.05477,1.49439],[-54.0678,1.50169],[-54.07823,1.49596],[-54.07666,1.48657],[-54.08501,1.48918],[-54.08761,1.51473],[-54.08344,1.52724],[-54.09751,1.55122],[-54.11315,1.55226],[-54.11628,1.55904],[-54.10064,1.59136],[-54.11732,1.5825],[-54.12149,1.59188],[-54.12723,1.5924],[-54.13035,1.59761],[-54.12149,1.60283],[-54.12201,1.60804],[-54.13244,1.61795],[-54.12879,1.62472],[-54.1413,1.62941],[-54.14234,1.6414],[-54.16789,1.64505],[-54.18092,1.65913],[-54.18978,1.62577],[-54.20177,1.64975],[-54.22731,1.66591],[-54.22888,1.67686],[-54.24295,1.67686],[-54.24816,1.68468],[-54.26224,1.68103],[-54.26172,1.68937],[-54.26797,1.6951],[-54.26432,1.69667],[-54.26849,1.70553],[-54.26537,1.70918],[-54.29091,1.7097],[-54.28153,1.717],[-54.28048,1.72482],[-54.28882,1.72169],[-54.29195,1.7269],[-54.29925,1.72482],[-54.30863,1.73003],[-54.31176,1.73472],[-54.30498,1.73785],[-54.30811,1.74202],[-54.31541,1.73785],[-54.32844,1.74463],[-54.34356,1.7415],[-54.34304,1.74776],[-54.34981,1.74828],[-54.35034,1.75506],[-54.3764,1.76444],[-54.38631,1.74619],[-54.40247,1.76079],[-54.41654,1.75766],[-54.42332,1.76131],[-54.43322,1.75506],[-54.46346,1.76027],[-54.47023,1.75245],[-54.48327,1.7561],[-54.49004,1.74828],[-54.50047,1.75193],[-54.50725,1.74933],[-54.52289,1.75715],[-54.53592,1.77122],[-54.5698,1.77852],[-54.5698,1.7853],[-54.57971,1.77852],[-54.60056,1.7853],[-54.61046,1.78008],[-54.62454,1.78165],[-54.64226,1.76966],[-54.65008,1.77227],[-54.66989,1.76653],[-54.69074,1.76862],[-54.69908,1.77644],[-54.71733,1.77175],[-54.74339,1.77644],[-54.7533,1.79886],[-54.74548,1.80668],[-54.74965,1.81502],[-54.73297,1.83274],[-54.73922,1.83274],[-54.7387,1.84004],[-54.74756,1.84317],[-54.75173,1.85203],[-54.75173,1.87653],[-54.76216,1.89321],[-54.76059,1.90677],[-54.76476,1.90833],[-54.7705,1.94117],[-54.7658,1.94169],[-54.75277,1.96828],[-54.75485,1.97506],[-54.77101,1.97923],[-54.76789,1.99695],[-54.77988,2.0006],[-54.78978,2.0079],[-54.81011,2.04022],[-54.8049,2.05482],[-54.81167,2.06368],[-54.81063,2.07202],[-54.80489,2.08193],[-54.81271,2.10174],[-54.80333,2.10904],[-54.80802,2.12363],[-54.80229,2.13302],[-54.80489,2.13979],[-54.78821,2.157],[-54.7903,2.16221],[-54.78039,2.16742],[-54.78195,2.17524],[-54.76684,2.18202],[-54.76162,2.20339],[-54.8101,2.26751],[-54.80801,2.28732],[-54.80176,2.29097],[-54.80593,2.29879],[-54.80072,2.3087],[-54.79446,2.31026],[-54.79498,2.31912],[-54.80853,2.34623],[-54.87317,2.41609],[-54.87109,2.43485]]]},"properties":{"CD_MUN":"1600279","NM_MUN":"Laranjal do Jari","SIGLA_UF":"AP"}},{"type":"Feature","geometry":{"type":"Polygon","coordinates":[[[-51.98574,1.32387],[-51.38103,1.32334],[-51.39511,1.28528],[-51.39146,1.27538],[-51.3972,1.27016],[-51.41909,1.26704],[-51.42274,1.25869],[-51.44151,1.24775],[-51.43421,1.24097],[-51.42796,1.19457],[-51.43838,1.18832],[-51.44047,1.14505],[-51.44829,1.13254],[-51.44464,1.12733],[-51.45037,1.11169],[-51.46549,1.10752],[-51.478,1.08927],[-51.45872,1.06946],[-51.40607,1.05695],[-51.40346,1.05174],[-51.41649,1.00065],[-51.37167,0.94799],[-51.36385,0.94799],[-51.35863,0.9579],[-51.34925,0.96415],[-51.34247,0.98031],[-51.30702,0.98344],[-51.28878,0.97406],[-51.27887,0.97771],[-51.25594,0.97354],[-51.24759,0.97771],[-51.24447,0.96415],[-51.23508,0.95372],[-51.22831,0.95998],[-51.22674,0.97145],[-51.2158,0.98761],[-51.20276,0.99543],[-51.18504,1.02879],[-51.17305,1.03713],[-51.14542,1.0314],[-51.1204,1.01054],[-51.08286,1.02514],[-51.04846,1.0194],[-51.04429,1.01002],[-51.02813,1.00637],[-51.03073,0.99178],[-51.01249,0.98813],[-51.02031,0.97822],[-51.00988,0.96675],[-51.01249,0.96102],[-51.00571,0.9605],[-51.00936,0.95424],[-51.00571,0.94642],[-50.99581,0.94329],[-50.9932,0.93443],[-50.98069,0.95424],[-50.98278,0.9704],[-50.97548,0.97822],[-50.95619,0.97978],[-50.93794,0.99177],[-50.92543,0.98864],[-50.88477,0.99386],[-50.8853,0.76969],[-50.8999,0.77804],[-50.91032,0.76396],[-50.91137,0.75614],[-50.89938,0.73425],[-50.90772,0.72173],[-50.9734,0.69776],[-50.99009,0.67065],[-50.99634,0.64406],[-50.98592,0.61591],[-50.98696,0.60288],[-50.9953,0.59558],[-50.99635,0.58203],[-50.988,0.57316],[-50.98279,0.55752],[-50.97602,0.55909],[-50.96976,0.54866],[-50.96455,0.54918],[-50.95986,0.53824],[-50.95308,0.5398],[-50.95204,0.53198],[-50.92701,0.51895],[-50.92597,0.51008],[-50.93692,0.50174],[-50.99739,0.50383],[-51.00782,0.48715],[-51.01147,0.46525],[-51.02867,0.46525],[-51.0245,0.43919],[-51.04223,0.43345],[-51.0391,0.44388],[-51.0563,0.45744],[-51.07298,0.46265],[-51.07871,0.47777],[-51.0907,0.47672],[-51.10061,0.48402],[-51.1298,0.52416],[-51.12459,0.54137],[-51.14231,0.55075],[-51.15274,0.57577],[-51.16942,0.5789],[-51.19809,0.59506],[-51.20121,0.60132],[-51.25647,0.61123],[-51.27941,0.62843],[-51.35708,0.65189],[-51.36959,0.68317],[-51.39878,0.69464],[-51.40191,0.7254],[-51.44622,0.70455],[-51.4629,0.71549],[-51.46447,0.73635],[-51.52077,0.73426],[-51.54735,0.72071],[-51.56351,0.73374],[-51.58176,0.72696],[-51.58541,0.73948],[-51.58071,0.76919],[-51.5854,0.78014],[-51.60782,0.79109],[-51.61147,0.80829],[-51.60678,0.83123],[-51.61668,0.83853],[-51.62502,0.86668],[-51.62085,0.87762],[-51.60208,0.88544],[-51.60052,0.90734],[-51.59166,0.91359],[-51.5927,0.91985],[-51.63492,0.95165],[-51.6589,0.95686],[-51.66828,0.97928],[-51.66203,0.98449],[-51.67297,1.01056],[-51.68548,1.009],[-51.69018,0.98032],[-51.69539,0.97511],[-51.70217,0.97772],[-51.70373,0.98762],[-51.71311,0.99388],[-51.75534,0.97042],[-51.75743,0.97459],[-51.75273,0.98658],[-51.76524,0.9871],[-51.77776,0.99753],[-51.79652,0.99649],[-51.80121,0.97511],[-51.81216,0.97303],[-51.81633,0.97563],[-51.81737,1.00535],[-51.82936,1.01161],[-51.83718,1.0236],[-51.83614,1.03454],[-51.84292,1.03976],[-51.85699,1.02672],[-51.85908,1.03506],[-51.86742,1.03976],[-51.87367,1.03559],[-51.88618,1.04028],[-51.88253,1.05331],[-51.88879,1.05592],[-51.89713,1.04341],[-51.90495,1.04706],[-51.91329,1.058],[-51.91068,1.06582],[-51.92163,1.07156],[-51.92841,1.06322],[-51.92111,1.0554],[-51.92476,1.04862],[-51.92997,1.04966],[-51.93936,1.0408],[-51.95395,1.05957],[-51.98523,1.05384],[-51.98888,1.05957],[-51.9795,1.07104],[-51.98575,1.07834],[-51.98002,1.09398],[-51.98001,1.1117],[-51.98523,1.12213],[-51.98001,1.13412],[-51.99252,1.13985],[-51.99409,1.1508],[-51.97897,1.15966],[-51.99305,1.16383],[-51.99461,1.16957],[-51.98731,1.18051],[-52.00191,1.18312],[-52.00816,1.19042],[-52.00295,1.21492],[-51.98262,1.23056],[-51.98679,1.23525],[-51.99826,1.23577],[-51.99565,1.26132],[-52.00294,1.27748],[-51.99982,1.28634],[-51.9847,1.29364],[-51.98053,1.31762],[-51.98574,1.32387]]]},"properties":{"CD_MUN":"1600238","NM_MUN":"Ferreira Gomes","SIGLA_UF":"AP"}},{"type":"Feature","geometry":{"type":"Polygon","coordinates":[[[-52.01437,2.43739],[-52.00915,2.44051],[-51.99351,2.43113],[-51.99299,2.4254],[-52.00185,2.42175],[-51.99404,2.40611],[-51.98309,2.41653],[-51.9565,2.40924],[-51.94868,2.379],[-51.93982,2.379],[-51.93305,2.37066],[-51.92575,2.37691],[-51.91376,2.35658],[-51.89447,2.35762],[-51.89186,2.34511],[-51.88613,2.34094],[-51.86528,2.34928],[-51.86163,2.35971],[-51.85068,2.36701],[-51.85433,2.38265],[-51.86371,2.39047],[-51.86215,2.39464],[-51.84547,2.3962],[-51.81992,2.37274],[-51.80481,2.37639],[-51.79594,2.3889],[-51.78083,2.37899],[-51.76884,2.3816],[-51.75163,2.40402],[-51.74746,2.42487],[-51.72713,2.43582],[-51.71983,2.45145],[-51.70211,2.46657],[-51.68907,2.48795],[-51.68386,2.49994],[-51.69011,2.5015],[-51.68803,2.5161],[-51.68177,2.52704],[-51.67187,2.52913],[-51.66874,2.53486],[-51.65623,2.53591],[-51.64737,2.54737],[-51.64059,2.57031],[-51.65049,2.5823],[-51.63642,2.60315],[-51.63381,2.61931],[-51.62495,2.62088],[-51.62234,2.63235],[-51.5968,2.65424],[-51.59106,2.67561],[-51.58063,2.6777],[-51.56864,2.69647],[-51.56395,2.69438],[-51.55613,2.70429],[-51.54623,2.73661],[-51.52068,2.7731],[-51.52433,2.77779],[-51.51286,2.78092],[-51.51703,2.78874],[-51.5113,2.79603],[-51.51182,2.80438],[-51.51912,2.82418],[-51.47845,2.83982],[-51.47063,2.84816],[-51.4722,2.85494],[-51.45552,2.86015],[-51.46698,2.86485],[-51.46125,2.87371],[-51.45134,2.87058],[-51.4331,2.88622],[-51.43518,2.90655],[-51.42111,2.91541],[-51.4284,2.9248],[-51.42632,2.92949],[-51.43518,2.93105],[-51.43727,2.93731],[-51.42163,2.94669],[-51.41954,2.95659],[-51.39817,2.98318],[-51.40077,2.99152],[-51.38618,3.00768],[-51.38722,3.0155],[-51.39243,3.0129],[-51.39556,3.01707],[-51.39504,3.02332],[-51.38409,3.02906],[-51.36324,3.02176],[-51.36532,3.02853],[-51.37523,3.0327],[-51.35594,3.05356],[-51.33509,3.05773],[-51.31997,3.06763],[-51.31684,3.08014],[-51.30329,3.07128],[-51.30224,3.07754],[-51.2913,3.08327],[-51.28296,3.09734],[-51.28765,3.12497],[-51.26732,3.11924],[-51.25428,3.12289],[-51.22509,3.15625],[-51.22717,3.16198],[-51.24177,3.15417],[-51.24542,3.16199],[-51.24177,3.16876],[-51.24907,3.17606],[-51.24229,3.18232],[-51.25011,3.19535],[-51.23655,3.20734],[-51.23708,3.21829],[-51.22561,3.199],[-51.21622,3.20682],[-51.22039,3.22037],[-51.18807,3.23132],[-51.18234,3.24539],[-51.18077,3.27302],[-51.17035,3.29752],[-51.16982,3.34079],[-51.1766,3.35591],[-51.17556,3.37728],[-51.18337,3.40126],[-51.19224,3.40648],[-51.19276,3.43776],[-51.18494,3.4706],[-51.1818,3.53993],[-51.18337,3.59363],[-51.1964,3.66713],[-51.18857,3.725],[-51.17606,3.77244],[-51.16563,3.93665],[-51.12184,3.9111],[-51.09317,3.91058],[-51.0744,3.89129],[-51.07336,3.85167],[-51.07858,3.8329],[-51.07858,3.78494],[-51.08327,3.77348],[-51.08118,3.76253],[-51.08327,3.73281],[-51.08901,3.72134],[-51.08953,3.68068],[-51.06973,3.49249],[-51.07755,3.46017],[-51.08224,3.46069],[-51.08902,3.45079],[-51.08745,3.4096],[-51.08016,3.37207],[-51.02074,3.2089],[-51.02491,3.18596],[-51.03273,3.17553],[-51.03012,3.15677],[-51.03429,3.138],[-51.02648,3.11767],[-51.00562,3.09473],[-51.01345,3.04625],[-50.98842,3.00611],[-50.98321,2.97535],[-50.98686,2.9618],[-50.98009,2.93782],[-50.94308,2.88516],[-50.94099,2.85493],[-50.94621,2.8372],[-50.94099,2.80436],[-50.92588,2.80905],[-50.90086,2.7955],[-50.9019,2.75692],[-50.88991,2.75275],[-50.88053,2.74232],[-50.88157,2.68654],[-50.8675,2.68029],[-50.85186,2.66048],[-50.84925,2.64484],[-50.83987,2.63962],[-50.84039,2.60209],[-50.84456,2.59479],[-50.83362,2.57133],[-50.82997,2.5338],[-50.8357,2.50878],[-50.85187,2.50513],[-50.85343,2.48792],[-50.84665,2.49835],[-50.83571,2.49366],[-50.81433,2.50982],[-50.8013,2.50878],[-50.79035,2.502],[-50.78201,2.47697],[-50.76377,2.44882],[-50.76325,2.42641],[-50.7695,2.41233],[-50.75491,2.38157],[-50.75908,2.36646],[-50.74813,2.35864],[-50.74292,2.3456],[-50.74136,2.31224],[-50.72103,2.27731],[-50.72103,2.23821],[-50.70696,2.23144],[-50.69184,2.20902],[-50.68089,2.17357],[-50.6835,2.15272],[-50.70122,2.1449],[-50.70122,2.13917],[-50.7153,2.13395],[-50.72781,2.14542],[-50.73719,2.14594],[-50.74084,2.12457],[-50.74762,2.11884],[-50.77733,2.14803],[-50.77838,2.15689],[-50.78672,2.16002],[-50.78776,2.17045],[-50.79401,2.16992],[-50.79923,2.17618],[-50.81382,2.17722],[-50.81695,2.17618],[-50.8133,2.17201],[-50.83051,2.16732],[-50.82738,2.15533],[-50.83624,2.15429],[-50.84302,2.13917],[-50.86022,2.14125],[-50.8524,2.15741],[-50.86804,2.1496],[-50.87013,2.15794],[-50.86335,2.16628],[-50.87951,2.16888],[-50.88211,2.16002],[-50.91339,2.14908],[-50.92434,2.16054],[-50.9233,2.16784],[-50.92903,2.16002],[-50.93842,2.1569],[-50.9478,2.16315],[-50.94936,2.17097],[-50.96448,2.16367],[-50.96344,2.17254],[-50.9723,2.1668],[-50.97491,2.16941],[-50.98429,2.1595],[-50.98742,2.14439],[-50.99941,2.14856],[-50.99993,2.1569],[-51.00462,2.15429],[-51.02547,2.16524],[-51.0359,2.16263],[-51.04476,2.1715],[-51.05519,2.16993],[-51.06092,2.17619],[-51.0677,2.17306],[-51.07708,2.17984],[-51.09116,2.17462],[-51.09272,2.1642],[-51.11983,2.16316],[-51.13338,2.15012],[-51.16205,2.15169],[-51.17404,2.13813],[-51.18395,2.13709],[-51.19907,2.12667],[-51.20219,2.11989],[-51.21783,2.11937],[-51.22722,2.12562],[-51.23504,2.11885],[-51.23764,2.10686],[-51.24807,2.10477],[-51.24651,2.098],[-51.28456,2.07871],[-51.29864,2.0662],[-51.31323,2.06359],[-51.3174,2.05577],[-51.33878,2.04065],[-51.34243,2.03127],[-51.37318,2.01928],[-51.39299,2.02241],[-51.40915,2.04483],[-51.44512,2.06516],[-51.46389,2.05421],[-51.46858,2.04796],[-51.46598,2.0417],[-51.47432,2.03127],[-51.4936,2.0245],[-51.50351,2.0271],[-51.52488,2.04066],[-51.56971,2.11521],[-51.57232,2.11364],[-51.58222,2.09644],[-51.58222,2.08028],[-51.5963,2.06568],[-51.60047,2.049],[-51.58796,2.02085],[-51.60985,2.01199],[-51.62966,1.99583],[-51.64322,1.99322],[-51.64426,1.96716],[-51.65782,1.95413],[-51.65625,1.94057],[-51.64166,1.9192],[-51.64583,1.87697],[-51.66043,1.82849],[-51.67972,1.80451],[-51.69171,1.74925],[-51.70318,1.73205],[-51.70474,1.71537],[-51.70005,1.70286],[-51.70631,1.68774],[-51.70422,1.67471],[-51.71048,1.66897],[-51.71152,1.64708],[-51.71934,1.63717],[-51.72091,1.61476],[-51.73863,1.58973],[-51.74958,1.58921],[-51.76105,1.58087],[-51.76314,1.57409],[-51.77877,1.57357],[-51.79963,1.5376],[-51.821,1.52405],[-51.83768,1.50059],[-51.85124,1.49277],[-51.85749,1.47401],[-51.86479,1.46827],[-51.8674,1.44377],[-51.87366,1.44273],[-51.87835,1.4323],[-51.89555,1.42083],[-51.89138,1.41771],[-51.90598,1.40884],[-51.90911,1.41145],[-51.91119,1.40102],[-51.92475,1.39112],[-51.95185,1.4005],[-51.95602,1.38904],[-51.96436,1.38643],[-51.96228,1.38226],[-51.9701,1.36923],[-51.97062,1.33743],[-51.98835,1.32387],[-52.01076,1.32961],[-52.00503,1.37496],[-52.03161,1.39373],[-52.03682,1.40937],[-52.0436,1.4125],[-52.0363,1.4224],[-52.04568,1.44795],[-52.04203,1.45837],[-52.03369,1.45994],[-52.03369,1.46567],[-52.0264,1.4688],[-52.03109,1.47714],[-52.03995,1.47818],[-52.03891,1.48392],[-52.02796,1.48652],[-52.02118,1.5006],[-52.03004,1.50737],[-52.03004,1.51519],[-52.03943,1.51832],[-52.04203,1.58349],[-52.03317,1.58922],[-52.02274,1.63092],[-52.02639,1.64239],[-52.03264,1.64187],[-52.03629,1.65595],[-52.04724,1.66116],[-52.04672,1.67941],[-52.05402,1.68775],[-52.0561,1.70391],[-52.05036,1.72737],[-52.05714,1.75604],[-52.05036,1.77585],[-52.05505,1.78471],[-52.05349,1.79566],[-52.05922,1.79618],[-52.05297,1.8113],[-52.05401,1.84101],[-52.0587,1.85978],[-52.06443,1.85926],[-52.04358,1.8848],[-52.03368,1.88897],[-52.0295,1.91035],[-52.01804,1.91973],[-52.0222,1.96821],[-52.01386,1.98281],[-52.02012,1.98541],[-52.00865,1.99949],[-51.99614,2.03963],[-52.00396,2.04901],[-52.00135,2.05996],[-52.00969,2.06726],[-52.00812,2.09072],[-52.02637,2.11574],[-52.0295,2.14389],[-52.03367,2.1564],[-52.03731,2.15588],[-52.03836,2.1955],[-52.04305,2.20697],[-52.03575,2.23356],[-52.04461,2.25128],[-52.06285,2.26327],[-52.06546,2.27578],[-52.06389,2.28934],[-52.05347,2.30133],[-52.03679,2.34251],[-52.04095,2.3863],[-52.0373,2.39047],[-52.04408,2.40507],[-52.04095,2.42279],[-52.01801,2.428],[-52.01437,2.43739]]]},"properties":{"CD_MUN":"1600204","NM_MUN":"Calçoene","SIGLA_UF":"AP"}},{"type":"Feature","geometry":{"type":"Polygon","coordinates":[[[-51.98574,1.32387],[-51.98835,1.32387],[-51.97062,1.33743],[-51.9701,1.36923],[-51.96228,1.38226],[-51.96436,1.38643],[-51.95602,1.38904],[-51.95185,1.4005],[-51.92475,1.39112],[-51.91119,1.40102],[-51.90911,1.41145],[-51.90598,1.40884],[-51.89138,1.41771],[-51.89555,1.42083],[-51.87835,1.4323],[-51.87366,1.44273],[-51.8674,1.44377],[-51.86479,1.46827],[-51.85749,1.47401],[-51.85124,1.49277],[-51.83768,1.50059],[-51.821,1.52405],[-51.79963,1.5376],[-51.77877,1.57357],[-51.76314,1.57409],[-51.76105,1.58087],[-51.74958,1.58921],[-51.73863,1.58973],[-51.72091,1.61476],[-51.71934,1.63717],[-51.71152,1.64708],[-51.71048,1.66897],[-51.70422,1.67471],[-51.70631,1.68774],[-51.70005,1.70286],[-51.70474,1.71537],[-51.70318,1.73205],[-51.69171,1.74925],[-51.67972,1.80451],[-51.66043,1.82849],[-51.64583,1.87697],[-51.64166,1.9192],[-51.65625,1.94057],[-51.65782,1.95413],[-51.64426,1.96716],[-51.64322,1.99322],[-51.62966,1.99583],[-51.60985,2.01199],[-51.58796,2.02085],[-51.60047,2.049],[-51.5963,2.06568],[-51.58222,2.08028],[-51.58222,2.09644],[-51.57232,2.11364],[-51.56971,2.11521],[-51.52488,2.04066],[-51.50351,2.0271],[-51.4936,2.0245],[-51.47432,2.03127],[-51.46598,2.0417],[-51.46858,2.04796],[-51.46389,2.05421],[-51.44512,2.06516],[-51.40915,2.04483],[-51.39299,2.02241],[-51.37318,2.01928],[-51.34243,2.03127],[-51.33878,2.04065],[-51.3174,2.05577],[-51.31323,2.06359],[-51.29864,2.0662],[-51.28456,2.07871],[-51.24651,2.098],[-51.24807,2.10477],[-51.23764,2.10686],[-51.23504,2.11885],[-51.22722,2.12562],[-51.21783,2.11937],[-51.20219,2.11989],[-51.19907,2.12667],[-51.18395,2.13709],[-51.17404,2.13813],[-51.16205,2.15169],[-51.13338,2.15012],[-51.11983,2.16316],[-51.09272,2.1642],[-51.09116,2.17462],[-51.07708,2.17984],[-51.0677,2.17306],[-51.06092,2.17619],[-51.05519,2.16993],[-51.04476,2.1715],[-51.0359,2.16263],[-51.02547,2.16524],[-51.00462,2.15429],[-50.99993,2.1569],[-50.99941,2.14856],[-50.98742,2.14439],[-50.98429,2.1595],[-50.97491,2.16941],[-50.9723,2.1668],[-50.96344,2.17254],[-50.96448,2.16367],[-50.94936,2.17097],[-50.9478,2.16315],[-50.93842,2.1569],[-50.92903,2.16002],[-50.9233,2.16784],[-50.92434,2.16054],[-50.91339,2.14908],[-50.88211,2.16002],[-50.87951,2.16888],[-50.86335,2.16628],[-50.87013,2.15794],[-50.86804,2.1496],[-50.8524,2.15741],[-50.86022,2.14125],[-50.84302,2.13917],[-50.83624,2.15429],[-50.82738,2.15533],[-50.83051,2.16732],[-50.8133,2.17201],[-50.81695,2.17618],[-50.81382,2.17722],[-50.79923,2.17618],[-50.79401,2.16992],[-50.78776,2.17045],[-50.78672,2.16002],[-50.77838,2.15689],[-50.77733,2.14803],[-50.74762,2.11884],[-50.74084,2.12457],[-50.73719,2.14594],[-50.72781,2.14542],[-50.7153,2.13395],[-50.70122,2.13917],[-50.52867,2.20849],[-50.46195,2.20537],[-50.44474,2.20015],[-50.44214,2.19025],[-50.43692,2.1939],[-50.42129,2.18086],[-50.37072,2.10162],[-50.36499,2.10214],[-50.35091,2.08755],[-50.34883,2.07816],[-50.35456,2.06617],[-50.34779,2.06305],[-50.33215,2.02082],[-50.31599,2.00831],[-50.3113,1.97807],[-50.29931,1.95878],[-50.23676,1.80395],[-50.16847,1.8149],[-50.10435,1.79248],[-50.09028,1.79196],[-50.05483,1.77528],[-50.02512,1.7685],[-49.92399,1.70802],[-49.912,1.68821],[-49.92138,1.67518],[-49.90678,1.67101],[-49.89428,1.62461],[-49.89271,1.57613],[-49.87499,1.48177],[-49.88073,1.39107],[-49.90889,1.29723],[-49.90524,1.27482],[-49.95424,1.2378],[-49.98187,1.22425],[-50.0512,1.21174],[-50.10385,1.20809],[-50.12627,1.21487],[-50.13617,1.22999],[-50.12783,1.29411],[-50.13044,1.32383],[-50.14399,1.33529],[-50.16588,1.32852],[-50.21124,1.33425],[-50.27744,1.31653],[-50.29204,1.30141],[-50.29882,1.28108],[-50.29882,1.26388],[-50.2738,1.21435],[-50.28058,1.19454],[-50.29517,1.17682],[-50.3129,1.16639],[-50.34313,1.15858],[-50.36399,1.1617],[-50.38536,1.18412],[-50.41455,1.17891],[-50.42289,1.18986],[-50.41507,1.19872],[-50.41976,1.22687],[-50.43123,1.23573],[-50.55946,1.47345],[-50.85972,1.59336],[-50.88996,1.58241],[-50.9129,1.58711],[-50.92488,1.61265],[-50.93166,1.61421],[-50.93531,1.62151],[-50.94886,1.62464],[-50.95773,1.63507],[-50.95095,1.66791],[-50.9546,1.67781],[-50.9499,1.68824],[-50.95564,1.70492],[-50.98639,1.7044],[-51.03331,1.74454],[-51.03904,1.73255],[-51.04843,1.73464],[-51.06146,1.72995],[-51.0844,1.73777],[-51.09691,1.72578],[-51.12871,1.73464],[-51.14122,1.72682],[-51.18814,1.73047],[-51.19439,1.7263],[-51.19648,1.73047],[-51.20638,1.72995],[-51.21316,1.74142],[-51.23557,1.75758],[-51.25069,1.75758],[-51.25903,1.76801],[-51.27936,1.77948],[-51.31533,1.78052],[-51.33775,1.73673],[-51.3268,1.72109],[-51.31221,1.71223],[-51.30804,1.69607],[-51.36799,1.67105],[-51.40604,1.6455],[-51.42429,1.64029],[-51.42481,1.6111],[-51.44931,1.59025],[-51.43576,1.57409],[-51.4342,1.52404],[-51.41282,1.52039],[-51.40605,1.50736],[-51.41022,1.50423],[-51.39093,1.48651],[-51.39458,1.47399],[-51.38468,1.46357],[-51.3852,1.45835],[-51.37946,1.45314],[-51.36747,1.45627],[-51.36226,1.43907],[-51.36435,1.4276],[-51.35549,1.42603],[-51.35549,1.41196],[-51.37112,1.4057],[-51.37425,1.39371],[-51.36904,1.38485],[-51.3706,1.37912],[-51.38207,1.37599],[-51.37738,1.36817],[-51.38103,1.32334],[-51.98574,1.32387]]]},"properties":{"CD_MUN":"1600105","NM_MUN":"Amapá","SIGLA_UF":"AP"}},{"type":"Feature","geometry":{"type":"Polygon","coordinates":[[[-51.16563,3.93665],[-51.17606,3.77244],[-51.18857,3.725],[-51.1964,3.66713],[-51.18337,3.59363],[-51.1818,3.53993],[-51.18494,3.4706],[-51.19276,3.43776],[-51.19224,3.40648],[-51.18337,3.40126],[-51.17556,3.37728],[-51.1766,3.35591],[-51.16982,3.34079],[-51.17035,3.29752],[-51.18077,3.27302],[-51.18234,3.24539],[-51.18807,3.23132],[-51.22039,3.22037],[-51.21622,3.20682],[-51.22561,3.199],[-51.23708,3.21829],[-51.23655,3.20734],[-51.25011,3.19535],[-51.24229,3.18232],[-51.24907,3.17606],[-51.24177,3.16876],[-51.24542,3.16199],[-51.24177,3.15417],[-51.22717,3.16198],[-51.22509,3.15625],[-51.25428,3.12289],[-51.26732,3.11924],[-51.28765,3.12497],[-51.28296,3.09734],[-51.2913,3.08327],[-51.30224,3.07754],[-51.30329,3.07128],[-51.31684,3.08014],[-51.31997,3.06763],[-51.33509,3.05773],[-51.35594,3.05356],[-51.37523,3.0327],[-51.36532,3.02853],[-51.36324,3.02176],[-51.38409,3.02906],[-51.39504,3.02332],[-51.39556,3.01707],[-51.39243,3.0129],[-51.38722,3.0155],[-51.38618,3.00768],[-51.40077,2.99152],[-51.39817,2.98318],[-51.41954,2.95659],[-51.42163,2.94669],[-51.43727,2.93731],[-51.43518,2.93105],[-51.42632,2.92949],[-51.4284,2.9248],[-51.42111,2.91541],[-51.43518,2.90655],[-51.4331,2.88622],[-51.45134,2.87058],[-51.46125,2.87371],[-51.46698,2.86485],[-51.45552,2.86015],[-51.4722,2.85494],[-51.47063,2.84816],[-51.47845,2.83982],[-51.51912,2.82418],[-51.51182,2.80438],[-51.5113,2.79603],[-51.51703,2.78874],[-51.51286,2.78092],[-51.52433,2.77779],[-51.52068,2.7731],[-51.54623,2.73661],[-51.55613,2.70429],[-51.56395,2.69438],[-51.56864,2.69647],[-51.58063,2.6777],[-51.59106,2.67561],[-51.5968,2.65424],[-51.62234,2.63235],[-51.62495,2.62088],[-51.63381,2.61931],[-51.63642,2.60315],[-51.65049,2.5823],[-51.64059,2.57031],[-51.64737,2.54737],[-51.65623,2.53591],[-51.66874,2.53486],[-51.67187,2.52913],[-51.68177,2.52704],[-51.68803,2.5161],[-51.69011,2.5015],[-51.68386,2.49994],[-51.68907,2.48795],[-51.70211,2.46657],[-51.71983,2.45145],[-51.72713,2.43582],[-51.74746,2.42487],[-51.75163,2.40402],[-51.76884,2.3816],[-51.78083,2.37899],[-51.79594,2.3889],[-51.80481,2.37639],[-51.81992,2.37274],[-51.84547,2.3962],[-51.86215,2.39464],[-51.86371,2.39047],[-51.85433,2.38265],[-51.85068,2.36701],[-51.86163,2.35971],[-51.86528,2.34928],[-51.88613,2.34094],[-51.89186,2.34511],[-51.89447,2.35762],[-51.91376,2.35658],[-51.92575,2.37691],[-51.93305,2.37066],[-51.93982,2.379],[-51.94868,2.379],[-51.9565,2.40924],[-51.98309,2.41653],[-51.99404,2.40611],[-52.00185,2.42175],[-51.99299,2.4254],[-51.99351,2.43113],[-52.00915,2.44051],[-52.01437,2.43739],[-52.04356,2.43895],[-52.04982,2.40246],[-52.05868,2.39203],[-52.07171,2.39516],[-52.09048,2.4108],[-52.09413,2.39986],[-52.11185,2.40194],[-52.11811,2.39464],[-52.11029,2.38578],[-52.11811,2.38317],[-52.12332,2.37588],[-52.11811,2.35502],[-52.13218,2.33052],[-52.15043,2.32062],[-52.14991,2.30394],[-52.15877,2.29872],[-52.17441,2.30394],[-52.18327,2.29143],[-52.17858,2.27891],[-52.18849,2.27996],[-52.19266,2.26223],[-52.20465,2.26588],[-52.21455,2.26067],[-52.23019,2.26484],[-52.23593,2.25129],[-52.24739,2.24242],[-52.24218,2.22731],[-52.24531,2.20385],[-52.23019,2.20228],[-52.21925,2.18612],[-52.24114,2.19394],[-52.25105,2.16944],[-52.26773,2.16058],[-52.29849,2.15537],[-52.31777,2.15902],[-52.33341,2.15641],[-52.34592,2.14077],[-52.35426,2.14234],[-52.36365,2.11992],[-52.37043,2.11992],[-52.41317,2.08864],[-52.40796,2.0313],[-52.41682,2.0386],[-52.42673,2.03703],[-52.4382,2.0459],[-52.45644,2.04277],[-52.45697,2.03756],[-52.46374,2.03599],[-52.49867,2.04173],[-52.51014,2.02922],[-52.52734,2.02505],[-52.53308,2.01566],[-52.55132,2.01045],[-52.55706,2.02244],[-52.56435,2.01723],[-52.59042,2.01566],[-52.58781,2.00628],[-52.5925,2.0042],[-52.60866,2.01045],[-52.61544,2.02557],[-52.63316,2.03391],[-52.64411,2.05164],[-52.64932,2.05268],[-52.65558,2.04538],[-52.66705,2.05737],[-52.68164,2.05476],[-52.67956,2.06988],[-52.69051,2.06363],[-52.69728,2.0678],[-52.71396,2.06363],[-52.72752,2.07353],[-52.75358,2.06832],[-52.7588,2.07875],[-52.79529,2.07197],[-52.80884,2.08448],[-52.82813,2.08448],[-52.83751,2.06989],[-52.82761,2.06728],[-52.83074,2.05894],[-52.82761,2.05268],[-52.83595,2.03704],[-52.84377,2.03548],[-52.85784,2.04069],[-52.86671,2.02558],[-52.88808,2.03235],[-52.90268,2.01724],[-52.9032,2.00994],[-52.90737,2.00942],[-52.90216,2.00003],[-52.90633,1.99273],[-52.89903,1.96354],[-52.91988,1.94269],[-52.9277,1.95103],[-52.94543,1.94582],[-52.96054,1.95155],[-52.98869,1.95103],[-52.99756,1.95572],[-53.00746,1.97918],[-53.02414,1.98179],[-53.04656,1.97293],[-53.05751,1.94738],[-53.0721,1.94582],[-53.08982,1.97606],[-53.10911,1.98127],[-53.11485,2.00786],[-53.13153,2.01985],[-53.13778,2.06729],[-53.13361,2.09231],[-53.13778,2.10169],[-53.16489,2.11212],[-53.20138,2.13454],[-53.23526,2.14549],[-53.26862,2.17155],[-53.27801,2.18667],[-53.27488,2.19501],[-53.26028,2.19032],[-53.25455,2.19866],[-53.24516,2.1997],[-53.24151,2.20856],[-53.21441,2.19449],[-53.20711,2.20022],[-53.18417,2.20022],[-53.13725,2.21273],[-53.09816,2.21534],[-53.07835,2.21117],[-53.03925,2.17415],[-53.00641,2.16998],[-52.98712,2.15799],[-52.9548,2.16477],[-52.9402,2.17207],[-52.93447,2.19396],[-52.90475,2.18614],[-52.89016,2.21533],[-52.8839,2.21898],[-52.88651,2.23514],[-52.87452,2.23827],[-52.87035,2.25756],[-52.85262,2.26016],[-52.85054,2.26694],[-52.85627,2.27841],[-52.84011,2.27789],[-52.83646,2.27997],[-52.83907,2.28779],[-52.79893,2.29926],[-52.78016,2.30812],[-52.77651,2.31542],[-52.77286,2.31177],[-52.73637,2.3321],[-52.715,2.33627],[-52.71552,2.34409],[-52.66026,2.38215],[-52.65661,2.3957],[-52.65974,2.40508],[-52.64149,2.42281],[-52.64097,2.43636],[-52.63315,2.44522],[-52.62689,2.44887],[-52.6123,2.44679],[-52.60395,2.45304],[-52.61386,2.46451],[-52.60917,2.47598],[-52.58623,2.47441],[-52.58466,2.49527],[-52.56433,2.51299],[-52.55339,2.5156],[-52.5513,2.52811],[-52.55599,2.52759],[-52.56225,2.54531],[-52.5513,2.5573],[-52.53879,2.55522],[-52.53514,2.5719],[-52.52628,2.57763],[-52.53305,2.59431],[-52.55182,2.60735],[-52.54452,2.61986],[-52.55651,2.63758],[-52.5466,2.65009],[-52.53201,2.64801],[-52.52262,2.67929],[-52.51063,2.6944],[-52.48509,2.7481],[-52.48769,2.75592],[-52.48039,2.76322],[-52.48248,2.77729],[-52.47726,2.79085],[-52.42565,2.88729],[-52.41001,2.89615],[-52.39542,2.89406],[-52.3803,2.91439],[-52.39229,2.91439],[-52.40011,2.92534],[-52.39385,2.93681],[-52.39698,2.9415],[-52.38395,2.95453],[-52.36413,3.02283],[-52.35475,3.02804],[-52.32764,3.08121],[-52.34588,3.10154],[-52.34015,3.125],[-52.34953,3.12448],[-52.35318,3.12917],[-52.34953,3.13856],[-52.33806,3.14064],[-52.33963,3.15002],[-52.33337,3.15993],[-52.33181,3.17296],[-52.30522,3.17661],[-52.30887,3.20528],[-52.29166,3.235],[-52.26768,3.2449],[-52.26091,3.25689],[-52.25048,3.2522],[-52.2484,3.24386],[-52.23484,3.24542],[-52.20095,3.29494],[-52.19105,3.30224],[-52.19209,3.31475],[-52.16133,3.35489],[-52.11285,3.45342],[-52.09773,3.46645],[-52.09304,3.49043],[-52.07427,3.50711],[-52.07479,3.51962],[-52.06019,3.52379],[-52.0237,3.59261],[-51.99503,3.62701],[-51.98773,3.67601],[-51.97887,3.68592],[-51.97052,3.7198],[-51.95645,3.73231],[-51.92673,3.72971],[-51.91996,3.74795],[-51.92777,3.77298],[-51.92308,3.78444],[-51.90536,3.79174],[-51.90067,3.79956],[-51.88972,3.80008],[-51.8746,3.80842],[-51.84697,3.84491],[-51.82716,3.85534],[-51.81934,3.87098],[-51.80109,3.88245],[-51.77868,3.92572],[-51.77607,3.95804],[-51.75417,3.98879],[-51.74218,3.99713],[-51.70726,4.00182],[-51.68432,4.02633],[-51.66451,4.02945],[-51.64783,4.04144],[-51.64261,4.05239],[-51.64313,4.07481],[-51.63479,4.08784],[-51.61863,4.1431],[-51.59413,4.1921],[-51.59673,4.23068],[-51.591,4.23641],[-51.58213,4.27186],[-51.57222,4.33702],[-51.54824,4.42512],[-51.51279,4.43763],[-51.42626,4.37455],[-51.34494,4.29635],[-51.25059,4.19209],[-51.22974,4.15977],[-51.22557,4.14465],[-51.21149,4.12849],[-51.18074,4.03674],[-51.17553,3.98826],[-51.17762,3.94551],[-51.16563,3.93665]]]},"properties":{"CD_MUN":"1600501","NM_MUN":"Oiapoque","SIGLA_UF":"AP"}},{"type":"Feature","geometry":{"type":"Polygon","coordinates":[[[-52.73591,0.81614],[-52.72079,0.82709],[-52.6744,0.82708],[-52.66189,0.8349],[-52.65928,0.82865],[-52.66449,0.80936],[-52.65928,0.79111],[-52.64364,0.77704],[-52.63113,0.77547],[-52.61758,0.76036],[-52.61341,0.74107],[-52.57796,0.74054],[-52.56753,0.72595],[-52.54512,0.72178],[-52.53209,0.69832],[-52.5227,0.69363],[-52.51801,0.68372],[-52.50446,0.67903],[-52.49664,0.66026],[-52.50602,0.6514],[-52.50238,0.64306],[-52.48048,0.63263],[-52.47944,0.61699],[-52.46797,0.6024],[-52.46537,0.58363],[-52.45963,0.57477],[-52.43722,0.57059],[-52.41376,0.54974],[-52.41585,0.51116],[-52.39447,0.4997],[-52.39291,0.48614],[-52.38301,0.48562],[-52.38561,0.46894],[-52.37571,0.45226],[-52.36372,0.44965],[-52.34756,0.43297],[-52.33609,0.44026],[-52.33713,0.42306],[-52.34652,0.41003],[-52.33766,0.40221],[-52.33557,0.38501],[-52.32775,0.3824],[-52.32306,0.38709],[-52.3142,0.37927],[-52.2996,0.38918],[-52.29543,0.39752],[-52.27979,0.36884],[-52.23444,0.36624],[-52.23705,0.39178],[-52.22297,0.41889],[-52.20055,0.44287],[-52.19899,0.45851],[-52.16302,0.46945],[-52.14269,0.48926],[-52.10828,0.49969],[-52.09733,0.51116],[-52.07909,0.51168],[-52.07022,0.50646],[-52.02852,0.47206],[-52.01601,0.48144],[-51.99516,0.47779],[-51.95606,0.46476],[-51.95189,0.45329],[-51.94459,0.4585],[-51.93417,0.45277],[-51.91227,0.45224],[-51.90915,0.45641],[-51.89872,0.45016],[-51.88881,0.4585],[-51.87265,0.44755],[-51.85702,0.44286],[-51.85597,0.44807],[-51.84033,0.44651],[-51.83512,0.45068],[-51.83668,0.45537],[-51.82991,0.45224],[-51.8174,0.4585],[-51.80384,0.4585],[-51.7929,0.45485],[-51.78143,0.4293],[-51.76631,0.422],[-51.76318,0.41314],[-51.74598,0.41314],[-51.73608,0.40636],[-51.72982,0.41314],[-51.71992,0.4147],[-51.71262,0.4048],[-51.70063,0.40167],[-51.69385,0.39333],[-51.69698,0.38603],[-51.68864,0.36049],[-51.67978,0.35632],[-51.69073,0.34433],[-51.69646,0.34485],[-51.69073,0.33911],[-51.6949,0.33025],[-51.69073,0.32243],[-51.68239,0.31878],[-51.67352,0.30106],[-51.64642,0.28907],[-51.62974,0.27082],[-51.62504,0.27551],[-51.60941,0.2557],[-51.60732,0.2458],[-51.5922,0.24215],[-51.57604,0.23068],[-51.57709,0.21608],[-51.5724,0.21713],[-51.5677,0.20096],[-51.57292,0.20096],[-51.57605,0.19471],[-51.5724,0.16395],[-51.5797,0.15718],[-51.57396,0.14049],[-51.56875,0.14675],[-51.5651,0.13945],[-51.56771,0.13111],[-51.55885,0.11651],[-51.56197,0.10974],[-51.53383,0.08158],[-51.53018,0.05031],[-51.489,0.03779],[-51.48691,0.0258],[-51.45563,0.01277],[-51.43791,-0.03467],[-51.42019,-0.05031],[-51.4082,-0.05448],[-51.39882,-0.07168],[-51.36545,-0.07325],[-51.3274,-0.08263],[-51.31437,-0.07951],[-51.28465,-0.08785],[-51.27214,-0.09827],[-51.25077,-0.08628],[-51.22835,-0.08889],[-51.21949,-0.09515],[-51.21532,-0.11808],[-51.30134,-0.25206],[-51.32167,-0.26301],[-51.33783,-0.28386],[-51.35347,-0.31774],[-51.36129,-0.36727],[-51.41968,-0.42826],[-51.43115,-0.47257],[-51.4567,-0.51271],[-51.48329,-0.54294],[-51.51404,-0.56536],[-51.59433,-0.64981],[-51.68243,-0.79682],[-51.71163,-0.80359],[-51.73873,-0.82757],[-51.71945,-0.83331],[-51.73613,-0.84165],[-51.72883,-0.84477],[-51.7257,-0.85781],[-51.73978,-0.85781],[-51.73926,-0.86667],[-51.75073,-0.86354],[-51.77001,-0.8698],[-51.78305,-0.85676],[-51.79139,-0.86823],[-51.8065,-0.86458],[-51.80494,-0.87136],[-51.80859,-0.87344],[-51.82214,-0.86145],[-51.82371,-0.88074],[-51.81537,-0.8896],[-51.82371,-0.91202],[-51.83361,-0.90837],[-51.83414,-0.92088],[-51.84612,-0.90472],[-51.85864,-0.90368],[-51.86281,-0.89273],[-51.87949,-0.8823],[-51.88731,-0.89169],[-51.89617,-0.88126],[-51.90242,-0.88595],[-51.90295,-0.87553],[-51.90868,-0.87344],[-51.91181,-0.88387],[-51.92223,-0.8724],[-51.9238,-0.88178],[-51.92901,-0.88126],[-51.94361,-0.86041],[-51.95299,-0.85884],[-51.95716,-0.84842],[-51.95507,-0.83695],[-51.93943,-0.81088],[-51.94048,-0.79889],[-51.94621,-0.79994],[-51.94204,-0.77387],[-51.93787,-0.77022],[-51.941,-0.76032],[-51.94673,-0.75198],[-51.94986,-0.75458],[-51.95872,-0.74676],[-51.9681,-0.74781],[-51.97905,-0.72435],[-51.97957,-0.70245],[-51.98478,-0.68994],[-52.00511,-0.68264],[-52.01762,-0.68525],[-52.04369,-0.64563],[-52.05411,-0.64146],[-52.06089,-0.56899],[-52.0833,-0.56326],[-52.0734,-0.54918],[-52.07131,-0.52885],[-52.07652,-0.52677],[-52.07496,-0.51947],[-52.08121,-0.51321],[-52.06245,-0.48141],[-52.06609,-0.46421],[-52.07339,-0.46213],[-52.08121,-0.44649],[-52.08434,-0.39592],[-52.08016,-0.34014],[-52.08903,-0.32554],[-52.10727,-0.31147],[-52.12708,-0.28644],[-52.17504,-0.26976],[-52.19641,-0.25621],[-52.23968,-0.25829],[-52.25219,-0.25151],[-52.29546,-0.20355],[-52.30692,-0.17279],[-52.3309,-0.14621],[-52.36374,-0.13943],[-52.43516,-0.10711],[-52.46175,-0.10502],[-52.49719,-0.11336],[-52.5316,-0.14933],[-52.53942,-0.14203],[-52.5561,-0.14255],[-52.55714,-0.11701],[-52.54672,-0.11075],[-52.55923,-0.09616],[-52.55297,-0.09198],[-52.54515,-0.09616],[-52.53473,-0.08729],[-52.52743,-0.02682],[-52.52273,-0.01848],[-52.50553,-0.01692],[-52.50292,-0.00597],[-52.50292,0.00863],[-52.51074,0.01853],[-52.50188,0.03469],[-52.51335,0.04303],[-52.50032,0.05346],[-52.51126,0.06284],[-52.50709,0.06962],[-52.51126,0.07275],[-52.49875,0.08578],[-52.50553,0.1009],[-52.49666,0.12071],[-52.50344,0.13843],[-52.49301,0.14573],[-52.49458,0.17284],[-52.48676,0.18222],[-52.48519,0.19473],[-52.49718,0.21976],[-52.48467,0.2208],[-52.48467,0.2281],[-52.49874,0.23748],[-52.49405,0.24582],[-52.49666,0.25468],[-52.48884,0.25573],[-52.48936,0.26876],[-52.4831,0.27084],[-52.48519,0.27762],[-52.49353,0.28127],[-52.49509,0.29795],[-52.53419,0.34435],[-52.53836,0.35686],[-52.55712,0.36468],[-52.55556,0.37876],[-52.56338,0.37771],[-52.56859,0.38345],[-52.56494,0.40951],[-52.57537,0.43819],[-52.58371,0.44027],[-52.57015,0.45278],[-52.57172,0.46738],[-52.57641,0.46894],[-52.58683,0.48563],[-52.58788,0.4997],[-52.60977,0.52785],[-52.63114,0.54088],[-52.64678,0.56434],[-52.65668,0.59458],[-52.66294,0.59927],[-52.65981,0.617],[-52.66658,0.66861],[-52.65407,0.74472],[-52.6645,0.76192],[-52.66658,0.78486],[-52.73591,0.81614]]]},"properties":{"CD_MUN":"1600402","NM_MUN":"Mazagão","SIGLA_UF":"AP"}}]}