{"type":"FeatureCollection","features":[{"type":"Feature","geometry":{"type":"MultiPolygon","coordinates":[[[[-40.72812,-20.8565],[-40.72773,-20.85469],[-40.72613,-20.855],[-40.72812,-20.8565]]],[[[-40.72503,-20.84913],[-40.72797,-20.85023],[-40.7258,-20.8475],[-40.72503,-20.84913]]],[[[-40.75889,-20.86565],[-40.82804,-20.89083],[-40.82804,-20.85596],[-40.77079,-20.78726],[-40.77478,-20.77406],[-40.7726,-20.76578],[-40.78081,-20.76392],[-40.77602,-20.75665],[-40.78444,-20.74839],[-40.80021,-20.75483],[-40.80852,-20.75328],[-40.80519,-20.73292],[-40.79462,-20.72573],[-40.79452,-20.71273],[-40.80381,-20.71735],[-40.82753,-20.6904],[-40.85582,-20.68557],[-40.87201,-20.67395],[-40.88209,-20.67042],[-40.90355,-20.684],[-40.92061,-20.6835],[-40.92347,-20.67543],[-40.93362,-20.67344],[-40.93422,-20.66279],[-40.92559,-20.64766],[-40.91582,-20.64395],[-40.91078,-20.63351],[-40.91024,-20.61845],[-40.9363,-20.5996],[-40.94544,-20.60609],[-40.96262,-20.60167],[-40.95606,-20.59181],[-40.9683,-20.57645],[-40.96709,-20.56452],[-40.95509,-20.55938],[-40.96617,-20.54248],[-40.96208,-20.5381],[-40.95929,-20.52134],[-40.96232,-20.51226],[-40.95983,-20.49748],[-40.96864,-20.49728],[-40.96593,-20.48364],[-40.97242,-20.48066],[-40.97028,-20.46226],[-40.97762,-20.45597],[-40.98499,-20.46053],[-40.98483,-20.44829],[-40.99508,-20.44164],[-40.98961,-20.43088],[-41.00179,-20.42622],[-41.01038,-20.43376],[-41.00744,-20.45049],[-41.01065,-20.45803],[-41.005,-20.47048],[-41.01939,-20.47801],[-41.01855,-20.4835],[-41.0399,-20.48361],[-41.04627,-20.47668],[-41.05102,-20.48106],[-41.05621,-20.46917],[-41.05284,-20.45991],[-41.06784,-20.46029],[-41.07569,-20.44525],[-41.08922,-20.44184],[-41.10115,-20.43378],[-41.10337,-20.42017],[-41.09777,-20.40887],[-41.10485,-20.40284],[-41.11126,-20.40531],[-41.11444,-20.41974],[-41.14248,-20.43157],[-41.15913,-20.42205],[-41.16588,-20.42614],[-41.1659,-20.44497],[-41.19116,-20.44558],[-41.20488,-20.45499],[-41.21499,-20.44523],[-41.22234,-20.45203],[-41.2249,-20.46213],[-41.2164,-20.46797],[-41.21549,-20.47493],[-41.2068,-20.48224],[-41.21001,-20.49104],[-41.23644,-20.48775],[-41.24242,-20.5001],[-41.24843,-20.49178],[-41.26222,-20.48629],[-41.27088,-20.49226],[-41.28332,-20.48796],[-41.28016,-20.50788],[-41.28641,-20.506],[-41.29977,-20.5215],[-41.31123,-20.51391],[-41.32187,-20.49628],[-41.3178,-20.49133],[-41.32067,-20.46866],[-41.31485,-20.42726],[-41.31992,-20.41788],[-41.31673,-20.40863],[-41.32324,-20.39542],[-41.32921,-20.39531],[-41.3369,-20.38557],[-41.34582,-20.38758],[-41.346,-20.37433],[-41.35751,-20.34842],[-41.35706,-20.33335],[-41.36128,-20.32545],[-41.35533,-20.30692],[-41.3505,-20.30208],[-41.3344,-20.29902],[-41.33141,-20.30332],[-41.31719,-20.30109],[-41.31462,-20.28925],[-41.31937,-20.27361],[-41.31047,-20.26938],[-41.31708,-20.25735],[-41.33493,-20.24341],[-41.34809,-20.24281],[-41.35049,-20.23411],[-41.33857,-20.22399],[-41.34999,-20.19808],[-41.36755,-20.20553],[-41.37723,-20.20569],[-41.37684,-20.21885],[-41.38155,-20.22354],[-41.39607,-20.22094],[-41.3927,-20.22602],[-41.39903,-20.23419],[-41.40822,-20.23363],[-41.41587,-20.21835],[-41.41558,-20.20736],[-41.40909,-20.1977],[-41.40167,-20.19923],[-41.38244,-20.18908],[-41.37409,-20.16816],[-41.37593,-20.16195],[-41.36783,-20.15685],[-41.36189,-20.14208],[-41.35581,-20.1391],[-41.34746,-20.12281],[-41.34913,-20.10952],[-41.34398,-20.10013],[-41.34522,-20.08898],[-41.33819,-20.08812],[-41.33269,-20.05766],[-41.32628,-20.05451],[-41.31853,-20.04151],[-41.31726,-20.02696],[-41.30911,-20.01637],[-41.30966,-19.9951],[-41.3199,-19.97863],[-41.3118,-19.97242],[-41.30792,-19.94834],[-41.29793,-19.93762],[-41.27266,-19.94244],[-41.25461,-19.93214],[-41.24447,-19.93734],[-41.23258,-19.91899],[-41.22961,-19.907],[-41.21939,-19.90142],[-41.20505,-19.90311],[-41.19464,-19.89336],[-41.18613,-19.89132],[-41.18351,-19.86802],[-41.184,-19.84882],[-41.1757,-19.83935],[-41.18629,-19.82767],[-41.17483,-19.82483],[-41.16411,-19.80639],[-41.16595,-19.79246],[-41.17394,-19.78605],[-41.17464,-19.76724],[-41.17457,-19.76305],[-41.15353,-19.76188],[-41.1392,-19.7712],[-41.12423,-19.77298],[-41.12471,-19.78888],[-41.11176,-19.79369],[-41.10922,-19.78487],[-41.09716,-19.78756],[-41.08182,-19.77747],[-41.06181,-19.77245],[-41.05388,-19.76251],[-41.04151,-19.76543],[-41.05292,-19.7698],[-41.03496,-19.78928],[-41.02336,-19.78211],[-41.01693,-19.78589],[-41.01511,-19.79812],[-41.005,-19.80569],[-40.99379,-19.80096],[-40.98438,-19.80537],[-40.97815,-19.79978],[-40.96716,-19.79953],[-40.95698,-19.80451],[-40.94098,-19.80501],[-40.93734,-19.81663],[-40.94188,-19.82267],[-40.95806,-19.83027],[-40.94922,-19.84256],[-40.95898,-19.85296],[-40.95002,-19.86148],[-40.93975,-19.85916],[-40.91497,-19.8439],[-40.9084,-19.84745],[-40.88484,-19.83458],[-40.82936,-19.89153],[-40.81411,-19.88816],[-40.82488,-19.88071],[-40.82813,-19.86626],[-40.81144,-19.84276],[-40.80302,-19.8375],[-40.78533,-19.8341],[-40.78063,-19.82957],[-40.78111,-19.81357],[-40.77306,-19.81415],[-40.76096,-19.82721],[-40.74671,-19.83107],[-40.73962,-19.8271],[-40.72785,-19.82801],[-40.7232,-19.82167],[-40.70801,-19.81616],[-40.70503,-19.78602],[-40.69692,-19.78445],[-40.69484,-19.77402],[-40.68249,-19.77339],[-40.67691,-19.77919],[-40.6645,-19.7724],[-40.64079,-19.77468],[-40.62648,-19.77082],[-40.62562,-19.76556],[-40.61488,-19.76386],[-40.60986,-19.75674],[-40.59173,-19.75462],[-40.58118,-19.75061],[-40.56949,-19.74139],[-40.56086,-19.74162],[-40.55225,-19.73404],[-40.54521,-19.74101],[-40.53392,-19.73933],[-40.52861,-19.74473],[-40.51865,-19.74464],[-40.52471,-19.76646],[-40.52656,-19.78612],[-40.53291,-19.78754],[-40.53031,-19.80636],[-40.52121,-19.81566],[-40.50512,-19.85367],[-40.49028,-19.85129],[-40.48252,-19.85486],[-40.47717,-19.86913],[-40.46549,-19.86902],[-40.45522,-19.88155],[-40.45325,-19.86599],[-40.44223,-19.85907],[-40.43674,-19.87847],[-40.42415,-19.89776],[-40.42469,-19.90704],[-40.37337,-19.90631],[-40.35534,-19.91257],[-40.34745,-19.90688],[-40.33831,-19.90799],[-40.33754,-19.91793],[-40.33158,-19.92417],[-40.3326,-19.93797],[-40.32379,-19.94828],[-40.31354,-19.94477],[-40.30766,-19.95068],[-40.3034,-19.97079],[-40.28869,-19.97727],[-40.27611,-19.97424],[-40.27072,-19.98464],[-40.27765,-19.9899],[-40.26745,-19.99624],[-40.26736,-20.0085],[-40.25906,-20.00955],[-40.2532,-20.00059],[-40.23868,-20.00922],[-40.21495,-19.99808],[-40.21187,-20.00151],[-40.20825,-19.98819],[-40.18377,-19.99726],[-40.16789,-20.00008],[-40.1612,-20.00988],[-40.15446,-20.01215],[-40.15944,-20.02067],[-40.15891,-20.03588],[-40.18363,-20.03971],[-40.19124,-20.0546],[-40.17331,-20.07714],[-40.17197,-20.107],[-40.18155,-20.13458],[-40.18437,-20.14853],[-40.18382,-20.16729],[-40.19165,-20.1841],[-40.19019,-20.19332],[-40.19813,-20.20835],[-40.19854,-20.21607],[-40.21586,-20.23554],[-40.2129,-20.23918],[-40.22468,-20.25354],[-40.22375,-20.25723],[-40.23439,-20.2763],[-40.23126,-20.29135],[-40.23749,-20.29498],[-40.24746,-20.28398],[-40.2588,-20.26579],[-40.27748,-20.27211],[-40.28912,-20.28378],[-40.28932,-20.30857],[-40.27904,-20.30736],[-40.28041,-20.31335],[-40.26804,-20.32918],[-40.28018,-20.33571],[-40.28364,-20.35364],[-40.29335,-20.35969],[-40.30236,-20.37123],[-40.3142,-20.39253],[-40.3224,-20.41944],[-40.32192,-20.42789],[-40.34656,-20.47628],[-40.35202,-20.49558],[-40.36399,-20.51849],[-40.39102,-20.55566],[-40.40279,-20.58255],[-40.40457,-20.5993],[-40.43455,-20.64166],[-40.43494,-20.63554],[-40.45177,-20.62425],[-40.46413,-20.62375],[-40.46819,-20.64579],[-40.47202,-20.65384],[-40.46475,-20.65264],[-40.46851,-20.66053],[-40.48056,-20.65236],[-40.48868,-20.65522],[-40.49755,-20.6639],[-40.49167,-20.66902],[-40.50178,-20.67622],[-40.51413,-20.69949],[-40.51557,-20.70808],[-40.53334,-20.74108],[-40.54742,-20.73958],[-40.55919,-20.7493],[-40.57376,-20.7693],[-40.577,-20.7883],[-40.58331,-20.80272],[-40.59342,-20.80222],[-40.61027,-20.80848],[-40.62163,-20.83405],[-40.63075,-20.8412],[-40.63327,-20.83021],[-40.62829,-20.82031],[-40.63857,-20.81124],[-40.65332,-20.80587],[-40.66581,-20.81227],[-40.68291,-20.82675],[-40.69056,-20.82807],[-40.6903,-20.83151],[-40.7059,-20.83661],[-40.71971,-20.84639],[-40.72827,-20.84216],[-40.74643,-20.85007],[-40.75889,-20.86565]]],[[[-40.6844,-20.82772],[-40.68488,-20.82714],[-40.68428,-20.8273],[-40.6844,-20.82772]]],[[[-40.59877,-20.80833],[-40.6005,-20.80731],[-40.59831,-20.80671],[-40.59877,-20.80833]]],[[[-40.54961,-20.76132],[-40.54949,-20.76231],[-40.55003,-20.76231],[-40.54961,-20.76132]]],[[[-40.54625,-20.75944],[-40.54697,-20.75959],[-40.54698,-20.75882],[-40.54625,-20.75944]]],[[[-40.54711,-20.75755],[-40.5471,-20.75807],[-40.54787,-20.75849],[-40.54711,-20.75755]]],[[[-40.54277,-20.74341],[-40.54285,-20.74301],[-40.54129,-20.74209],[-40.54277,-20.74341]]],[[[-40.5285,-20.73695],[-40.52768,-20.7366],[-40.52802,-20.73721],[-40.5285,-20.73695]]],[[[-40.52628,-20.73173],[-40.52585,-20.73188],[-40.52635,-20.73188],[-40.52628,-20.73173]]],[[[-40.52365,-20.73037],[-40.52316,-20.73055],[-40.52342,-20.73078],[-40.52365,-20.73037]]],[[[-40.52417,-20.72945],[-40.5241,-20.73038],[-40.52448,-20.73033],[-40.52417,-20.72945]]],[[[-40.50974,-20.71356],[-40.50893,-20.71381],[-40.5094,-20.71463],[-40.50974,-20.71356]]],[[[-40.50968,-20.71298],[-40.50937,-20.71235],[-40.50887,-20.71277],[-40.50968,-20.71298]]],[[[-40.50859,-20.71064],[-40.50793,-20.71062],[-40.50835,-20.71162],[-40.50859,-20.71064]]],[[[-40.51194,-20.70397],[-40.51216,-20.70413],[-40.51218,-20.70388],[-40.51194,-20.70397]]],[[[-40.4076,-20.70038],[-40.40633,-20.69909],[-40.40552,-20.70018],[-40.4076,-20.70038]]],[[[-40.50212,-20.684],[-40.50168,-20.68314],[-40.50062,-20.68316],[-40.50212,-20.684]]],[[[-40.46667,-20.66209],[-40.47079,-20.66379],[-40.46853,-20.66088],[-40.46667,-20.66209]]],[[[-40.49399,-20.66185],[-40.49431,-20.6619],[-40.49415,-20.66155],[-40.49399,-20.66185]]],[[[-40.47213,-20.66127],[-40.47245,-20.66142],[-40.47244,-20.66111],[-40.47213,-20.66127]]],[[[-40.46337,-20.64473],[-40.46352,-20.64442],[-40.46293,-20.64429],[-40.46337,-20.64473]]],[[[-40.46414,-20.64393],[-40.46433,-20.64411],[-40.46438,-20.64394],[-40.46414,-20.64393]]],[[[-40.46151,-20.64369],[-40.46119,-20.64395],[-40.46143,-20.64403],[-40.46151,-20.64369]]],[[[-40.42964,-20.64068],[-40.43058,-20.64044],[-40.42927,-20.63862],[-40.42964,-20.64068]]],[[[-40.44623,-20.6388],[-40.44697,-20.63832],[-40.44635,-20.6382],[-40.44623,-20.6388]]],[[[-40.44342,-20.63773],[-40.44359,-20.63806],[-40.44394,-20.63801],[-40.44342,-20.63773]]],[[[-40.4411,-20.63806],[-40.4409,-20.63751],[-40.43927,-20.63749],[-40.4411,-20.63806]]],[[[-40.43741,-20.63539],[-40.43701,-20.63522],[-40.43707,-20.63592],[-40.43741,-20.63539]]],[[[-40.46458,-20.62745],[-40.46469,-20.62718],[-40.46438,-20.62728],[-40.46458,-20.62745]]],[[[-40.39646,-20.62264],[-40.39607,-20.62173],[-40.39565,-20.62199],[-40.39646,-20.62264]]],[[[-40.38818,-20.61097],[-40.38866,-20.61025],[-40.38775,-20.61007],[-40.38818,-20.61097]]],[[[-40.39266,-20.5973],[-40.39053,-20.59806],[-40.3925,-20.59846],[-40.39266,-20.5973]]],[[[-40.3661,-20.67845],[-40.36478,-20.67709],[-40.36392,-20.67792],[-40.3661,-20.67845]]],[[[-40.36744,-20.67689],[-40.3684,-20.67652],[-40.3674,-20.67593],[-40.36744,-20.67689]]],[[[-40.37812,-20.61293],[-40.37639,-20.61254],[-40.3776,-20.61424],[-40.37812,-20.61293]]],[[[-40.3801,-20.61469],[-40.38418,-20.61478],[-40.38144,-20.61099],[-40.3801,-20.61469]]],[[[-40.37271,-20.61313],[-40.37631,-20.61038],[-40.37391,-20.60838],[-40.37271,-20.61313]]],[[[-40.35731,-20.52549],[-40.35887,-20.52446],[-40.35711,-20.52432],[-40.35731,-20.52549]]],[[[-40.31214,-20.4217],[-40.31097,-20.42064],[-40.31029,-20.42103],[-40.31214,-20.4217]]],[[[-40.30022,-20.38201],[-40.30041,-20.38239],[-40.30071,-20.38234],[-40.30022,-20.38201]]],[[[-40.29456,-20.3813],[-40.29704,-20.38254],[-40.29571,-20.37983],[-40.29456,-20.3813]]],[[[-40.28625,-20.37172],[-40.28647,-20.37176],[-40.28652,-20.37151],[-40.28625,-20.37172]]],[[[-40.27912,-20.36436],[-40.27788,-20.36422],[-40.27828,-20.36559],[-40.27912,-20.36436]]],[[[-40.27943,-20.36423],[-40.2792,-20.36476],[-40.27994,-20.36473],[-40.27943,-20.36423]]],[[[-40.2775,-20.36387],[-40.27612,-20.36353],[-40.27757,-20.36459],[-40.2775,-20.36387]]],[[[-40.28116,-20.36339],[-40.27938,-20.3623],[-40.2789,-20.3632],[-40.28116,-20.36339]]],[[[-40.28077,-20.3614],[-40.28154,-20.36141],[-40.28106,-20.36053],[-40.28077,-20.3614]]],[[[-40.27969,-20.36113],[-40.2799,-20.36049],[-40.27849,-20.36014],[-40.27969,-20.36113]]],[[[-40.28136,-20.35516],[-40.28048,-20.35417],[-40.28017,-20.35519],[-40.28136,-20.35516]]],[[[-40.28727,-20.30473],[-40.28701,-20.30502],[-40.28717,-20.3052],[-40.28727,-20.30473]]],[[[-40.28405,-20.29275],[-40.28286,-20.29252],[-40.28325,-20.29346],[-40.28405,-20.29275]]],[[[-40.28163,-20.29219],[-40.28185,-20.29266],[-40.28204,-20.29234],[-40.28163,-20.29219]]],[[[-40.28582,-20.28457],[-40.28532,-20.28407],[-40.28512,-20.28476],[-40.28582,-20.28457]]],[[[-29.30846,-20.50815],[-29.29878,-20.52017],[-29.29958,-20.52666],[-29.31057,-20.52102],[-29.32256,-20.52527],[-29.33053,-20.52217],[-29.34416,-20.51025],[-29.34423,-20.4998],[-29.33686,-20.48815],[-29.30846,-20.50815]]],[[[-28.8479,-20.49789],[-28.85059,-20.49697],[-28.84825,-20.49589],[-28.8479,-20.49789]]],[[[-28.84784,-20.47545],[-28.85134,-20.47914],[-28.85177,-20.47185],[-28.84784,-20.47545]]],[[[-28.85545,-20.47201],[-28.85518,-20.47248],[-28.85581,-20.47245],[-28.85545,-20.47201]]],[[[-28.85476,-20.47034],[-28.85654,-20.46908],[-28.8542,-20.46871],[-28.85476,-20.47034]]],[[[-40.27705,-20.3626],[-40.27652,-20.36159],[-40.27617,-20.36207],[-40.27705,-20.3626]]],[[[-40.27499,-20.35391],[-40.27569,-20.35332],[-40.27486,-20.35337],[-40.27499,-20.35391]]],[[[-40.25251,-20.35277],[-40.2526,-20.35333],[-40.25312,-20.35305],[-40.25251,-20.35277]]],[[[-40.24953,-20.35209],[-40.24999,-20.35241],[-40.24985,-20.35192],[-40.24953,-20.35209]]],[[[-40.25099,-20.35099],[-40.2502,-20.35223],[-40.2507,-20.35237],[-40.25099,-20.35099]]],[[[-40.27645,-20.35081],[-40.27563,-20.35064],[-40.27604,-20.35114],[-40.27645,-20.35081]]],[[[-40.27219,-20.33541],[-40.27193,-20.33616],[-40.27222,-20.33619],[-40.27219,-20.33541]]],[[[-40.27185,-20.33459],[-40.27068,-20.33543],[-40.27126,-20.3362],[-40.27185,-20.33459]]],[[[-40.27501,-20.33361],[-40.27508,-20.33378],[-40.27519,-20.3334],[-40.27501,-20.33361]]],[[[-40.27012,-20.33353],[-40.27132,-20.33284],[-40.27065,-20.33186],[-40.27012,-20.33353]]],[[[-40.26857,-20.33218],[-40.26873,-20.33135],[-40.2679,-20.33194],[-40.26857,-20.33218]]],[[[-40.26591,-20.32353],[-40.26562,-20.32396],[-40.26586,-20.32411],[-40.26591,-20.32353]]],[[[-40.27038,-20.3223],[-40.27187,-20.32206],[-40.27158,-20.32],[-40.27038,-20.3223]]],[[[-40.26819,-20.32067],[-40.26868,-20.3216],[-40.26909,-20.32047],[-40.26819,-20.32067]]],[[[-40.2754,-20.30935],[-40.27702,-20.30852],[-40.27616,-20.30693],[-40.2754,-20.30935]]],[[[-40.27365,-20.30863],[-40.2751,-20.30687],[-40.27382,-20.30704],[-40.27365,-20.30863]]],[[[-40.27596,-20.29856],[-40.27561,-20.29753],[-40.27534,-20.29865],[-40.27596,-20.29856]]]]},"properties":{"CD_REG":"3201","NM_REG":"Vitória","SIGLA_UF":"ES"}},{"type":"Feature","geometry":{"type":"MultiPolygon","coordinates":[[[[-40.51865,-19.74464],[-40.5182,-19.73262],[-40.52734,-19.7156],[-40.51674,-19.67764],[-40.50222,-19.65765],[-40.48794,-19.65176],[-40.48273,-19.63894],[-40.47522,-19.64224],[-40.46324,-19.63065],[-40.41875,-19.64132],[-40.37649,-19.62254],[-40.37023,-19.6169],[-40.37445,-19.60493],[-40.37237,-19.59479],[-40.38923,-19.5742],[-40.38847,-19.56215],[-40.37119,-19.55647],[-40.37566,-19.53122],[-40.39308,-19.50983],[-40.41658,-19.5088],[-40.43136,-19.49311],[-40.43087,-19.48282],[-40.43497,-19.46294],[-40.44422,-19.45777],[-40.44067,-19.43945],[-40.4335,-19.43586],[-40.44145,-19.42588],[-40.45702,-19.41647],[-40.45315,-19.40921],[-40.46787,-19.38954],[-40.47808,-19.38318],[-40.47261,-19.3752],[-40.48007,-19.36455],[-40.49472,-19.36932],[-40.49663,-19.35896],[-40.51533,-19.34316],[-40.52821,-19.34609],[-40.52509,-19.33164],[-40.50933,-19.31989],[-40.50746,-19.30728],[-40.49045,-19.29814],[-40.49011,-19.28875],[-40.47134,-19.29336],[-40.46159,-19.27976],[-40.45334,-19.2795],[-40.45243,-19.28598],[-40.4436,-19.29151],[-40.43493,-19.27965],[-40.44059,-19.26942],[-40.43026,-19.26135],[-40.43511,-19.25368],[-40.42709,-19.24972],[-40.42046,-19.23823],[-40.41911,-19.21095],[-40.41182,-19.21093],[-40.40321,-19.19774],[-40.41228,-19.18898],[-40.40471,-19.16161],[-40.39554,-19.15809],[-40.40008,-19.14789],[-40.41017,-19.14949],[-40.41102,-19.14029],[-40.40205,-19.13585],[-40.38779,-19.11441],[-40.36505,-19.0957],[-40.36683,-19.08518],[-40.3748,-19.07932],[-40.36541,-19.06628],[-40.35336,-19.07321],[-40.34661,-19.08321],[-40.32378,-19.07625],[-40.32146,-19.08129],[-40.30489,-19.0843],[-40.28832,-19.07538],[-40.26389,-19.03289],[-40.20633,-18.90664],[-40.20556,-18.88518],[-40.21236,-18.87812],[-40.22633,-18.8776],[-40.24052,-18.86324],[-40.25093,-18.86406],[-40.2564,-18.84441],[-40.26263,-18.83711],[-40.27584,-18.83712],[-40.28368,-18.84407],[-40.29374,-18.84151],[-40.29864,-18.84771],[-40.31091,-18.84709],[-40.33764,-18.8509],[-40.35121,-18.848],[-40.37797,-18.84991],[-40.38597,-18.84802],[-40.40169,-18.85092],[-40.40559,-18.83456],[-40.40363,-18.82672],[-40.39437,-18.82108],[-40.39544,-18.81028],[-40.38459,-18.80267],[-40.39236,-18.79906],[-40.39452,-18.78177],[-40.37906,-18.77183],[-40.3619,-18.75471],[-40.34817,-18.74543],[-40.3432,-18.73208],[-40.33641,-18.72583],[-40.28427,-18.5768],[-40.30209,-18.57277],[-40.33084,-18.58083],[-40.33824,-18.56934],[-40.33207,-18.56043],[-40.34748,-18.54768],[-40.35854,-18.5459],[-40.36714,-18.55211],[-40.38306,-18.53902],[-40.39176,-18.54557],[-40.40332,-18.54226],[-40.42046,-18.54251],[-40.42518,-18.52159],[-40.41615,-18.51466],[-40.43296,-18.50013],[-40.43799,-18.50223],[-40.44895,-18.49565],[-40.44868,-18.48809],[-40.45643,-18.48421],[-40.45355,-18.46826],[-40.46096,-18.46232],[-40.4519,-18.45623],[-40.46547,-18.4313],[-40.44851,-18.41879],[-40.44767,-18.41392],[-40.49181,-18.40978],[-40.49705,-18.39004],[-40.50903,-18.39056],[-40.51652,-18.38393],[-40.52652,-18.36541],[-40.53842,-18.36854],[-40.53888,-18.35998],[-40.55227,-18.35984],[-40.56084,-18.36369],[-40.57063,-18.35988],[-40.58307,-18.36858],[-40.58234,-18.35243],[-40.57368,-18.34524],[-40.58059,-18.34028],[-40.5968,-18.33949],[-40.60207,-18.34483],[-40.60926,-18.32391],[-40.61066,-18.29889],[-40.61884,-18.2875],[-40.55881,-18.23099],[-40.55318,-18.22669],[-40.54585,-18.20329],[-40.55156,-18.19399],[-40.55627,-18.17666],[-40.55582,-18.15854],[-40.56354,-18.15374],[-40.56077,-18.1373],[-40.56264,-18.12953],[-40.55866,-18.11414],[-40.5789,-18.09606],[-40.58933,-18.10894],[-40.59645,-18.10782],[-40.60091,-18.09979],[-40.61323,-18.10622],[-40.61434,-18.09021],[-40.62283,-18.07769],[-40.6295,-18.07577],[-40.62788,-18.06723],[-40.63144,-18.0505],[-40.64052,-18.03384],[-40.65871,-18.0262],[-40.66204,-18.01274],[-40.65149,-18.00687],[-40.64603,-17.99356],[-40.62615,-17.99105],[-40.62429,-17.97592],[-40.61416,-17.9665],[-40.62188,-17.96057],[-40.61261,-17.94951],[-40.61528,-17.94228],[-40.59719,-17.93603],[-40.58716,-17.93902],[-40.58471,-17.91817],[-40.56793,-17.91603],[-40.54036,-17.90282],[-40.52704,-17.89194],[-40.51682,-17.89442],[-40.50864,-17.90705],[-40.5006,-17.91167],[-40.48413,-17.90864],[-40.47661,-17.918],[-40.46274,-17.92821],[-40.45932,-17.92045],[-40.44505,-17.91883],[-40.41742,-17.92703],[-40.40324,-17.92353],[-40.38645,-17.92844],[-40.37256,-17.92761],[-40.36627,-17.92324],[-40.35561,-17.93045],[-40.34552,-17.92378],[-40.33396,-17.92736],[-40.32344,-17.93894],[-40.30994,-17.94094],[-40.30509,-17.94771],[-40.29111,-17.94689],[-40.29099,-17.95185],[-40.27567,-17.96256],[-40.26863,-17.96163],[-40.25535,-17.9718],[-40.23554,-17.97537],[-40.22235,-17.98042],[-40.06148,-18.08364],[-40.02007,-18.10968],[-39.91209,-18.17884],[-39.68895,-18.32083],[-39.67423,-18.32474],[-39.66663,-18.33154],[-39.66782,-18.33719],[-39.67198,-18.35342],[-39.69094,-18.39534],[-39.71475,-18.46195],[-39.72158,-18.48456],[-39.72822,-18.51827],[-39.73003,-18.54711],[-39.73058,-18.5869],[-39.72839,-18.61108],[-39.74068,-18.65048],[-39.74601,-18.69626],[-39.74605,-18.72706],[-39.74828,-18.78039],[-39.74975,-18.83807],[-39.74475,-18.8919],[-39.74279,-18.93608],[-39.7368,-18.95569],[-39.73564,-18.97759],[-39.72876,-19.03001],[-39.72017,-19.08809],[-39.7104,-19.16708],[-39.70395,-19.20912],[-39.69145,-19.27323],[-39.68906,-19.30493],[-39.69646,-19.3669],[-39.70609,-19.4016],[-39.72451,-19.44843],[-39.73046,-19.46837],[-39.74753,-19.5052],[-39.77848,-19.57638],[-39.809,-19.63416],[-39.8108,-19.64961],[-39.819,-19.65569],[-39.82734,-19.65449],[-39.8497,-19.66017],[-39.88078,-19.67181],[-39.90433,-19.68288],[-39.93945,-19.70465],[-39.96807,-19.72584],[-40.01532,-19.76814],[-40.04511,-19.80067],[-40.05478,-19.81483],[-40.06151,-19.84955],[-40.07773,-19.87305],[-40.08298,-19.87596],[-40.09832,-19.90555],[-40.102,-19.92117],[-40.13246,-19.9365],[-40.13579,-19.94135],[-40.14962,-19.94596],[-40.15391,-19.95279],[-40.14063,-19.95423],[-40.13342,-19.96215],[-40.14271,-19.98543],[-40.14856,-19.99262],[-40.14682,-20.00119],[-40.15446,-20.01215],[-40.1612,-20.00988],[-40.16789,-20.00008],[-40.18377,-19.99726],[-40.20825,-19.98819],[-40.21187,-20.00151],[-40.21495,-19.99808],[-40.23868,-20.00922],[-40.2532,-20.00059],[-40.25906,-20.00955],[-40.26736,-20.0085],[-40.26745,-19.99624],[-40.27765,-19.9899],[-40.27072,-19.98464],[-40.27611,-19.97424],[-40.28869,-19.97727],[-40.3034,-19.97079],[-40.30766,-19.95068],[-40.31354,-19.94477],[-40.32379,-19.94828],[-40.3326,-19.93797],[-40.33158,-19.92417],[-40.33754,-19.91793],[-40.33831,-19.90799],[-40.34745,-19.90688],[-40.35534,-19.91257],[-40.37337,-19.90631],[-40.42469,-19.90704],[-40.42415,-19.89776],[-40.43674,-19.87847],[-40.44223,-19.85907],[-40.45325,-19.86599],[-40.45522,-19.88155],[-40.46549,-19.86902],[-40.47717,-19.86913],[-40.48252,-19.85486],[-40.49028,-19.85129],[-40.50512,-19.85367],[-40.52121,-19.81566],[-40.53031,-19.80636],[-40.53291,-19.78754],[-40.52656,-19.78612],[-40.52471,-19.76646],[-40.51865,-19.74464]]],[[[-40.13358,-19.9689],[-40.13428,-19.96913],[-40.13381,-19.96804],[-40.13358,-19.9689]]]]},"properties":{"CD_REG":"3202","NM_REG":"São Mateus","SIGLA_UF":"ES"}},{"type":"Feature","geometry":{"type":"Polygon","coordinates":[[[-41.17464,-19.76724],[-41.18821,-19.75669],[-41.19107,-19.74587],[-41.17994,-19.74062],[-41.18201,-19.73218],[-41.17431,-19.71564],[-41.17689,-19.6987],[-41.16847,-19.67222],[-41.1575,-19.66108],[-41.14761,-19.6636],[-41.13732,-19.65757],[-41.1295,-19.64274],[-41.1086,-19.63947],[-41.10025,-19.61478],[-41.09931,-19.60421],[-41.09088,-19.59634],[-41.07519,-19.59885],[-41.07192,-19.58441],[-41.05508,-19.5831],[-41.057,-19.57759],[-41.03686,-19.57046],[-41.03663,-19.55671],[-41.04469,-19.53552],[-41.04124,-19.51466],[-41.04966,-19.50302],[-41.04669,-19.4874],[-41.01907,-19.50488],[-40.98828,-19.50794],[-40.97224,-19.50529],[-40.97119,-19.4946],[-40.94469,-19.46096],[-40.95784,-19.44993],[-40.9588,-19.43916],[-40.96792,-19.43044],[-40.96048,-19.41932],[-40.96221,-19.40843],[-40.95071,-19.393],[-40.93045,-19.38415],[-40.9328,-19.36303],[-40.93856,-19.36018],[-40.93847,-19.34607],[-40.92275,-19.32239],[-40.90769,-19.30881],[-40.91242,-19.30192],[-40.92455,-19.30246],[-40.93278,-19.29605],[-40.92806,-19.28611],[-40.93838,-19.2864],[-40.9445,-19.27955],[-40.93671,-19.27257],[-40.92185,-19.27189],[-40.91618,-19.25893],[-40.9202,-19.25182],[-40.93865,-19.24938],[-40.93353,-19.24376],[-40.94155,-19.23013],[-40.93102,-19.22242],[-40.92758,-19.20888],[-40.92267,-19.20409],[-40.92955,-19.19786],[-40.92593,-19.1897],[-40.93145,-19.18244],[-40.94109,-19.18057],[-40.94056,-19.1633],[-40.94886,-19.15328],[-40.94355,-19.14484],[-40.95566,-19.14524],[-40.96213,-19.1395],[-40.95612,-19.12911],[-40.96289,-19.12156],[-40.97026,-19.12233],[-40.9813,-19.1125],[-40.98476,-19.10072],[-41.00706,-19.10053],[-41.01278,-19.09133],[-41.0126,-19.0758],[-41.02541,-19.07998],[-41.03549,-19.07156],[-41.05385,-19.06886],[-41.05264,-19.06148],[-41.06556,-19.05133],[-41.06314,-19.0393],[-41.07179,-19.02385],[-41.06593,-19.01638],[-41.06705,-19.00699],[-41.03222,-18.99085],[-41.01733,-18.97926],[-41.01803,-18.97351],[-41.04324,-18.97956],[-41.05175,-18.97405],[-41.05136,-18.96622],[-41.06065,-18.96828],[-41.06465,-18.94527],[-41.07006,-18.94173],[-41.08022,-18.94694],[-41.07924,-18.93854],[-41.10367,-18.93406],[-41.11276,-18.92254],[-41.11817,-18.92177],[-41.11437,-18.91267],[-41.12049,-18.90802],[-41.12685,-18.89451],[-41.1438,-18.88491],[-41.15296,-18.88661],[-41.15921,-18.86436],[-41.16636,-18.85823],[-41.18666,-18.86408],[-41.20055,-18.86273],[-41.20843,-18.85505],[-41.21478,-18.87764],[-41.2301,-18.85837],[-41.23936,-18.85865],[-41.24388,-18.84357],[-41.23782,-18.83476],[-41.24514,-18.82054],[-41.24053,-18.81617],[-41.23254,-18.79728],[-41.149,-18.79751],[-41.13347,-18.79681],[-41.13003,-18.80744],[-41.1192,-18.81013],[-41.11999,-18.81766],[-41.11051,-18.83894],[-41.09747,-18.84231],[-41.08371,-18.83658],[-41.01913,-18.8373],[-40.96391,-18.84117],[-40.96302,-18.83579],[-40.95108,-18.83471],[-40.94573,-18.82544],[-40.93666,-18.83105],[-40.92791,-18.81971],[-40.91677,-18.81554],[-40.9198,-18.8004],[-40.92863,-18.79294],[-40.92661,-18.78818],[-40.94,-18.77029],[-40.9415,-18.68929],[-40.95383,-18.68161],[-40.97653,-18.67708],[-40.98782,-18.67814],[-40.98887,-18.67322],[-41.00523,-18.66728],[-41.02021,-18.65495],[-41.02966,-18.6537],[-41.02875,-18.64673],[-41.03562,-18.64403],[-41.04447,-18.64799],[-41.04156,-18.63975],[-41.05089,-18.63415],[-41.03296,-18.61876],[-41.03372,-18.60661],[-41.04199,-18.6054],[-41.0203,-18.50097],[-41.01588,-18.47675],[-41.01634,-18.46746],[-41.02303,-18.45726],[-41.17308,-18.4428],[-41.18184,-18.43958],[-41.1808,-18.43268],[-41.16667,-18.41522],[-41.14723,-18.41145],[-41.14425,-18.40524],[-41.16045,-18.4028],[-41.16254,-18.39076],[-41.1596,-18.38146],[-41.1481,-18.37915],[-41.14974,-18.36599],[-41.1475,-18.35338],[-41.15892,-18.30824],[-41.14272,-18.29811],[-41.14111,-18.29129],[-41.1275,-18.27692],[-41.12032,-18.2744],[-41.09647,-18.25558],[-41.10274,-18.23697],[-41.09135,-18.23026],[-41.10445,-18.21328],[-41.09266,-18.20584],[-41.09273,-18.1954],[-41.06655,-18.18091],[-41.05645,-18.17884],[-41.05193,-18.16511],[-41.03419,-18.16353],[-41.03381,-18.17211],[-41.0281,-18.15767],[-41.01459,-18.15758],[-41.01009,-18.16763],[-40.99322,-18.16623],[-40.98839,-18.1698],[-40.98703,-18.14677],[-40.98032,-18.14136],[-40.96752,-18.14521],[-40.96217,-18.15417],[-40.95454,-18.15449],[-40.94911,-18.12864],[-40.94051,-18.13645],[-40.93221,-18.13648],[-40.92477,-18.12713],[-40.90487,-18.11117],[-40.89171,-18.10893],[-40.89391,-18.11889],[-40.88901,-18.12402],[-40.8785,-18.11997],[-40.86643,-18.12992],[-40.8633,-18.13913],[-40.85227,-18.14624],[-40.8325,-18.15115],[-40.82419,-18.14929],[-40.80522,-18.15297],[-40.79474,-18.16005],[-40.7715,-18.15594],[-40.7733,-18.10756],[-40.88699,-18.00064],[-40.90282,-17.98771],[-40.89117,-17.98303],[-40.88178,-17.97102],[-40.87705,-17.98229],[-40.86313,-17.98832],[-40.84773,-17.96751],[-40.83055,-17.95418],[-40.82497,-17.9637],[-40.80816,-17.95205],[-40.79847,-17.95695],[-40.79188,-17.97148],[-40.79227,-17.98168],[-40.78212,-17.97525],[-40.77093,-17.98642],[-40.77485,-17.99662],[-40.77177,-18.00339],[-40.76031,-18.00396],[-40.75277,-18.00962],[-40.72577,-18.00122],[-40.71617,-18.00462],[-40.70961,-18.02099],[-40.70368,-18.02373],[-40.69052,-18.01271],[-40.6813,-18.01015],[-40.66204,-18.01274],[-40.65871,-18.0262],[-40.64052,-18.03384],[-40.63144,-18.0505],[-40.62788,-18.06723],[-40.6295,-18.07577],[-40.62283,-18.07769],[-40.61434,-18.09021],[-40.61323,-18.10622],[-40.60091,-18.09979],[-40.59645,-18.10782],[-40.58933,-18.10894],[-40.5789,-18.09606],[-40.55866,-18.11414],[-40.56264,-18.12953],[-40.56077,-18.1373],[-40.56354,-18.15374],[-40.55582,-18.15854],[-40.55627,-18.17666],[-40.55156,-18.19399],[-40.54585,-18.20329],[-40.55318,-18.22669],[-40.55881,-18.23099],[-40.61884,-18.2875],[-40.61066,-18.29889],[-40.60926,-18.32391],[-40.60207,-18.34483],[-40.5968,-18.33949],[-40.58059,-18.34028],[-40.57368,-18.34524],[-40.58234,-18.35243],[-40.58307,-18.36858],[-40.57063,-18.35988],[-40.56084,-18.36369],[-40.55227,-18.35984],[-40.53888,-18.35998],[-40.53842,-18.36854],[-40.52652,-18.36541],[-40.51652,-18.38393],[-40.50903,-18.39056],[-40.49705,-18.39004],[-40.49181,-18.40978],[-40.44767,-18.41392],[-40.44851,-18.41879],[-40.46547,-18.4313],[-40.4519,-18.45623],[-40.46096,-18.46232],[-40.45355,-18.46826],[-40.45643,-18.48421],[-40.44868,-18.48809],[-40.44895,-18.49565],[-40.43799,-18.50223],[-40.43296,-18.50013],[-40.41615,-18.51466],[-40.42518,-18.52159],[-40.42046,-18.54251],[-40.40332,-18.54226],[-40.39176,-18.54557],[-40.38306,-18.53902],[-40.36714,-18.55211],[-40.35854,-18.5459],[-40.34748,-18.54768],[-40.33207,-18.56043],[-40.33824,-18.56934],[-40.33084,-18.58083],[-40.30209,-18.57277],[-40.28427,-18.5768],[-40.33641,-18.72583],[-40.3432,-18.73208],[-40.34817,-18.74543],[-40.3619,-18.75471],[-40.37906,-18.77183],[-40.39452,-18.78177],[-40.39236,-18.79906],[-40.38459,-18.80267],[-40.39544,-18.81028],[-40.39437,-18.82108],[-40.40363,-18.82672],[-40.40559,-18.83456],[-40.40169,-18.85092],[-40.38597,-18.84802],[-40.37797,-18.84991],[-40.35121,-18.848],[-40.33764,-18.8509],[-40.31091,-18.84709],[-40.29864,-18.84771],[-40.29374,-18.84151],[-40.28368,-18.84407],[-40.27584,-18.83712],[-40.26263,-18.83711],[-40.2564,-18.84441],[-40.25093,-18.86406],[-40.24052,-18.86324],[-40.22633,-18.8776],[-40.21236,-18.87812],[-40.20556,-18.88518],[-40.20633,-18.90664],[-40.26389,-19.03289],[-40.28832,-19.07538],[-40.30489,-19.0843],[-40.32146,-19.08129],[-40.32378,-19.07625],[-40.34661,-19.08321],[-40.35336,-19.07321],[-40.36541,-19.06628],[-40.3748,-19.07932],[-40.36683,-19.08518],[-40.36505,-19.0957],[-40.38779,-19.11441],[-40.40205,-19.13585],[-40.41102,-19.14029],[-40.41017,-19.14949],[-40.40008,-19.14789],[-40.39554,-19.15809],[-40.40471,-19.16161],[-40.41228,-19.18898],[-40.40321,-19.19774],[-40.41182,-19.21093],[-40.41911,-19.21095],[-40.42046,-19.23823],[-40.42709,-19.24972],[-40.43511,-19.25368],[-40.43026,-19.26135],[-40.44059,-19.26942],[-40.43493,-19.27965],[-40.4436,-19.29151],[-40.45243,-19.28598],[-40.45334,-19.2795],[-40.46159,-19.27976],[-40.47134,-19.29336],[-40.49011,-19.28875],[-40.49045,-19.29814],[-40.50746,-19.30728],[-40.50933,-19.31989],[-40.52509,-19.33164],[-40.52821,-19.34609],[-40.51533,-19.34316],[-40.49663,-19.35896],[-40.49472,-19.36932],[-40.48007,-19.36455],[-40.47261,-19.3752],[-40.47808,-19.38318],[-40.46787,-19.38954],[-40.45315,-19.40921],[-40.45702,-19.41647],[-40.44145,-19.42588],[-40.4335,-19.43586],[-40.44067,-19.43945],[-40.44422,-19.45777],[-40.43497,-19.46294],[-40.43087,-19.48282],[-40.43136,-19.49311],[-40.41658,-19.5088],[-40.39308,-19.50983],[-40.37566,-19.53122],[-40.37119,-19.55647],[-40.38847,-19.56215],[-40.38923,-19.5742],[-40.37237,-19.59479],[-40.37445,-19.60493],[-40.37023,-19.6169],[-40.37649,-19.62254],[-40.41875,-19.64132],[-40.46324,-19.63065],[-40.47522,-19.64224],[-40.48273,-19.63894],[-40.48794,-19.65176],[-40.50222,-19.65765],[-40.51674,-19.67764],[-40.52734,-19.7156],[-40.5182,-19.73262],[-40.51865,-19.74464],[-40.52861,-19.74473],[-40.53392,-19.73933],[-40.54521,-19.74101],[-40.55225,-19.73404],[-40.56086,-19.74162],[-40.56949,-19.74139],[-40.58118,-19.75061],[-40.59173,-19.75462],[-40.60986,-19.75674],[-40.61488,-19.76386],[-40.62562,-19.76556],[-40.62648,-19.77082],[-40.64079,-19.77468],[-40.6645,-19.7724],[-40.67691,-19.77919],[-40.68249,-19.77339],[-40.69484,-19.77402],[-40.69692,-19.78445],[-40.70503,-19.78602],[-40.70801,-19.81616],[-40.7232,-19.82167],[-40.72785,-19.82801],[-40.73962,-19.8271],[-40.74671,-19.83107],[-40.76096,-19.82721],[-40.77306,-19.81415],[-40.78111,-19.81357],[-40.78063,-19.82957],[-40.78533,-19.8341],[-40.80302,-19.8375],[-40.81144,-19.84276],[-40.82813,-19.86626],[-40.82488,-19.88071],[-40.81411,-19.88816],[-40.82936,-19.89153],[-40.88484,-19.83458],[-40.9084,-19.84745],[-40.91497,-19.8439],[-40.93975,-19.85916],[-40.95002,-19.86148],[-40.95898,-19.85296],[-40.94922,-19.84256],[-40.95806,-19.83027],[-40.94188,-19.82267],[-40.93734,-19.81663],[-40.94098,-19.80501],[-40.95698,-19.80451],[-40.96716,-19.79953],[-40.97815,-19.79978],[-40.98438,-19.80537],[-40.99379,-19.80096],[-41.005,-19.80569],[-41.01511,-19.79812],[-41.01693,-19.78589],[-41.02336,-19.78211],[-41.03496,-19.78928],[-41.05292,-19.7698],[-41.04151,-19.76543],[-41.05388,-19.76251],[-41.06181,-19.77245],[-41.08182,-19.77747],[-41.09716,-19.78756],[-41.10922,-19.78487],[-41.11176,-19.79369],[-41.12471,-19.78888],[-41.12423,-19.77298],[-41.1392,-19.7712],[-41.15353,-19.76188],[-41.17457,-19.76305],[-41.17464,-19.76724]]]},"properties":{"CD_REG":"3203","NM_REG":"Colatina","SIGLA_UF":"ES"}},{"type":"Feature","geometry":{"type":"MultiPolygon","coordinates":[[[[-41.87474,-20.76593],[-41.8792,-20.76225],[-41.87641,-20.74708],[-41.87084,-20.7424],[-41.85894,-20.74349],[-41.86536,-20.72202],[-41.85461,-20.70546],[-41.84795,-20.68668],[-41.83937,-20.68345],[-41.83124,-20.66852],[-41.81323,-20.65326],[-41.81642,-20.64705],[-41.8073,-20.64369],[-41.8212,-20.63713],[-41.81741,-20.62454],[-41.83918,-20.62484],[-41.8564,-20.61719],[-41.85314,-20.60756],[-41.8413,-20.60044],[-41.8345,-20.5686],[-41.82839,-20.5573],[-41.80831,-20.55055],[-41.8043,-20.5384],[-41.82542,-20.48326],[-41.79944,-20.47728],[-41.79926,-20.46314],[-41.80287,-20.44296],[-41.79823,-20.43502],[-41.80368,-20.42198],[-41.83269,-20.41249],[-41.84103,-20.39945],[-41.84506,-20.37736],[-41.85951,-20.37284],[-41.8525,-20.35678],[-41.85325,-20.35058],[-41.8444,-20.34093],[-41.84851,-20.33048],[-41.837,-20.33064],[-41.82566,-20.31988],[-41.82509,-20.31239],[-41.80695,-20.30749],[-41.80309,-20.2992],[-41.78214,-20.29448],[-41.77627,-20.28636],[-41.7805,-20.28199],[-41.77553,-20.26083],[-41.76975,-20.2551],[-41.76711,-20.22926],[-41.75675,-20.20687],[-41.41558,-20.20736],[-41.41587,-20.21835],[-41.40822,-20.23363],[-41.39903,-20.23419],[-41.3927,-20.22602],[-41.39607,-20.22094],[-41.38155,-20.22354],[-41.37684,-20.21885],[-41.37723,-20.20569],[-41.36755,-20.20553],[-41.34999,-20.19808],[-41.33857,-20.22399],[-41.35049,-20.23411],[-41.34809,-20.24281],[-41.33493,-20.24341],[-41.31708,-20.25735],[-41.31047,-20.26938],[-41.31937,-20.27361],[-41.31462,-20.28925],[-41.31719,-20.30109],[-41.33141,-20.30332],[-41.3344,-20.29902],[-41.3505,-20.30208],[-41.35533,-20.30692],[-41.36128,-20.32545],[-41.35706,-20.33335],[-41.35751,-20.34842],[-41.346,-20.37433],[-41.34582,-20.38758],[-41.3369,-20.38557],[-41.32921,-20.39531],[-41.32324,-20.39542],[-41.31673,-20.40863],[-41.31992,-20.41788],[-41.31485,-20.42726],[-41.32067,-20.46866],[-41.3178,-20.49133],[-41.32187,-20.49628],[-41.31123,-20.51391],[-41.29977,-20.5215],[-41.28641,-20.506],[-41.28016,-20.50788],[-41.28332,-20.48796],[-41.27088,-20.49226],[-41.26222,-20.48629],[-41.24843,-20.49178],[-41.24242,-20.5001],[-41.23644,-20.48775],[-41.21001,-20.49104],[-41.2068,-20.48224],[-41.21549,-20.47493],[-41.2164,-20.46797],[-41.2249,-20.46213],[-41.22234,-20.45203],[-41.21499,-20.44523],[-41.20488,-20.45499],[-41.19116,-20.44558],[-41.1659,-20.44497],[-41.16588,-20.42614],[-41.15913,-20.42205],[-41.14248,-20.43157],[-41.11444,-20.41974],[-41.11126,-20.40531],[-41.10485,-20.40284],[-41.09777,-20.40887],[-41.10337,-20.42017],[-41.10115,-20.43378],[-41.08922,-20.44184],[-41.07569,-20.44525],[-41.06784,-20.46029],[-41.05284,-20.45991],[-41.05621,-20.46917],[-41.05102,-20.48106],[-41.04627,-20.47668],[-41.0399,-20.48361],[-41.01855,-20.4835],[-41.01939,-20.47801],[-41.005,-20.47048],[-41.01065,-20.45803],[-41.00744,-20.45049],[-41.01038,-20.43376],[-41.00179,-20.42622],[-40.98961,-20.43088],[-40.99508,-20.44164],[-40.98483,-20.44829],[-40.98499,-20.46053],[-40.97762,-20.45597],[-40.97028,-20.46226],[-40.97242,-20.48066],[-40.96593,-20.48364],[-40.96864,-20.49728],[-40.95983,-20.49748],[-40.96232,-20.51226],[-40.95929,-20.52134],[-40.96208,-20.5381],[-40.96617,-20.54248],[-40.95509,-20.55938],[-40.96709,-20.56452],[-40.9683,-20.57645],[-40.95606,-20.59181],[-40.96262,-20.60167],[-40.94544,-20.60609],[-40.9363,-20.5996],[-40.91024,-20.61845],[-40.91078,-20.63351],[-40.91582,-20.64395],[-40.92559,-20.64766],[-40.93422,-20.66279],[-40.93362,-20.67344],[-40.92347,-20.67543],[-40.92061,-20.6835],[-40.90355,-20.684],[-40.88209,-20.67042],[-40.87201,-20.67395],[-40.85582,-20.68557],[-40.82753,-20.6904],[-40.80381,-20.71735],[-40.79452,-20.71273],[-40.79462,-20.72573],[-40.80519,-20.73292],[-40.80852,-20.75328],[-40.80021,-20.75483],[-40.78444,-20.74839],[-40.77602,-20.75665],[-40.78081,-20.76392],[-40.7726,-20.76578],[-40.77478,-20.77406],[-40.77079,-20.78726],[-40.82804,-20.85596],[-40.82804,-20.89083],[-40.75889,-20.86565],[-40.75847,-20.87847],[-40.76757,-20.89196],[-40.7734,-20.8932],[-40.77697,-20.90425],[-40.79499,-20.9252],[-40.80345,-20.94168],[-40.80867,-20.95925],[-40.81107,-20.98624],[-40.80488,-21.0046],[-40.81252,-21.03188],[-40.83217,-21.05354],[-40.84246,-21.08851],[-40.85628,-21.1179],[-40.85842,-21.12763],[-40.87581,-21.13854],[-40.89256,-21.15656],[-40.9042,-21.16353],[-40.91678,-21.17555],[-40.93197,-21.19839],[-40.94997,-21.22961],[-40.95752,-21.24636],[-40.96203,-21.26544],[-40.96104,-21.30112],[-40.97178,-21.29519],[-40.97992,-21.28012],[-40.98495,-21.28748],[-40.99502,-21.28638],[-40.99932,-21.27847],[-40.99823,-21.26727],[-41.00537,-21.25108],[-41.01544,-21.25189],[-41.02438,-21.2458],[-41.0358,-21.25407],[-41.04438,-21.25328],[-41.05932,-21.23465],[-41.09123,-21.2189],[-41.1054,-21.21958],[-41.11555,-21.22864],[-41.13213,-21.22618],[-41.14245,-21.23805],[-41.15563,-21.23973],[-41.15653,-21.24472],[-41.17559,-21.24472],[-41.17838,-21.23842],[-41.19036,-21.24856],[-41.22214,-21.23287],[-41.24137,-21.22036],[-41.25649,-21.22525],[-41.26195,-21.23655],[-41.27356,-21.23365],[-41.27562,-21.2397],[-41.28259,-21.23482],[-41.30345,-21.2286],[-41.3096,-21.21984],[-41.31694,-21.222],[-41.31618,-21.21355],[-41.33266,-21.21549],[-41.33199,-21.21058],[-41.35769,-21.2036],[-41.37537,-21.20155],[-41.37665,-21.1958],[-41.39128,-21.20191],[-41.41077,-21.19861],[-41.42159,-21.20332],[-41.43525,-21.2157],[-41.44617,-21.21548],[-41.45903,-21.20913],[-41.47748,-21.19575],[-41.48652,-21.17989],[-41.49826,-21.18513],[-41.50294,-21.17765],[-41.51155,-21.17584],[-41.51674,-21.18772],[-41.53044,-21.18003],[-41.5487,-21.18305],[-41.55541,-21.17255],[-41.56462,-21.18374],[-41.56981,-21.17243],[-41.57862,-21.16955],[-41.58615,-21.15968],[-41.58613,-21.14981],[-41.61259,-21.157],[-41.62198,-21.14696],[-41.65409,-21.14217],[-41.65244,-21.13765],[-41.66536,-21.13198],[-41.66278,-21.12485],[-41.67875,-21.13321],[-41.67766,-21.12409],[-41.68874,-21.1218],[-41.69559,-21.11553],[-41.70573,-21.12082],[-41.70494,-21.12779],[-41.72056,-21.12237],[-41.70833,-21.10661],[-41.72722,-21.1073],[-41.73594,-21.1026],[-41.73127,-21.08731],[-41.72156,-21.0733],[-41.72346,-21.06699],[-41.73264,-21.0664],[-41.72792,-21.04925],[-41.72377,-21.05567],[-41.71621,-21.04681],[-41.7252,-21.03308],[-41.71455,-21.01541],[-41.72242,-21.00916],[-41.71557,-20.99131],[-41.71007,-20.99131],[-41.71802,-20.96504],[-41.71734,-20.95323],[-41.73389,-20.94314],[-41.73735,-20.92794],[-41.72247,-20.92332],[-41.71914,-20.89739],[-41.72566,-20.89514],[-41.72365,-20.88456],[-41.71146,-20.87196],[-41.7254,-20.86572],[-41.73733,-20.87015],[-41.7439,-20.85464],[-41.74164,-20.84151],[-41.73631,-20.83591],[-41.74264,-20.82562],[-41.73985,-20.8175],[-41.74613,-20.81265],[-41.75175,-20.81631],[-41.7555,-20.80827],[-41.7821,-20.7977],[-41.79403,-20.79805],[-41.79917,-20.80532],[-41.81271,-20.803],[-41.82883,-20.79434],[-41.8262,-20.7892],[-41.83244,-20.78188],[-41.84258,-20.77915],[-41.852,-20.76396],[-41.87474,-20.76593]]],[[[-40.88325,-21.16375],[-40.88506,-21.16265],[-40.88394,-21.16182],[-40.88325,-21.16375]]],[[[-40.80038,-21.00598],[-40.80134,-21.00689],[-40.80155,-21.00675],[-40.80038,-21.00598]]],[[[-40.78769,-21.00295],[-40.78779,-21.00343],[-40.78815,-21.00337],[-40.78769,-21.00295]]],[[[-40.78581,-21.0025],[-40.7865,-21.00161],[-40.78524,-21.00104],[-40.78581,-21.0025]]],[[[-40.75691,-20.92793],[-40.75308,-20.92429],[-40.75205,-20.92745],[-40.75691,-20.92793]]],[[[-40.75048,-20.87326],[-40.74944,-20.8733],[-40.75229,-20.87478],[-40.75048,-20.87326]]]]},"properties":{"CD_REG":"3204","NM_REG":"Cachoeiro do Itapemirim","SIGLA_UF":"ES"}}]}