{"type":"FeatureCollection","features":[{"type":"Feature","geometry":{"type":"Polygon","coordinates":[[[-40.02093,-5.32797],[-40.01817,-5.31844],[-40.03076,-5.31024],[-40.02535,-5.30454],[-40.02742,-5.29695],[-40.04125,-5.29105],[-40.05586,-5.29184],[-40.05678,-5.28611],[-40.04864,-5.27902],[-40.04291,-5.2569],[-40.04715,-5.23949],[-40.02284,-5.20594],[-40.03218,-5.19894],[-40.02208,-5.18922],[-40.03092,-5.18721],[-40.03883,-5.17833],[-40.05358,-5.18041],[-40.05843,-5.18659],[-40.06743,-5.17924],[-40.07261,-5.16103],[-40.08612,-5.17107],[-40.09671,-5.15946],[-40.11285,-5.16533],[-40.11451,-5.16081],[-40.13647,-5.15775],[-40.14182,-5.1656],[-40.16004,-5.16479],[-39.9976,-5.08449],[-39.99301,-5.07414],[-39.98669,-5.07214],[-39.98213,-5.06038],[-39.97378,-5.04985],[-39.96938,-5.02768],[-39.95784,-5.02537],[-39.96874,-4.94623],[-39.96219,-4.93128],[-39.95017,-4.9236],[-39.94674,-4.92961],[-39.93889,-4.92083],[-39.93582,-4.92486],[-39.92903,-4.91284],[-39.91609,-4.90549],[-39.9012,-4.90465],[-39.90316,-4.89965],[-39.89254,-4.8863],[-39.9018,-4.88405],[-39.93238,-4.85546],[-39.94147,-4.8405],[-39.9459,-4.839],[-39.94928,-4.81753],[-39.92898,-4.79711],[-39.93847,-4.78497],[-39.93884,-4.76969],[-39.92858,-4.77454],[-39.91546,-4.78364],[-39.91587,-4.78848],[-39.90345,-4.78746],[-39.88491,-4.79018],[-39.87996,-4.77951],[-39.87194,-4.7739],[-39.87314,-4.76022],[-39.86502,-4.75391],[-39.86239,-4.73896],[-39.85593,-4.73631],[-39.84132,-4.73897],[-39.82376,-4.73002],[-39.80606,-4.74227],[-39.79896,-4.74369],[-39.7904,-4.75379],[-39.80678,-4.7078],[-39.74258,-4.71956],[-39.72746,-4.69172],[-39.71227,-4.68089],[-39.73036,-4.66675],[-39.71576,-4.65654],[-39.73866,-4.65259],[-39.747,-4.64871],[-39.76661,-4.6467],[-39.77203,-4.64015],[-39.77004,-4.63074],[-39.75516,-4.61888],[-39.7384,-4.60934],[-39.73031,-4.5998],[-39.71709,-4.59736],[-39.70086,-4.58369],[-39.68656,-4.576],[-39.68627,-4.56711],[-39.69437,-4.55972],[-39.70132,-4.54543],[-39.7294,-4.54022],[-39.7458,-4.54476],[-39.75667,-4.53518],[-39.7641,-4.53454],[-39.76821,-4.52365],[-39.75514,-4.51216],[-39.756,-4.50198],[-39.74813,-4.49772],[-39.74665,-4.49019],[-39.73821,-4.49372],[-39.72067,-4.48151],[-39.73316,-4.46532],[-39.7337,-4.4524],[-39.72946,-4.4475],[-39.74055,-4.4293],[-39.73818,-4.42276],[-39.7519,-4.4075],[-39.75346,-4.39906],[-39.73972,-4.40125],[-39.72782,-4.39325],[-39.72491,-4.37902],[-39.71786,-4.38308],[-39.70935,-4.37802],[-39.71391,-4.35396],[-39.70841,-4.34817],[-39.72546,-4.34441],[-39.73453,-4.33319],[-39.73216,-4.31774],[-39.72744,-4.31935],[-39.72621,-4.30837],[-39.73917,-4.29492],[-39.73398,-4.28709],[-39.73822,-4.28299],[-39.73019,-4.27487],[-39.74889,-4.25477],[-39.76581,-4.248],[-39.77314,-4.22344],[-39.78186,-4.20671],[-39.7879,-4.18857],[-39.77532,-4.17983],[-39.77441,-4.17333],[-39.78823,-4.17237],[-39.80868,-4.13548],[-39.80714,-4.12554],[-39.81131,-4.11661],[-39.81854,-4.11786],[-39.83902,-4.11243],[-39.85786,-4.10146],[-39.84933,-4.08817],[-39.85342,-4.07845],[-39.87706,-4.06065],[-39.86876,-4.04429],[-39.88819,-4.03932],[-39.89867,-4.04314],[-39.91737,-4.03412],[-39.92696,-4.03417],[-39.9211,-4.02],[-39.91516,-4.02053],[-39.91593,-3.99806],[-39.92285,-3.99802],[-39.92472,-3.9884],[-39.9386,-3.98996],[-39.94198,-3.9762],[-39.95435,-3.96269],[-39.98039,-3.94177],[-39.99096,-3.93869],[-39.99923,-3.93052],[-39.99931,-3.91751],[-40.00695,-3.89909],[-39.92486,-3.94609],[-39.97634,-3.77668],[-40.01179,-3.76015],[-40.01235,-3.7285],[-40.01783,-3.72238],[-40.01436,-3.7144],[-40.02026,-3.69418],[-40.01473,-3.6855],[-40.01484,-3.66936],[-40.00681,-3.65441],[-40.0094,-3.64785],[-39.99335,-3.62633],[-39.97974,-3.59581],[-39.97441,-3.57162],[-39.9975,-3.58015],[-40.0095,-3.5781],[-40.02173,-3.58251],[-40.04434,-3.58107],[-40.05307,-3.58965],[-40.06525,-3.59315],[-40.06215,-3.58632],[-40.05226,-3.58334],[-40.04265,-3.56478],[-40.04663,-3.55422],[-40.0447,-3.51931],[-40.04035,-3.51743],[-40.04142,-3.50448],[-40.0363,-3.49514],[-40.03854,-3.4799],[-40.04264,-3.47594],[-40.03751,-3.46048],[-40.02627,-3.4507],[-40.02791,-3.43766],[-40.01404,-3.42947],[-39.99645,-3.40863],[-39.99272,-3.38838],[-39.98385,-3.36549],[-39.97148,-3.35385],[-39.95539,-3.34825],[-39.9392,-3.3347],[-39.93441,-3.31688],[-39.92727,-3.31064],[-39.92373,-3.2947],[-39.91201,-3.28772],[-39.90134,-3.25648],[-39.89187,-3.23687],[-39.89479,-3.23043],[-39.89072,-3.21918],[-39.89907,-3.21586],[-39.90263,-3.20792],[-39.89639,-3.19632],[-39.87826,-3.18533],[-39.86552,-3.15727],[-39.86534,-3.12737],[-39.86801,-3.12461],[-39.70904,-3.01445],[-39.7069,-3.00525],[-39.71951,-3.00034],[-39.72097,-2.99694],[-39.70212,-3.00131],[-39.68743,-2.99662],[-39.67676,-3.00125],[-39.66058,-3.0211],[-39.6498,-3.02465],[-39.63697,-3.01896],[-39.61983,-3.02598],[-39.60008,-3.06152],[-39.59214,-3.06942],[-39.58069,-3.0733],[-39.54988,-3.07913],[-39.53312,-3.09123],[-39.52282,-3.10196],[-39.48689,-3.11914],[-39.47503,-3.13504],[-39.46269,-3.1438],[-39.43637,-3.14838],[-39.41285,-3.16037],[-39.39697,-3.17677],[-39.38182,-3.18358],[-39.36491,-3.17328],[-39.35335,-3.17431],[-39.34142,-3.18046],[-39.33538,-3.18999],[-39.32247,-3.2007],[-39.30516,-3.20692],[-39.29269,-3.21514],[-39.27735,-3.21969],[-39.257,-3.21952],[-39.22773,-3.24081],[-39.19578,-3.28077],[-39.19112,-3.28495],[-39.17754,-3.30922],[-39.1564,-3.33532],[-39.13938,-3.34571],[-39.12759,-3.34361],[-39.11274,-3.34711],[-39.10334,-3.36623],[-39.09118,-3.38456],[-39.0742,-3.40139],[-39.04875,-3.41257],[-39.03533,-3.41116],[-39.0293,-3.40469],[-39.01467,-3.40285],[-39.00742,-3.39705],[-38.99205,-3.39915],[-38.97377,-3.41108],[-38.95295,-3.43735],[-38.93681,-3.45354],[-38.91794,-3.49429],[-38.90729,-3.5054],[-38.89224,-3.50566],[-38.85216,-3.54084],[-38.83772,-3.54548],[-38.81964,-3.54598],[-38.81226,-3.54213],[-38.79765,-3.56297],[-38.77003,-3.59782],[-38.74832,-3.61689],[-38.72383,-3.62585],[-38.69559,-3.64371],[-38.67662,-3.66467],[-38.6524,-3.68216],[-38.61762,-3.68992],[-38.61109,-3.68877],[-38.58758,-3.69641],[-38.58667,-3.69203],[-38.5401,-3.71594],[-38.52851,-3.71983],[-38.51179,-3.71893],[-38.49585,-3.72503],[-38.47622,-3.71932],[-38.47317,-3.70639],[-38.46384,-3.70724],[-38.46063,-3.72121],[-38.43582,-3.77057],[-38.40169,-3.82187],[-38.3927,-3.83778],[-38.36032,-3.88486],[-38.33466,-3.91243],[-38.30354,-3.93598],[-38.27286,-3.94468],[-38.22779,-4.00205],[-38.20734,-4.02946],[-38.19216,-4.04055],[-38.15646,-4.09037],[-38.14851,-4.09851],[-38.12948,-4.13032],[-38.11489,-4.14914],[-38.07941,-4.18174],[-38.04375,-4.21922],[-38.03344,-4.22495],[-38.01112,-4.24952],[-37.98832,-4.26084],[-37.96012,-4.2918],[-37.93621,-4.31124],[-37.90659,-4.33975],[-37.85417,-4.3795],[-37.84512,-4.38166],[-37.83076,-4.38816],[-37.81805,-4.39803],[-37.82335,-4.40589],[-37.83679,-4.40185],[-37.85814,-4.40088],[-37.87546,-4.40486],[-37.88021,-4.41262],[-37.89552,-4.40724],[-37.90491,-4.41394],[-37.90656,-4.40406],[-37.91287,-4.39973],[-37.93113,-4.39743],[-37.9504,-4.40383],[-37.948,-4.41202],[-37.95358,-4.41882],[-37.96762,-4.42373],[-37.97635,-4.43243],[-37.96691,-4.46463],[-37.95534,-4.47024],[-37.9537,-4.47989],[-37.9627,-4.50632],[-37.96902,-4.51628],[-37.96333,-4.53236],[-37.97503,-4.53604],[-37.98337,-4.54576],[-37.98405,-4.5603],[-37.99301,-4.5654],[-37.9844,-4.58227],[-38.00071,-4.59773],[-38.02024,-4.59379],[-38.02409,-4.59955],[-38.04842,-4.58955],[-38.05475,-4.59416],[-38.07755,-4.59234],[-38.08356,-4.5876],[-38.10111,-4.59649],[-38.11,-4.60636],[-38.10659,-4.61631],[-38.12378,-4.61976],[-38.14782,-4.61431],[-38.18206,-4.62275],[-38.21153,-4.59195],[-38.22922,-4.58176],[-38.23493,-4.57416],[-38.30433,-4.53643],[-38.30599,-4.5316],[-38.32334,-4.5191],[-38.34905,-4.51226],[-38.36203,-4.50094],[-38.36452,-4.50959],[-38.38186,-4.51869],[-38.38146,-4.52849],[-38.37161,-4.53055],[-38.36524,-4.54403],[-38.37095,-4.56429],[-38.36883,-4.57624],[-38.3888,-4.57983],[-38.39399,-4.59022],[-38.40792,-4.59675],[-38.40601,-4.60596],[-38.42281,-4.61893],[-38.4211,-4.62468],[-38.43432,-4.63838],[-38.44807,-4.64367],[-38.44946,-4.65086],[-38.45789,-4.65342],[-38.46829,-4.64522],[-38.47502,-4.6499],[-38.49002,-4.64995],[-38.50484,-4.65542],[-38.52868,-4.68039],[-38.53869,-4.67961],[-38.5501,-4.67326],[-38.56908,-4.67322],[-38.57623,-4.66896],[-38.60119,-4.68316],[-38.6183,-4.69731],[-38.63623,-4.69935],[-38.63325,-4.68858],[-38.64652,-4.68138],[-38.65465,-4.68139],[-38.66358,-4.66076],[-38.67023,-4.6666],[-38.67543,-4.65969],[-38.68917,-4.65199],[-38.68674,-4.64478],[-38.69308,-4.62985],[-38.69865,-4.62598],[-38.70036,-4.61225],[-38.70775,-4.6108],[-38.71863,-4.62017],[-38.73907,-4.61847],[-38.75273,-4.62387],[-38.76571,-4.62324],[-38.76895,-4.63075],[-38.78287,-4.63122],[-38.78275,-4.64063],[-38.79217,-4.64786],[-38.8014,-4.64893],[-38.81367,-4.67147],[-38.83194,-4.66841],[-38.83962,-4.67161],[-38.85822,-4.66701],[-38.87453,-4.67952],[-38.88095,-4.69371],[-38.88296,-4.70821],[-38.89126,-4.71481],[-38.90506,-4.71304],[-38.90138,-4.71989],[-38.91755,-4.73124],[-38.92333,-4.7391],[-38.94376,-4.74079],[-38.95122,-4.71697],[-38.96519,-4.70408],[-38.94925,-4.68257],[-38.95315,-4.66411],[-38.97811,-4.66912],[-38.9774,-4.65897],[-38.99155,-4.65333],[-38.99407,-4.64659],[-39.00766,-4.65038],[-39.01289,-4.64261],[-39.02516,-4.63986],[-39.03219,-4.64386],[-39.04801,-4.6399],[-39.06396,-4.65394],[-39.07308,-4.64918],[-39.07787,-4.63903],[-39.09707,-4.64303],[-39.10023,-4.63613],[-39.11212,-4.6433],[-39.11912,-4.63386],[-39.1192,-4.62561],[-39.14038,-4.63268],[-39.16008,-4.63552],[-39.17996,-4.65528],[-39.18104,-4.65108],[-39.20204,-4.64576],[-39.20387,-4.65244],[-39.23043,-4.65292],[-39.2379,-4.64366],[-39.2529,-4.64838],[-39.26993,-4.64707],[-39.28224,-4.65153],[-39.28488,-4.65942],[-39.29266,-4.66344],[-39.29474,-4.68839],[-39.30487,-4.70743],[-39.31357,-4.70876],[-39.33257,-4.71888],[-39.34456,-4.73055],[-39.36324,-4.73863],[-39.3673,-4.7248],[-39.3726,-4.73041],[-39.36954,-4.74212],[-39.35711,-4.75188],[-39.34629,-4.74759],[-39.32983,-4.73527],[-39.31865,-4.72336],[-39.30996,-4.72788],[-39.30085,-4.72222],[-39.2911,-4.7358],[-39.2966,-4.73723],[-39.30344,-4.74997],[-39.32081,-4.75717],[-39.34318,-4.77195],[-39.34656,-4.79002],[-39.34007,-4.79218],[-39.34846,-4.80151],[-39.34593,-4.81423],[-39.35762,-4.8373],[-39.36618,-4.84039],[-39.36119,-4.85828],[-39.35597,-4.85922],[-39.3529,-4.87741],[-39.34683,-4.89619],[-39.35283,-4.89763],[-39.35378,-4.90791],[-39.36601,-4.93308],[-39.35792,-4.93969],[-39.35563,-4.95326],[-39.34827,-4.96033],[-39.35543,-4.9671],[-39.34994,-4.97428],[-39.35597,-4.98207],[-39.36561,-4.97469],[-39.37439,-4.97323],[-39.38008,-4.95708],[-39.38962,-4.94375],[-39.38718,-4.9348],[-39.39446,-4.9274],[-39.42239,-4.94235],[-39.4205,-4.94969],[-39.43838,-4.9525],[-39.46675,-4.96383],[-39.47041,-4.97269],[-39.48072,-4.97673],[-39.47834,-4.99521],[-39.47257,-5.00869],[-39.49368,-5.03018],[-39.50232,-5.0522],[-39.62883,-5.043],[-39.63395,-5.0572],[-39.61395,-5.08429],[-39.59302,-5.09806],[-39.58212,-5.09579],[-39.56559,-5.10282],[-39.53625,-5.11884],[-39.62398,-5.25516],[-39.62699,-5.30711],[-39.62088,-5.32245],[-39.63168,-5.32497],[-39.63137,-5.33645],[-39.64419,-5.33324],[-39.64985,-5.34058],[-39.65874,-5.33915],[-39.65812,-5.35345],[-39.66408,-5.36194],[-39.68242,-5.36338],[-39.68825,-5.35815],[-39.70574,-5.36326],[-39.70739,-5.37124],[-39.72635,-5.37922],[-39.72864,-5.36986],[-39.74612,-5.37364],[-39.75755,-5.36781],[-39.77033,-5.37756],[-39.78266,-5.3795],[-39.79927,-5.39894],[-39.80522,-5.38515],[-39.81719,-5.3898],[-39.8265,-5.37634],[-39.84234,-5.36895],[-39.87639,-5.37392],[-39.88555,-5.38829],[-39.89686,-5.39679],[-39.91425,-5.38621],[-39.92171,-5.39049],[-39.93211,-5.37851],[-39.93488,-5.36401],[-39.94744,-5.36054],[-39.93986,-5.34869],[-39.94275,-5.34426],[-39.95737,-5.34827],[-39.959,-5.33954],[-39.97123,-5.34527],[-39.99313,-5.34977],[-40.00104,-5.34707],[-40.00491,-5.33938],[-40.01456,-5.34355],[-40.02093,-5.32797]]]},"properties":{"CD_REG":"2301","NM_REG":"Fortaleza","SIGLA_UF":"CE"}},{"type":"Feature","geometry":{"type":"Polygon","coordinates":[[[-38.51971,-6.22304],[-38.55119,-6.23431],[-38.56029,-6.2306],[-38.57058,-6.21695],[-38.57109,-6.20751],[-38.57936,-6.20664],[-38.59183,-6.1972],[-38.60096,-6.1858],[-38.60361,-6.17424],[-38.61162,-6.17074],[-38.63191,-6.17432],[-38.65582,-6.18649],[-38.66149,-6.19504],[-38.67914,-6.20539],[-38.68537,-6.21219],[-38.69129,-6.20706],[-38.71277,-6.2052],[-38.72517,-6.20102],[-38.73533,-6.17525],[-38.73448,-6.15256],[-38.72487,-6.14762],[-38.72146,-6.12751],[-38.71232,-6.1193],[-38.70888,-6.10767],[-38.72217,-6.12084],[-38.7334,-6.1239],[-38.73509,-6.11893],[-38.7548,-6.11135],[-38.76812,-6.12381],[-38.78228,-6.1142],[-38.79831,-6.12301],[-38.81269,-6.13527],[-38.8207,-6.13658],[-38.8212,-6.12405],[-38.834,-6.12624],[-38.84218,-6.13565],[-38.86138,-6.1344],[-38.87206,-6.14004],[-38.87697,-6.14775],[-38.90142,-6.14124],[-38.90573,-6.12646],[-38.90747,-6.08599],[-38.94099,-6.07932],[-38.94935,-6.08008],[-38.95977,-6.0906],[-38.96812,-6.09173],[-38.97249,-6.10294],[-38.97978,-6.10169],[-38.97791,-6.09241],[-38.98966,-6.07638],[-38.98515,-6.06913],[-38.98651,-6.02853],[-38.99148,-6.02266],[-39.00666,-6.01838],[-39.01078,-6.00709],[-39.01853,-6.00523],[-39.02141,-6.01862],[-39.03001,-6.01379],[-39.05074,-6.02535],[-39.06036,-5.99766],[-39.07388,-5.99752],[-39.07815,-5.99145],[-39.08665,-5.99237],[-39.10229,-5.98312],[-39.11301,-5.9889],[-39.11264,-5.9771],[-39.13062,-5.98358],[-39.14403,-5.96676],[-39.14355,-5.96025],[-39.16103,-5.95547],[-39.18111,-5.96423],[-39.19767,-5.95694],[-39.20325,-5.98636],[-39.21242,-5.99165],[-39.23191,-5.98998],[-39.23586,-6.00156],[-39.23861,-5.9958],[-39.26583,-5.99717],[-39.27753,-6.00497],[-39.29559,-5.99775],[-39.29689,-5.98991],[-39.30649,-5.99369],[-39.30984,-6.00083],[-39.32048,-6.00694],[-39.33722,-6.00183],[-39.3449,-6.00788],[-39.35248,-5.99073],[-39.36657,-5.99115],[-39.36132,-5.9721],[-39.35475,-5.96435],[-39.35217,-5.95179],[-39.36142,-5.95268],[-39.36688,-5.94567],[-39.35855,-5.92983],[-39.35886,-5.92047],[-39.37588,-5.91086],[-39.36833,-5.90138],[-39.35812,-5.89736],[-39.35756,-5.88348],[-39.34966,-5.87877],[-39.34935,-5.86603],[-39.35349,-5.86455],[-39.34158,-5.85136],[-39.32402,-5.84485],[-39.32097,-5.83275],[-39.33275,-5.835],[-39.34493,-5.83122],[-39.34114,-5.80834],[-39.32737,-5.79155],[-39.32784,-5.78277],[-39.4345,-5.72855],[-39.45408,-5.73948],[-39.46329,-5.71353],[-39.47172,-5.71182],[-39.476,-5.70266],[-39.47281,-5.68534],[-39.46485,-5.68928],[-39.45185,-5.67777],[-39.45047,-5.67233],[-39.43932,-5.66565],[-39.4321,-5.6552],[-39.44125,-5.65789],[-39.47213,-5.64226],[-39.47714,-5.64446],[-39.48285,-5.63331],[-39.48031,-5.62062],[-39.4833,-5.61506],[-39.4942,-5.61537],[-39.50744,-5.62768],[-39.52114,-5.62609],[-39.52645,-5.62044],[-39.54557,-5.61298],[-39.56322,-5.61577],[-39.57106,-5.60758],[-39.58701,-5.60633],[-39.60185,-5.62498],[-39.60741,-5.62272],[-39.61915,-5.6279],[-39.6354,-5.63971],[-39.63774,-5.63544],[-39.63042,-5.62274],[-39.63223,-5.60645],[-39.65142,-5.6135],[-39.66217,-5.61122],[-39.67537,-5.62154],[-39.69443,-5.61282],[-39.69125,-5.59991],[-39.72551,-5.59475],[-39.73759,-5.59818],[-39.74469,-5.59361],[-39.74977,-5.57621],[-39.76958,-5.5879],[-39.80339,-5.57628],[-39.8038,-5.57155],[-39.8181,-5.56803],[-39.82651,-5.57423],[-39.83997,-5.59971],[-39.84764,-5.60069],[-39.846,-5.61039],[-39.85204,-5.62615],[-39.86495,-5.62755],[-39.87633,-5.64008],[-39.87668,-5.62758],[-39.90148,-5.63464],[-39.90679,-5.64174],[-39.92486,-5.63555],[-39.92444,-5.62232],[-39.9366,-5.62417],[-39.93943,-5.63804],[-39.95637,-5.63741],[-39.95301,-5.63032],[-39.95687,-5.62076],[-39.96343,-5.61908],[-39.96488,-5.63174],[-39.98133,-5.63555],[-40.00038,-5.62511],[-40.01275,-5.62497],[-40.01628,-5.63235],[-40.03788,-5.64649],[-40.03753,-5.65248],[-40.04987,-5.67272],[-40.04111,-5.68358],[-40.03813,-5.69886],[-40.02241,-5.7101],[-40.04255,-5.71188],[-40.04773,-5.69743],[-40.06377,-5.68807],[-40.06673,-5.6755],[-40.07358,-5.66506],[-40.06177,-5.65349],[-40.0542,-5.6415],[-40.06288,-5.63631],[-40.05763,-5.63157],[-40.05133,-5.60966],[-40.0595,-5.60724],[-40.05733,-5.59846],[-40.06321,-5.5904],[-40.07572,-5.58941],[-40.07651,-5.58234],[-40.05649,-5.57521],[-40.04498,-5.56557],[-40.03378,-5.56347],[-40.02055,-5.53923],[-40.01378,-5.51856],[-40.03074,-5.50779],[-40.02799,-5.49027],[-40.03859,-5.49104],[-40.05397,-5.48716],[-40.04695,-5.46751],[-40.05514,-5.46261],[-40.05683,-5.43531],[-40.06792,-5.42455],[-40.06244,-5.41753],[-40.06467,-5.40914],[-40.05861,-5.399],[-40.0617,-5.39023],[-40.05212,-5.36693],[-40.06001,-5.36125],[-40.03164,-5.34957],[-40.02093,-5.32797],[-40.01456,-5.34355],[-40.00491,-5.33938],[-40.00104,-5.34707],[-39.99313,-5.34977],[-39.97123,-5.34527],[-39.959,-5.33954],[-39.95737,-5.34827],[-39.94275,-5.34426],[-39.93986,-5.34869],[-39.94744,-5.36054],[-39.93488,-5.36401],[-39.93211,-5.37851],[-39.92171,-5.39049],[-39.91425,-5.38621],[-39.89686,-5.39679],[-39.88555,-5.38829],[-39.87639,-5.37392],[-39.84234,-5.36895],[-39.8265,-5.37634],[-39.81719,-5.3898],[-39.80522,-5.38515],[-39.79927,-5.39894],[-39.78266,-5.3795],[-39.77033,-5.37756],[-39.75755,-5.36781],[-39.74612,-5.37364],[-39.72864,-5.36986],[-39.72635,-5.37922],[-39.70739,-5.37124],[-39.70574,-5.36326],[-39.68825,-5.35815],[-39.68242,-5.36338],[-39.66408,-5.36194],[-39.65812,-5.35345],[-39.65874,-5.33915],[-39.64985,-5.34058],[-39.64419,-5.33324],[-39.63137,-5.33645],[-39.63168,-5.32497],[-39.62088,-5.32245],[-39.62699,-5.30711],[-39.62398,-5.25516],[-39.53625,-5.11884],[-39.56559,-5.10282],[-39.58212,-5.09579],[-39.59302,-5.09806],[-39.61395,-5.08429],[-39.63395,-5.0572],[-39.62883,-5.043],[-39.50232,-5.0522],[-39.49368,-5.03018],[-39.47257,-5.00869],[-39.47834,-4.99521],[-39.48072,-4.97673],[-39.47041,-4.97269],[-39.46675,-4.96383],[-39.43838,-4.9525],[-39.4205,-4.94969],[-39.42239,-4.94235],[-39.39446,-4.9274],[-39.38718,-4.9348],[-39.38962,-4.94375],[-39.38008,-4.95708],[-39.37439,-4.97323],[-39.36561,-4.97469],[-39.35597,-4.98207],[-39.34994,-4.97428],[-39.35543,-4.9671],[-39.34827,-4.96033],[-39.35563,-4.95326],[-39.35792,-4.93969],[-39.36601,-4.93308],[-39.35378,-4.90791],[-39.35283,-4.89763],[-39.34683,-4.89619],[-39.3529,-4.87741],[-39.35597,-4.85922],[-39.36119,-4.85828],[-39.36618,-4.84039],[-39.35762,-4.8373],[-39.34593,-4.81423],[-39.34846,-4.80151],[-39.34007,-4.79218],[-39.34656,-4.79002],[-39.34318,-4.77195],[-39.32081,-4.75717],[-39.30344,-4.74997],[-39.2966,-4.73723],[-39.2911,-4.7358],[-39.30085,-4.72222],[-39.30996,-4.72788],[-39.31865,-4.72336],[-39.32983,-4.73527],[-39.34629,-4.74759],[-39.35711,-4.75188],[-39.36954,-4.74212],[-39.3726,-4.73041],[-39.3673,-4.7248],[-39.36324,-4.73863],[-39.34456,-4.73055],[-39.33257,-4.71888],[-39.31357,-4.70876],[-39.30487,-4.70743],[-39.29474,-4.68839],[-39.29266,-4.66344],[-39.28488,-4.65942],[-39.28224,-4.65153],[-39.26993,-4.64707],[-39.2529,-4.64838],[-39.2379,-4.64366],[-39.23043,-4.65292],[-39.20387,-4.65244],[-39.20204,-4.64576],[-39.18104,-4.65108],[-39.17996,-4.65528],[-39.16008,-4.63552],[-39.14038,-4.63268],[-39.1192,-4.62561],[-39.11912,-4.63386],[-39.11212,-4.6433],[-39.10023,-4.63613],[-39.09707,-4.64303],[-39.07787,-4.63903],[-39.07308,-4.64918],[-39.06396,-4.65394],[-39.04801,-4.6399],[-39.03219,-4.64386],[-39.02516,-4.63986],[-39.01289,-4.64261],[-39.00766,-4.65038],[-38.99407,-4.64659],[-38.99155,-4.65333],[-38.9774,-4.65897],[-38.97811,-4.66912],[-38.95315,-4.66411],[-38.94925,-4.68257],[-38.96519,-4.70408],[-38.95122,-4.71697],[-38.94376,-4.74079],[-38.92333,-4.7391],[-38.91755,-4.73124],[-38.90138,-4.71989],[-38.90506,-4.71304],[-38.89126,-4.71481],[-38.88296,-4.70821],[-38.88095,-4.69371],[-38.87453,-4.67952],[-38.85822,-4.66701],[-38.83962,-4.67161],[-38.83194,-4.66841],[-38.81367,-4.67147],[-38.8014,-4.64893],[-38.79217,-4.64786],[-38.78275,-4.64063],[-38.78287,-4.63122],[-38.76895,-4.63075],[-38.76571,-4.62324],[-38.75273,-4.62387],[-38.73907,-4.61847],[-38.71863,-4.62017],[-38.70775,-4.6108],[-38.70036,-4.61225],[-38.69865,-4.62598],[-38.69308,-4.62985],[-38.68674,-4.64478],[-38.68917,-4.65199],[-38.67543,-4.65969],[-38.67023,-4.6666],[-38.66358,-4.66076],[-38.65465,-4.68139],[-38.64652,-4.68138],[-38.63325,-4.68858],[-38.63623,-4.69935],[-38.6183,-4.69731],[-38.60119,-4.68316],[-38.57623,-4.66896],[-38.56908,-4.67322],[-38.5501,-4.67326],[-38.53869,-4.67961],[-38.52868,-4.68039],[-38.50484,-4.65542],[-38.49002,-4.64995],[-38.47502,-4.6499],[-38.46829,-4.64522],[-38.45789,-4.65342],[-38.44946,-4.65086],[-38.44807,-4.64367],[-38.43432,-4.63838],[-38.4211,-4.62468],[-38.42281,-4.61893],[-38.40601,-4.60596],[-38.40792,-4.59675],[-38.39399,-4.59022],[-38.3888,-4.57983],[-38.36883,-4.57624],[-38.37095,-4.56429],[-38.36524,-4.54403],[-38.37161,-4.53055],[-38.38146,-4.52849],[-38.38186,-4.51869],[-38.36452,-4.50959],[-38.36203,-4.50094],[-38.34905,-4.51226],[-38.32334,-4.5191],[-38.30599,-4.5316],[-38.30433,-4.53643],[-38.23493,-4.57416],[-38.22922,-4.58176],[-38.21153,-4.59195],[-38.18206,-4.62275],[-38.14782,-4.61431],[-38.12378,-4.61976],[-38.10659,-4.61631],[-38.11,-4.60636],[-38.10111,-4.59649],[-38.08356,-4.5876],[-38.07755,-4.59234],[-38.05475,-4.59416],[-38.04842,-4.58955],[-38.02409,-4.59955],[-38.02024,-4.59379],[-38.00071,-4.59773],[-37.9844,-4.58227],[-37.99301,-4.5654],[-37.98405,-4.5603],[-37.98337,-4.54576],[-37.97503,-4.53604],[-37.96333,-4.53236],[-37.96902,-4.51628],[-37.9627,-4.50632],[-37.9537,-4.47989],[-37.95534,-4.47024],[-37.96691,-4.46463],[-37.97635,-4.43243],[-37.96762,-4.42373],[-37.95358,-4.41882],[-37.948,-4.41202],[-37.9504,-4.40383],[-37.93113,-4.39743],[-37.91287,-4.39973],[-37.90656,-4.40406],[-37.90491,-4.41394],[-37.89552,-4.40724],[-37.88021,-4.41262],[-37.87546,-4.40486],[-37.85814,-4.40088],[-37.83679,-4.40185],[-37.82335,-4.40589],[-37.81805,-4.39803],[-37.83076,-4.38816],[-37.84512,-4.38166],[-37.83808,-4.38089],[-37.81681,-4.39535],[-37.80095,-4.39955],[-37.79652,-4.39475],[-37.78376,-4.40133],[-37.77054,-4.4011],[-37.76659,-4.41773],[-37.76961,-4.42485],[-37.75425,-4.43709],[-37.7446,-4.46343],[-37.73242,-4.48849],[-37.71289,-4.51528],[-37.68835,-4.53273],[-37.65237,-4.57322],[-37.63559,-4.58951],[-37.60311,-4.6173],[-37.58957,-4.62681],[-37.56608,-4.63821],[-37.54297,-4.64471],[-37.52288,-4.64194],[-37.50993,-4.63001],[-37.49468,-4.62866],[-37.47856,-4.64634],[-37.46197,-4.65165],[-37.40755,-4.67514],[-37.37122,-4.68242],[-37.34897,-4.69255],[-37.34457,-4.69038],[-37.32591,-4.70027],[-37.29503,-4.7302],[-37.28158,-4.75169],[-37.27127,-4.78571],[-37.25923,-4.81871],[-37.25266,-4.83139],[-37.44645,-4.88096],[-37.55855,-4.90791],[-37.64034,-4.9264],[-37.66027,-4.99791],[-37.67762,-5.05409],[-37.71049,-5.06115],[-37.72509,-5.07062],[-37.73163,-5.08453],[-37.73342,-5.10064],[-37.76496,-5.13962],[-37.77631,-5.18712],[-37.78742,-5.20393],[-37.78997,-5.2145],[-37.78296,-5.23226],[-37.79046,-5.25496],[-37.79186,-5.26877],[-37.78261,-5.28674],[-37.78311,-5.29482],[-37.80429,-5.31279],[-37.82287,-5.32294],[-37.83571,-5.33539],[-37.84747,-5.34002],[-37.85766,-5.35672],[-37.86374,-5.37409],[-37.85932,-5.39573],[-37.86048,-5.40669],[-37.87698,-5.42739],[-37.88954,-5.45229],[-37.89223,-5.48076],[-37.89842,-5.48588],[-37.90225,-5.50066],[-37.9204,-5.50537],[-37.9347,-5.50528],[-37.94165,-5.52355],[-37.95062,-5.53661],[-37.97569,-5.55077],[-37.99004,-5.5558],[-37.99789,-5.56809],[-37.99833,-5.58532],[-38.01396,-5.5944],[-38.03668,-5.63949],[-38.05338,-5.6461],[-38.08199,-5.67012],[-38.08453,-5.68426],[-38.08284,-5.6984],[-38.08969,-5.71485],[-38.08717,-5.73052],[-38.07523,-5.72347],[-38.04701,-5.73026],[-38.04965,-5.73982],[-38.05754,-5.74816],[-38.06151,-5.76205],[-38.07354,-5.77787],[-38.10049,-5.80453],[-38.11436,-5.82226],[-38.11886,-5.83283],[-38.11629,-5.84799],[-38.12055,-5.85835],[-38.12252,-5.88174],[-38.12764,-5.89156],[-38.14255,-5.90164],[-38.14463,-5.91375],[-38.16321,-5.92669],[-38.16479,-5.94653],[-38.17759,-5.95347],[-38.18358,-5.95022],[-38.19237,-5.95956],[-38.202,-5.9621],[-38.21448,-5.9743],[-38.2445,-5.99946],[-38.25269,-6.01191],[-38.25257,-6.0431],[-38.26497,-6.05425],[-38.27563,-6.06872],[-38.29079,-6.07315],[-38.3065,-6.08703],[-38.31992,-6.07704],[-38.33676,-6.0804],[-38.34678,-6.06728],[-38.34736,-6.0807],[-38.36525,-6.08846],[-38.37698,-6.07945],[-38.37836,-6.06683],[-38.38546,-6.0624],[-38.38184,-6.05347],[-38.41319,-6.05832],[-38.42744,-6.06938],[-38.43306,-6.07813],[-38.44732,-6.08528],[-38.44077,-6.09687],[-38.46209,-6.11232],[-38.47642,-6.14441],[-38.47549,-6.15704],[-38.48707,-6.16516],[-38.50076,-6.17968],[-38.50133,-6.19095],[-38.5272,-6.19338],[-38.52929,-6.21374],[-38.51971,-6.22304]]]},"properties":{"CD_REG":"2302","NM_REG":"Quixadá","SIGLA_UF":"CE"}},{"type":"Feature","geometry":{"type":"Polygon","coordinates":[[[-40.08411,-6.36741],[-40.08375,-6.36085],[-40.07107,-6.35532],[-40.07206,-6.34862],[-40.08005,-6.34653],[-40.07068,-6.34206],[-40.06254,-6.32889],[-40.06086,-6.30591],[-40.05029,-6.29595],[-40.04753,-6.27899],[-40.02726,-6.27969],[-40.02153,-6.26347],[-40.02529,-6.25454],[-40.01921,-6.24023],[-40.02136,-6.23152],[-40.01629,-6.22366],[-40.00075,-6.21587],[-39.98693,-6.22078],[-39.97413,-6.21448],[-39.96597,-6.20556],[-39.93987,-6.19404],[-39.92608,-6.19583],[-39.9169,-6.19082],[-39.91873,-6.18225],[-39.89396,-6.15588],[-39.90123,-6.14481],[-39.89293,-6.13216],[-39.89687,-6.1202],[-39.88889,-6.10529],[-39.88864,-6.09744],[-39.90411,-6.09103],[-39.90876,-6.08025],[-39.91794,-6.08219],[-39.925,-6.09321],[-39.94463,-6.10398],[-39.95651,-6.10007],[-39.96334,-6.09202],[-39.95995,-6.08551],[-39.93229,-6.07555],[-39.90913,-6.05805],[-39.90557,-6.03685],[-39.88922,-6.03456],[-39.8858,-6.02433],[-39.87091,-6.01199],[-39.85567,-5.98718],[-39.84836,-5.98971],[-39.83627,-5.97712],[-39.83162,-5.96325],[-39.83585,-5.95122],[-39.83374,-5.94107],[-39.83862,-5.92961],[-39.84822,-5.93338],[-39.87684,-5.90605],[-39.86201,-5.88868],[-39.87154,-5.88363],[-39.88999,-5.89484],[-39.91336,-5.89912],[-39.9313,-5.88975],[-39.94035,-5.87934],[-39.9595,-5.87282],[-39.94105,-5.8633],[-39.9322,-5.85323],[-39.92038,-5.83227],[-39.9325,-5.82568],[-39.94357,-5.82789],[-39.94924,-5.82082],[-39.96256,-5.81757],[-39.9753,-5.82183],[-39.98687,-5.80786],[-39.98428,-5.79884],[-39.99464,-5.77909],[-40.00638,-5.77697],[-40.00798,-5.76992],[-40.00308,-5.75714],[-40.00734,-5.74761],[-40.00238,-5.73645],[-40.00908,-5.73392],[-40.00617,-5.72021],[-40.01588,-5.70731],[-40.02241,-5.7101],[-40.03813,-5.69886],[-40.04111,-5.68358],[-40.04987,-5.67272],[-40.03753,-5.65248],[-40.03788,-5.64649],[-40.01628,-5.63235],[-40.01275,-5.62497],[-40.00038,-5.62511],[-39.98133,-5.63555],[-39.96488,-5.63174],[-39.96343,-5.61908],[-39.95687,-5.62076],[-39.95301,-5.63032],[-39.95637,-5.63741],[-39.93943,-5.63804],[-39.9366,-5.62417],[-39.92444,-5.62232],[-39.92486,-5.63555],[-39.90679,-5.64174],[-39.90148,-5.63464],[-39.87668,-5.62758],[-39.87633,-5.64008],[-39.86495,-5.62755],[-39.85204,-5.62615],[-39.846,-5.61039],[-39.84764,-5.60069],[-39.83997,-5.59971],[-39.82651,-5.57423],[-39.8181,-5.56803],[-39.8038,-5.57155],[-39.80339,-5.57628],[-39.76958,-5.5879],[-39.74977,-5.57621],[-39.74469,-5.59361],[-39.73759,-5.59818],[-39.72551,-5.59475],[-39.69125,-5.59991],[-39.69443,-5.61282],[-39.67537,-5.62154],[-39.66217,-5.61122],[-39.65142,-5.6135],[-39.63223,-5.60645],[-39.63042,-5.62274],[-39.63774,-5.63544],[-39.6354,-5.63971],[-39.61915,-5.6279],[-39.60741,-5.62272],[-39.60185,-5.62498],[-39.58701,-5.60633],[-39.57106,-5.60758],[-39.56322,-5.61577],[-39.54557,-5.61298],[-39.52645,-5.62044],[-39.52114,-5.62609],[-39.50744,-5.62768],[-39.4942,-5.61537],[-39.4833,-5.61506],[-39.48031,-5.62062],[-39.48285,-5.63331],[-39.47714,-5.64446],[-39.47213,-5.64226],[-39.44125,-5.65789],[-39.4321,-5.6552],[-39.43932,-5.66565],[-39.45047,-5.67233],[-39.45185,-5.67777],[-39.46485,-5.68928],[-39.47281,-5.68534],[-39.476,-5.70266],[-39.47172,-5.71182],[-39.46329,-5.71353],[-39.45408,-5.73948],[-39.4345,-5.72855],[-39.32784,-5.78277],[-39.32737,-5.79155],[-39.34114,-5.80834],[-39.34493,-5.83122],[-39.33275,-5.835],[-39.32097,-5.83275],[-39.32402,-5.84485],[-39.34158,-5.85136],[-39.35349,-5.86455],[-39.34935,-5.86603],[-39.34966,-5.87877],[-39.35756,-5.88348],[-39.35812,-5.89736],[-39.36833,-5.90138],[-39.37588,-5.91086],[-39.35886,-5.92047],[-39.35855,-5.92983],[-39.36688,-5.94567],[-39.36142,-5.95268],[-39.35217,-5.95179],[-39.35475,-5.96435],[-39.36132,-5.9721],[-39.36657,-5.99115],[-39.35248,-5.99073],[-39.3449,-6.00788],[-39.33722,-6.00183],[-39.32048,-6.00694],[-39.30984,-6.00083],[-39.30649,-5.99369],[-39.29689,-5.98991],[-39.29559,-5.99775],[-39.27753,-6.00497],[-39.26583,-5.99717],[-39.23861,-5.9958],[-39.23586,-6.00156],[-39.23191,-5.98998],[-39.21242,-5.99165],[-39.20325,-5.98636],[-39.19767,-5.95694],[-39.18111,-5.96423],[-39.16103,-5.95547],[-39.14355,-5.96025],[-39.14403,-5.96676],[-39.13062,-5.98358],[-39.11264,-5.9771],[-39.11301,-5.9889],[-39.10229,-5.98312],[-39.08665,-5.99237],[-39.07815,-5.99145],[-39.07388,-5.99752],[-39.06036,-5.99766],[-39.05074,-6.02535],[-39.03001,-6.01379],[-39.02141,-6.01862],[-39.01853,-6.00523],[-39.01078,-6.00709],[-39.00666,-6.01838],[-38.99148,-6.02266],[-38.98651,-6.02853],[-38.98515,-6.06913],[-38.98966,-6.07638],[-38.97791,-6.09241],[-38.97978,-6.10169],[-38.97249,-6.10294],[-38.96812,-6.09173],[-38.95977,-6.0906],[-38.94935,-6.08008],[-38.94099,-6.07932],[-38.90747,-6.08599],[-38.90573,-6.12646],[-38.90142,-6.14124],[-38.87697,-6.14775],[-38.87206,-6.14004],[-38.86138,-6.1344],[-38.84218,-6.13565],[-38.834,-6.12624],[-38.8212,-6.12405],[-38.8207,-6.13658],[-38.81269,-6.13527],[-38.79831,-6.12301],[-38.78228,-6.1142],[-38.76812,-6.12381],[-38.7548,-6.11135],[-38.73509,-6.11893],[-38.7334,-6.1239],[-38.72217,-6.12084],[-38.70888,-6.10767],[-38.71232,-6.1193],[-38.72146,-6.12751],[-38.72487,-6.14762],[-38.73448,-6.15256],[-38.73533,-6.17525],[-38.72517,-6.20102],[-38.71277,-6.2052],[-38.69129,-6.20706],[-38.68537,-6.21219],[-38.67914,-6.20539],[-38.66149,-6.19504],[-38.65582,-6.18649],[-38.63191,-6.17432],[-38.61162,-6.17074],[-38.60361,-6.17424],[-38.60096,-6.1858],[-38.59183,-6.1972],[-38.57936,-6.20664],[-38.57109,-6.20751],[-38.57058,-6.21695],[-38.56029,-6.2306],[-38.55119,-6.23431],[-38.51971,-6.22304],[-38.52835,-6.23918],[-38.53847,-6.2469],[-38.54585,-6.24543],[-38.55442,-6.2634],[-38.57955,-6.27963],[-38.57151,-6.28444],[-38.56672,-6.30442],[-38.5753,-6.30863],[-38.5821,-6.31927],[-38.57708,-6.34743],[-38.56251,-6.35565],[-38.5771,-6.36424],[-38.57311,-6.37492],[-38.59247,-6.37825],[-38.6018,-6.39171],[-38.59413,-6.39686],[-38.58717,-6.39427],[-38.58099,-6.40176],[-38.57197,-6.40411],[-38.55152,-6.39817],[-38.54477,-6.40226],[-38.5294,-6.39289],[-38.51886,-6.40573],[-38.55427,-6.43276],[-38.5564,-6.44764],[-38.56702,-6.45207],[-38.57041,-6.4702],[-38.59497,-6.50044],[-38.61229,-6.51319],[-38.61611,-6.52815],[-38.61217,-6.53832],[-38.62661,-6.55295],[-38.63308,-6.56921],[-38.64297,-6.58213],[-38.63293,-6.58993],[-38.62916,-6.60458],[-38.64666,-6.61598],[-38.64913,-6.62759],[-38.65526,-6.63048],[-38.65708,-6.64229],[-38.64697,-6.65421],[-38.64641,-6.66243],[-38.65196,-6.67318],[-38.66058,-6.6788],[-38.67315,-6.69722],[-38.67373,-6.70799],[-38.66489,-6.72409],[-38.65598,-6.73024],[-38.65782,-6.73723],[-38.64997,-6.75224],[-38.65268,-6.75976],[-38.64027,-6.76399],[-38.62902,-6.77771],[-38.61393,-6.78244],[-38.61692,-6.7933],[-38.63909,-6.79286],[-38.63758,-6.8053],[-38.65187,-6.81171],[-38.67293,-6.83614],[-38.66888,-6.84296],[-38.6772,-6.85433],[-38.67542,-6.86183],[-38.68669,-6.86579],[-38.70041,-6.8766],[-38.71036,-6.87466],[-38.71401,-6.88615],[-38.73242,-6.88923],[-38.73029,-6.89681],[-38.75628,-6.90359],[-38.76518,-6.91094],[-38.78468,-6.90496],[-38.78373,-6.88836],[-38.77576,-6.88457],[-38.77419,-6.86845],[-38.78598,-6.86314],[-38.81289,-6.86487],[-38.81967,-6.85673],[-38.84751,-6.86025],[-38.85601,-6.85903],[-38.83546,-6.84762],[-38.81103,-6.84664],[-38.80959,-6.83895],[-38.81534,-6.82579],[-38.81359,-6.82017],[-38.8186,-6.8073],[-38.81685,-6.80023],[-38.82225,-6.77779],[-38.79565,-6.76885],[-38.82888,-6.74466],[-38.82798,-6.73653],[-38.84692,-6.72174],[-38.84659,-6.70921],[-38.85356,-6.70418],[-38.85315,-6.69416],[-38.85888,-6.69269],[-38.85471,-6.6735],[-38.84374,-6.66727],[-38.85078,-6.64712],[-38.87354,-6.61181],[-38.86954,-6.59005],[-38.88134,-6.58001],[-38.91543,-6.57471],[-38.91937,-6.5776],[-38.92469,-6.61118],[-38.93272,-6.61663],[-38.94019,-6.62956],[-38.94733,-6.62975],[-38.94991,-6.64224],[-38.96119,-6.64621],[-38.96839,-6.65922],[-38.98353,-6.66326],[-39.00267,-6.65769],[-39.04747,-6.67476],[-39.05215,-6.66045],[-39.06109,-6.66365],[-39.05817,-6.68059],[-39.05106,-6.68354],[-39.04586,-6.69577],[-39.05516,-6.69615],[-39.06817,-6.70542],[-39.08233,-6.7056],[-39.10793,-6.71548],[-39.11384,-6.70927],[-39.12119,-6.71306],[-39.12984,-6.71038],[-39.12923,-6.69242],[-39.14397,-6.67174],[-39.15067,-6.67421],[-39.17274,-6.67286],[-39.17567,-6.643],[-39.18387,-6.64137],[-39.17315,-6.62272],[-39.17858,-6.61331],[-39.20987,-6.60781],[-39.21506,-6.59625],[-39.22913,-6.58622],[-39.23595,-6.58502],[-39.29842,-6.56168],[-39.29492,-6.56709],[-39.30008,-6.57505],[-39.31283,-6.58454],[-39.31052,-6.60617],[-39.30571,-6.61026],[-39.2953,-6.60851],[-39.2909,-6.61789],[-39.27945,-6.62921],[-39.28345,-6.63355],[-39.28067,-6.64604],[-39.28945,-6.65622],[-39.29045,-6.67454],[-39.3196,-6.69335],[-39.31875,-6.70274],[-39.33634,-6.7248],[-39.32825,-6.73523],[-39.30223,-6.73982],[-39.29739,-6.74516],[-39.30048,-6.75354],[-39.31317,-6.75798],[-39.32786,-6.77032],[-39.33823,-6.7656],[-39.35928,-6.77101],[-39.36715,-6.76291],[-39.38203,-6.76956],[-39.39753,-6.75564],[-39.40459,-6.76533],[-39.41716,-6.77342],[-39.41865,-6.78254],[-39.44231,-6.79015],[-39.45239,-6.77803],[-39.46286,-6.77792],[-39.47118,-6.77043],[-39.47815,-6.75556],[-39.48822,-6.75217],[-39.50068,-6.75373],[-39.51039,-6.77674],[-39.54399,-6.76814],[-39.55021,-6.77757],[-39.55647,-6.7766],[-39.61576,-6.78846],[-39.60403,-6.76854],[-39.59788,-6.74988],[-39.61015,-6.74891],[-39.60496,-6.73624],[-39.61682,-6.74238],[-39.62598,-6.73408],[-39.63299,-6.73847],[-39.64514,-6.73657],[-39.63876,-6.72416],[-39.64591,-6.71578],[-39.64711,-6.6849],[-39.6492,-6.67622],[-39.65565,-6.67336],[-39.65669,-6.65327],[-39.66579,-6.63729],[-39.67582,-6.64129],[-39.68392,-6.63718],[-39.70176,-6.64539],[-39.70918,-6.63612],[-39.73507,-6.63876],[-39.73825,-6.63157],[-39.73438,-6.62351],[-39.73656,-6.61272],[-39.76762,-6.62701],[-39.77913,-6.64262],[-39.77522,-6.6568],[-39.78219,-6.66822],[-39.79524,-6.67256],[-39.81036,-6.68783],[-39.83296,-6.69993],[-39.83799,-6.67919],[-39.84927,-6.6747],[-39.86372,-6.6801],[-39.86596,-6.67629],[-39.87707,-6.68029],[-39.87508,-6.67067],[-39.88528,-6.67762],[-39.91334,-6.6887],[-39.92393,-6.69787],[-39.93097,-6.6981],[-39.94099,-6.71272],[-39.94382,-6.70757],[-39.96289,-6.70175],[-39.9712,-6.68717],[-39.98172,-6.68512],[-39.97417,-6.67279],[-39.98574,-6.67226],[-39.98661,-6.68023],[-40.00785,-6.68459],[-40.01659,-6.67222],[-40.0278,-6.67653],[-40.04009,-6.6729],[-40.0466,-6.68241],[-40.05482,-6.66945],[-40.0366,-6.63731],[-40.04003,-6.62732],[-40.05446,-6.62626],[-40.05481,-6.61134],[-40.03297,-6.59835],[-40.04041,-6.59001],[-40.0262,-6.58267],[-40.03014,-6.56292],[-40.03515,-6.55609],[-40.03268,-6.54033],[-40.04096,-6.53882],[-40.04075,-6.5322],[-40.05225,-6.52123],[-40.04993,-6.51588],[-40.05835,-6.50681],[-40.05311,-6.48666],[-40.05534,-6.47812],[-40.04788,-6.47335],[-40.04984,-6.45675],[-40.04471,-6.44485],[-40.03869,-6.44064],[-40.02786,-6.44232],[-40.03346,-6.43159],[-40.0628,-6.4159],[-40.06684,-6.40497],[-40.07441,-6.40219],[-40.08485,-6.37879],[-40.08411,-6.36741]]]},"properties":{"CD_REG":"2303","NM_REG":"Iguatu","SIGLA_UF":"CE"}},{"type":"Feature","geometry":{"type":"Polygon","coordinates":[[[-40.52372,-7.31845],[-40.51427,-7.30783],[-40.51163,-7.29943],[-40.5158,-7.26446],[-40.51356,-7.2397],[-40.5013,-7.18865],[-40.49479,-7.18234],[-40.49571,-7.16962],[-40.48437,-7.1332],[-40.48974,-7.11869],[-40.47043,-7.09397],[-40.46942,-7.08764],[-40.45338,-7.07123],[-40.44426,-7.05593],[-40.44328,-7.0481],[-40.42772,-7.03388],[-40.43839,-7.01822],[-40.42801,-7.01848],[-40.40625,-7.00533],[-40.41107,-6.99908],[-40.42865,-6.99613],[-40.43037,-6.97575],[-40.42728,-6.96632],[-40.42912,-6.9485],[-40.42447,-6.9372],[-40.42779,-6.91581],[-40.43271,-6.90854],[-40.43291,-6.89272],[-40.42896,-6.88486],[-40.42852,-6.86425],[-40.41583,-6.85937],[-40.40755,-6.85129],[-40.40222,-6.83999],[-40.38711,-6.83008],[-40.3829,-6.82099],[-40.37058,-6.80799],[-40.3741,-6.80061],[-40.38879,-6.797],[-40.40414,-6.80249],[-40.41684,-6.81253],[-40.43217,-6.81298],[-40.43899,-6.80669],[-40.44293,-6.78987],[-40.45203,-6.78378],[-40.45816,-6.75768],[-40.47194,-6.74493],[-40.47693,-6.73283],[-40.51739,-6.73049],[-40.55897,-6.72081],[-40.60221,-6.71601],[-40.61927,-6.70865],[-40.63242,-6.6989],[-40.65131,-6.67819],[-40.66491,-6.67901],[-40.71018,-6.67613],[-40.71781,-6.67141],[-40.73224,-6.65359],[-40.722,-6.61768],[-40.73638,-6.60031],[-40.68597,-6.60011],[-40.67431,-6.60152],[-40.66966,-6.61406],[-40.64911,-6.61215],[-40.64722,-6.60748],[-40.62371,-6.6043],[-40.60957,-6.60762],[-40.61003,-6.60315],[-40.59797,-6.59386],[-40.59646,-6.58551],[-40.58812,-6.57298],[-40.58926,-6.56051],[-40.57841,-6.54882],[-40.5617,-6.54682],[-40.55283,-6.55],[-40.53887,-6.54682],[-40.52754,-6.53799],[-40.48324,-6.52823],[-40.46858,-6.52986],[-40.45313,-6.52404],[-40.44804,-6.50841],[-40.4479,-6.49555],[-40.4424,-6.48986],[-40.42505,-6.48577],[-40.39156,-6.47484],[-40.38986,-6.46763],[-40.36819,-6.44923],[-40.37004,-6.43935],[-40.36622,-6.43023],[-40.34464,-6.40965],[-40.33862,-6.41412],[-40.33459,-6.40603],[-40.2957,-6.39193],[-40.28525,-6.3808],[-40.27432,-6.38802],[-40.261,-6.38624],[-40.25611,-6.37615],[-40.24977,-6.38831],[-40.24206,-6.39265],[-40.22716,-6.38787],[-40.21811,-6.37641],[-40.20581,-6.38087],[-40.18657,-6.36475],[-40.17242,-6.36061],[-40.16145,-6.36183],[-40.15478,-6.35409],[-40.14937,-6.36099],[-40.14162,-6.35107],[-40.12683,-6.35175],[-40.11231,-6.34903],[-40.08411,-6.36741],[-40.08485,-6.37879],[-40.07441,-6.40219],[-40.06684,-6.40497],[-40.0628,-6.4159],[-40.03346,-6.43159],[-40.02786,-6.44232],[-40.03869,-6.44064],[-40.04471,-6.44485],[-40.04984,-6.45675],[-40.04788,-6.47335],[-40.05534,-6.47812],[-40.05311,-6.48666],[-40.05835,-6.50681],[-40.04993,-6.51588],[-40.05225,-6.52123],[-40.04075,-6.5322],[-40.04096,-6.53882],[-40.03268,-6.54033],[-40.03515,-6.55609],[-40.03014,-6.56292],[-40.0262,-6.58267],[-40.04041,-6.59001],[-40.03297,-6.59835],[-40.05481,-6.61134],[-40.05446,-6.62626],[-40.04003,-6.62732],[-40.0366,-6.63731],[-40.05482,-6.66945],[-40.0466,-6.68241],[-40.04009,-6.6729],[-40.0278,-6.67653],[-40.01659,-6.67222],[-40.00785,-6.68459],[-39.98661,-6.68023],[-39.98574,-6.67226],[-39.97417,-6.67279],[-39.98172,-6.68512],[-39.9712,-6.68717],[-39.96289,-6.70175],[-39.94382,-6.70757],[-39.94099,-6.71272],[-39.93097,-6.6981],[-39.92393,-6.69787],[-39.91334,-6.6887],[-39.88528,-6.67762],[-39.87508,-6.67067],[-39.87707,-6.68029],[-39.86596,-6.67629],[-39.86372,-6.6801],[-39.84927,-6.6747],[-39.83799,-6.67919],[-39.83296,-6.69993],[-39.81036,-6.68783],[-39.79524,-6.67256],[-39.78219,-6.66822],[-39.77522,-6.6568],[-39.77913,-6.64262],[-39.76762,-6.62701],[-39.73656,-6.61272],[-39.73438,-6.62351],[-39.73825,-6.63157],[-39.73507,-6.63876],[-39.70918,-6.63612],[-39.70176,-6.64539],[-39.68392,-6.63718],[-39.67582,-6.64129],[-39.66579,-6.63729],[-39.65669,-6.65327],[-39.65565,-6.67336],[-39.6492,-6.67622],[-39.64711,-6.6849],[-39.64591,-6.71578],[-39.63876,-6.72416],[-39.64514,-6.73657],[-39.63299,-6.73847],[-39.62598,-6.73408],[-39.61682,-6.74238],[-39.60496,-6.73624],[-39.61015,-6.74891],[-39.59788,-6.74988],[-39.60403,-6.76854],[-39.61576,-6.78846],[-39.55647,-6.7766],[-39.55021,-6.77757],[-39.54399,-6.76814],[-39.51039,-6.77674],[-39.50068,-6.75373],[-39.48822,-6.75217],[-39.47815,-6.75556],[-39.47118,-6.77043],[-39.46286,-6.77792],[-39.45239,-6.77803],[-39.44231,-6.79015],[-39.41865,-6.78254],[-39.41716,-6.77342],[-39.40459,-6.76533],[-39.39753,-6.75564],[-39.38203,-6.76956],[-39.36715,-6.76291],[-39.35928,-6.77101],[-39.33823,-6.7656],[-39.32786,-6.77032],[-39.31317,-6.75798],[-39.30048,-6.75354],[-39.29739,-6.74516],[-39.30223,-6.73982],[-39.32825,-6.73523],[-39.33634,-6.7248],[-39.31875,-6.70274],[-39.3196,-6.69335],[-39.29045,-6.67454],[-39.28945,-6.65622],[-39.28067,-6.64604],[-39.28345,-6.63355],[-39.27945,-6.62921],[-39.2909,-6.61789],[-39.2953,-6.60851],[-39.30571,-6.61026],[-39.31052,-6.60617],[-39.31283,-6.58454],[-39.30008,-6.57505],[-39.29492,-6.56709],[-39.29842,-6.56168],[-39.23595,-6.58502],[-39.22913,-6.58622],[-39.21506,-6.59625],[-39.20987,-6.60781],[-39.17858,-6.61331],[-39.17315,-6.62272],[-39.18387,-6.64137],[-39.17567,-6.643],[-39.17274,-6.67286],[-39.15067,-6.67421],[-39.14397,-6.67174],[-39.12923,-6.69242],[-39.12984,-6.71038],[-39.12119,-6.71306],[-39.11384,-6.70927],[-39.10793,-6.71548],[-39.08233,-6.7056],[-39.06817,-6.70542],[-39.05516,-6.69615],[-39.04586,-6.69577],[-39.05106,-6.68354],[-39.05817,-6.68059],[-39.06109,-6.66365],[-39.05215,-6.66045],[-39.04747,-6.67476],[-39.00267,-6.65769],[-38.98353,-6.66326],[-38.96839,-6.65922],[-38.96119,-6.64621],[-38.94991,-6.64224],[-38.94733,-6.62975],[-38.94019,-6.62956],[-38.93272,-6.61663],[-38.92469,-6.61118],[-38.91937,-6.5776],[-38.91543,-6.57471],[-38.88134,-6.58001],[-38.86954,-6.59005],[-38.87354,-6.61181],[-38.85078,-6.64712],[-38.84374,-6.66727],[-38.85471,-6.6735],[-38.85888,-6.69269],[-38.85315,-6.69416],[-38.85356,-6.70418],[-38.84659,-6.70921],[-38.84692,-6.72174],[-38.82798,-6.73653],[-38.82888,-6.74466],[-38.79565,-6.76885],[-38.82225,-6.77779],[-38.81685,-6.80023],[-38.8186,-6.8073],[-38.81359,-6.82017],[-38.81534,-6.82579],[-38.80959,-6.83895],[-38.81103,-6.84664],[-38.83546,-6.84762],[-38.85601,-6.85903],[-38.84751,-6.86025],[-38.81967,-6.85673],[-38.81289,-6.86487],[-38.78598,-6.86314],[-38.77419,-6.86845],[-38.77576,-6.88457],[-38.78373,-6.88836],[-38.78468,-6.90496],[-38.76518,-6.91094],[-38.75893,-6.91663],[-38.75572,-6.94013],[-38.76402,-6.94462],[-38.76402,-6.95237],[-38.74597,-6.96253],[-38.74225,-6.97428],[-38.75107,-6.98767],[-38.76511,-6.99323],[-38.75188,-6.99692],[-38.73058,-7.01203],[-38.71072,-7.01897],[-38.69144,-7.02914],[-38.6898,-7.04023],[-38.66985,-7.0477],[-38.67724,-7.0671],[-38.65641,-7.09243],[-38.6588,-7.10334],[-38.67788,-7.13267],[-38.67529,-7.15572],[-38.68519,-7.16134],[-38.67658,-7.1692],[-38.68302,-7.17598],[-38.68783,-7.19016],[-38.67219,-7.18519],[-38.64529,-7.18342],[-38.63655,-7.19375],[-38.6248,-7.19132],[-38.61979,-7.19706],[-38.62293,-7.20375],[-38.61537,-7.23019],[-38.59766,-7.24419],[-38.58308,-7.24838],[-38.55888,-7.23942],[-38.55196,-7.24348],[-38.55491,-7.25554],[-38.5521,-7.26356],[-38.54284,-7.26565],[-38.54163,-7.28088],[-38.53459,-7.29379],[-38.54011,-7.30622],[-38.54965,-7.31441],[-38.54938,-7.335],[-38.55835,-7.35394],[-38.57899,-7.38094],[-38.5836,-7.3982],[-38.59038,-7.40118],[-38.59563,-7.41558],[-38.5845,-7.41635],[-38.5853,-7.43482],[-38.59502,-7.43394],[-38.6058,-7.44457],[-38.60333,-7.45759],[-38.61718,-7.45717],[-38.622,-7.46067],[-38.63808,-7.45795],[-38.64492,-7.46002],[-38.6309,-7.48733],[-38.646,-7.50193],[-38.64594,-7.51438],[-38.6548,-7.52333],[-38.65149,-7.5278],[-38.65325,-7.5505],[-38.65913,-7.56062],[-38.65533,-7.56554],[-38.67717,-7.57057],[-38.68882,-7.58219],[-38.70366,-7.58096],[-38.71102,-7.58663],[-38.71407,-7.59934],[-38.71511,-7.62192],[-38.73219,-7.63387],[-38.74182,-7.64837],[-38.7428,-7.66032],[-38.76061,-7.656],[-38.79249,-7.6681],[-38.81219,-7.6688],[-38.81969,-7.66483],[-38.82424,-7.67834],[-38.81583,-7.68666],[-38.81502,-7.69739],[-38.82196,-7.71479],[-38.82811,-7.71961],[-38.8461,-7.72041],[-38.86974,-7.71154],[-38.8798,-7.7233],[-38.8814,-7.74743],[-38.89481,-7.75045],[-38.90035,-7.74488],[-38.91558,-7.74449],[-38.91611,-7.75854],[-38.92763,-7.75381],[-38.93958,-7.75877],[-38.94102,-7.77141],[-38.94638,-7.7814],[-38.9398,-7.79156],[-38.94477,-7.80391],[-38.95286,-7.81055],[-38.95325,-7.81938],[-38.96494,-7.82983],[-38.95936,-7.83826],[-38.96211,-7.84417],[-38.98224,-7.84613],[-39.00141,-7.84013],[-39.01183,-7.81421],[-39.02159,-7.81485],[-39.02521,-7.82338],[-39.05376,-7.8193],[-39.06763,-7.84187],[-39.09299,-7.85756],[-39.09655,-7.85016],[-39.08796,-7.83262],[-39.09256,-7.82307],[-39.09056,-7.8096],[-39.10211,-7.78481],[-39.10033,-7.77571],[-39.10635,-7.76023],[-39.12385,-7.74325],[-39.13276,-7.72663],[-39.1423,-7.71903],[-39.171,-7.71524],[-39.19202,-7.69734],[-39.20834,-7.68948],[-39.22274,-7.6968],[-39.23805,-7.69855],[-39.24272,-7.70479],[-39.25256,-7.70493],[-39.24746,-7.69065],[-39.25282,-7.67729],[-39.26534,-7.66983],[-39.27032,-7.6599],[-39.28885,-7.6649],[-39.30689,-7.66509],[-39.31139,-7.65524],[-39.32144,-7.65423],[-39.33844,-7.64465],[-39.34153,-7.63693],[-39.3681,-7.62387],[-39.37609,-7.61177],[-39.42066,-7.60302],[-39.42327,-7.58681],[-39.43493,-7.57372],[-39.44763,-7.57224],[-39.46016,-7.57601],[-39.47346,-7.57286],[-39.47653,-7.55333],[-39.48424,-7.54109],[-39.4847,-7.53283],[-39.46969,-7.52057],[-39.45568,-7.50186],[-39.45674,-7.48044],[-39.46075,-7.47122],[-39.49244,-7.47126],[-39.50236,-7.46415],[-39.5121,-7.46715],[-39.53644,-7.48253],[-39.55283,-7.48066],[-39.56254,-7.46038],[-39.57159,-7.42983],[-39.57653,-7.42789],[-39.59308,-7.43235],[-39.60552,-7.42408],[-39.62662,-7.42704],[-39.64572,-7.38088],[-39.65309,-7.37226],[-39.67135,-7.35854],[-39.70619,-7.33776],[-39.74132,-7.32682],[-39.76043,-7.32626],[-39.78923,-7.332],[-39.81537,-7.32869],[-39.8287,-7.33237],[-39.84814,-7.32509],[-39.8577,-7.32543],[-39.8835,-7.33806],[-39.89767,-7.33968],[-39.91039,-7.33721],[-39.92634,-7.341],[-39.95295,-7.35387],[-40.00071,-7.37448],[-40.04516,-7.38074],[-40.08745,-7.38309],[-40.12775,-7.38191],[-40.19568,-7.35815],[-40.22076,-7.34127],[-40.24197,-7.318],[-40.263,-7.30102],[-40.28388,-7.29917],[-40.31074,-7.3007],[-40.32143,-7.30589],[-40.32939,-7.31856],[-40.35079,-7.33417],[-40.36098,-7.3556],[-40.37277,-7.36244],[-40.39388,-7.36817],[-40.43359,-7.36718],[-40.44905,-7.36113],[-40.51029,-7.32283],[-40.52372,-7.31845]]]},"properties":{"CD_REG":"2304","NM_REG":"Juazeiro do Norte","SIGLA_UF":"CE"}},{"type":"Feature","geometry":{"type":"Polygon","coordinates":[[[-40.73638,-6.60031],[-40.74022,-6.5775],[-40.75429,-6.55467],[-40.78767,-6.52378],[-40.79212,-6.51286],[-40.78994,-6.50063],[-40.79659,-6.4707],[-40.79378,-6.46019],[-40.79609,-6.42818],[-40.80515,-6.39313],[-40.79887,-6.38002],[-40.79226,-6.37491],[-40.78109,-6.35166],[-40.77915,-6.34135],[-40.78286,-6.31337],[-40.78656,-6.30536],[-40.8105,-6.28706],[-40.81978,-6.26447],[-40.82711,-6.25354],[-40.85222,-6.22422],[-40.84723,-6.20301],[-40.85268,-6.17885],[-40.85325,-6.16045],[-40.84595,-6.13836],[-40.84905,-6.12343],[-40.865,-6.08775],[-40.87285,-6.05663],[-40.88646,-6.04731],[-40.9022,-6.0492],[-40.90755,-6.04466],[-40.90395,-6.02088],[-40.88982,-6.00398],[-40.88735,-5.98933],[-40.87359,-5.97305],[-40.87625,-5.94785],[-40.87953,-5.93559],[-40.88022,-5.91767],[-40.89752,-5.9013],[-40.89349,-5.88557],[-40.90565,-5.84928],[-40.90906,-5.82555],[-40.90582,-5.80145],[-40.90957,-5.78174],[-40.91148,-5.75719],[-40.91775,-5.74264],[-40.91395,-5.72497],[-40.92824,-5.70411],[-40.93038,-5.68621],[-40.93877,-5.67334],[-40.92912,-5.66313],[-40.91473,-5.65994],[-40.90325,-5.63255],[-40.90227,-5.60796],[-40.91194,-5.59485],[-40.91566,-5.56437],[-40.93238,-5.5489],[-40.93171,-5.53879],[-40.93645,-5.52639],[-40.92888,-5.51785],[-40.9328,-5.49871],[-40.92916,-5.48333],[-40.9161,-5.46833],[-40.92258,-5.44824],[-40.93607,-5.44009],[-40.9438,-5.42359],[-40.93819,-5.41635],[-40.9213,-5.41744],[-40.91155,-5.40738],[-40.91702,-5.38945],[-40.9361,-5.36597],[-40.93085,-5.34553],[-40.91845,-5.33826],[-40.91212,-5.3142],[-40.91321,-5.30805],[-40.92691,-5.29697],[-40.92194,-5.28436],[-40.92424,-5.27484],[-40.91171,-5.26665],[-40.93592,-5.24328],[-40.94223,-5.24047],[-40.92203,-5.22645],[-40.92545,-5.21248],[-40.932,-5.20126],[-40.92529,-5.1821],[-40.92899,-5.17167],[-40.93775,-5.16659],[-40.94932,-5.16688],[-40.96197,-5.15126],[-40.98445,-5.15132],[-40.9886,-5.13875],[-41.01184,-5.1236],[-41.01595,-5.10465],[-41.02641,-5.1097],[-41.03282,-5.09269],[-41.03776,-5.09044],[-41.0504,-5.10226],[-41.08013,-5.09109],[-41.08043,-5.07869],[-41.08735,-5.07331],[-41.09657,-5.05367],[-41.13202,-5.04857],[-41.12019,-5.0211],[-41.12433,-5.00608],[-41.13676,-4.99547],[-41.13723,-4.98553],[-41.15092,-4.99211],[-41.16718,-4.96617],[-41.18901,-4.94062],[-41.19855,-4.93745],[-41.20199,-4.94904],[-41.20961,-4.94596],[-41.21161,-4.9381],[-41.22044,-4.93897],[-41.22295,-4.92651],[-41.23407,-4.90839],[-41.23469,-4.90168],[-41.2281,-4.89099],[-41.24957,-4.86969],[-41.23945,-4.85454],[-41.24318,-4.82833],[-41.23324,-4.81012],[-41.22395,-4.79067],[-41.20808,-4.78028],[-41.21277,-4.77202],[-41.23392,-4.76877],[-41.24779,-4.76178],[-41.25034,-4.75663],[-41.23523,-4.74653],[-41.23665,-4.73875],[-41.22383,-4.72091],[-41.20249,-4.70189],[-41.17501,-4.66534],[-41.1856,-4.66197],[-41.20282,-4.6382],[-41.22933,-4.62009],[-41.23344,-4.61019],[-41.22304,-4.58979],[-41.22203,-4.5778],[-41.23981,-4.57356],[-41.21927,-4.57433],[-41.21528,-4.58417],[-41.19941,-4.58453],[-41.18591,-4.57851],[-41.18343,-4.59381],[-41.16274,-4.59181],[-41.14767,-4.59967],[-41.13211,-4.599],[-41.11753,-4.60216],[-41.09886,-4.60242],[-41.08719,-4.6134],[-41.06884,-4.61492],[-41.05185,-4.62924],[-41.01732,-4.64345],[-40.99181,-4.66084],[-40.98707,-4.66004],[-40.9767,-4.68537],[-40.96929,-4.69264],[-40.96311,-4.68827],[-40.95535,-4.71636],[-40.88806,-4.71655],[-40.8734,-4.6999],[-40.87462,-4.69154],[-40.85752,-4.67336],[-40.85249,-4.68454],[-40.86221,-4.68962],[-40.8677,-4.6993],[-40.86788,-4.71537],[-40.859,-4.71181],[-40.84424,-4.71882],[-40.82592,-4.71679],[-40.80844,-4.70565],[-40.7847,-4.71247],[-40.76203,-4.7062],[-40.75313,-4.71176],[-40.73544,-4.70922],[-40.73217,-4.7152],[-40.66981,-4.70512],[-40.62666,-4.62122],[-40.62145,-4.62531],[-40.60476,-4.62009],[-40.59645,-4.61172],[-40.587,-4.59419],[-40.58312,-4.57751],[-40.58745,-4.57253],[-40.58788,-4.55758],[-40.5094,-4.5075],[-40.46087,-4.52834],[-40.38119,-4.54887],[-40.36404,-4.56285],[-40.35983,-4.57279],[-40.34586,-4.58069],[-40.32888,-4.58218],[-40.32211,-4.57658],[-40.30987,-4.58374],[-40.30092,-4.57848],[-40.29347,-4.58883],[-40.29689,-4.60603],[-40.31884,-4.62263],[-40.31646,-4.63616],[-40.33028,-4.63862],[-40.33459,-4.65364],[-40.34226,-4.65527],[-40.33774,-4.66544],[-40.33065,-4.66676],[-40.32046,-4.67983],[-40.32154,-4.68974],[-40.30929,-4.69104],[-40.31525,-4.70812],[-40.30341,-4.71877],[-40.31432,-4.72733],[-40.27932,-4.75245],[-40.28104,-4.75824],[-40.27307,-4.77006],[-40.26171,-4.77672],[-40.24446,-4.7769],[-40.23168,-4.78046],[-40.22771,-4.78626],[-40.21017,-4.79252],[-40.19736,-4.78648],[-40.19293,-4.79058],[-40.18478,-4.78617],[-40.16541,-4.79543],[-40.15387,-4.81019],[-40.14226,-4.80805],[-40.1361,-4.81293],[-40.11989,-4.74803],[-40.0595,-4.71681],[-39.92616,-4.73489],[-39.92858,-4.77454],[-39.93884,-4.76969],[-39.93847,-4.78497],[-39.92898,-4.79711],[-39.94928,-4.81753],[-39.9459,-4.839],[-39.94147,-4.8405],[-39.93238,-4.85546],[-39.9018,-4.88405],[-39.89254,-4.8863],[-39.90316,-4.89965],[-39.9012,-4.90465],[-39.91609,-4.90549],[-39.92903,-4.91284],[-39.93582,-4.92486],[-39.93889,-4.92083],[-39.94674,-4.92961],[-39.95017,-4.9236],[-39.96219,-4.93128],[-39.96874,-4.94623],[-39.95784,-5.02537],[-39.96938,-5.02768],[-39.97378,-5.04985],[-39.98213,-5.06038],[-39.98669,-5.07214],[-39.99301,-5.07414],[-39.9976,-5.08449],[-40.16004,-5.16479],[-40.14182,-5.1656],[-40.13647,-5.15775],[-40.11451,-5.16081],[-40.11285,-5.16533],[-40.09671,-5.15946],[-40.08612,-5.17107],[-40.07261,-5.16103],[-40.06743,-5.17924],[-40.05843,-5.18659],[-40.05358,-5.18041],[-40.03883,-5.17833],[-40.03092,-5.18721],[-40.02208,-5.18922],[-40.03218,-5.19894],[-40.02284,-5.20594],[-40.04715,-5.23949],[-40.04291,-5.2569],[-40.04864,-5.27902],[-40.05678,-5.28611],[-40.05586,-5.29184],[-40.04125,-5.29105],[-40.02742,-5.29695],[-40.02535,-5.30454],[-40.03076,-5.31024],[-40.01817,-5.31844],[-40.02093,-5.32797],[-40.03164,-5.34957],[-40.06001,-5.36125],[-40.05212,-5.36693],[-40.0617,-5.39023],[-40.05861,-5.399],[-40.06467,-5.40914],[-40.06244,-5.41753],[-40.06792,-5.42455],[-40.05683,-5.43531],[-40.05514,-5.46261],[-40.04695,-5.46751],[-40.05397,-5.48716],[-40.03859,-5.49104],[-40.02799,-5.49027],[-40.03074,-5.50779],[-40.01378,-5.51856],[-40.02055,-5.53923],[-40.03378,-5.56347],[-40.04498,-5.56557],[-40.05649,-5.57521],[-40.07651,-5.58234],[-40.07572,-5.58941],[-40.06321,-5.5904],[-40.05733,-5.59846],[-40.0595,-5.60724],[-40.05133,-5.60966],[-40.05763,-5.63157],[-40.06288,-5.63631],[-40.0542,-5.6415],[-40.06177,-5.65349],[-40.07358,-5.66506],[-40.06673,-5.6755],[-40.06377,-5.68807],[-40.04773,-5.69743],[-40.04255,-5.71188],[-40.02241,-5.7101],[-40.01588,-5.70731],[-40.00617,-5.72021],[-40.00908,-5.73392],[-40.00238,-5.73645],[-40.00734,-5.74761],[-40.00308,-5.75714],[-40.00798,-5.76992],[-40.00638,-5.77697],[-39.99464,-5.77909],[-39.98428,-5.79884],[-39.98687,-5.80786],[-39.9753,-5.82183],[-39.96256,-5.81757],[-39.94924,-5.82082],[-39.94357,-5.82789],[-39.9325,-5.82568],[-39.92038,-5.83227],[-39.9322,-5.85323],[-39.94105,-5.8633],[-39.9595,-5.87282],[-39.94035,-5.87934],[-39.9313,-5.88975],[-39.91336,-5.89912],[-39.88999,-5.89484],[-39.87154,-5.88363],[-39.86201,-5.88868],[-39.87684,-5.90605],[-39.84822,-5.93338],[-39.83862,-5.92961],[-39.83374,-5.94107],[-39.83585,-5.95122],[-39.83162,-5.96325],[-39.83627,-5.97712],[-39.84836,-5.98971],[-39.85567,-5.98718],[-39.87091,-6.01199],[-39.8858,-6.02433],[-39.88922,-6.03456],[-39.90557,-6.03685],[-39.90913,-6.05805],[-39.93229,-6.07555],[-39.95995,-6.08551],[-39.96334,-6.09202],[-39.95651,-6.10007],[-39.94463,-6.10398],[-39.925,-6.09321],[-39.91794,-6.08219],[-39.90876,-6.08025],[-39.90411,-6.09103],[-39.88864,-6.09744],[-39.88889,-6.10529],[-39.89687,-6.1202],[-39.89293,-6.13216],[-39.90123,-6.14481],[-39.89396,-6.15588],[-39.91873,-6.18225],[-39.9169,-6.19082],[-39.92608,-6.19583],[-39.93987,-6.19404],[-39.96597,-6.20556],[-39.97413,-6.21448],[-39.98693,-6.22078],[-40.00075,-6.21587],[-40.01629,-6.22366],[-40.02136,-6.23152],[-40.01921,-6.24023],[-40.02529,-6.25454],[-40.02153,-6.26347],[-40.02726,-6.27969],[-40.04753,-6.27899],[-40.05029,-6.29595],[-40.06086,-6.30591],[-40.06254,-6.32889],[-40.07068,-6.34206],[-40.08005,-6.34653],[-40.07206,-6.34862],[-40.07107,-6.35532],[-40.08375,-6.36085],[-40.08411,-6.36741],[-40.11231,-6.34903],[-40.12683,-6.35175],[-40.14162,-6.35107],[-40.14937,-6.36099],[-40.15478,-6.35409],[-40.16145,-6.36183],[-40.17242,-6.36061],[-40.18657,-6.36475],[-40.20581,-6.38087],[-40.21811,-6.37641],[-40.22716,-6.38787],[-40.24206,-6.39265],[-40.24977,-6.38831],[-40.25611,-6.37615],[-40.261,-6.38624],[-40.27432,-6.38802],[-40.28525,-6.3808],[-40.2957,-6.39193],[-40.33459,-6.40603],[-40.33862,-6.41412],[-40.34464,-6.40965],[-40.36622,-6.43023],[-40.37004,-6.43935],[-40.36819,-6.44923],[-40.38986,-6.46763],[-40.39156,-6.47484],[-40.42505,-6.48577],[-40.4424,-6.48986],[-40.4479,-6.49555],[-40.44804,-6.50841],[-40.45313,-6.52404],[-40.46858,-6.52986],[-40.48324,-6.52823],[-40.52754,-6.53799],[-40.53887,-6.54682],[-40.55283,-6.55],[-40.5617,-6.54682],[-40.57841,-6.54882],[-40.58926,-6.56051],[-40.58812,-6.57298],[-40.59646,-6.58551],[-40.59797,-6.59386],[-40.61003,-6.60315],[-40.60957,-6.60762],[-40.62371,-6.6043],[-40.64722,-6.60748],[-40.64911,-6.61215],[-40.66966,-6.61406],[-40.67431,-6.60152],[-40.68597,-6.60011],[-40.73638,-6.60031]]]},"properties":{"CD_REG":"2305","NM_REG":"Crateús","SIGLA_UF":"CE"}},{"type":"Feature","geometry":{"type":"Polygon","coordinates":[[[-41.23981,-4.57356],[-41.23542,-4.57022],[-41.22153,-4.56749],[-41.21411,-4.55268],[-41.20844,-4.54882],[-41.20379,-4.52842],[-41.19078,-4.51553],[-41.18792,-4.48614],[-41.17811,-4.46977],[-41.17516,-4.44954],[-41.17713,-4.44127],[-41.15969,-4.41055],[-41.15802,-4.37868],[-41.14208,-4.35904],[-41.13342,-4.34014],[-41.12017,-4.33057],[-41.11912,-4.30653],[-41.1359,-4.23351],[-41.09089,-4.17033],[-41.10576,-4.16962],[-41.11833,-4.16522],[-41.12676,-4.1507],[-41.12533,-4.14495],[-41.13427,-4.13165],[-41.14211,-4.12565],[-41.1344,-4.10491],[-41.12894,-4.09727],[-41.12198,-4.07222],[-41.12716,-4.06139],[-41.11317,-4.04979],[-41.11287,-4.04174],[-41.12034,-4.03634],[-41.1431,-4.03681],[-41.15995,-4.03171],[-41.16881,-4.03307],[-41.18381,-4.0244],[-41.18552,-4.01722],[-41.19947,-4.01836],[-41.21408,-4.0242],[-41.24031,-4.03085],[-41.25018,-4.03775],[-41.25673,-4.03485],[-41.23952,-4.01688],[-41.24573,-4.00658],[-41.24924,-3.98987],[-41.24419,-3.98639],[-41.23425,-3.9678],[-41.22893,-3.9681],[-41.22024,-3.94151],[-41.22891,-3.91173],[-41.24533,-3.89832],[-41.24761,-3.88229],[-41.26694,-3.86267],[-41.26807,-3.84832],[-41.27686,-3.82562],[-41.28794,-3.82249],[-41.29425,-3.82947],[-41.30081,-3.8263],[-41.2626,-3.78882],[-41.25412,-3.77504],[-41.26048,-3.76245],[-41.26126,-3.74622],[-41.25308,-3.72422],[-41.23943,-3.72075],[-41.24178,-3.71095],[-41.25543,-3.70326],[-41.27933,-3.70075],[-41.28608,-3.69224],[-41.30766,-3.6848],[-41.32248,-3.68775],[-41.34175,-3.68077],[-41.33735,-3.65466],[-41.33397,-3.64773],[-41.33132,-3.62468],[-41.34395,-3.59046],[-41.36802,-3.57854],[-41.37131,-3.57263],[-41.36466,-3.558],[-41.35018,-3.55388],[-41.33687,-3.55389],[-41.32558,-3.53436],[-41.32687,-3.51998],[-41.32059,-3.49786],[-41.30303,-3.49218],[-41.31974,-3.48409],[-41.32698,-3.4463],[-41.32468,-3.42642],[-41.32405,-3.38592],[-41.34431,-3.38816],[-41.34679,-3.38553],[-41.36226,-3.39322],[-41.36263,-3.39827],[-41.37542,-3.39907],[-41.38699,-3.4093],[-41.38702,-3.39001],[-41.3986,-3.38824],[-41.39909,-3.36359],[-41.4057,-3.36258],[-41.4216,-3.37054],[-41.42331,-3.36442],[-41.41521,-3.35264],[-41.41232,-3.3407],[-41.39796,-3.32755],[-41.4006,-3.32025],[-41.39586,-3.3041],[-41.32249,-3.17979],[-41.32718,-3.15921],[-41.31113,-3.13576],[-41.29998,-3.12878],[-41.28356,-3.10924],[-41.28506,-3.10151],[-41.27613,-3.10131],[-41.26782,-3.09317],[-41.25577,-3.08758],[-41.25595,-3.07138],[-41.2605,-3.06736],[-41.2616,-3.0523],[-41.24813,-3.02589],[-41.25678,-3.01541],[-41.25795,-3.00277],[-41.27049,-2.98063],[-41.27078,-2.97125],[-41.27994,-2.96781],[-41.30271,-2.96725],[-41.31551,-2.96159],[-41.32177,-2.95173],[-41.32268,-2.92132],[-41.2933,-2.90608],[-41.27116,-2.88719],[-41.25863,-2.88382],[-41.25299,-2.88652],[-41.2095,-2.89036],[-41.19937,-2.88816],[-41.18512,-2.89008],[-41.17682,-2.88621],[-41.14816,-2.89178],[-41.12345,-2.89185],[-41.11467,-2.88599],[-41.10858,-2.89073],[-41.06908,-2.89521],[-41.03466,-2.89155],[-41.01606,-2.89226],[-41.0024,-2.88974],[-40.9928,-2.8837],[-40.98138,-2.88476],[-40.95968,-2.87874],[-40.95547,-2.87203],[-40.92344,-2.87448],[-40.90846,-2.86928],[-40.90722,-2.86008],[-40.88984,-2.86249],[-40.86523,-2.86203],[-40.86312,-2.85624],[-40.84389,-2.88541],[-40.83592,-2.87911],[-40.81173,-2.87585],[-40.79204,-2.86745],[-40.77988,-2.8564],[-40.76038,-2.84881],[-40.72952,-2.85091],[-40.70961,-2.84953],[-40.67024,-2.84342],[-40.65509,-2.8483],[-40.64154,-2.84912],[-40.60806,-2.84239],[-40.60314,-2.84829],[-40.59528,-2.83854],[-40.58752,-2.83996],[-40.56058,-2.82777],[-40.5424,-2.82214],[-40.53023,-2.8136],[-40.51912,-2.79765],[-40.52081,-2.79251],[-40.49796,-2.78432],[-40.47308,-2.79646],[-40.43917,-2.80925],[-40.40873,-2.81324],[-40.37189,-2.81241],[-40.34436,-2.80672],[-40.32613,-2.80612],[-40.26671,-2.81032],[-40.23672,-2.81503],[-40.22729,-2.81078],[-40.18533,-2.81168],[-40.18223,-2.81634],[-40.15771,-2.83511],[-40.14378,-2.84018],[-40.13536,-2.83396],[-40.13442,-2.82672],[-40.12623,-2.82354],[-40.10024,-2.82714],[-40.08096,-2.83459],[-40.06171,-2.83811],[-40.05978,-2.83427],[-40.03881,-2.84195],[-40.02697,-2.83894],[-39.99132,-2.84527],[-39.99463,-2.83955],[-39.9656,-2.85135],[-39.94229,-2.86643],[-39.91501,-2.87898],[-39.89284,-2.88683],[-39.90493,-2.87598],[-39.9247,-2.87204],[-39.91874,-2.86836],[-39.88871,-2.88376],[-39.88182,-2.89295],[-39.86189,-2.89991],[-39.8295,-2.92659],[-39.80552,-2.94267],[-39.79471,-2.95211],[-39.78614,-2.95118],[-39.75787,-2.9692],[-39.73254,-2.99054],[-39.72097,-2.99694],[-39.71951,-3.00034],[-39.7069,-3.00525],[-39.70904,-3.01445],[-39.86801,-3.12461],[-39.86534,-3.12737],[-39.86552,-3.15727],[-39.87826,-3.18533],[-39.89639,-3.19632],[-39.90263,-3.20792],[-39.89907,-3.21586],[-39.89072,-3.21918],[-39.89479,-3.23043],[-39.89187,-3.23687],[-39.90134,-3.25648],[-39.91201,-3.28772],[-39.92373,-3.2947],[-39.92727,-3.31064],[-39.93441,-3.31688],[-39.9392,-3.3347],[-39.95539,-3.34825],[-39.97148,-3.35385],[-39.98385,-3.36549],[-39.99272,-3.38838],[-39.99645,-3.40863],[-40.01404,-3.42947],[-40.02791,-3.43766],[-40.02627,-3.4507],[-40.03751,-3.46048],[-40.04264,-3.47594],[-40.03854,-3.4799],[-40.0363,-3.49514],[-40.04142,-3.50448],[-40.04035,-3.51743],[-40.0447,-3.51931],[-40.04663,-3.55422],[-40.04265,-3.56478],[-40.05226,-3.58334],[-40.06215,-3.58632],[-40.06525,-3.59315],[-40.05307,-3.58965],[-40.04434,-3.58107],[-40.02173,-3.58251],[-40.0095,-3.5781],[-39.9975,-3.58015],[-39.97441,-3.57162],[-39.97974,-3.59581],[-39.99335,-3.62633],[-40.0094,-3.64785],[-40.00681,-3.65441],[-40.01484,-3.66936],[-40.01473,-3.6855],[-40.02026,-3.69418],[-40.01436,-3.7144],[-40.01783,-3.72238],[-40.01235,-3.7285],[-40.01179,-3.76015],[-39.97634,-3.77668],[-39.92486,-3.94609],[-40.00695,-3.89909],[-39.99931,-3.91751],[-39.99923,-3.93052],[-39.99096,-3.93869],[-39.98039,-3.94177],[-39.95435,-3.96269],[-39.94198,-3.9762],[-39.9386,-3.98996],[-39.92472,-3.9884],[-39.92285,-3.99802],[-39.91593,-3.99806],[-39.91516,-4.02053],[-39.9211,-4.02],[-39.92696,-4.03417],[-39.91737,-4.03412],[-39.89867,-4.04314],[-39.88819,-4.03932],[-39.86876,-4.04429],[-39.87706,-4.06065],[-39.85342,-4.07845],[-39.84933,-4.08817],[-39.85786,-4.10146],[-39.83902,-4.11243],[-39.81854,-4.11786],[-39.81131,-4.11661],[-39.80714,-4.12554],[-39.80868,-4.13548],[-39.78823,-4.17237],[-39.77441,-4.17333],[-39.77532,-4.17983],[-39.7879,-4.18857],[-39.78186,-4.20671],[-39.77314,-4.22344],[-39.76581,-4.248],[-39.74889,-4.25477],[-39.73019,-4.27487],[-39.73822,-4.28299],[-39.73398,-4.28709],[-39.73917,-4.29492],[-39.72621,-4.30837],[-39.72744,-4.31935],[-39.73216,-4.31774],[-39.73453,-4.33319],[-39.72546,-4.34441],[-39.70841,-4.34817],[-39.71391,-4.35396],[-39.70935,-4.37802],[-39.71786,-4.38308],[-39.72491,-4.37902],[-39.72782,-4.39325],[-39.73972,-4.40125],[-39.75346,-4.39906],[-39.7519,-4.4075],[-39.73818,-4.42276],[-39.74055,-4.4293],[-39.72946,-4.4475],[-39.7337,-4.4524],[-39.73316,-4.46532],[-39.72067,-4.48151],[-39.73821,-4.49372],[-39.74665,-4.49019],[-39.74813,-4.49772],[-39.756,-4.50198],[-39.75514,-4.51216],[-39.76821,-4.52365],[-39.7641,-4.53454],[-39.75667,-4.53518],[-39.7458,-4.54476],[-39.7294,-4.54022],[-39.70132,-4.54543],[-39.69437,-4.55972],[-39.68627,-4.56711],[-39.68656,-4.576],[-39.70086,-4.58369],[-39.71709,-4.59736],[-39.73031,-4.5998],[-39.7384,-4.60934],[-39.75516,-4.61888],[-39.77004,-4.63074],[-39.77203,-4.64015],[-39.76661,-4.6467],[-39.747,-4.64871],[-39.73866,-4.65259],[-39.71576,-4.65654],[-39.73036,-4.66675],[-39.71227,-4.68089],[-39.72746,-4.69172],[-39.74258,-4.71956],[-39.80678,-4.7078],[-39.7904,-4.75379],[-39.79896,-4.74369],[-39.80606,-4.74227],[-39.82376,-4.73002],[-39.84132,-4.73897],[-39.85593,-4.73631],[-39.86239,-4.73896],[-39.86502,-4.75391],[-39.87314,-4.76022],[-39.87194,-4.7739],[-39.87996,-4.77951],[-39.88491,-4.79018],[-39.90345,-4.78746],[-39.91587,-4.78848],[-39.91546,-4.78364],[-39.92858,-4.77454],[-39.92616,-4.73489],[-40.0595,-4.71681],[-40.11989,-4.74803],[-40.1361,-4.81293],[-40.14226,-4.80805],[-40.15387,-4.81019],[-40.16541,-4.79543],[-40.18478,-4.78617],[-40.19293,-4.79058],[-40.19736,-4.78648],[-40.21017,-4.79252],[-40.22771,-4.78626],[-40.23168,-4.78046],[-40.24446,-4.7769],[-40.26171,-4.77672],[-40.27307,-4.77006],[-40.28104,-4.75824],[-40.27932,-4.75245],[-40.31432,-4.72733],[-40.30341,-4.71877],[-40.31525,-4.70812],[-40.30929,-4.69104],[-40.32154,-4.68974],[-40.32046,-4.67983],[-40.33065,-4.66676],[-40.33774,-4.66544],[-40.34226,-4.65527],[-40.33459,-4.65364],[-40.33028,-4.63862],[-40.31646,-4.63616],[-40.31884,-4.62263],[-40.29689,-4.60603],[-40.29347,-4.58883],[-40.30092,-4.57848],[-40.30987,-4.58374],[-40.32211,-4.57658],[-40.32888,-4.58218],[-40.34586,-4.58069],[-40.35983,-4.57279],[-40.36404,-4.56285],[-40.38119,-4.54887],[-40.46087,-4.52834],[-40.5094,-4.5075],[-40.58788,-4.55758],[-40.58745,-4.57253],[-40.58312,-4.57751],[-40.587,-4.59419],[-40.59645,-4.61172],[-40.60476,-4.62009],[-40.62145,-4.62531],[-40.62666,-4.62122],[-40.66981,-4.70512],[-40.73217,-4.7152],[-40.73544,-4.70922],[-40.75313,-4.71176],[-40.76203,-4.7062],[-40.7847,-4.71247],[-40.80844,-4.70565],[-40.82592,-4.71679],[-40.84424,-4.71882],[-40.859,-4.71181],[-40.86788,-4.71537],[-40.8677,-4.6993],[-40.86221,-4.68962],[-40.85249,-4.68454],[-40.85752,-4.67336],[-40.87462,-4.69154],[-40.8734,-4.6999],[-40.88806,-4.71655],[-40.95535,-4.71636],[-40.96311,-4.68827],[-40.96929,-4.69264],[-40.9767,-4.68537],[-40.98707,-4.66004],[-40.99181,-4.66084],[-41.01732,-4.64345],[-41.05185,-4.62924],[-41.06884,-4.61492],[-41.08719,-4.6134],[-41.09886,-4.60242],[-41.11753,-4.60216],[-41.13211,-4.599],[-41.14767,-4.59967],[-41.16274,-4.59181],[-41.18343,-4.59381],[-41.18591,-4.57851],[-41.19941,-4.58453],[-41.21528,-4.58417],[-41.21927,-4.57433],[-41.23981,-4.57356]]]},"properties":{"CD_REG":"2306","NM_REG":"Sobral","SIGLA_UF":"CE"}}]}