{"type":"FeatureCollection","features":[{"type":"Feature","geometry":{"type":"Polygon","coordinates":[[[-66.62689,-9.89803],[-66.81025,-9.81805],[-66.78058,-9.79139],[-66.77725,-9.76866],[-66.78214,-9.75857],[-66.77536,-9.75309],[-66.75847,-9.76036],[-66.72539,-9.75607],[-66.7013,-9.74336],[-66.6918,-9.73389],[-66.68495,-9.71465],[-66.62417,-9.68082],[-66.60945,-9.6649],[-66.58631,-9.67356],[-66.56317,-9.66042],[-66.55172,-9.65806],[-66.53689,-9.64355],[-66.50061,-9.63356],[-66.49708,-9.62638],[-66.49492,-9.60158],[-66.46747,-9.58221],[-66.45659,-9.5694],[-66.43893,-9.55439],[-66.42883,-9.53318],[-66.41724,-9.51986],[-66.39241,-9.50048],[-66.39244,-9.48408],[-66.389,-9.46428],[-66.39611,-9.43752],[-66.41472,-9.42195],[-66.40886,-9.40695],[-66.40117,-9.40938],[-66.37478,-9.42637],[-66.36681,-9.42516],[-66.35331,-9.41662],[-66.34161,-9.42702],[-66.33321,-9.42767],[-66.31892,-9.41996],[-66.31486,-9.43381],[-66.3075,-9.43685],[-66.28419,-9.43216],[-66.29044,-9.41249],[-66.2678,-9.40976],[-66.25967,-9.411],[-66.24341,-9.42939],[-66.23531,-9.43087],[-66.22056,-9.4253],[-66.20475,-9.42597],[-66.18203,-9.43399],[-66.17363,-9.43442],[-66.15899,-9.42657],[-66.15436,-9.42047],[-66.12389,-9.40878],[-66.10116,-9.414],[-66.05974,-9.41822],[-66.04646,-9.40934],[-66.04241,-9.40237],[-66.02663,-9.40084],[-66.00258,-9.40426],[-65.98644,-9.41313],[-65.9703,-9.41316],[-65.96705,-9.4201],[-65.95316,-9.42876],[-65.95164,-9.43626],[-65.93188,-9.44759],[-65.918,-9.47816],[-65.90555,-9.48803],[-65.88091,-9.48746],[-65.86035,-9.51077],[-65.84661,-9.51641],[-65.84825,-9.53232],[-65.8408,-9.53411],[-65.82508,-9.53009],[-65.81803,-9.56226],[-65.80538,-9.57051],[-65.80002,-9.58502],[-65.79152,-9.58564],[-65.77699,-9.57656],[-65.77071,-9.56536],[-65.75655,-9.56896],[-65.75033,-9.55362],[-65.74278,-9.55297],[-65.72997,-9.56307],[-65.72355,-9.55906],[-65.71411,-9.54492],[-65.70516,-9.52189],[-65.69608,-9.50767],[-65.681,-9.50041],[-65.68124,-9.46686],[-65.67944,-9.45139],[-65.67278,-9.44635],[-65.65719,-9.44928],[-65.64988,-9.44727],[-65.64163,-9.43347],[-65.61133,-9.42226],[-65.60463,-9.41658],[-65.58811,-9.41377],[-65.57175,-9.41725],[-65.54825,-9.42605],[-65.53619,-9.43769],[-65.51474,-9.44951],[-65.50655,-9.4477],[-65.50316,-9.46998],[-65.4928,-9.47366],[-65.47697,-9.47266],[-65.46788,-9.45929],[-65.45666,-9.47052],[-65.44267,-9.4647],[-65.43472,-9.46633],[-65.4321,-9.45863],[-65.44138,-9.43245],[-65.44333,-9.42015],[-65.45466,-9.40861],[-65.4566,-9.40121],[-65.44727,-9.37942],[-65.44769,-9.34579],[-65.44363,-9.33035],[-65.4491,-9.32458],[-65.44022,-9.31175],[-65.4098,-9.32246],[-65.39352,-9.3396],[-65.37955,-9.33285],[-65.37751,-9.32443],[-65.35124,-9.32311],[-65.34269,-9.30946],[-65.30735,-9.29149],[-65.28818,-9.2768],[-65.28418,-9.27027],[-65.27038,-9.26361],[-65.24666,-9.25766],[-65.21177,-9.27899],[-65.20715,-9.29364],[-65.20896,-9.30964],[-65.19076,-9.33692],[-65.18832,-9.34485],[-65.19616,-9.37526],[-65.17354,-9.38545],[-65.17465,-9.39378],[-65.18438,-9.40701],[-65.18546,-9.42703],[-65.17732,-9.42664],[-65.15513,-9.43716],[-65.14288,-9.44681],[-65.11372,-9.43278],[-65.09785,-9.43252],[-65.08891,-9.42508],[-65.09229,-9.40939],[-65.07793,-9.40098],[-65.05355,-9.40214],[-65.04691,-9.38727],[-65.03568,-9.37482],[-65.03931,-9.35958],[-65.02441,-9.35389],[-65.02202,-9.34601],[-65.00585,-9.34353],[-65.01271,-9.32868],[-65.00186,-9.3179],[-65.00052,-9.30461],[-64.98618,-9.29193],[-64.96288,-9.29278],[-64.95394,-9.27892],[-64.95365,-9.27127],[-64.94615,-9.26791],[-64.93608,-9.25581],[-64.93283,-9.24059],[-64.92149,-9.22829],[-64.91968,-9.22028],[-64.92654,-9.20546],[-64.92374,-9.19814],[-64.9319,-9.18493],[-64.92899,-9.17764],[-64.93362,-9.1544],[-64.93931,-9.1483],[-64.93993,-9.12457],[-64.93347,-9.12034],[-64.9293,-9.10489],[-64.91568,-9.07461],[-64.91935,-9.05056],[-64.91727,-9.04314],[-64.90154,-9.04669],[-64.8941,-9.0437],[-64.88723,-9.02921],[-64.87057,-9.01219],[-64.86312,-9.00973],[-64.83932,-8.99411],[-64.80782,-8.98555],[-64.79163,-8.9864],[-64.77796,-8.99455],[-64.76118,-9.02058],[-64.75357,-9.02075],[-64.73054,-9.01251],[-64.71368,-8.99386],[-64.69927,-8.98826],[-64.68335,-8.99362],[-64.67138,-9.0148],[-64.65771,-9.00821],[-64.64154,-9.00665],[-64.61107,-9.01645],[-64.58796,-9.00951],[-64.5794,-9.00125],[-64.57885,-8.98842],[-64.56888,-8.99177],[-64.56421,-8.98566],[-64.55012,-8.97827],[-64.53363,-8.97627],[-64.49637,-8.97906],[-64.47118,-8.97374],[-64.45546,-8.97786],[-64.44657,-8.97687],[-64.43324,-8.96848],[-64.40846,-8.96065],[-64.37992,-8.94674],[-64.3234,-8.92886],[-64.30957,-8.93449],[-64.31304,-8.95058],[-64.32607,-8.97983],[-64.32529,-8.98807],[-64.31132,-8.99647],[-64.28123,-8.99325],[-64.27348,-8.9896],[-64.25667,-8.98838],[-64.23321,-8.99231],[-64.21112,-8.98183],[-64.17501,-8.96057],[-64.14945,-8.95894],[-64.14177,-8.94505],[-64.15084,-8.90501],[-64.15173,-8.88915],[-64.14879,-8.87309],[-64.1582,-8.84317],[-64.15521,-8.83542],[-64.13576,-8.82039],[-64.12946,-8.80516],[-64.14476,-8.77645],[-64.14307,-8.74303],[-64.13087,-8.72216],[-64.12459,-8.71671],[-64.11126,-8.72517],[-64.09477,-8.72836],[-64.07515,-8.71311],[-64.0589,-8.70999],[-64.02787,-8.71567],[-64.03548,-8.69356],[-64.03251,-8.6862],[-64.01643,-8.66768],[-64.0167,-8.6525],[-64.00518,-8.64175],[-64.00484,-8.62591],[-63.99109,-8.61741],[-63.98621,-8.58563],[-63.98026,-8.58069],[-63.96715,-8.58788],[-63.9656,-8.59593],[-63.95409,-8.60725],[-63.94595,-8.60949],[-63.92457,-8.57553],[-63.92317,-8.55929],[-63.93901,-8.55623],[-63.94562,-8.5505],[-63.94379,-8.5266],[-63.9709,-8.49933],[-63.97318,-8.47845],[-63.94084,-8.45226],[-63.93909,-8.44155],[-63.95373,-8.42796],[-63.9779,-8.42013],[-63.97695,-8.40974],[-63.94537,-8.38783],[-63.94337,-8.36349],[-63.94562,-8.33893],[-63.94412,-8.33119],[-63.93179,-8.32469],[-63.91084,-8.32852],[-63.90434,-8.32206],[-63.89493,-8.30203],[-63.88201,-8.29123],[-63.87076,-8.28882],[-63.84712,-8.29503],[-63.82534,-8.30615],[-63.79123,-8.33322],[-63.77351,-8.32073],[-63.76292,-8.30265],[-63.76007,-8.2911],[-63.74656,-8.27017],[-63.72276,-8.2495],[-63.73831,-8.22659],[-63.74856,-8.20787],[-63.74153,-8.19007],[-63.72343,-8.17526],[-63.69342,-8.15835],[-63.68243,-8.1373],[-63.6699,-8.12174],[-63.66245,-8.10117],[-63.66895,-8.0919],[-63.667,-8.0816],[-63.65087,-8.06644],[-63.63876,-8.04719],[-63.62662,-8.04118],[-63.62178,-8.02961],[-63.62645,-8.01611],[-63.62189,-7.99462],[-63.62125,-7.97653],[-63.50053,-7.97632],[-63.11838,-7.97711],[-62.86662,-7.97587],[-62.85336,-7.98756],[-62.84506,-7.98653],[-62.84161,-7.99497],[-62.83283,-7.99437],[-62.821,-8.0145],[-62.81,-8.02534],[-62.7862,-8.02634],[-62.74397,-8.04529],[-62.72764,-8.06249],[-62.72462,-8.0692],[-62.70642,-8.08531],[-62.69228,-8.09291],[-62.69056,-8.1009],[-62.67884,-8.11144],[-62.6855,-8.11644],[-62.67411,-8.13695],[-62.67303,-8.14531],[-62.68666,-8.17377],[-62.67352,-8.19273],[-62.65989,-8.19963],[-62.65103,-8.22203],[-62.655,-8.22906],[-62.64995,-8.23703],[-62.64195,-8.23934],[-62.6182,-8.25721],[-62.61036,-8.2598],[-62.60006,-8.27224],[-62.58539,-8.27188],[-62.56923,-8.28728],[-62.56192,-8.28401],[-62.55594,-8.30676],[-62.56116,-8.31383],[-62.55527,-8.31939],[-62.55578,-8.32744],[-62.54911,-8.34214],[-62.55153,-8.35819],[-62.53956,-8.35811],[-62.532,-8.37103],[-62.52547,-8.37535],[-62.52614,-8.38305],[-62.51847,-8.38474],[-62.50083,-8.36613],[-62.48695,-8.35921],[-62.47892,-8.34567],[-62.46547,-8.33974],[-62.45377,-8.34917],[-62.43972,-8.3679],[-62.42456,-8.37498],[-62.40825,-8.37745],[-62.40002,-8.3748],[-62.38403,-8.37756],[-62.37055,-8.38466],[-62.3608,-8.39855],[-62.36122,-8.42369],[-62.36928,-8.44612],[-62.36956,-8.4542],[-62.36372,-8.47823],[-62.36605,-8.49356],[-62.35398,-8.5117],[-62.33736,-8.51664],[-62.33322,-8.52776],[-62.33433,-8.54619],[-62.3258,-8.56371],[-62.32772,-8.57254],[-62.33908,-8.58689],[-62.34108,-8.60283],[-62.33578,-8.60948],[-62.31203,-8.62243],[-62.2895,-8.6391],[-62.2813,-8.63859],[-62.27933,-8.62917],[-62.29431,-8.60544],[-62.28936,-8.5889],[-62.27428,-8.58293],[-62.26889,-8.57576],[-62.24281,-8.58066],[-62.2286,-8.59057],[-62.19525,-8.59449],[-62.18839,-8.59056],[-62.1837,-8.59897],[-62.17469,-8.6282],[-62.17664,-8.63692],[-62.19581,-8.63683],[-62.20053,-8.64429],[-62.18144,-8.65788],[-62.16509,-8.67939],[-62.17177,-8.69507],[-62.16781,-8.70323],[-62.15419,-8.71044],[-62.1488,-8.71831],[-62.15703,-8.73221],[-62.15503,-8.73964],[-62.12939,-8.7947],[-62.12497,-8.80167],[-62.098,-8.80892],[-62.0743,-8.79857],[-62.05894,-8.79656],[-62.03106,-8.79971],[-62.02133,-8.8236],[-62.00397,-8.83008],[-61.99703,-8.84074],[-61.99022,-8.87266],[-61.98522,-8.87861],[-61.97914,-8.87324],[-61.95408,-8.87624],[-61.93811,-8.88141],[-61.90589,-8.87451],[-61.903,-8.86289],[-61.8793,-8.86244],[-61.85975,-8.85297],[-61.86374,-8.83146],[-61.85686,-8.81824],[-61.86102,-8.80362],[-61.85569,-8.78903],[-61.8433,-8.77941],[-61.84483,-8.7552],[-61.84125,-8.73941],[-61.8365,-8.73272],[-61.82811,-8.73263],[-61.80625,-8.74778],[-61.79002,-8.74516],[-61.77461,-8.74823],[-61.76211,-8.73715],[-61.76361,-8.7288],[-61.74888,-8.72377],[-61.74013,-8.70987],[-61.74444,-8.70255],[-61.74185,-8.69519],[-61.72597,-8.6936],[-61.71327,-8.68785],[-61.70536,-8.70753],[-61.69752,-8.70958],[-61.67358,-8.70502],[-61.65042,-8.71356],[-61.64608,-8.7207],[-61.63055,-8.72196],[-61.62647,-8.72885],[-61.62955,-8.75296],[-61.6233,-8.75825],[-61.60603,-8.79471],[-61.59011,-8.7945],[-61.58313,-8.79869],[-61.5801,-8.80269],[-61.56837,-8.80108],[-61.55317,-8.80954],[-61.54308,-8.8191],[-61.52719,-8.81686],[-61.51372,-8.83695],[-61.51247,-8.86056],[-61.50523,-8.87207],[-61.49215,-8.88483],[-61.48458,-8.90594],[-61.47026,-8.91508],[-61.46921,-8.92011],[-61.48954,-8.93727],[-61.50573,-8.96619],[-61.51366,-8.99014],[-61.51897,-8.99621],[-61.52798,-9.01935],[-61.52988,-9.03938],[-61.54162,-9.05398],[-61.54941,-9.08114],[-61.55575,-9.0924],[-61.5589,-9.1176],[-61.55538,-9.1315],[-61.53949,-9.15196],[-61.5319,-9.17105],[-61.52364,-9.17902],[-61.51959,-9.19734],[-61.52743,-9.22649],[-61.52487,-9.24286],[-61.5293,-9.24867],[-61.53911,-9.24402],[-61.55199,-9.24385],[-61.56839,-9.23709],[-61.58909,-9.24367],[-61.59962,-9.25604],[-61.62834,-9.2571],[-61.63338,-9.27429],[-61.6253,-9.28412],[-61.61199,-9.2807],[-61.61541,-9.30623],[-61.61133,-9.31573],[-61.62373,-9.33454],[-61.62787,-9.35164],[-61.62593,-9.36301],[-61.61364,-9.35578],[-61.61013,-9.36252],[-61.59464,-9.3687],[-61.57935,-9.36843],[-61.56332,-9.37816],[-61.55315,-9.38906],[-61.55968,-9.3931],[-61.56032,-9.40346],[-61.55054,-9.4147],[-61.55589,-9.42179],[-61.55672,-9.43561],[-61.56467,-9.43836],[-61.58172,-9.45913],[-61.57249,-9.46361],[-61.57847,-9.46952],[-61.56274,-9.48577],[-61.54989,-9.48954],[-61.52651,-9.50107],[-61.54912,-9.51249],[-61.54468,-9.52016],[-61.52712,-9.53327],[-61.51344,-9.52853],[-61.51409,-9.53925],[-61.50804,-9.54046],[-61.51037,-9.56509],[-61.49645,-9.57438],[-61.49493,-9.58493],[-61.5037,-9.61262],[-61.49686,-9.62406],[-61.4786,-9.62434],[-61.47697,-9.62985],[-61.49501,-9.65988],[-61.50688,-9.66196],[-61.50215,-9.68282],[-61.50527,-9.69138],[-61.51966,-9.69703],[-61.53243,-9.71178],[-61.54609,-9.71541],[-61.55305,-9.70719],[-61.57464,-9.71779],[-61.60364,-9.69357],[-61.61008,-9.68434],[-61.63334,-9.69667],[-61.64467,-9.70667],[-61.657,-9.70853],[-61.67478,-9.71805],[-61.69025,-9.71945],[-61.71155,-9.73133],[-61.7338,-9.72571],[-61.76036,-9.72866],[-61.77456,-9.71709],[-61.79217,-9.71968],[-61.79828,-9.73935],[-61.79412,-9.759],[-61.80006,-9.77234],[-61.80783,-9.77984],[-61.80728,-9.80075],[-61.83791,-9.81019],[-61.8442,-9.82452],[-61.84353,-9.84052],[-61.83725,-9.853],[-61.85069,-9.8784],[-61.86019,-9.88294],[-61.87045,-9.90033],[-61.87664,-9.90481],[-61.86387,-9.94615],[-61.85829,-9.97208],[-61.86203,-9.98585],[-61.87256,-9.98807],[-61.90114,-9.97914],[-61.90905,-9.98917],[-61.91731,-9.98039],[-61.93714,-9.94785],[-61.94945,-9.95511],[-61.95552,-9.95066],[-61.96333,-9.98485],[-61.98185,-10.00501],[-61.99311,-10.00961],[-61.99332,-10.022],[-61.98214,-10.03207],[-61.97247,-10.04972],[-61.97267,-10.06753],[-61.98333,-10.06649],[-61.98353,-10.07622],[-61.97858,-10.09316],[-61.98834,-10.09015],[-61.98931,-10.09845],[-61.99814,-10.10565],[-61.99097,-10.11839],[-61.9899,-10.13006],[-62.00581,-10.13273],[-62.01803,-10.12316],[-62.0263,-10.12674],[-62.02814,-10.14435],[-62.03856,-10.15345],[-62.05228,-10.15648],[-62.06317,-10.17442],[-62.08547,-10.18295],[-62.09639,-10.18469],[-62.10573,-10.17841],[-62.1108,-10.19405],[-62.12673,-10.19281],[-62.12139,-10.20971],[-62.13245,-10.2191],[-62.13736,-10.23516],[-62.14014,-10.26057],[-62.14567,-10.27054],[-62.13372,-10.27479],[-62.14172,-10.29782],[-62.14065,-10.31237],[-62.13536,-10.32179],[-62.1402,-10.32735],[-62.13725,-10.33824],[-62.122,-10.355],[-62.25966,-10.47685],[-62.32808,-10.53698],[-62.52526,-10.70947],[-62.85552,-10.99987],[-62.8914,-11.03061],[-62.90585,-11.02795],[-62.9116,-11.0339],[-62.92454,-11.03107],[-62.93195,-11.03387],[-62.9477,-11.02921],[-62.95498,-11.03638],[-62.96924,-11.03069],[-63.00687,-11.03998],[-63.03054,-11.04008],[-63.04026,-11.03748],[-63.05255,-11.05159],[-63.06629,-11.0596],[-63.07563,-11.05988],[-63.09254,-11.0537],[-63.1177,-11.07064],[-63.13124,-11.0746],[-63.14871,-11.07462],[-63.16491,-11.06709],[-63.18027,-11.06609],[-63.19705,-11.08135],[-63.19063,-11.08832],[-63.19546,-11.10339],[-63.20651,-11.10618],[-63.22054,-11.121],[-63.23327,-11.12727],[-63.24541,-11.14714],[-63.2551,-11.15203],[-63.28732,-11.15341],[-63.30612,-11.14168],[-63.30249,-11.1314],[-63.31982,-11.10929],[-63.32999,-11.10198],[-63.3354,-11.08911],[-63.32801,-11.07599],[-63.34135,-11.06379],[-63.35332,-11.06591],[-63.36423,-11.07477],[-63.37649,-11.07575],[-63.38402,-11.07205],[-63.38418,-11.05727],[-63.40363,-11.04878],[-63.41273,-11.04961],[-63.41899,-11.0405],[-63.4331,-11.02995],[-63.46679,-11.03168],[-63.4811,-11.0272],[-63.50029,-11.04267],[-63.52816,-11.04573],[-63.54051,-11.03537],[-63.55466,-11.03923],[-63.55799,-11.03186],[-63.56657,-11.0339],[-63.5696,-11.02287],[-63.58249,-11.01064],[-63.60993,-11.0092],[-63.63013,-11.00554],[-63.61734,-11.01588],[-63.5965,-11.01765],[-63.58056,-11.03115],[-63.58508,-11.04517],[-63.58227,-11.06918],[-63.59393,-11.08049],[-63.59316,-11.09524],[-63.59801,-11.1144],[-63.59781,-11.12592],[-63.60268,-11.14271],[-63.59701,-11.1489],[-63.59697,-11.16609],[-63.58834,-11.18145],[-63.58771,-11.20974],[-63.57708,-11.22514],[-63.58453,-11.22744],[-63.59052,-11.23979],[-63.59401,-11.26076],[-63.58617,-11.27363],[-63.58843,-11.28293],[-63.57551,-11.28282],[-63.55263,-11.30697],[-63.54191,-11.30597],[-63.53715,-11.31508],[-63.5429,-11.32533],[-63.52931,-11.33806],[-63.52166,-11.358],[-63.52204,-11.37007],[-63.52663,-11.37554],[-63.54071,-11.38027],[-63.53846,-11.38699],[-63.55218,-11.3935],[-63.55747,-11.40417],[-63.54885,-11.41349],[-63.55888,-11.41837],[-63.56552,-11.41243],[-63.58007,-11.41668],[-63.58035,-11.41223],[-63.60208,-11.41684],[-63.59646,-11.42214],[-63.59871,-11.44197],[-63.60468,-11.45417],[-63.60396,-11.46737],[-63.60741,-11.48127],[-63.61451,-11.48206],[-63.61705,-11.48968],[-63.60616,-11.49122],[-63.59452,-11.50447],[-63.60309,-11.5068],[-63.61271,-11.52145],[-63.61237,-11.53718],[-63.62327,-11.53822],[-63.61358,-11.54738],[-63.61552,-11.55447],[-63.60499,-11.56259],[-63.60835,-11.5693],[-63.60501,-11.5843],[-63.59866,-11.59369],[-63.60307,-11.60143],[-63.61728,-11.59983],[-63.62007,-11.60583],[-63.63652,-11.60759],[-63.64531,-11.62633],[-63.65331,-11.62096],[-63.65765,-11.60895],[-63.66615,-11.61943],[-63.66881,-11.63039],[-63.67833,-11.6239],[-63.67588,-11.64056],[-63.68858,-11.65094],[-63.69225,-11.64168],[-63.70613,-11.65084],[-63.72776,-11.6459],[-63.74249,-11.65037],[-63.74322,-11.66053],[-63.77099,-11.66601],[-63.7763,-11.66135],[-63.79916,-11.66831],[-63.80907,-11.67461],[-63.82066,-11.67406],[-63.83063,-11.68363],[-63.84293,-11.68308],[-63.84936,-11.69356],[-63.88085,-11.7285],[-63.90513,-11.7195],[-63.92605,-11.73038],[-63.93518,-11.72629],[-63.9663,-11.73548],[-63.96719,-11.74609],[-63.97563,-11.7543],[-63.9793,-11.74826],[-63.99119,-11.74757],[-63.99449,-11.75283],[-64.00674,-11.75541],[-64.01938,-11.76379],[-64.0248,-11.75974],[-64.02505,-11.74574],[-64.04247,-11.74618],[-64.03622,-11.75317],[-64.04038,-11.76409],[-64.04538,-11.75845],[-64.06485,-11.77097],[-64.07733,-11.77032],[-64.08896,-11.7838],[-64.10172,-11.783],[-64.09785,-11.79155],[-64.11025,-11.80772],[-64.1078,-11.81491],[-64.12027,-11.83098],[-64.1258,-11.82796],[-64.12791,-11.83663],[-64.12133,-11.8404],[-64.12188,-11.84866],[-64.13022,-11.87003],[-64.14497,-11.88328],[-64.14077,-11.88455],[-64.14463,-11.89592],[-64.15461,-11.90311],[-64.15588,-11.91311],[-64.18172,-11.91246],[-64.18519,-11.90934],[-64.20386,-11.90965],[-64.21291,-11.92329],[-64.21922,-11.9226],[-64.2258,-11.93301],[-64.23727,-11.93546],[-64.24522,-11.94739],[-64.25758,-11.95484],[-64.25844,-11.96046],[-64.244,-11.96506],[-64.23966,-11.97361],[-64.2453,-11.98043],[-64.25425,-11.98106],[-64.25858,-11.9913],[-64.28583,-11.9965],[-64.29041,-12.00938],[-64.30147,-12.01039],[-64.30061,-12.01597],[-64.30988,-12.01475],[-64.31847,-12.00784],[-64.34044,-12.02673],[-64.35081,-12.03867],[-64.3536,-12.0364],[-64.36521,-12.05281],[-64.37583,-12.05935],[-64.37683,-12.08943],[-64.382,-12.09281],[-64.38306,-12.1088],[-64.39825,-12.10535],[-64.40158,-12.11242],[-64.41008,-12.10828],[-64.42511,-12.12069],[-64.42208,-12.12707],[-64.42724,-12.1364],[-64.43238,-12.1307],[-64.44884,-12.15032],[-64.43833,-12.15535],[-64.44774,-12.16385],[-64.44694,-12.17264],[-64.45761,-12.18448],[-64.47436,-12.18336],[-64.46689,-12.197],[-64.48092,-12.2035],[-64.48494,-12.20929],[-64.50099,-12.19465],[-64.51341,-12.20056],[-64.51583,-12.2114],[-64.53917,-12.2154],[-64.54383,-12.20177],[-64.54308,-12.1923],[-64.55301,-12.181],[-64.5785,-12.17875],[-64.58675,-12.18503],[-64.59455,-12.2157],[-64.61622,-12.21472],[-64.65765,-12.19936],[-64.67156,-12.19268],[-64.69803,-12.1878],[-64.71294,-12.17358],[-64.7178,-12.14247],[-64.71219,-12.12065],[-64.69836,-12.10359],[-64.69763,-12.09609],[-64.70661,-12.08825],[-64.72152,-12.0881],[-64.73855,-12.10008],[-64.7337,-12.11811],[-64.73655,-12.13851],[-64.74178,-12.15121],[-64.74994,-12.15757],[-64.75871,-12.1571],[-64.76859,-12.146],[-64.76708,-12.13292],[-64.7575,-12.11231],[-64.75986,-12.1023],[-64.77045,-12.09371],[-64.78847,-12.08579],[-64.80008,-12.0859],[-64.8095,-12.09395],[-64.82344,-12.12059],[-64.83061,-12.12252],[-64.84226,-12.10749],[-64.84241,-12.0946],[-64.83222,-12.08101],[-64.8155,-12.07243],[-64.81003,-12.06449],[-64.81269,-12.04487],[-64.82623,-12.02119],[-64.83959,-12.01068],[-64.88367,-12.01367],[-64.91703,-12.02838],[-64.92994,-12.0206],[-64.94061,-12.00025],[-64.94839,-11.99343],[-64.96606,-12.00029],[-64.97216,-12.01816],[-64.98089,-12.01688],[-65.00056,-11.99337],[-65.01747,-11.99856],[-65.02891,-11.99764],[-65.03542,-11.9869],[-65.02559,-11.97165],[-65.03327,-11.96643],[-65.03989,-11.97034],[-65.04203,-11.96271],[-65.02764,-11.94581],[-65.01861,-11.92092],[-65.015,-11.90415],[-65.01886,-11.89209],[-65.03083,-11.88736],[-65.05403,-11.88546],[-65.05995,-11.8828],[-65.07069,-11.86911],[-65.07084,-11.85637],[-65.06075,-11.82003],[-65.05972,-11.79068],[-65.06659,-11.76745],[-65.07975,-11.73616],[-65.08056,-11.72037],[-65.09053,-11.70778],[-65.10728,-11.70863],[-65.12061,-11.71867],[-65.12825,-11.72051],[-65.18297,-11.7217],[-65.18622,-11.72689],[-65.17609,-11.74127],[-65.17397,-11.75311],[-65.18756,-11.75625],[-65.20478,-11.74946],[-65.22933,-11.7357],[-65.25061,-11.72137],[-65.2608,-11.70489],[-65.25697,-11.6964],[-65.23133,-11.67372],[-65.21791,-11.65209],[-65.21859,-11.64073],[-65.23,-11.62317],[-65.23039,-11.6121],[-65.22486,-11.60105],[-65.23498,-11.57678],[-65.23192,-11.56608],[-65.21747,-11.55268],[-65.21219,-11.54286],[-65.21192,-11.53049],[-65.21749,-11.52045],[-65.22897,-11.51563],[-65.25733,-11.51449],[-65.30492,-11.5016],[-65.319,-11.44739],[-65.3265,-11.4016],[-65.32611,-11.39083],[-65.33539,-11.35703],[-65.33339,-11.34503],[-65.32402,-11.33862],[-65.29766,-11.33508],[-65.29203,-11.33114],[-65.29377,-11.31924],[-65.301,-11.31572],[-65.33964,-11.31245],[-65.34692,-11.30287],[-65.35986,-11.2578],[-65.36188,-11.24562],[-65.3607,-11.22332],[-65.35539,-11.21502],[-65.34549,-11.21084],[-65.32563,-11.21169],[-65.32016,-11.20559],[-65.31967,-11.19348],[-65.32562,-11.18662],[-65.3433,-11.19031],[-65.35086,-11.18639],[-65.3635,-11.14727],[-65.3615,-11.13487],[-65.35147,-11.12172],[-65.32519,-11.10378],[-65.28889,-11.09425],[-65.2798,-11.07912],[-65.28292,-11.05861],[-65.30055,-11.03933],[-65.29717,-11.02597],[-65.26914,-10.99988],[-65.25497,-10.99484],[-65.25086,-10.98455],[-65.26638,-10.96464],[-65.27381,-10.9452],[-65.28583,-10.92767],[-65.28439,-10.91936],[-65.26661,-10.92181],[-65.26919,-10.89539],[-65.27556,-10.87116],[-65.29942,-10.8469],[-65.31688,-10.82539],[-65.33952,-10.80801],[-65.3625,-10.80161],[-65.36696,-10.79626],[-65.36553,-10.78007],[-65.35049,-10.78059],[-65.34475,-10.76226],[-65.34958,-10.74346],[-65.34419,-10.72118],[-65.34361,-10.69958],[-65.34967,-10.67055],[-65.35834,-10.65739],[-65.38041,-10.64566],[-65.39478,-10.64577],[-65.40513,-10.64055],[-65.41613,-10.61674],[-65.40928,-10.61441],[-65.4106,-10.60147],[-65.39924,-10.59088],[-65.39761,-10.5809],[-65.40469,-10.55375],[-65.41847,-10.53977],[-65.41931,-10.52684],[-65.41058,-10.51295],[-65.41558,-10.50037],[-65.42341,-10.49515],[-65.42975,-10.48095],[-65.42442,-10.46591],[-65.4048,-10.46402],[-65.39043,-10.4476],[-65.38013,-10.42427],[-65.38132,-10.39782],[-65.3918,-10.37444],[-65.37403,-10.35058],[-65.36308,-10.34328],[-65.3475,-10.3216],[-65.32736,-10.30527],[-65.31825,-10.28773],[-65.31711,-10.2774],[-65.30677,-10.24983],[-65.29422,-10.23775],[-65.28883,-10.21987],[-65.29122,-10.20589],[-65.3035,-10.18219],[-65.30703,-10.165],[-65.30028,-10.13944],[-65.30222,-10.12344],[-65.30058,-10.10091],[-65.3198,-10.07951],[-65.32616,-10.06618],[-65.32936,-10.0432],[-65.32005,-10.00096],[-65.32222,-9.97765],[-65.33194,-9.96805],[-65.33355,-9.94251],[-65.33183,-9.93001],[-65.32122,-9.90601],[-65.31227,-9.89312],[-65.2958,-9.87845],[-65.28866,-9.86573],[-65.28602,-9.85348],[-65.28738,-9.83986],[-65.29296,-9.8333],[-65.31689,-9.81842],[-65.32199,-9.81131],[-65.32686,-9.78405],[-65.34306,-9.75353],[-65.35688,-9.72017],[-65.3783,-9.69713],[-65.3916,-9.68763],[-65.44344,-9.66932],[-65.44352,-9.69265],[-65.45055,-9.70046],[-65.47186,-9.71369],[-65.48988,-9.71303],[-65.48574,-9.72919],[-65.50102,-9.72984],[-65.50427,-9.74873],[-65.50422,-9.7677],[-65.49824,-9.77837],[-65.50205,-9.78584],[-65.51352,-9.79317],[-65.53408,-9.78295],[-65.53736,-9.79889],[-65.54431,-9.80445],[-65.55325,-9.80437],[-65.56432,-9.81025],[-65.56358,-9.82164],[-65.5541,-9.83204],[-65.55803,-9.84463],[-65.56791,-9.83858],[-65.59695,-9.84191],[-65.59766,-9.82756],[-65.60587,-9.82459],[-65.62761,-9.8368],[-65.63219,-9.83006],[-65.63302,-9.80989],[-65.63722,-9.80455],[-65.64736,-9.81584],[-65.65386,-9.80758],[-65.64569,-9.79924],[-65.64736,-9.79147],[-65.66277,-9.79149],[-65.67096,-9.7811],[-65.68938,-9.79985],[-65.68844,-9.81099],[-65.69516,-9.81225],[-65.71055,-9.80732],[-65.70002,-9.78818],[-65.70946,-9.77362],[-65.70416,-9.76384],[-65.68922,-9.76883],[-65.67994,-9.7657],[-65.68516,-9.76186],[-65.68497,-9.74901],[-65.69794,-9.75084],[-65.70416,-9.75692],[-65.72275,-9.75664],[-65.73361,-9.76306],[-65.73647,-9.77772],[-65.74605,-9.78153],[-65.75622,-9.76702],[-65.77266,-9.75819],[-65.7666,-9.73965],[-65.77791,-9.73683],[-65.77949,-9.74903],[-65.77536,-9.76685],[-65.78089,-9.77212],[-65.78374,-9.78634],[-65.7963,-9.79139],[-65.80572,-9.78809],[-65.81313,-9.77241],[-65.8016,-9.76575],[-65.81694,-9.75466],[-65.82244,-9.76742],[-65.83019,-9.76744],[-65.84352,-9.78345],[-65.84083,-9.78885],[-65.85358,-9.79434],[-65.8715,-9.79096],[-65.86791,-9.77267],[-65.86186,-9.76778],[-65.87136,-9.75339],[-65.88591,-9.75248],[-65.89908,-9.75997],[-65.90399,-9.76684],[-65.91536,-9.76284],[-65.91569,-9.75374],[-65.92163,-9.75279],[-65.93081,-9.76736],[-65.93727,-9.76885],[-65.94424,-9.76036],[-65.95333,-9.76884],[-65.96716,-9.77065],[-65.97352,-9.77733],[-65.97413,-9.79791],[-65.967,-9.80486],[-65.97997,-9.80131],[-65.98214,-9.80878],[-65.98955,-9.80161],[-65.99866,-9.80229],[-65.99844,-9.79536],[-66.01008,-9.80122],[-66.01817,-9.81084],[-66.02603,-9.81102],[-66.03322,-9.78893],[-66.05322,-9.78472],[-66.07111,-9.7843],[-66.08714,-9.79004],[-66.07972,-9.79362],[-66.09058,-9.81278],[-66.09744,-9.81161],[-66.10144,-9.80336],[-66.09777,-9.7913],[-66.10581,-9.78312],[-66.12286,-9.7911],[-66.15202,-9.78562],[-66.17405,-9.79485],[-66.17625,-9.80331],[-66.19506,-9.80631],[-66.19447,-9.82876],[-66.20367,-9.83462],[-66.21331,-9.83426],[-66.23766,-9.8146],[-66.24747,-9.82062],[-66.2528,-9.83208],[-66.26334,-9.83064],[-66.27483,-9.83484],[-66.2753,-9.82697],[-66.28358,-9.8332],[-66.28619,-9.84472],[-66.30489,-9.83534],[-66.30827,-9.84046],[-66.31339,-9.83257],[-66.33763,-9.84077],[-66.34619,-9.83937],[-66.35533,-9.84808],[-66.35839,-9.86405],[-66.38227,-9.86785],[-66.40311,-9.86356],[-66.41208,-9.88203],[-66.42247,-9.88722],[-66.42625,-9.89963],[-66.43217,-9.89198],[-66.42489,-9.87373],[-66.4358,-9.86601],[-66.46008,-9.87414],[-66.46067,-9.8786],[-66.47284,-9.86838],[-66.48911,-9.87074],[-66.49114,-9.88248],[-66.502,-9.88208],[-66.50058,-9.87536],[-66.51431,-9.87686],[-66.52,-9.88523],[-66.53375,-9.88521],[-66.54386,-9.87745],[-66.54894,-9.88881],[-66.55886,-9.88095],[-66.56589,-9.88631],[-66.56731,-9.89465],[-66.57436,-9.89008],[-66.58233,-9.90587],[-66.58758,-9.9003],[-66.61991,-9.89405],[-66.62689,-9.89803]]]},"properties":{"CD_REG":"1101","NM_REG":"Porto Velho","SIGLA_UF":"RO"}},{"type":"Feature","geometry":{"type":"Polygon","coordinates":[[[-64.59455,-12.2157],[-64.58675,-12.18503],[-64.5785,-12.17875],[-64.55301,-12.181],[-64.54308,-12.1923],[-64.54383,-12.20177],[-64.53917,-12.2154],[-64.51583,-12.2114],[-64.51341,-12.20056],[-64.50099,-12.19465],[-64.48494,-12.20929],[-64.48092,-12.2035],[-64.46689,-12.197],[-64.47436,-12.18336],[-64.45761,-12.18448],[-64.44694,-12.17264],[-64.44774,-12.16385],[-64.43833,-12.15535],[-64.44884,-12.15032],[-64.43238,-12.1307],[-64.42724,-12.1364],[-64.42208,-12.12707],[-64.42511,-12.12069],[-64.41008,-12.10828],[-64.40158,-12.11242],[-64.39825,-12.10535],[-64.38306,-12.1088],[-64.382,-12.09281],[-64.37683,-12.08943],[-64.37583,-12.05935],[-64.36521,-12.05281],[-64.3536,-12.0364],[-64.35081,-12.03867],[-64.34044,-12.02673],[-64.31847,-12.00784],[-64.30988,-12.01475],[-64.30061,-12.01597],[-64.30147,-12.01039],[-64.29041,-12.00938],[-64.28583,-11.9965],[-64.25858,-11.9913],[-64.25425,-11.98106],[-64.2453,-11.98043],[-64.23966,-11.97361],[-64.244,-11.96506],[-64.25844,-11.96046],[-64.25758,-11.95484],[-64.24522,-11.94739],[-64.23727,-11.93546],[-64.2258,-11.93301],[-64.21922,-11.9226],[-64.21291,-11.92329],[-64.20386,-11.90965],[-64.18519,-11.90934],[-64.18172,-11.91246],[-64.15588,-11.91311],[-64.15461,-11.90311],[-64.14463,-11.89592],[-64.14077,-11.88455],[-64.14497,-11.88328],[-64.13022,-11.87003],[-64.12188,-11.84866],[-64.12133,-11.8404],[-64.12791,-11.83663],[-64.1258,-11.82796],[-64.12027,-11.83098],[-64.1078,-11.81491],[-64.11025,-11.80772],[-64.09785,-11.79155],[-64.10172,-11.783],[-64.08896,-11.7838],[-64.07733,-11.77032],[-64.06485,-11.77097],[-64.04538,-11.75845],[-64.04038,-11.76409],[-64.03622,-11.75317],[-64.04247,-11.74618],[-64.02505,-11.74574],[-64.0248,-11.75974],[-64.01938,-11.76379],[-64.00674,-11.75541],[-63.99449,-11.75283],[-63.99119,-11.74757],[-63.9793,-11.74826],[-63.97563,-11.7543],[-63.96719,-11.74609],[-63.9663,-11.73548],[-63.93518,-11.72629],[-63.92605,-11.73038],[-63.90513,-11.7195],[-63.88085,-11.7285],[-63.84936,-11.69356],[-63.84293,-11.68308],[-63.83063,-11.68363],[-63.82066,-11.67406],[-63.80907,-11.67461],[-63.79916,-11.66831],[-63.7763,-11.66135],[-63.77099,-11.66601],[-63.74322,-11.66053],[-63.74249,-11.65037],[-63.72776,-11.6459],[-63.70613,-11.65084],[-63.69225,-11.64168],[-63.68858,-11.65094],[-63.67588,-11.64056],[-63.67833,-11.6239],[-63.66881,-11.63039],[-63.66615,-11.61943],[-63.65765,-11.60895],[-63.65331,-11.62096],[-63.64531,-11.62633],[-63.63652,-11.60759],[-63.62007,-11.60583],[-63.61728,-11.59983],[-63.60307,-11.60143],[-63.59866,-11.59369],[-63.60501,-11.5843],[-63.60835,-11.5693],[-63.60499,-11.56259],[-63.61552,-11.55447],[-63.61358,-11.54738],[-63.62327,-11.53822],[-63.61237,-11.53718],[-63.61271,-11.52145],[-63.60309,-11.5068],[-63.59452,-11.50447],[-63.60616,-11.49122],[-63.61705,-11.48968],[-63.61451,-11.48206],[-63.60741,-11.48127],[-63.60396,-11.46737],[-63.60468,-11.45417],[-63.59871,-11.44197],[-63.59646,-11.42214],[-63.60208,-11.41684],[-63.58035,-11.41223],[-63.58007,-11.41668],[-63.56552,-11.41243],[-63.55888,-11.41837],[-63.54885,-11.41349],[-63.55747,-11.40417],[-63.55218,-11.3935],[-63.53846,-11.38699],[-63.54071,-11.38027],[-63.52663,-11.37554],[-63.52204,-11.37007],[-63.52166,-11.358],[-63.52931,-11.33806],[-63.5429,-11.32533],[-63.53715,-11.31508],[-63.54191,-11.30597],[-63.55263,-11.30697],[-63.57551,-11.28282],[-63.58843,-11.28293],[-63.58617,-11.27363],[-63.59401,-11.26076],[-63.59052,-11.23979],[-63.58453,-11.22744],[-63.57708,-11.22514],[-63.58771,-11.20974],[-63.58834,-11.18145],[-63.59697,-11.16609],[-63.59701,-11.1489],[-63.60268,-11.14271],[-63.59781,-11.12592],[-63.59801,-11.1144],[-63.59316,-11.09524],[-63.59393,-11.08049],[-63.58227,-11.06918],[-63.58508,-11.04517],[-63.58056,-11.03115],[-63.5965,-11.01765],[-63.61734,-11.01588],[-63.63013,-11.00554],[-63.60993,-11.0092],[-63.58249,-11.01064],[-63.5696,-11.02287],[-63.56657,-11.0339],[-63.55799,-11.03186],[-63.55466,-11.03923],[-63.54051,-11.03537],[-63.52816,-11.04573],[-63.50029,-11.04267],[-63.4811,-11.0272],[-63.46679,-11.03168],[-63.4331,-11.02995],[-63.41899,-11.0405],[-63.41273,-11.04961],[-63.40363,-11.04878],[-63.38418,-11.05727],[-63.38402,-11.07205],[-63.37649,-11.07575],[-63.36423,-11.07477],[-63.35332,-11.06591],[-63.34135,-11.06379],[-63.32801,-11.07599],[-63.3354,-11.08911],[-63.32999,-11.10198],[-63.31982,-11.10929],[-63.30249,-11.1314],[-63.30612,-11.14168],[-63.28732,-11.15341],[-63.2551,-11.15203],[-63.24541,-11.14714],[-63.23327,-11.12727],[-63.22054,-11.121],[-63.20651,-11.10618],[-63.19546,-11.10339],[-63.19063,-11.08832],[-63.19705,-11.08135],[-63.18027,-11.06609],[-63.16491,-11.06709],[-63.14871,-11.07462],[-63.13124,-11.0746],[-63.1177,-11.07064],[-63.09254,-11.0537],[-63.07563,-11.05988],[-63.06629,-11.0596],[-63.05255,-11.05159],[-63.04026,-11.03748],[-63.03054,-11.04008],[-63.00687,-11.03998],[-62.96924,-11.03069],[-62.95498,-11.03638],[-62.9477,-11.02921],[-62.93195,-11.03387],[-62.92454,-11.03107],[-62.9116,-11.0339],[-62.90585,-11.02795],[-62.8914,-11.03061],[-62.85552,-10.99987],[-62.52526,-10.70947],[-62.32808,-10.53698],[-62.25966,-10.47685],[-62.122,-10.355],[-62.13725,-10.33824],[-62.1402,-10.32735],[-62.13536,-10.32179],[-62.14065,-10.31237],[-62.14172,-10.29782],[-62.13372,-10.27479],[-62.14567,-10.27054],[-62.14014,-10.26057],[-62.13736,-10.23516],[-62.13245,-10.2191],[-62.12139,-10.20971],[-62.12673,-10.19281],[-62.1108,-10.19405],[-62.10573,-10.17841],[-62.09639,-10.18469],[-62.08547,-10.18295],[-62.06317,-10.17442],[-62.05228,-10.15648],[-62.03856,-10.15345],[-62.02814,-10.14435],[-62.0263,-10.12674],[-62.01803,-10.12316],[-62.00581,-10.13273],[-61.9899,-10.13006],[-61.99097,-10.11839],[-61.99814,-10.10565],[-61.98931,-10.09845],[-61.98834,-10.09015],[-61.97858,-10.09316],[-61.98353,-10.07622],[-61.98333,-10.06649],[-61.97267,-10.06753],[-61.97247,-10.04972],[-61.98214,-10.03207],[-61.99332,-10.022],[-61.99311,-10.00961],[-61.98185,-10.00501],[-61.96333,-9.98485],[-61.95552,-9.95066],[-61.94945,-9.95511],[-61.93714,-9.94785],[-61.91731,-9.98039],[-61.90905,-9.98917],[-61.90114,-9.97914],[-61.87256,-9.98807],[-61.86203,-9.98585],[-61.85829,-9.97208],[-61.86387,-9.94615],[-61.87664,-9.90481],[-61.87045,-9.90033],[-61.86019,-9.88294],[-61.85069,-9.8784],[-61.83725,-9.853],[-61.84353,-9.84052],[-61.8442,-9.82452],[-61.83791,-9.81019],[-61.80728,-9.80075],[-61.80783,-9.77984],[-61.80006,-9.77234],[-61.79412,-9.759],[-61.79828,-9.73935],[-61.79217,-9.71968],[-61.77456,-9.71709],[-61.76036,-9.72866],[-61.7338,-9.72571],[-61.71155,-9.73133],[-61.69025,-9.71945],[-61.67478,-9.71805],[-61.657,-9.70853],[-61.64467,-9.70667],[-61.63334,-9.69667],[-61.61008,-9.68434],[-61.60364,-9.69357],[-61.57464,-9.71779],[-61.56678,-9.72938],[-61.55525,-9.72908],[-61.5315,-9.73991],[-61.53261,-9.75798],[-61.54622,-9.78889],[-61.52491,-9.79573],[-61.52527,-9.80763],[-61.53228,-9.81854],[-61.51973,-9.82154],[-61.51267,-9.85354],[-61.50791,-9.86108],[-61.51108,-9.89556],[-61.52498,-9.90658],[-61.52314,-9.92803],[-61.52873,-9.93608],[-61.52282,-9.94669],[-61.53242,-9.95263],[-61.53943,-9.9641],[-61.52798,-9.97043],[-61.5312,-9.98985],[-61.53863,-9.99537],[-61.54547,-10.01885],[-61.55587,-10.03895],[-61.57174,-10.04652],[-61.58486,-10.06159],[-61.57871,-10.07924],[-61.5831,-10.08247],[-61.5833,-10.09568],[-61.58866,-10.10406],[-61.59018,-10.12146],[-61.59554,-10.14419],[-61.60124,-10.15009],[-61.5968,-10.16238],[-61.57856,-10.1632],[-61.56246,-10.1719],[-61.55775,-10.18231],[-61.55978,-10.19308],[-61.55172,-10.19778],[-61.57401,-10.20896],[-61.57761,-10.22658],[-61.57672,-10.24858],[-61.57192,-10.25925],[-61.55459,-10.27956],[-61.54414,-10.30227],[-61.55333,-10.30701],[-61.53014,-10.33331],[-61.52148,-10.33078],[-61.51475,-10.33685],[-61.51317,-10.34863],[-61.50172,-10.35378],[-61.50311,-10.37593],[-61.49565,-10.39024],[-61.48955,-10.39026],[-61.48405,-10.40015],[-61.4715,-10.40514],[-61.47617,-10.41843],[-61.46935,-10.4151],[-61.46179,-10.4199],[-61.46709,-10.44849],[-61.47607,-10.45473],[-61.47021,-10.46142],[-61.47351,-10.47496],[-61.48082,-10.48775],[-61.47899,-10.50058],[-61.48098,-10.51641],[-61.47799,-10.53165],[-61.46632,-10.54121],[-61.47012,-10.55653],[-61.47996,-10.56915],[-61.47746,-10.58968],[-61.48151,-10.59676],[-61.47624,-10.60766],[-61.4896,-10.63108],[-61.47896,-10.64304],[-61.48448,-10.67377],[-61.49059,-10.67324],[-61.49803,-10.68629],[-61.49939,-10.69862],[-61.48096,-10.71478],[-61.47239,-10.71497],[-61.47637,-10.7225],[-61.48529,-10.72629],[-61.4884,-10.73648],[-61.48087,-10.7442],[-61.48147,-10.76017],[-61.47656,-10.76665],[-61.47962,-10.7877],[-61.47383,-10.79751],[-61.48603,-10.80061],[-61.49177,-10.79589],[-61.4933,-10.78452],[-61.50529,-10.78476],[-61.5111,-10.79481],[-61.50342,-10.80845],[-61.51252,-10.8222],[-61.50903,-10.83225],[-61.52051,-10.84192],[-61.52515,-10.8558],[-61.52294,-10.87888],[-61.5268,-10.88458],[-61.52061,-10.8903],[-61.52444,-10.90338],[-61.51481,-10.90643],[-61.52047,-10.91942],[-61.52325,-10.94025],[-61.51952,-10.9497],[-61.5279,-10.95942],[-61.53009,-10.97902],[-61.53859,-10.97586],[-61.55069,-10.98097],[-61.55026,-10.98609],[-61.00059,-10.99224],[-61.00059,-10.98835],[-60.80637,-10.98909],[-60.49122,-10.99002],[-60.46005,-10.98986],[-60.45247,-10.99328],[-60.45019,-11.00846],[-60.43836,-11.02384],[-60.44377,-11.0278],[-60.4466,-11.04215],[-60.43251,-11.03763],[-60.41819,-11.04091],[-60.41149,-11.04678],[-60.41439,-11.06747],[-60.40414,-11.06938],[-60.39586,-11.08044],[-60.39155,-11.09379],[-60.37324,-11.09412],[-60.37033,-11.09901],[-60.35002,-11.10832],[-60.34197,-11.08263],[-60.34844,-11.07404],[-60.33455,-11.08289],[-60.31752,-11.06509],[-60.30125,-11.05715],[-60.29144,-11.06549],[-60.28236,-11.06402],[-60.27802,-11.07958],[-60.28083,-11.09153],[-60.271,-11.09869],[-60.26517,-11.09366],[-60.24125,-11.09689],[-60.2275,-11.10543],[-60.21055,-11.10681],[-60.20725,-11.11176],[-60.19147,-11.11411],[-60.189,-11.1081],[-60.17644,-11.09882],[-60.15927,-11.09565],[-60.14803,-11.09926],[-60.14249,-11.10574],[-60.13064,-11.10087],[-60.12041,-11.1069],[-60.11269,-11.10254],[-60.09619,-11.11079],[-60.08774,-11.10699],[-60.08425,-11.09684],[-60.07502,-11.10502],[-60.06671,-11.12551],[-60.04405,-11.12427],[-60.03744,-11.11735],[-60.03203,-11.12778],[-60.01939,-11.1291],[-60.01608,-11.12372],[-59.99121,-11.12359],[-59.98685,-11.11452],[-59.97678,-11.12239],[-59.97994,-11.1398],[-59.98911,-11.13804],[-59.98494,-11.14704],[-59.99502,-11.1482],[-59.99591,-11.15698],[-59.98899,-11.16123],[-59.98758,-11.17111],[-59.98041,-11.17959],[-59.97121,-11.1802],[-59.96403,-11.18912],[-59.96786,-11.19786],[-59.98113,-11.20376],[-59.98441,-11.2152],[-59.97969,-11.23953],[-59.96791,-11.25293],[-59.96852,-11.26641],[-59.96044,-11.2774],[-59.95947,-11.29473],[-59.95002,-11.3044],[-59.92777,-11.31043],[-59.91719,-11.33843],[-59.92452,-11.35227],[-59.92544,-11.36178],[-59.91991,-11.37603],[-59.92063,-11.39801],[-59.93441,-11.42367],[-59.94202,-11.4228],[-59.94477,-11.43232],[-59.95235,-11.43642],[-59.97624,-11.43922],[-59.98541,-11.46934],[-60.01564,-11.4886],[-60.01797,-11.49604],[-60.03124,-11.49317],[-60.03174,-11.50345],[-60.02672,-11.50568],[-60.04153,-11.51661],[-60.05747,-11.5421],[-60.08808,-11.56108],[-60.08722,-11.56813],[-60.09927,-11.57083],[-60.09166,-11.57605],[-60.10161,-11.57736],[-60.09444,-11.58588],[-60.11091,-11.58249],[-60.11488,-11.59146],[-60.10991,-11.61554],[-60.11747,-11.64333],[-60.11572,-11.66914],[-60.12241,-11.6824],[-60.11749,-11.68904],[-60.11619,-11.70671],[-60.12166,-11.7121],[-60.1125,-11.72225],[-60.1167,-11.7293],[-60.10739,-11.74897],[-60.11238,-11.75926],[-60.10559,-11.76371],[-60.10886,-11.77575],[-60.10289,-11.79004],[-60.09686,-11.79532],[-60.10467,-11.80286],[-60.09892,-11.80388],[-60.10336,-11.81917],[-60.09928,-11.83002],[-60.09887,-11.84555],[-60.08944,-11.85516],[-60.0885,-11.86261],[-60.07339,-11.88449],[-60.06588,-11.89082],[-60.04714,-11.89724],[-60.03838,-11.89309],[-60.03344,-11.89869],[-60.01208,-11.89304],[-60.00689,-11.89468],[-59.9842,-11.91482],[-59.98874,-11.92949],[-59.98038,-11.94648],[-59.98699,-11.96009],[-59.97136,-11.96995],[-59.97433,-11.97631],[-59.97038,-11.98902],[-59.97958,-11.99129],[-59.96717,-12.00264],[-59.97936,-12.02955],[-59.96958,-12.03248],[-59.962,-12.05637],[-59.9518,-12.06561],[-59.92928,-12.07845],[-59.92305,-12.09465],[-59.91255,-12.09916],[-59.8998,-12.11722],[-59.89961,-12.16632],[-59.91081,-12.18646],[-59.90664,-12.20514],[-59.90127,-12.21523],[-59.90171,-12.22388],[-59.89411,-12.23141],[-59.89233,-12.24545],[-59.8868,-12.24509],[-59.77436,-12.34096],[-59.77937,-12.34145],[-59.79294,-12.34578],[-59.80211,-12.35739],[-59.8055,-12.36862],[-59.81926,-12.37875],[-59.81877,-12.38989],[-59.82383,-12.39048],[-59.83255,-12.4014],[-59.83512,-12.4132],[-59.84255,-12.42485],[-59.8405,-12.44071],[-59.84358,-12.4467],[-59.84135,-12.45937],[-59.84416,-12.46717],[-59.85586,-12.4786],[-59.87095,-12.48392],[-59.89286,-12.50017],[-59.89818,-12.50164],[-59.89269,-12.52371],[-59.89605,-12.53644],[-59.90992,-12.55007],[-59.91763,-12.56452],[-59.94765,-12.59927],[-59.97273,-12.60994],[-59.97742,-12.60652],[-59.98157,-12.59214],[-59.9975,-12.59077],[-60.00725,-12.59794],[-60.00342,-12.60312],[-60.02894,-12.61857],[-60.03254,-12.62826],[-60.04538,-12.64171],[-60.0458,-12.66151],[-60.05983,-12.66415],[-60.06704,-12.6775],[-60.06585,-12.69382],[-60.05606,-12.69912],[-60.06217,-12.71573],[-60.06921,-12.72047],[-60.07484,-12.73448],[-60.06942,-12.74908],[-60.06246,-12.75741],[-60.06691,-12.76743],[-60.05922,-12.78695],[-60.06845,-12.78992],[-60.06564,-12.8107],[-60.07356,-12.83667],[-60.08282,-12.85264],[-60.07911,-12.88114],[-60.08811,-12.90243],[-60.10153,-12.91342],[-60.11583,-12.94864],[-60.11717,-12.95956],[-60.13086,-12.96167],[-60.13979,-12.97021],[-60.15063,-12.96406],[-60.16742,-12.97064],[-60.18334,-12.96763],[-60.18928,-12.97114],[-60.19207,-12.98206],[-60.20142,-12.98812],[-60.20585,-13.00044],[-60.21366,-13.00705],[-60.21529,-13.02698],[-60.22469,-13.03354],[-60.24133,-13.03846],[-60.2562,-13.06381],[-60.26762,-13.07728],[-60.28299,-13.08055],[-60.28465,-13.09762],[-60.27712,-13.11268],[-60.28101,-13.11995],[-60.27615,-13.12683],[-60.28062,-13.13562],[-60.26851,-13.14497],[-60.27861,-13.15961],[-60.30384,-13.17837],[-60.30934,-13.19231],[-60.30822,-13.19949],[-60.32354,-13.22006],[-60.32978,-13.23547],[-60.32481,-13.25049],[-60.33458,-13.25848],[-60.33903,-13.27233],[-60.35181,-13.27301],[-60.35181,-13.29173],[-60.36076,-13.29847],[-60.36162,-13.30857],[-60.37348,-13.32444],[-60.36609,-13.33223],[-60.37123,-13.35415],[-60.37134,-13.36755],[-60.37959,-13.37523],[-60.37889,-13.39444],[-60.37187,-13.40887],[-60.38109,-13.42056],[-60.38792,-13.4547],[-60.39992,-13.45625],[-60.40003,-13.46075],[-60.41153,-13.46166],[-60.4304,-13.48196],[-60.432,-13.48844],[-60.45117,-13.49279],[-60.46559,-13.48911],[-60.48642,-13.49418],[-60.51095,-13.5036],[-60.52031,-13.51273],[-60.53167,-13.51809],[-60.53306,-13.53625],[-60.54403,-13.5365],[-60.54837,-13.5484],[-60.57765,-13.56523],[-60.60031,-13.57272],[-60.61125,-13.56635],[-60.6322,-13.5717],[-60.64551,-13.59282],[-60.65546,-13.60244],[-60.66928,-13.60833],[-60.67426,-13.61709],[-60.68604,-13.62523],[-60.68637,-13.63916],[-60.6935,-13.6533],[-60.70209,-13.66027],[-60.69856,-13.66879],[-60.71395,-13.676],[-60.71473,-13.68734],[-60.70931,-13.693],[-60.71753,-13.6937],[-60.73509,-13.68638],[-60.7552,-13.68732],[-60.76954,-13.68421],[-60.77053,-13.66511],[-60.78637,-13.65637],[-60.81007,-13.65527],[-60.81906,-13.63693],[-60.82859,-13.6295],[-60.8411,-13.62772],[-60.84498,-13.63156],[-60.87984,-13.61753],[-60.88712,-13.60193],[-60.89415,-13.59393],[-60.90893,-13.58482],[-60.92076,-13.56895],[-60.92476,-13.55702],[-60.91651,-13.54668],[-60.92304,-13.54086],[-60.93389,-13.54071],[-60.95104,-13.55188],[-60.95804,-13.5489],[-60.96742,-13.53689],[-60.98603,-13.5387],[-60.98704,-13.54814],[-61.00562,-13.55028],[-61.01228,-13.53101],[-61.00873,-13.52334],[-61.00092,-13.53099],[-61.00026,-13.52207],[-61.00676,-13.51842],[-61.00901,-13.5064],[-60.99851,-13.49985],[-60.98833,-13.50032],[-61.01492,-13.48754],[-61.02551,-13.49053],[-61.04698,-13.48468],[-61.05098,-13.49539],[-61.0356,-13.49707],[-61.04115,-13.50771],[-61.06037,-13.51185],[-61.06359,-13.50207],[-61.07581,-13.49953],[-61.08776,-13.49209],[-61.09784,-13.49583],[-61.095,-13.50609],[-61.1034,-13.51575],[-61.10093,-13.52847],[-61.10618,-13.53166],[-61.12596,-13.5199],[-61.13962,-13.52898],[-61.13846,-13.51236],[-61.1474,-13.51905],[-61.14431,-13.5286],[-61.1532,-13.52731],[-61.15492,-13.51966],[-61.17129,-13.51061],[-61.18782,-13.51687],[-61.18281,-13.52766],[-61.19429,-13.53645],[-61.20793,-13.52543],[-61.22173,-13.53015],[-61.23353,-13.52502],[-61.24379,-13.51281],[-61.24145,-13.50437],[-61.24834,-13.49627],[-61.26234,-13.49745],[-61.27521,-13.50606],[-61.2856,-13.50211],[-61.28832,-13.48286],[-61.30256,-13.47894],[-61.3054,-13.48631],[-61.30103,-13.49417],[-61.30396,-13.50181],[-61.32868,-13.50358],[-61.33949,-13.50812],[-61.34221,-13.51838],[-61.35052,-13.52116],[-61.38979,-13.51977],[-61.40496,-13.52834],[-61.40246,-13.53787],[-61.41851,-13.5396],[-61.42957,-13.54541],[-61.45512,-13.54968],[-61.46992,-13.55525],[-61.49195,-13.54644],[-61.50826,-13.54794],[-61.52174,-13.53547],[-61.5329,-13.53302],[-61.53534,-13.52789],[-61.55638,-13.51821],[-61.57243,-13.51857],[-61.57893,-13.5099],[-61.5731,-13.4941],[-61.58427,-13.49062],[-61.58562,-13.50063],[-61.59951,-13.50172],[-61.60801,-13.51169],[-61.61588,-13.5114],[-61.61899,-13.49918],[-61.62621,-13.49985],[-61.62282,-13.51462],[-61.62899,-13.5155],[-61.64507,-13.50682],[-61.64593,-13.51652],[-61.65145,-13.51871],[-61.66879,-13.50506],[-61.68618,-13.50917],[-61.69343,-13.49992],[-61.69384,-13.50808],[-61.70304,-13.51512],[-61.72515,-13.52231],[-61.73471,-13.51862],[-61.73082,-13.52654],[-61.74429,-13.52596],[-61.74779,-13.52089],[-61.75779,-13.5242],[-61.75368,-13.53157],[-61.75735,-13.54057],[-61.76451,-13.53921],[-61.76923,-13.51931],[-61.77659,-13.51776],[-61.77815,-13.53299],[-61.78999,-13.53787],[-61.8058,-13.52955],[-61.81712,-13.52744],[-61.81126,-13.54023],[-61.82118,-13.53382],[-61.83365,-13.53929],[-61.84109,-13.54891],[-61.84344,-13.54137],[-61.84034,-13.52697],[-61.84715,-13.52749],[-61.85291,-13.53849],[-61.86885,-13.52822],[-61.8721,-13.51337],[-61.88321,-13.4973],[-61.88107,-13.4796],[-61.88334,-13.45683],[-61.88743,-13.44077],[-61.89926,-13.42683],[-61.9076,-13.43414],[-61.92882,-13.42557],[-61.93096,-13.41742],[-61.94038,-13.40785],[-61.94799,-13.41539],[-61.95629,-13.40825],[-61.97062,-13.40617],[-61.96235,-13.39115],[-61.97732,-13.38808],[-61.97138,-13.37425],[-61.98049,-13.36549],[-61.99963,-13.36504],[-61.99673,-13.37439],[-62.01152,-13.3584],[-62.01541,-13.34786],[-62.01305,-13.33409],[-62.01721,-13.32728],[-62.03271,-13.33364],[-62.04624,-13.31625],[-62.05691,-13.31178],[-62.05696,-13.2882],[-62.06901,-13.29586],[-62.08429,-13.29031],[-62.08515,-13.28208],[-62.09279,-13.28172],[-62.10113,-13.27008],[-62.11568,-13.25847],[-62.10993,-13.25013],[-62.10907,-13.21904],[-62.11498,-13.20388],[-62.11443,-13.18828],[-62.11769,-13.17715],[-62.11521,-13.16368],[-62.11971,-13.15353],[-62.13483,-13.14939],[-62.1429,-13.16116],[-62.15202,-13.15966],[-62.15107,-13.15121],[-62.16009,-13.14648],[-62.16957,-13.1342],[-62.16607,-13.11908],[-62.17499,-13.1135],[-62.18396,-13.12319],[-62.17821,-13.14302],[-62.19093,-13.15383],[-62.20021,-13.15059],[-62.20104,-13.12454],[-62.21479,-13.11134],[-62.22313,-13.11372],[-62.22957,-13.12156],[-62.2434,-13.11734],[-62.24593,-13.14516],[-62.25543,-13.14452],[-62.26791,-13.14915],[-62.27666,-13.14618],[-62.27116,-13.15492],[-62.27854,-13.15548],[-62.28468,-13.14206],[-62.29935,-13.15055],[-62.30585,-13.1395],[-62.31677,-13.13447],[-62.32143,-13.15207],[-62.33052,-13.13998],[-62.33626,-13.14805],[-62.33741,-13.14049],[-62.34554,-13.13714],[-62.35196,-13.14329],[-62.37257,-13.14071],[-62.38254,-13.13083],[-62.39204,-13.13475],[-62.39738,-13.1301],[-62.39488,-13.11865],[-62.39938,-13.11339],[-62.41399,-13.12838],[-62.41902,-13.11667],[-62.43596,-13.09847],[-62.43341,-13.08581],[-62.44291,-13.07991],[-62.45188,-13.08778],[-62.4591,-13.08111],[-62.45241,-13.07024],[-62.46204,-13.06755],[-62.46344,-13.07461],[-62.47205,-13.07889],[-62.47588,-13.05749],[-62.48263,-13.05886],[-62.48177,-13.07189],[-62.48618,-13.07792],[-62.50263,-13.08316],[-62.52382,-13.0655],[-62.53497,-13.07328],[-62.54716,-13.07399],[-62.55804,-13.06562],[-62.58927,-13.05125],[-62.60043,-13.04868],[-62.61257,-13.0413],[-62.61413,-13.02624],[-62.60063,-13.01883],[-62.61035,-13.01144],[-62.62152,-13.01771],[-62.63302,-13.01064],[-62.62918,-12.99581],[-62.63146,-12.99022],[-62.64649,-12.99315],[-62.65218,-12.98934],[-62.64527,-12.97459],[-62.65082,-12.96558],[-62.66069,-12.96947],[-62.66454,-12.98066],[-62.67491,-12.99095],[-62.69438,-12.99223],[-62.69858,-13.00282],[-62.70693,-12.99989],[-62.71321,-13.00433],[-62.72516,-13.00125],[-62.72916,-13.02077],[-62.73402,-13.02187],[-62.74422,-13.00886],[-62.74385,-13.00032],[-62.75221,-13.00205],[-62.75641,-13.01719],[-62.7791,-13.00957],[-62.79435,-12.99522],[-62.79757,-12.98385],[-62.8089,-12.96214],[-62.8033,-12.94508],[-62.81035,-12.93798],[-62.82299,-12.93377],[-62.8321,-12.93782],[-62.83891,-12.94734],[-62.84585,-12.94872],[-62.85026,-12.94093],[-62.84349,-12.93215],[-62.84555,-12.92317],[-62.8609,-12.9129],[-62.87021,-12.91062],[-62.88054,-12.88721],[-62.89408,-12.873],[-62.89216,-12.85884],[-62.90597,-12.8547],[-62.92135,-12.84086],[-62.93785,-12.84299],[-62.94749,-12.85862],[-62.9516,-12.84999],[-62.96321,-12.84738],[-62.97091,-12.85891],[-62.98204,-12.85375],[-62.98343,-12.84413],[-63.0071,-12.8396],[-63.01355,-12.82898],[-63.00879,-12.8152],[-63.01033,-12.80831],[-63.02051,-12.8064],[-63.02136,-12.78825],[-63.03383,-12.78072],[-63.04019,-12.7657],[-63.04191,-12.7501],[-63.05458,-12.73113],[-63.07899,-12.72813],[-63.08244,-12.72055],[-63.08054,-12.70384],[-63.06118,-12.69239],[-63.06677,-12.6827],[-63.07866,-12.68579],[-63.09466,-12.68409],[-63.09936,-12.67963],[-63.09149,-12.66626],[-63.09254,-12.65958],[-63.08461,-12.65465],[-63.08931,-12.65057],[-63.09055,-12.63601],[-63.10714,-12.63144],[-63.11325,-12.62568],[-63.11986,-12.628],[-63.12175,-12.6382],[-63.14678,-12.63774],[-63.15384,-12.63319],[-63.15464,-12.61826],[-63.16608,-12.61605],[-63.16815,-12.62581],[-63.16325,-12.63535],[-63.16594,-12.64233],[-63.17593,-12.63999],[-63.18706,-12.62453],[-63.19434,-12.62316],[-63.19819,-12.63129],[-63.1909,-12.64114],[-63.19138,-12.64882],[-63.20424,-12.66035],[-63.21312,-12.655],[-63.22999,-12.66446],[-63.24196,-12.66013],[-63.24792,-12.66627],[-63.2329,-12.68614],[-63.24249,-12.69077],[-63.26067,-12.6852],[-63.28419,-12.68484],[-63.2994,-12.68176],[-63.33084,-12.66931],[-63.34855,-12.65615],[-63.37086,-12.65969],[-63.38389,-12.65315],[-63.40323,-12.62948],[-63.41211,-12.61026],[-63.41989,-12.60642],[-63.43813,-12.60838],[-63.44259,-12.60121],[-63.42872,-12.59768],[-63.42738,-12.59361],[-63.43936,-12.5816],[-63.43715,-12.56437],[-63.45173,-12.56186],[-63.474,-12.56157],[-63.50174,-12.56732],[-63.52729,-12.54565],[-63.55049,-12.50844],[-63.57616,-12.50121],[-63.59456,-12.48936],[-63.61398,-12.48527],[-63.62116,-12.47351],[-63.6548,-12.46229],[-63.67306,-12.46319],[-63.69155,-12.44942],[-63.73372,-12.43862],[-63.76716,-12.44122],[-63.7863,-12.42794],[-63.80497,-12.44824],[-63.81805,-12.44701],[-63.83397,-12.46343],[-63.85033,-12.46039],[-63.8731,-12.44708],[-63.8873,-12.44725],[-63.88935,-12.46571],[-63.90091,-12.48288],[-63.8978,-12.49969],[-63.90384,-12.50848],[-63.91856,-12.51076],[-63.93973,-12.52659],[-63.952,-12.53162],[-63.96336,-12.5297],[-63.99127,-12.50536],[-64.00055,-12.50302],[-64.00356,-12.51469],[-64.01165,-12.51709],[-64.01789,-12.50923],[-64.04016,-12.51514],[-64.04785,-12.50144],[-64.05701,-12.49204],[-64.06577,-12.49169],[-64.07297,-12.49959],[-64.08203,-12.50132],[-64.08933,-12.49406],[-64.08941,-12.48514],[-64.0958,-12.4842],[-64.1155,-12.50396],[-64.12432,-12.5045],[-64.12211,-12.48829],[-64.13022,-12.47703],[-64.13717,-12.47679],[-64.14473,-12.48407],[-64.14661,-12.50176],[-64.15406,-12.51196],[-64.16461,-12.51437],[-64.17118,-12.51037],[-64.17389,-12.50058],[-64.17094,-12.49153],[-64.1713,-12.47049],[-64.18414,-12.46592],[-64.19677,-12.47284],[-64.20991,-12.46218],[-64.21972,-12.46232],[-64.23449,-12.45548],[-64.24583,-12.46959],[-64.26998,-12.48805],[-64.28444,-12.50318],[-64.29397,-12.49997],[-64.29882,-12.49079],[-64.29061,-12.46674],[-64.29472,-12.45782],[-64.32181,-12.45667],[-64.34509,-12.45982],[-64.40617,-12.44705],[-64.42075,-12.43768],[-64.43197,-12.42145],[-64.44924,-12.40686],[-64.46164,-12.38584],[-64.47902,-12.37958],[-64.49425,-12.36788],[-64.49941,-12.3673],[-64.51211,-12.35143],[-64.51308,-12.34382],[-64.5013,-12.3314],[-64.49553,-12.31101],[-64.49289,-12.29119],[-64.49658,-12.26199],[-64.50328,-12.23515],[-64.51279,-12.22287],[-64.52364,-12.22584],[-64.54197,-12.24075],[-64.55224,-12.24195],[-64.56411,-12.23052],[-64.56861,-12.21981],[-64.58005,-12.2143],[-64.59455,-12.2157]]]},"properties":{"CD_REG":"1102","NM_REG":"Ji-Paraná","SIGLA_UF":"RO"}}]}