{"type":"FeatureCollection","features":[{"type":"Feature","geometry":{"type":"MultiPolygon","coordinates":[[[[-35.87036,-6.48864],[-35.76336,-6.48219],[-35.74116,-6.4763],[-35.72619,-6.46961],[-35.7186,-6.47253],[-35.70717,-6.46954],[-35.68197,-6.44793],[-35.67372,-6.45159],[-35.66016,-6.44528],[-35.65149,-6.44999],[-35.62931,-6.45487],[-35.61797,-6.46202],[-35.60409,-6.45921],[-35.59216,-6.47163],[-35.59213,-6.47658],[-35.58053,-6.48711],[-35.56419,-6.48747],[-35.5648,-6.49178],[-35.55151,-6.49019],[-35.54778,-6.48247],[-35.53364,-6.48303],[-35.5253,-6.4761],[-35.51906,-6.47907],[-35.50141,-6.4778],[-35.48321,-6.4864],[-35.46422,-6.48271],[-35.46079,-6.47695],[-35.4467,-6.48684],[-35.43482,-6.48891],[-35.41239,-6.48825],[-35.39476,-6.49403],[-35.36451,-6.51204],[-35.34126,-6.53862],[-35.33077,-6.54434],[-35.27457,-6.54388],[-35.25321,-6.53401],[-35.22978,-6.53033],[-35.22288,-6.51613],[-35.21823,-6.5186],[-35.20731,-6.54372],[-35.19947,-6.54994],[-35.16885,-6.55826],[-35.15748,-6.55171],[-35.14544,-6.55271],[-35.13263,-6.53576],[-35.12345,-6.52986],[-35.11255,-6.50512],[-35.10368,-6.50585],[-35.09554,-6.49768],[-35.07542,-6.5144],[-35.06715,-6.52466],[-35.05773,-6.52779],[-35.03696,-6.51713],[-35.02854,-6.50552],[-35.01112,-6.50612],[-34.99207,-6.50149],[-34.97836,-6.48726],[-34.96846,-6.4872],[-34.96738,-6.50085],[-34.9658,-6.60035],[-34.96371,-6.60383],[-34.96308,-6.63109],[-34.95741,-6.65878],[-34.95274,-6.67262],[-34.94554,-6.68228],[-34.93079,-6.68818],[-34.93394,-6.69748],[-34.93138,-6.72091],[-34.93408,-6.72914],[-34.92797,-6.74039],[-34.94047,-6.75397],[-34.93343,-6.75644],[-34.93228,-6.76503],[-34.91887,-6.77074],[-34.915,-6.78742],[-34.91122,-6.82616],[-34.89963,-6.86418],[-34.88756,-6.8832],[-34.87376,-6.89475],[-34.85394,-6.90061],[-34.86605,-6.93038],[-34.86446,-6.94287],[-34.8556,-6.96056],[-34.85527,-6.97028],[-34.87069,-6.97974],[-34.87396,-6.98711],[-34.8706,-7.01134],[-34.86526,-7.02958],[-34.85501,-7.02885],[-34.83821,-7.01172],[-34.83396,-6.99112],[-34.83595,-6.9775],[-34.84313,-6.96235],[-34.83006,-6.96623],[-34.82796,-6.97324],[-34.82546,-7.00582],[-34.8296,-7.03067],[-34.83823,-7.04071],[-34.84241,-7.05589],[-34.83989,-7.06421],[-34.83015,-7.07341],[-34.83151,-7.10102],[-34.82112,-7.11224],[-34.82148,-7.12979],[-34.80924,-7.14555],[-34.79677,-7.14705],[-34.79316,-7.15456],[-34.7961,-7.17407],[-34.79474,-7.19424],[-34.80408,-7.21799],[-34.80589,-7.24268],[-34.80358,-7.26811],[-34.79895,-7.2779],[-34.80131,-7.29604],[-34.79847,-7.30368],[-34.80258,-7.31316],[-34.79453,-7.33295],[-34.79781,-7.34349],[-34.79967,-7.36196],[-34.79736,-7.36598],[-34.80205,-7.38369],[-34.80956,-7.43438],[-34.81095,-7.45423],[-34.8039,-7.47127],[-34.81408,-7.48927],[-34.80908,-7.50947],[-34.82173,-7.53427],[-34.82597,-7.55069],[-34.83388,-7.54863],[-34.83859,-7.5443],[-34.85802,-7.53795],[-34.86739,-7.54796],[-34.88874,-7.5359],[-34.89554,-7.54507],[-34.8999,-7.53743],[-34.91732,-7.54177],[-34.93268,-7.52852],[-34.95062,-7.53762],[-34.96079,-7.53877],[-34.96944,-7.52107],[-34.98423,-7.50789],[-34.99018,-7.48888],[-34.98435,-7.46353],[-35.00274,-7.45353],[-35.0146,-7.44345],[-35.02956,-7.42582],[-35.0481,-7.41781],[-35.07052,-7.39876],[-35.10796,-7.40553],[-35.1276,-7.40168],[-35.17207,-7.38804],[-35.18081,-7.3959],[-35.19074,-7.39789],[-35.19955,-7.38773],[-35.21674,-7.38094],[-35.24859,-7.37478],[-35.27663,-7.38492],[-35.29588,-7.40137],[-35.30905,-7.40904],[-35.31404,-7.40575],[-35.3241,-7.41132],[-35.33502,-7.4068],[-35.33191,-7.41915],[-35.35263,-7.42416],[-35.3486,-7.43494],[-35.35299,-7.44127],[-35.36835,-7.44063],[-35.37596,-7.44889],[-35.3855,-7.44958],[-35.39222,-7.456],[-35.40983,-7.4628],[-35.41288,-7.47058],[-35.42471,-7.47442],[-35.4326,-7.47234],[-35.43766,-7.46055],[-35.45037,-7.45341],[-35.45381,-7.4626],[-35.46352,-7.46235],[-35.47608,-7.47623],[-35.49431,-7.48221],[-35.50918,-7.51749],[-35.51244,-7.53147],[-35.52138,-7.54118],[-35.51992,-7.55038],[-35.52721,-7.56996],[-35.53291,-7.57364],[-35.53784,-7.58664],[-35.52785,-7.59021],[-35.51519,-7.58502],[-35.52115,-7.59641],[-35.5181,-7.60643],[-35.52581,-7.60756],[-35.53169,-7.62167],[-35.51963,-7.64002],[-35.51506,-7.64224],[-35.52972,-7.64648],[-35.53461,-7.65548],[-35.5503,-7.66119],[-35.57192,-7.65797],[-35.58769,-7.65022],[-35.59749,-7.65434],[-35.60787,-7.65341],[-35.6195,-7.66251],[-35.63527,-7.63473],[-35.63304,-7.62503],[-35.64467,-7.62506],[-35.65485,-7.62067],[-35.65195,-7.61253],[-35.62801,-7.61214],[-35.6159,-7.60699],[-35.61209,-7.61712],[-35.59553,-7.61928],[-35.58847,-7.60421],[-35.59998,-7.58887],[-35.59823,-7.55141],[-35.59353,-7.54182],[-35.59405,-7.5223],[-35.59091,-7.50784],[-35.59022,-7.4864],[-35.58115,-7.4641],[-35.58397,-7.45059],[-35.56806,-7.43963],[-35.55704,-7.44451],[-35.54826,-7.44016],[-35.54213,-7.41916],[-35.54527,-7.41458],[-35.53423,-7.39419],[-35.56139,-7.30168],[-35.55257,-7.25674],[-35.55254,-7.2427],[-35.5405,-7.23781],[-35.5396,-7.23089],[-35.54578,-7.21498],[-35.54269,-7.20491],[-35.55424,-7.19324],[-35.56427,-7.18766],[-35.57908,-7.18726],[-35.58387,-7.19528],[-35.59543,-7.20157],[-35.61605,-7.17786],[-35.60515,-7.16942],[-35.61899,-7.15376],[-35.62767,-7.13247],[-35.5629,-7.12129],[-35.53265,-7.12078],[-35.52093,-7.10571],[-35.50249,-7.09484],[-35.49413,-7.09331],[-35.49157,-7.07207],[-35.50006,-7.05178],[-35.4932,-7.04456],[-35.49709,-7.03427],[-35.51011,-7.03548],[-35.52145,-7.02987],[-35.52494,-7.01884],[-35.53651,-7.00756],[-35.55921,-6.97919],[-35.56493,-6.97709],[-35.57462,-6.96001],[-35.5882,-6.96432],[-35.58822,-6.95239],[-35.59323,-6.9494],[-35.58138,-6.9406],[-35.57136,-6.94086],[-35.58402,-6.92166],[-35.6302,-6.91193],[-35.65551,-6.91121],[-35.68147,-6.89018],[-35.73598,-6.88409],[-35.74982,-6.87471],[-35.76924,-6.87873],[-35.80224,-6.86474],[-35.82805,-6.85829],[-35.84283,-6.83809],[-35.86108,-6.82434],[-35.8877,-6.7953],[-35.89806,-6.79247],[-35.9068,-6.78395],[-35.89937,-6.77582],[-35.90284,-6.75898],[-35.89638,-6.75046],[-35.89867,-6.74363],[-35.92412,-6.72957],[-35.92411,-6.721],[-35.9092,-6.71616],[-35.8976,-6.70555],[-35.90072,-6.69927],[-35.89412,-6.69219],[-35.8721,-6.69086],[-35.86599,-6.67928],[-35.87699,-6.5778],[-35.86723,-6.54472],[-35.86537,-6.49263],[-35.87036,-6.48864]]],[[[-34.79785,-7.36312],[-34.79816,-7.36298],[-34.798,-7.36278],[-34.79785,-7.36312]]],[[[-34.79896,-7.36256],[-34.79894,-7.36237],[-34.79873,-7.36248],[-34.79896,-7.36256]]],[[[-34.7989,-7.36067],[-34.79898,-7.36055],[-34.79876,-7.36056],[-34.7989,-7.36067]]],[[[-34.79595,-7.349],[-34.79549,-7.34856],[-34.79559,-7.34979],[-34.79595,-7.349]]],[[[-34.79734,-7.34883],[-34.79763,-7.34873],[-34.79728,-7.34851],[-34.79734,-7.34883]]],[[[-34.84756,-6.98309],[-34.85064,-7.00453],[-34.85944,-7.01525],[-34.86554,-7.00153],[-34.86627,-6.98158],[-34.84756,-6.98309]]]]},"properties":{"CD_REG":"2501","NM_REG":"João Pessoa","SIGLA_UF":"PB"}},{"type":"Feature","geometry":{"type":"Polygon","coordinates":[[[-37.35022,-7.9486],[-37.33473,-7.94305],[-37.31898,-7.9431],[-37.30898,-7.93418],[-37.3114,-7.92165],[-37.30809,-7.91627],[-37.3157,-7.90756],[-37.30365,-7.90418],[-37.28739,-7.90388],[-37.27712,-7.89785],[-37.26179,-7.88395],[-37.24409,-7.87385],[-37.24715,-7.8468],[-37.22209,-7.84225],[-37.22811,-7.82115],[-37.24046,-7.82309],[-37.24366,-7.819],[-37.23018,-7.81311],[-37.23056,-7.80674],[-37.21742,-7.80669],[-37.19796,-7.79892],[-37.19154,-7.79117],[-37.18304,-7.79072],[-37.17438,-7.79972],[-37.17137,-7.79517],[-37.15848,-7.79233],[-37.15195,-7.77984],[-37.15703,-7.773],[-37.13894,-7.74552],[-37.1506,-7.72903],[-37.15019,-7.71687],[-37.15454,-7.7064],[-37.17406,-7.68429],[-37.17681,-7.67278],[-37.18777,-7.65763],[-37.19513,-7.65206],[-37.19795,-7.6353],[-37.19275,-7.62382],[-37.18316,-7.61305],[-37.17898,-7.59709],[-37.16357,-7.57471],[-37.1371,-7.5552],[-37.12878,-7.54273],[-37.11834,-7.53443],[-37.1061,-7.53113],[-37.08506,-7.5173],[-37.06989,-7.51744],[-37.05382,-7.50457],[-37.04316,-7.50391],[-37.02167,-7.49669],[-37.01056,-7.48956],[-37.00325,-7.49639],[-36.98423,-7.48226],[-36.98542,-7.4756],[-36.99545,-7.47259],[-36.99406,-7.46471],[-37.00334,-7.45489],[-37.01073,-7.45364],[-37.01318,-7.44498],[-37.02362,-7.43387],[-37.01451,-7.43037],[-37.02598,-7.42246],[-37.01297,-7.40429],[-37.02562,-7.38604],[-37.04999,-7.37759],[-37.05318,-7.3795],[-37.05223,-7.3785],[-37.02735,-7.28698],[-37.01204,-7.28347],[-37.01468,-7.24891],[-37.03523,-7.18877],[-37.01182,-7.19216],[-37.01087,-7.18843],[-36.99371,-7.1808],[-36.96015,-7.17696],[-36.95772,-7.17344],[-36.93404,-7.17278],[-36.93053,-7.14984],[-36.9191,-7.15529],[-36.91172,-7.15232],[-36.89755,-7.15778],[-36.89731,-7.16311],[-36.88066,-7.15995],[-36.86751,-7.1532],[-36.82953,-7.14442],[-36.81838,-7.13993],[-36.80287,-7.14396],[-36.77869,-7.10887],[-36.75528,-7.08389],[-36.75396,-7.04249],[-36.74441,-7.02919],[-36.75448,-7.02815],[-36.76488,-7.04204],[-36.79726,-7.03908],[-36.82792,-7.05141],[-36.84079,-7.05147],[-36.86537,-7.063],[-36.87537,-7.02108],[-36.77447,-6.91491],[-36.76,-6.91454],[-36.76654,-6.93587],[-36.75455,-6.956],[-36.73738,-6.97281],[-36.71855,-6.98273],[-36.70927,-6.97469],[-36.69467,-6.93449],[-36.68722,-6.92596],[-36.67327,-6.92577],[-36.64833,-6.92961],[-36.63745,-6.93381],[-36.61653,-6.93402],[-36.61146,-6.93766],[-36.60361,-6.93046],[-36.59732,-6.91653],[-36.58992,-6.90869],[-36.56794,-6.8748],[-36.56679,-6.86659],[-36.57408,-6.85746],[-36.5698,-6.84801],[-36.56016,-6.84077],[-36.54515,-6.84307],[-36.52917,-6.8254],[-36.50996,-6.81795],[-36.50549,-6.80882],[-36.5013,-6.77757],[-36.50475,-6.75394],[-36.52057,-6.74568],[-36.52777,-6.73494],[-36.54228,-6.73237],[-36.55794,-6.7126],[-36.55869,-6.70765],[-36.54742,-6.69515],[-36.54175,-6.66606],[-36.53131,-6.63489],[-36.52301,-6.619],[-36.52124,-6.60698],[-36.52454,-6.59965],[-36.51381,-6.59439],[-36.49377,-6.60355],[-36.47171,-6.61655],[-36.46052,-6.63439],[-36.44935,-6.6242],[-36.43586,-6.62588],[-36.44145,-6.5951],[-36.44223,-6.56471],[-36.44439,-6.55832],[-36.4545,-6.55171],[-36.47154,-6.54835],[-36.47927,-6.53987],[-36.48096,-6.52308],[-36.48859,-6.51643],[-36.50043,-6.51351],[-36.51647,-6.50291],[-36.52585,-6.50116],[-36.52665,-6.48447],[-36.53082,-6.47183],[-36.53097,-6.45207],[-36.51867,-6.41808],[-36.51073,-6.40748],[-36.50022,-6.37039],[-36.49985,-6.35816],[-36.4326,-6.3631],[-36.42848,-6.35966],[-36.39456,-6.29397],[-36.3626,-6.30998],[-36.35427,-6.30852],[-36.31364,-6.28336],[-36.30352,-6.28303],[-36.29498,-6.29211],[-36.27987,-6.30886],[-36.27675,-6.34043],[-36.28155,-6.3546],[-36.29284,-6.36481],[-36.29881,-6.37654],[-36.29522,-6.39456],[-36.25901,-6.40478],[-36.25116,-6.40442],[-36.24977,-6.43736],[-36.22901,-6.43423],[-36.18852,-6.43232],[-36.14375,-6.42532],[-36.1285,-6.42521],[-36.11019,-6.42918],[-36.10311,-6.42155],[-36.08544,-6.41456],[-36.08001,-6.40519],[-36.06723,-6.41509],[-36.06105,-6.41091],[-36.05568,-6.4262],[-36.03671,-6.44427],[-36.01682,-6.45203],[-36.00834,-6.46512],[-36.01286,-6.47104],[-36.00535,-6.48105],[-35.97467,-6.48882],[-35.96524,-6.48436],[-35.94418,-6.49301],[-35.87036,-6.48864],[-35.86537,-6.49263],[-35.86723,-6.54472],[-35.87699,-6.5778],[-35.86599,-6.67928],[-35.8721,-6.69086],[-35.89412,-6.69219],[-35.90072,-6.69927],[-35.8976,-6.70555],[-35.9092,-6.71616],[-35.92411,-6.721],[-35.92412,-6.72957],[-35.89867,-6.74363],[-35.89638,-6.75046],[-35.90284,-6.75898],[-35.89937,-6.77582],[-35.9068,-6.78395],[-35.89806,-6.79247],[-35.8877,-6.7953],[-35.86108,-6.82434],[-35.84283,-6.83809],[-35.82805,-6.85829],[-35.80224,-6.86474],[-35.76924,-6.87873],[-35.74982,-6.87471],[-35.73598,-6.88409],[-35.68147,-6.89018],[-35.65551,-6.91121],[-35.6302,-6.91193],[-35.58402,-6.92166],[-35.57136,-6.94086],[-35.58138,-6.9406],[-35.59323,-6.9494],[-35.58822,-6.95239],[-35.5882,-6.96432],[-35.57462,-6.96001],[-35.56493,-6.97709],[-35.55921,-6.97919],[-35.53651,-7.00756],[-35.52494,-7.01884],[-35.52145,-7.02987],[-35.51011,-7.03548],[-35.49709,-7.03427],[-35.4932,-7.04456],[-35.50006,-7.05178],[-35.49157,-7.07207],[-35.49413,-7.09331],[-35.50249,-7.09484],[-35.52093,-7.10571],[-35.53265,-7.12078],[-35.5629,-7.12129],[-35.62767,-7.13247],[-35.61899,-7.15376],[-35.60515,-7.16942],[-35.61605,-7.17786],[-35.59543,-7.20157],[-35.58387,-7.19528],[-35.57908,-7.18726],[-35.56427,-7.18766],[-35.55424,-7.19324],[-35.54269,-7.20491],[-35.54578,-7.21498],[-35.5396,-7.23089],[-35.5405,-7.23781],[-35.55254,-7.2427],[-35.55257,-7.25674],[-35.56139,-7.30168],[-35.53423,-7.39419],[-35.54527,-7.41458],[-35.54213,-7.41916],[-35.54826,-7.44016],[-35.55704,-7.44451],[-35.56806,-7.43963],[-35.58397,-7.45059],[-35.58115,-7.4641],[-35.59022,-7.4864],[-35.59091,-7.50784],[-35.59405,-7.5223],[-35.59353,-7.54182],[-35.59823,-7.55141],[-35.59998,-7.58887],[-35.58847,-7.60421],[-35.59553,-7.61928],[-35.61209,-7.61712],[-35.6159,-7.60699],[-35.62801,-7.61214],[-35.65195,-7.61253],[-35.65485,-7.62067],[-35.64467,-7.62506],[-35.63304,-7.62503],[-35.63527,-7.63473],[-35.6195,-7.66251],[-35.63152,-7.68124],[-35.64527,-7.69241],[-35.6568,-7.69768],[-35.66747,-7.69743],[-35.68411,-7.7078],[-35.69535,-7.69397],[-35.70677,-7.69577],[-35.71362,-7.70737],[-35.73655,-7.7096],[-35.74725,-7.7232],[-35.759,-7.72241],[-35.78058,-7.73835],[-35.80032,-7.74182],[-35.8285,-7.75165],[-35.83581,-7.74761],[-35.85066,-7.74751],[-35.86229,-7.75103],[-35.87212,-7.74954],[-35.88183,-7.75445],[-35.88383,-7.77478],[-35.89825,-7.78892],[-35.90936,-7.79251],[-35.92847,-7.78518],[-35.93866,-7.7889],[-35.95903,-7.78726],[-35.97402,-7.792],[-35.98137,-7.80319],[-35.99104,-7.79987],[-35.99724,-7.81338],[-36.00329,-7.81283],[-36.02159,-7.81024],[-36.03364,-7.7966],[-36.04199,-7.79369],[-36.0505,-7.80112],[-36.05618,-7.79916],[-36.06899,-7.78097],[-36.09411,-7.77847],[-36.11851,-7.7858],[-36.14337,-7.78156],[-36.18353,-7.7839],[-36.19787,-7.79038],[-36.20435,-7.78296],[-36.20648,-7.77038],[-36.21663,-7.7641],[-36.22722,-7.76997],[-36.24631,-7.78531],[-36.2542,-7.79639],[-36.25123,-7.80457],[-36.24231,-7.80733],[-36.24001,-7.81768],[-36.2475,-7.8261],[-36.26133,-7.83208],[-36.27111,-7.83057],[-36.28524,-7.81789],[-36.30201,-7.80834],[-36.3134,-7.80643],[-36.33688,-7.80942],[-36.36317,-7.80608],[-36.37345,-7.81262],[-36.39454,-7.80761],[-36.40742,-7.81408],[-36.42405,-7.81578],[-36.42996,-7.82711],[-36.43094,-7.84985],[-36.42906,-7.86704],[-36.43992,-7.8762],[-36.4297,-7.88656],[-36.43692,-7.90027],[-36.44576,-7.90817],[-36.44411,-7.91528],[-36.46125,-7.91466],[-36.48014,-7.92476],[-36.48666,-7.91635],[-36.49939,-7.92031],[-36.51285,-7.91487],[-36.53147,-7.9028],[-36.55202,-7.89871],[-36.57171,-7.9045],[-36.5782,-7.91525],[-36.57253,-7.93057],[-36.57999,-7.94668],[-36.57419,-7.95167],[-36.57678,-7.95965],[-36.58686,-7.95866],[-36.61188,-7.9479],[-36.61346,-7.95652],[-36.62265,-7.96951],[-36.62317,-7.98208],[-36.62785,-7.98641],[-36.62655,-8.0027],[-36.62927,-8.02545],[-36.62882,-8.05706],[-36.64121,-8.06224],[-36.65647,-8.07307],[-36.65727,-8.08208],[-36.65036,-8.08133],[-36.64766,-8.09126],[-36.63698,-8.09325],[-36.62785,-8.10286],[-36.62861,-8.11105],[-36.64032,-8.11991],[-36.66523,-8.12326],[-36.69386,-8.14077],[-36.68704,-8.15568],[-36.70369,-8.15805],[-36.72281,-8.15096],[-36.72578,-8.15645],[-36.71578,-8.16732],[-36.72397,-8.17247],[-36.74089,-8.17237],[-36.75014,-8.1757],[-36.75351,-8.19148],[-36.76157,-8.19629],[-36.77537,-8.19072],[-36.7932,-8.18945],[-36.80578,-8.19544],[-36.81251,-8.20529],[-36.8617,-8.22243],[-36.87923,-8.23564],[-36.89595,-8.24082],[-36.923,-8.26983],[-36.94703,-8.27737],[-36.94731,-8.29106],[-36.9602,-8.30047],[-36.97802,-8.29742],[-36.99116,-8.30296],[-37.02304,-8.28859],[-37.04028,-8.26618],[-37.05823,-8.26398],[-37.07572,-8.268],[-37.08223,-8.26189],[-37.08062,-8.24108],[-37.06653,-8.233],[-37.0809,-8.22189],[-37.08989,-8.23117],[-37.10043,-8.23371],[-37.11039,-8.22555],[-37.12291,-8.20907],[-37.1261,-8.1915],[-37.11895,-8.18399],[-37.11826,-8.17535],[-37.12645,-8.17368],[-37.14119,-8.17723],[-37.16023,-8.1704],[-37.16342,-8.15869],[-37.151,-8.15004],[-37.15861,-8.13887],[-37.15323,-8.12747],[-37.14417,-8.125],[-37.14256,-8.11794],[-37.14782,-8.10009],[-37.14371,-8.08797],[-37.14664,-8.07858],[-37.15685,-8.06453],[-37.15809,-8.05122],[-37.1484,-8.03512],[-37.15179,-8.00941],[-37.16042,-7.99715],[-37.17531,-7.99686],[-37.19276,-7.98357],[-37.19268,-7.9606],[-37.20792,-7.95187],[-37.22152,-7.96345],[-37.21959,-7.97279],[-37.24111,-7.97278],[-37.26354,-7.96818],[-37.2774,-7.97198],[-37.29178,-7.96531],[-37.30334,-7.97021],[-37.31243,-7.96776],[-37.34029,-7.97968],[-37.3406,-7.97514],[-37.35737,-7.97496],[-37.34767,-7.95436],[-37.35022,-7.9486]]]},"properties":{"CD_REG":"2502","NM_REG":"Campina Grande","SIGLA_UF":"PB"}},{"type":"Feature","geometry":{"type":"Polygon","coordinates":[[[-38.71511,-7.62192],[-38.71407,-7.59934],[-38.71102,-7.58663],[-38.70366,-7.58096],[-38.68882,-7.58219],[-38.67717,-7.57057],[-38.65533,-7.56554],[-38.65913,-7.56062],[-38.65325,-7.5505],[-38.65149,-7.5278],[-38.6548,-7.52333],[-38.64594,-7.51438],[-38.646,-7.50193],[-38.6309,-7.48733],[-38.64492,-7.46002],[-38.63808,-7.45795],[-38.622,-7.46067],[-38.61718,-7.45717],[-38.60333,-7.45759],[-38.6058,-7.44457],[-38.59502,-7.43394],[-38.5853,-7.43482],[-38.5845,-7.41635],[-38.59563,-7.41558],[-38.59038,-7.40118],[-38.5836,-7.3982],[-38.57899,-7.38094],[-38.55835,-7.35394],[-38.54938,-7.335],[-38.54502,-7.34073],[-38.53362,-7.34094],[-38.52574,-7.34847],[-38.52757,-7.35915],[-38.51909,-7.36647],[-38.50477,-7.36424],[-38.50309,-7.37499],[-38.47966,-7.38245],[-38.47663,-7.37457],[-38.46031,-7.3678],[-38.45398,-7.35992],[-38.44223,-7.35929],[-38.434,-7.34903],[-38.43294,-7.3401],[-38.42492,-7.34443],[-38.41379,-7.34081],[-38.41098,-7.32841],[-38.41752,-7.31322],[-38.42299,-7.31174],[-38.40336,-7.2953],[-38.39304,-7.27844],[-38.38601,-7.27351],[-38.38539,-7.26507],[-38.37586,-7.26058],[-38.36025,-7.23276],[-38.35263,-7.23534],[-38.33786,-7.20142],[-38.33759,-7.19105],[-38.32916,-7.18473],[-38.3305,-7.17804],[-38.31442,-7.16782],[-38.31199,-7.15485],[-38.29536,-7.1544],[-38.28464,-7.13049],[-38.30509,-7.12828],[-38.31121,-7.13539],[-38.32097,-7.13619],[-38.3307,-7.14424],[-38.34324,-7.10487],[-38.32697,-7.10644],[-38.31971,-7.09763],[-38.32119,-7.09077],[-38.31566,-7.08114],[-38.3177,-7.07506],[-38.329,-7.07444],[-38.33036,-7.06121],[-38.32304,-7.06221],[-38.30277,-7.04094],[-38.28675,-7.0158],[-38.26412,-6.99252],[-38.23557,-6.99982],[-38.23144,-6.9988],[-38.21503,-7.00712],[-38.20144,-7.00985],[-38.17155,-7.01078],[-38.13281,-7.00761],[-38.09521,-7.01244],[-38.07695,-7.0086],[-38.07395,-6.99463],[-38.07839,-6.98404],[-38.0742,-6.97362],[-38.05927,-6.96922],[-38.03909,-6.97538],[-38.02177,-6.95325],[-38.00612,-6.94376],[-38.01462,-6.88394],[-38.00283,-6.87887],[-38.00009,-6.87312],[-38.00114,-6.85521],[-38.01045,-6.85131],[-38.01209,-6.83908],[-38.00762,-6.82695],[-38.00215,-6.82377],[-37.98932,-6.82684],[-38.0032,-6.8105],[-38.01616,-6.78742],[-38.01466,-6.77426],[-38.02285,-6.76454],[-38.02361,-6.72053],[-37.98209,-6.69524],[-38.00019,-6.67592],[-38.0114,-6.67536],[-38.0165,-6.67048],[-38.01685,-6.64649],[-37.95964,-6.60633],[-37.97217,-6.5926],[-37.97331,-6.583],[-37.96336,-6.56976],[-37.98069,-6.5296],[-37.98849,-6.52739],[-38.01313,-6.52817],[-38.02394,-6.52413],[-38.0249,-6.51486],[-38.01662,-6.49101],[-38.01792,-6.48173],[-38.02676,-6.47476],[-38.02182,-6.46846],[-38.01273,-6.46827],[-38.01985,-6.44694],[-38.00823,-6.43219],[-38.0137,-6.42743],[-37.98344,-6.42814],[-37.97106,-6.42243],[-37.96802,-6.40512],[-37.9554,-6.39821],[-37.95521,-6.40806],[-37.94227,-6.42406],[-37.92605,-6.42114],[-37.92293,-6.41466],[-37.90153,-6.39968],[-37.89026,-6.40014],[-37.88426,-6.39168],[-37.88851,-6.38721],[-37.88758,-6.36414],[-37.85889,-6.37435],[-37.85424,-6.36632],[-37.84153,-6.36303],[-37.84412,-6.35436],[-37.83432,-6.34172],[-37.84293,-6.3358],[-37.83373,-6.32178],[-37.81648,-6.31621],[-37.82403,-6.30603],[-37.81042,-6.29166],[-37.79452,-6.28903],[-37.76488,-6.29224],[-37.75808,-6.28659],[-37.77142,-6.27307],[-37.76174,-6.25287],[-37.77661,-6.24587],[-37.76142,-6.23955],[-37.77562,-6.23134],[-37.76385,-6.2189],[-37.75607,-6.21716],[-37.75486,-6.20206],[-37.74237,-6.18898],[-37.709,-6.177],[-37.70007,-6.18512],[-37.67317,-6.19058],[-37.64671,-6.18939],[-37.63848,-6.17984],[-37.59991,-6.17401],[-37.58227,-6.16149],[-37.56962,-6.15544],[-37.56065,-6.16453],[-37.53999,-6.16593],[-37.53635,-6.15284],[-37.50289,-6.15214],[-37.5034,-6.1444],[-37.48937,-6.14444],[-37.48299,-6.15168],[-37.45895,-6.145],[-37.45391,-6.12007],[-37.44569,-6.1122],[-37.42595,-6.109],[-37.40781,-6.11278],[-37.39363,-6.10939],[-37.38234,-6.08555],[-37.37156,-6.08278],[-37.35443,-6.08649],[-37.33578,-6.06746],[-37.3092,-6.05776],[-37.29557,-6.05009],[-37.28692,-6.05799],[-37.27248,-6.0557],[-37.26358,-6.04636],[-37.25647,-6.02847],[-37.25061,-6.02591],[-37.23186,-6.02759],[-37.22269,-6.04215],[-37.20216,-6.03884],[-37.19634,-6.04724],[-37.17393,-6.04802],[-37.17557,-6.05494],[-37.17132,-6.07687],[-37.17157,-6.1013],[-37.16698,-6.11036],[-37.1751,-6.14218],[-37.16638,-6.15391],[-37.15692,-6.15249],[-37.16568,-6.17037],[-37.17422,-6.1801],[-37.19352,-6.18425],[-37.19424,-6.19825],[-37.20158,-6.2057],[-37.23427,-6.21328],[-37.25153,-6.22646],[-37.27055,-6.25171],[-37.27314,-6.27997],[-37.28685,-6.28227],[-37.30978,-6.27778],[-37.32145,-6.28281],[-37.33042,-6.30633],[-37.35111,-6.31437],[-37.36335,-6.32217],[-37.37733,-6.34439],[-37.37754,-6.36933],[-37.38855,-6.37973],[-37.38883,-6.39098],[-37.39612,-6.40114],[-37.39577,-6.42012],[-37.3866,-6.42604],[-37.38124,-6.43711],[-37.39095,-6.45284],[-37.39354,-6.4722],[-37.39579,-6.51009],[-37.39999,-6.51949],[-37.4117,-6.52953],[-37.42119,-6.5333],[-37.46472,-6.53266],[-37.48236,-6.54771],[-37.48191,-6.55725],[-37.47481,-6.56445],[-37.47861,-6.57822],[-37.48038,-6.60522],[-37.47453,-6.61791],[-37.47636,-6.6448],[-37.46619,-6.65996],[-37.4752,-6.67282],[-37.47086,-6.67953],[-37.4847,-6.71004],[-37.40733,-6.6972],[-37.3957,-6.70037],[-37.34271,-6.70125],[-37.3143,-6.68897],[-37.28372,-6.69391],[-37.29017,-6.71304],[-37.27992,-6.72423],[-37.26392,-6.73217],[-37.26798,-6.74396],[-37.26936,-6.76199],[-37.27395,-6.76679],[-37.2579,-6.77947],[-37.26059,-6.78736],[-37.25524,-6.7994],[-37.25514,-6.81106],[-37.2346,-6.82464],[-37.19266,-6.82614],[-37.17281,-6.81526],[-37.16633,-6.80707],[-37.15371,-6.79979],[-37.14369,-6.78325],[-37.13807,-6.78136],[-37.12766,-6.76556],[-37.12006,-6.76729],[-37.06294,-6.751],[-37.04129,-6.74006],[-37.00386,-6.70975],[-36.99353,-6.70754],[-36.97762,-6.72186],[-36.9718,-6.74065],[-36.97333,-6.7582],[-36.96923,-6.7705],[-36.95266,-6.77515],[-36.9591,-6.7833],[-36.95714,-6.79048],[-36.93731,-6.77261],[-36.90343,-6.75361],[-36.87433,-6.74318],[-36.83503,-6.73107],[-36.77273,-6.78707],[-36.76947,-6.83875],[-36.73398,-6.83479],[-36.7302,-6.8364],[-36.74499,-6.87951],[-36.75741,-6.89936],[-36.76,-6.91454],[-36.77447,-6.91491],[-36.87537,-7.02108],[-36.86537,-7.063],[-36.84079,-7.05147],[-36.82792,-7.05141],[-36.79726,-7.03908],[-36.76488,-7.04204],[-36.75448,-7.02815],[-36.74441,-7.02919],[-36.75396,-7.04249],[-36.75528,-7.08389],[-36.77869,-7.10887],[-36.80287,-7.14396],[-36.81838,-7.13993],[-36.82953,-7.14442],[-36.86751,-7.1532],[-36.88066,-7.15995],[-36.89731,-7.16311],[-36.89755,-7.15778],[-36.91172,-7.15232],[-36.9191,-7.15529],[-36.93053,-7.14984],[-36.93404,-7.17278],[-36.95772,-7.17344],[-36.96015,-7.17696],[-36.99371,-7.1808],[-37.01087,-7.18843],[-37.01182,-7.19216],[-37.03523,-7.18877],[-37.01468,-7.24891],[-37.01204,-7.28347],[-37.02735,-7.28698],[-37.05223,-7.3785],[-37.05318,-7.3795],[-37.06741,-7.38338],[-37.07295,-7.36828],[-37.08562,-7.35826],[-37.09735,-7.35397],[-37.10186,-7.35663],[-37.12156,-7.35091],[-37.12798,-7.344],[-37.13531,-7.34666],[-37.14494,-7.33505],[-37.16534,-7.3366],[-37.16853,-7.31995],[-37.17692,-7.30955],[-37.19667,-7.29467],[-37.21418,-7.2913],[-37.23418,-7.27389],[-37.27527,-7.27429],[-37.28833,-7.28829],[-37.32048,-7.29049],[-37.32822,-7.28806],[-37.35728,-7.32311],[-37.34938,-7.33512],[-37.37242,-7.35056],[-37.38571,-7.35669],[-37.40814,-7.3581],[-37.41547,-7.36172],[-37.42551,-7.35292],[-37.4337,-7.3587],[-37.44755,-7.36104],[-37.46592,-7.35804],[-37.49604,-7.36482],[-37.49809,-7.37113],[-37.48763,-7.38942],[-37.50569,-7.41916],[-37.51564,-7.42756],[-37.5274,-7.44838],[-37.52796,-7.46531],[-37.54259,-7.47829],[-37.55693,-7.47975],[-37.58673,-7.49911],[-37.60977,-7.50803],[-37.61591,-7.52494],[-37.63038,-7.53251],[-37.64943,-7.53071],[-37.65582,-7.52342],[-37.67663,-7.53561],[-37.68215,-7.54838],[-37.70651,-7.55058],[-37.71009,-7.55952],[-37.70657,-7.56947],[-37.71726,-7.58036],[-37.72873,-7.57973],[-37.73495,-7.59721],[-37.74145,-7.59753],[-37.74571,-7.60933],[-37.75585,-7.61952],[-37.74037,-7.63609],[-37.74418,-7.6545],[-37.75065,-7.66289],[-37.76097,-7.66681],[-37.77106,-7.64739],[-37.77802,-7.64327],[-37.77817,-7.63477],[-37.78583,-7.6258],[-37.80106,-7.62605],[-37.80984,-7.64375],[-37.83113,-7.64735],[-37.83787,-7.6445],[-37.85716,-7.65197],[-37.86844,-7.66461],[-37.8806,-7.68365],[-37.90275,-7.69474],[-37.89433,-7.71363],[-37.91307,-7.70947],[-37.92393,-7.71511],[-37.92685,-7.72993],[-37.9431,-7.74104],[-37.94755,-7.75622],[-37.95257,-7.75663],[-37.95909,-7.76871],[-37.9706,-7.77758],[-37.98479,-7.77294],[-37.99027,-7.77888],[-38.00397,-7.77899],[-38.01246,-7.7658],[-38.02992,-7.74984],[-38.03958,-7.74812],[-38.0714,-7.77423],[-38.07526,-7.78242],[-38.07574,-7.80538],[-38.06535,-7.81975],[-38.07707,-7.83058],[-38.11618,-7.82256],[-38.12944,-7.8059],[-38.13143,-7.79576],[-38.14376,-7.78341],[-38.16422,-7.77991],[-38.17467,-7.78989],[-38.2036,-7.80759],[-38.21267,-7.81071],[-38.21861,-7.81847],[-38.23546,-7.82596],[-38.23857,-7.83073],[-38.25704,-7.83106],[-38.26309,-7.8281],[-38.27545,-7.83424],[-38.28679,-7.83022],[-38.29775,-7.81395],[-38.29899,-7.79744],[-38.30252,-7.7915],[-38.2946,-7.77797],[-38.30334,-7.76208],[-38.31676,-7.76461],[-38.30216,-7.7452],[-38.30896,-7.74217],[-38.31588,-7.72847],[-38.31203,-7.71631],[-38.32077,-7.69796],[-38.32669,-7.6937],[-38.34469,-7.695],[-38.35498,-7.67843],[-38.37007,-7.69265],[-38.37017,-7.69692],[-38.38225,-7.70748],[-38.40393,-7.71444],[-38.40082,-7.72006],[-38.40951,-7.73049],[-38.42763,-7.73004],[-38.43422,-7.72045],[-38.45708,-7.71811],[-38.46398,-7.73089],[-38.4807,-7.73218],[-38.4958,-7.73881],[-38.49658,-7.75003],[-38.5166,-7.74933],[-38.52496,-7.75464],[-38.53853,-7.75326],[-38.54313,-7.749],[-38.56393,-7.75669],[-38.57802,-7.74661],[-38.58996,-7.75568],[-38.59602,-7.75205],[-38.59774,-7.74204],[-38.60758,-7.73948],[-38.60783,-7.72705],[-38.61407,-7.71566],[-38.62619,-7.70635],[-38.62593,-7.6956],[-38.64199,-7.68615],[-38.64208,-7.67764],[-38.65141,-7.67708],[-38.65071,-7.66856],[-38.6636,-7.65752],[-38.66994,-7.66048],[-38.68674,-7.63504],[-38.69505,-7.6333],[-38.70541,-7.62204],[-38.71511,-7.62192]]]},"properties":{"CD_REG":"2503","NM_REG":"Patos","SIGLA_UF":"PB"}},{"type":"Feature","geometry":{"type":"Polygon","coordinates":[[[-38.54938,-7.335],[-38.54965,-7.31441],[-38.54011,-7.30622],[-38.53459,-7.29379],[-38.54163,-7.28088],[-38.54284,-7.26565],[-38.5521,-7.26356],[-38.55491,-7.25554],[-38.55196,-7.24348],[-38.55888,-7.23942],[-38.58308,-7.24838],[-38.59766,-7.24419],[-38.61537,-7.23019],[-38.62293,-7.20375],[-38.61979,-7.19706],[-38.6248,-7.19132],[-38.63655,-7.19375],[-38.64529,-7.18342],[-38.67219,-7.18519],[-38.68783,-7.19016],[-38.68302,-7.17598],[-38.67658,-7.1692],[-38.68519,-7.16134],[-38.67529,-7.15572],[-38.67788,-7.13267],[-38.6588,-7.10334],[-38.65641,-7.09243],[-38.67724,-7.0671],[-38.66985,-7.0477],[-38.6898,-7.04023],[-38.69144,-7.02914],[-38.71072,-7.01897],[-38.73058,-7.01203],[-38.75188,-6.99692],[-38.76511,-6.99323],[-38.75107,-6.98767],[-38.74225,-6.97428],[-38.74597,-6.96253],[-38.76402,-6.95237],[-38.76402,-6.94462],[-38.75572,-6.94013],[-38.75893,-6.91663],[-38.76518,-6.91094],[-38.75628,-6.90359],[-38.73029,-6.89681],[-38.73242,-6.88923],[-38.71401,-6.88615],[-38.71036,-6.87466],[-38.70041,-6.8766],[-38.68669,-6.86579],[-38.67542,-6.86183],[-38.6772,-6.85433],[-38.66888,-6.84296],[-38.67293,-6.83614],[-38.65187,-6.81171],[-38.63758,-6.8053],[-38.63909,-6.79286],[-38.61692,-6.7933],[-38.61393,-6.78244],[-38.62902,-6.77771],[-38.64027,-6.76399],[-38.65268,-6.75976],[-38.64997,-6.75224],[-38.65782,-6.73723],[-38.65598,-6.73024],[-38.66489,-6.72409],[-38.67373,-6.70799],[-38.67315,-6.69722],[-38.66058,-6.6788],[-38.65196,-6.67318],[-38.64641,-6.66243],[-38.64697,-6.65421],[-38.65708,-6.64229],[-38.65526,-6.63048],[-38.64913,-6.62759],[-38.64666,-6.61598],[-38.62916,-6.60458],[-38.63293,-6.58993],[-38.64297,-6.58213],[-38.63308,-6.56921],[-38.62661,-6.55295],[-38.61217,-6.53832],[-38.61611,-6.52815],[-38.61229,-6.51319],[-38.59497,-6.50044],[-38.57041,-6.4702],[-38.56702,-6.45207],[-38.5564,-6.44764],[-38.55427,-6.43276],[-38.51886,-6.40573],[-38.5294,-6.39289],[-38.54477,-6.40226],[-38.55152,-6.39817],[-38.57197,-6.40411],[-38.58099,-6.40176],[-38.58717,-6.39427],[-38.59413,-6.39686],[-38.6018,-6.39171],[-38.59247,-6.37825],[-38.57311,-6.37492],[-38.5771,-6.36424],[-38.56251,-6.35565],[-38.54506,-6.35376],[-38.54501,-6.34459],[-38.53262,-6.34171],[-38.51515,-6.34717],[-38.50425,-6.35614],[-38.49418,-6.34482],[-38.4765,-6.33383],[-38.45839,-6.33021],[-38.47604,-6.34573],[-38.48856,-6.36161],[-38.48432,-6.37499],[-38.48506,-6.39942],[-38.45079,-6.39277],[-38.44796,-6.40335],[-38.42705,-6.41377],[-38.40174,-6.40956],[-38.38453,-6.42222],[-38.37777,-6.43687],[-38.37251,-6.45613],[-38.36379,-6.45364],[-38.36098,-6.46199],[-38.34856,-6.45574],[-38.32844,-6.46066],[-38.31899,-6.47276],[-38.31409,-6.48733],[-38.29751,-6.48721],[-38.28872,-6.50562],[-38.26985,-6.49444],[-38.26141,-6.48515],[-38.24727,-6.48498],[-38.24172,-6.4808],[-38.20055,-6.48828],[-38.19173,-6.49859],[-38.15979,-6.4986],[-38.14788,-6.49149],[-38.13912,-6.50594],[-38.13552,-6.51848],[-38.11706,-6.52267],[-38.09713,-6.50815],[-38.0954,-6.49359],[-38.08143,-6.48349],[-38.07015,-6.46275],[-38.05395,-6.45368],[-38.05145,-6.44241],[-38.0434,-6.44335],[-38.04392,-6.45198],[-38.03701,-6.45705],[-38.04092,-6.47029],[-38.03742,-6.47523],[-38.02676,-6.47476],[-38.01792,-6.48173],[-38.01662,-6.49101],[-38.0249,-6.51486],[-38.02394,-6.52413],[-38.01313,-6.52817],[-37.98849,-6.52739],[-37.98069,-6.5296],[-37.96336,-6.56976],[-37.97331,-6.583],[-37.97217,-6.5926],[-37.95964,-6.60633],[-38.01685,-6.64649],[-38.0165,-6.67048],[-38.0114,-6.67536],[-38.00019,-6.67592],[-37.98209,-6.69524],[-38.02361,-6.72053],[-38.02285,-6.76454],[-38.01466,-6.77426],[-38.01616,-6.78742],[-38.0032,-6.8105],[-37.98932,-6.82684],[-38.00215,-6.82377],[-38.00762,-6.82695],[-38.01209,-6.83908],[-38.01045,-6.85131],[-38.00114,-6.85521],[-38.00009,-6.87312],[-38.00283,-6.87887],[-38.01462,-6.88394],[-38.00612,-6.94376],[-38.02177,-6.95325],[-38.03909,-6.97538],[-38.05927,-6.96922],[-38.0742,-6.97362],[-38.07839,-6.98404],[-38.07395,-6.99463],[-38.07695,-7.0086],[-38.09521,-7.01244],[-38.13281,-7.00761],[-38.17155,-7.01078],[-38.20144,-7.00985],[-38.21503,-7.00712],[-38.23144,-6.9988],[-38.23557,-6.99982],[-38.26412,-6.99252],[-38.28675,-7.0158],[-38.30277,-7.04094],[-38.32304,-7.06221],[-38.33036,-7.06121],[-38.329,-7.07444],[-38.3177,-7.07506],[-38.31566,-7.08114],[-38.32119,-7.09077],[-38.31971,-7.09763],[-38.32697,-7.10644],[-38.34324,-7.10487],[-38.3307,-7.14424],[-38.32097,-7.13619],[-38.31121,-7.13539],[-38.30509,-7.12828],[-38.28464,-7.13049],[-38.29536,-7.1544],[-38.31199,-7.15485],[-38.31442,-7.16782],[-38.3305,-7.17804],[-38.32916,-7.18473],[-38.33759,-7.19105],[-38.33786,-7.20142],[-38.35263,-7.23534],[-38.36025,-7.23276],[-38.37586,-7.26058],[-38.38539,-7.26507],[-38.38601,-7.27351],[-38.39304,-7.27844],[-38.40336,-7.2953],[-38.42299,-7.31174],[-38.41752,-7.31322],[-38.41098,-7.32841],[-38.41379,-7.34081],[-38.42492,-7.34443],[-38.43294,-7.3401],[-38.434,-7.34903],[-38.44223,-7.35929],[-38.45398,-7.35992],[-38.46031,-7.3678],[-38.47663,-7.37457],[-38.47966,-7.38245],[-38.50309,-7.37499],[-38.50477,-7.36424],[-38.51909,-7.36647],[-38.52757,-7.35915],[-38.52574,-7.34847],[-38.53362,-7.34094],[-38.54502,-7.34073],[-38.54938,-7.335]]]},"properties":{"CD_REG":"2504","NM_REG":"Sousa - Cajazeiras","SIGLA_UF":"PB"}}]}