{"type":"FeatureCollection","features":[{"type":"Feature","geometry":{"type":"Polygon","coordinates":[[[-35.87036,-6.48864],[-35.94418,-6.49301],[-35.96524,-6.48436],[-35.97467,-6.48882],[-36.00535,-6.48105],[-36.01286,-6.47104],[-36.00834,-6.46512],[-36.01682,-6.45203],[-36.03671,-6.44427],[-36.05568,-6.4262],[-36.06105,-6.41091],[-36.06723,-6.41509],[-36.08001,-6.40519],[-36.08544,-6.41456],[-36.10311,-6.42155],[-36.11019,-6.42918],[-36.1285,-6.42521],[-36.14375,-6.42532],[-36.18852,-6.43232],[-36.22901,-6.43423],[-36.24977,-6.43736],[-36.25116,-6.40442],[-36.25901,-6.40478],[-36.29522,-6.39456],[-36.29881,-6.37654],[-36.29284,-6.36481],[-36.28155,-6.3546],[-36.27675,-6.34043],[-36.27987,-6.30886],[-36.29498,-6.29211],[-36.28904,-6.27578],[-36.28182,-6.27348],[-36.27865,-6.26216],[-36.26908,-6.25613],[-36.25825,-6.24323],[-36.26702,-6.2293],[-36.25767,-6.19879],[-36.25685,-6.15802],[-36.30222,-6.11537],[-36.28136,-6.04404],[-36.25289,-5.98201],[-36.22418,-5.89995],[-36.21288,-5.87373],[-36.19682,-5.88312],[-36.18576,-5.85816],[-36.17808,-5.85339],[-36.16798,-5.85594],[-36.15908,-5.85025],[-36.15094,-5.85873],[-36.14184,-5.8571],[-36.13612,-5.86394],[-36.11784,-5.85905],[-36.1125,-5.8422],[-36.1156,-5.80918],[-36.09183,-5.74903],[-36.06253,-5.65529],[-36.14316,-5.59153],[-36.14369,-5.56694],[-36.17198,-5.54468],[-36.1409,-5.50024],[-36.12855,-5.45682],[-36.15994,-5.43411],[-36.22323,-5.43387],[-36.17973,-5.47753],[-36.26224,-5.67988],[-36.26912,-5.68022],[-36.28848,-5.66303],[-36.30695,-5.65026],[-36.31789,-5.64742],[-36.46991,-5.59837],[-36.43987,-5.36988],[-36.41033,-5.33415],[-36.39501,-5.32592],[-36.38127,-5.31487],[-36.38034,-5.27127],[-36.36819,-5.25078],[-36.27584,-5.28948],[-36.27836,-5.22461],[-36.27631,-5.20722],[-36.28639,-5.15693],[-36.28899,-5.15564],[-36.28822,-5.12447],[-36.29219,-5.11629],[-36.30702,-5.11198],[-36.30832,-5.10211],[-36.29009,-5.08772],[-36.27579,-5.08848],[-36.24254,-5.09604],[-36.19957,-5.09506],[-36.16054,-5.09655],[-36.12896,-5.09239],[-36.08005,-5.06634],[-36.05464,-5.06285],[-36.04246,-5.05711],[-36.03956,-5.05145],[-36.0135,-5.04944],[-36.00376,-5.04532],[-35.98426,-5.04563],[-35.98097,-5.04172],[-35.9483,-5.04436],[-35.91965,-5.05667],[-35.88608,-5.06668],[-35.85966,-5.06757],[-35.83281,-5.07473],[-35.80225,-5.07344],[-35.78656,-5.07506],[-35.75883,-5.08877],[-35.7488,-5.08951],[-35.72952,-5.09651],[-35.71797,-5.09733],[-35.70623,-5.10408],[-35.69743,-5.10155],[-35.6854,-5.10643],[-35.63898,-5.11953],[-35.62342,-5.11921],[-35.61706,-5.11398],[-35.60484,-5.12106],[-35.57201,-5.13425],[-35.54756,-5.13873],[-35.5177,-5.15114],[-35.48953,-5.15705],[-35.46781,-5.17907],[-35.45895,-5.19703],[-35.43632,-5.21205],[-35.41672,-5.22097],[-35.40069,-5.24283],[-35.39043,-5.25347],[-35.38164,-5.27157],[-35.37071,-5.28459],[-35.36169,-5.32034],[-35.35948,-5.3398],[-35.35487,-5.3548],[-35.34474,-5.37149],[-35.3326,-5.38054],[-35.31941,-5.37783],[-35.30966,-5.39198],[-35.31048,-5.40899],[-35.30267,-5.41677],[-35.29301,-5.43284],[-35.288,-5.46056],[-35.27284,-5.47905],[-35.26068,-5.48062],[-35.26012,-5.5056],[-35.25745,-5.51492],[-35.25043,-5.5191],[-35.24949,-5.53919],[-35.24473,-5.55593],[-35.23573,-5.57222],[-35.22828,-5.57505],[-35.22516,-5.59131],[-35.22722,-5.60976],[-35.22541,-5.62246],[-35.21621,-5.62849],[-35.21777,-5.64505],[-35.21576,-5.6587],[-35.21762,-5.67106],[-35.21202,-5.68443],[-35.20447,-5.69328],[-35.19615,-5.69308],[-35.1922,-5.70059],[-35.20036,-5.72086],[-35.20327,-5.74913],[-35.19448,-5.75495],[-35.19236,-5.78159],[-35.1793,-5.79885],[-35.1813,-5.83651],[-35.17929,-5.86448],[-35.17128,-5.88029],[-35.16014,-5.87971],[-35.15294,-5.88628],[-35.15672,-5.91613],[-35.15297,-5.94702],[-35.1452,-5.96288],[-35.13312,-5.96468],[-35.12499,-5.97226],[-35.11264,-5.99555],[-35.10611,-6.0123],[-35.109,-6.02194],[-35.10976,-6.04303],[-35.10599,-6.05405],[-35.0963,-6.05729],[-35.10053,-6.07376],[-35.09871,-6.08214],[-35.10029,-6.11067],[-35.09832,-6.11761],[-35.09777,-6.1576],[-35.09496,-6.18245],[-35.09052,-6.18003],[-35.08267,-6.18881],[-35.07809,-6.2113],[-35.07236,-6.22068],[-35.06224,-6.22579],[-35.0449,-6.22576],[-35.03598,-6.2354],[-35.03765,-6.26734],[-35.03106,-6.30567],[-35.03211,-6.32518],[-35.0272,-6.35099],[-35.01963,-6.36571],[-35.01188,-6.37015],[-35.00816,-6.36554],[-34.99212,-6.37091],[-34.98126,-6.39786],[-34.97485,-6.41962],[-34.97264,-6.4396],[-34.97394,-6.45173],[-34.96924,-6.47055],[-34.96846,-6.4872],[-34.97836,-6.48726],[-34.99207,-6.50149],[-35.01112,-6.50612],[-35.02854,-6.50552],[-35.03696,-6.51713],[-35.05773,-6.52779],[-35.06715,-6.52466],[-35.07542,-6.5144],[-35.09554,-6.49768],[-35.10368,-6.50585],[-35.11255,-6.50512],[-35.12345,-6.52986],[-35.13263,-6.53576],[-35.14544,-6.55271],[-35.15748,-6.55171],[-35.16885,-6.55826],[-35.19947,-6.54994],[-35.20731,-6.54372],[-35.21823,-6.5186],[-35.22288,-6.51613],[-35.22978,-6.53033],[-35.25321,-6.53401],[-35.27457,-6.54388],[-35.33077,-6.54434],[-35.34126,-6.53862],[-35.36451,-6.51204],[-35.39476,-6.49403],[-35.41239,-6.48825],[-35.43482,-6.48891],[-35.4467,-6.48684],[-35.46079,-6.47695],[-35.46422,-6.48271],[-35.48321,-6.4864],[-35.50141,-6.4778],[-35.51906,-6.47907],[-35.5253,-6.4761],[-35.53364,-6.48303],[-35.54778,-6.48247],[-35.55151,-6.49019],[-35.5648,-6.49178],[-35.56419,-6.48747],[-35.58053,-6.48711],[-35.59213,-6.47658],[-35.59216,-6.47163],[-35.60409,-6.45921],[-35.61797,-6.46202],[-35.62931,-6.45487],[-35.65149,-6.44999],[-35.66016,-6.44528],[-35.67372,-6.45159],[-35.68197,-6.44793],[-35.70717,-6.46954],[-35.7186,-6.47253],[-35.72619,-6.46961],[-35.74116,-6.4763],[-35.76336,-6.48219],[-35.87036,-6.48864]]]},"properties":{"CD_REG":"2401","NM_REG":"Natal","SIGLA_UF":"RN"}},{"type":"Feature","geometry":{"type":"Polygon","coordinates":[[[-37.17393,-6.04802],[-37.16262,-6.02218],[-37.15449,-5.99255],[-37.14794,-5.99086],[-37.14329,-5.97921],[-37.13117,-5.96809],[-37.12869,-5.9564],[-37.12216,-5.95487],[-37.06692,-5.9846],[-37.03547,-5.89074],[-37.02651,-5.88479],[-37.01536,-5.87085],[-37.01173,-5.8584],[-37.00966,-5.83712],[-36.99004,-5.8172],[-36.9774,-5.81362],[-36.9668,-5.84098],[-36.95889,-5.85385],[-36.94202,-5.85836],[-36.93801,-5.8707],[-36.95517,-5.88433],[-36.96101,-5.90028],[-36.97225,-5.90481],[-36.9731,-5.91281],[-36.96477,-5.92469],[-36.95139,-5.92969],[-36.93951,-5.9546],[-36.9366,-5.96835],[-36.92767,-5.97174],[-36.91894,-5.96569],[-36.90677,-5.97546],[-36.90136,-5.97403],[-36.87992,-5.97771],[-36.86848,-5.97355],[-36.86163,-5.98155],[-36.84896,-6.01033],[-36.85465,-6.02527],[-36.84788,-6.03465],[-36.85539,-6.04428],[-36.83491,-6.04151],[-36.83611,-6.0524],[-36.81251,-6.05324],[-36.80132,-6.0501],[-36.79336,-6.04011],[-36.78502,-6.04122],[-36.78213,-6.05008],[-36.76657,-6.05616],[-36.75531,-6.05569],[-36.7495,-6.06268],[-36.74277,-6.05515],[-36.73086,-6.0566],[-36.71988,-6.07195],[-36.72665,-6.08959],[-36.71491,-6.09982],[-36.69341,-6.1037],[-36.66875,-6.11234],[-36.65327,-6.11183],[-36.63872,-6.08901],[-36.54744,-6.05627],[-36.54038,-5.98974],[-36.47501,-5.92657],[-36.43547,-5.91089],[-36.42678,-5.90466],[-36.41482,-5.85843],[-36.40113,-5.85962],[-36.38844,-5.85191],[-36.37775,-5.86678],[-36.36821,-5.87466],[-36.35112,-5.87063],[-36.33194,-5.87285],[-36.33234,-5.8941],[-36.32067,-5.86557],[-36.28475,-5.85929],[-36.27609,-5.84555],[-36.26946,-5.84322],[-36.26362,-5.83322],[-36.25396,-5.83104],[-36.25994,-5.85961],[-36.25796,-5.86484],[-36.22418,-5.89995],[-36.25289,-5.98201],[-36.28136,-6.04404],[-36.30222,-6.11537],[-36.25685,-6.15802],[-36.25767,-6.19879],[-36.26702,-6.2293],[-36.25825,-6.24323],[-36.26908,-6.25613],[-36.27865,-6.26216],[-36.28182,-6.27348],[-36.28904,-6.27578],[-36.29498,-6.29211],[-36.30352,-6.28303],[-36.31364,-6.28336],[-36.35427,-6.30852],[-36.3626,-6.30998],[-36.39456,-6.29397],[-36.42848,-6.35966],[-36.4326,-6.3631],[-36.49985,-6.35816],[-36.50022,-6.37039],[-36.51073,-6.40748],[-36.51867,-6.41808],[-36.53097,-6.45207],[-36.53082,-6.47183],[-36.52665,-6.48447],[-36.52585,-6.50116],[-36.51647,-6.50291],[-36.50043,-6.51351],[-36.48859,-6.51643],[-36.48096,-6.52308],[-36.47927,-6.53987],[-36.47154,-6.54835],[-36.4545,-6.55171],[-36.44439,-6.55832],[-36.44223,-6.56471],[-36.44145,-6.5951],[-36.43586,-6.62588],[-36.44935,-6.6242],[-36.46052,-6.63439],[-36.47171,-6.61655],[-36.49377,-6.60355],[-36.51381,-6.59439],[-36.52454,-6.59965],[-36.52124,-6.60698],[-36.52301,-6.619],[-36.53131,-6.63489],[-36.54175,-6.66606],[-36.54742,-6.69515],[-36.55869,-6.70765],[-36.55794,-6.7126],[-36.54228,-6.73237],[-36.52777,-6.73494],[-36.52057,-6.74568],[-36.50475,-6.75394],[-36.5013,-6.77757],[-36.50549,-6.80882],[-36.50996,-6.81795],[-36.52917,-6.8254],[-36.54515,-6.84307],[-36.56016,-6.84077],[-36.5698,-6.84801],[-36.57408,-6.85746],[-36.56679,-6.86659],[-36.56794,-6.8748],[-36.58992,-6.90869],[-36.59732,-6.91653],[-36.60361,-6.93046],[-36.61146,-6.93766],[-36.61653,-6.93402],[-36.63745,-6.93381],[-36.64833,-6.92961],[-36.67327,-6.92577],[-36.68722,-6.92596],[-36.69467,-6.93449],[-36.70927,-6.97469],[-36.71855,-6.98273],[-36.73738,-6.97281],[-36.75455,-6.956],[-36.76654,-6.93587],[-36.76,-6.91454],[-36.75741,-6.89936],[-36.74499,-6.87951],[-36.7302,-6.8364],[-36.73398,-6.83479],[-36.76947,-6.83875],[-36.77273,-6.78707],[-36.83503,-6.73107],[-36.87433,-6.74318],[-36.90343,-6.75361],[-36.93731,-6.77261],[-36.95714,-6.79048],[-36.9591,-6.7833],[-36.95266,-6.77515],[-36.96923,-6.7705],[-36.97333,-6.7582],[-36.9718,-6.74065],[-36.97762,-6.72186],[-36.99353,-6.70754],[-37.00386,-6.70975],[-37.04129,-6.74006],[-37.06294,-6.751],[-37.12006,-6.76729],[-37.12766,-6.76556],[-37.13807,-6.78136],[-37.14369,-6.78325],[-37.15371,-6.79979],[-37.16633,-6.80707],[-37.17281,-6.81526],[-37.19266,-6.82614],[-37.2346,-6.82464],[-37.25514,-6.81106],[-37.25524,-6.7994],[-37.26059,-6.78736],[-37.2579,-6.77947],[-37.27395,-6.76679],[-37.26936,-6.76199],[-37.26798,-6.74396],[-37.26392,-6.73217],[-37.27992,-6.72423],[-37.29017,-6.71304],[-37.28372,-6.69391],[-37.3143,-6.68897],[-37.34271,-6.70125],[-37.3957,-6.70037],[-37.40733,-6.6972],[-37.4847,-6.71004],[-37.47086,-6.67953],[-37.4752,-6.67282],[-37.46619,-6.65996],[-37.47636,-6.6448],[-37.47453,-6.61791],[-37.48038,-6.60522],[-37.47861,-6.57822],[-37.47481,-6.56445],[-37.48191,-6.55725],[-37.48236,-6.54771],[-37.46472,-6.53266],[-37.42119,-6.5333],[-37.4117,-6.52953],[-37.39999,-6.51949],[-37.39579,-6.51009],[-37.39354,-6.4722],[-37.39095,-6.45284],[-37.38124,-6.43711],[-37.3866,-6.42604],[-37.39577,-6.42012],[-37.39612,-6.40114],[-37.38883,-6.39098],[-37.38855,-6.37973],[-37.37754,-6.36933],[-37.37733,-6.34439],[-37.36335,-6.32217],[-37.35111,-6.31437],[-37.33042,-6.30633],[-37.32145,-6.28281],[-37.30978,-6.27778],[-37.28685,-6.28227],[-37.27314,-6.27997],[-37.27055,-6.25171],[-37.25153,-6.22646],[-37.23427,-6.21328],[-37.20158,-6.2057],[-37.19424,-6.19825],[-37.19352,-6.18425],[-37.17422,-6.1801],[-37.16568,-6.17037],[-37.15692,-6.15249],[-37.16638,-6.15391],[-37.1751,-6.14218],[-37.16698,-6.11036],[-37.17157,-6.1013],[-37.17132,-6.07687],[-37.17557,-6.05494],[-37.17393,-6.04802]]]},"properties":{"CD_REG":"2402","NM_REG":"Caicó","SIGLA_UF":"RN"}},{"type":"Feature","geometry":{"type":"MultiPolygon","coordinates":[[[[-38.02676,-6.47476],[-38.03742,-6.47523],[-38.04092,-6.47029],[-38.03701,-6.45705],[-38.04392,-6.45198],[-38.0434,-6.44335],[-38.05145,-6.44241],[-38.05395,-6.45368],[-38.07015,-6.46275],[-38.08143,-6.48349],[-38.0954,-6.49359],[-38.09713,-6.50815],[-38.11706,-6.52267],[-38.13552,-6.51848],[-38.13912,-6.50594],[-38.14788,-6.49149],[-38.15979,-6.4986],[-38.19173,-6.49859],[-38.20055,-6.48828],[-38.24172,-6.4808],[-38.24727,-6.48498],[-38.26141,-6.48515],[-38.26985,-6.49444],[-38.28872,-6.50562],[-38.29751,-6.48721],[-38.31409,-6.48733],[-38.31899,-6.47276],[-38.32844,-6.46066],[-38.34856,-6.45574],[-38.36098,-6.46199],[-38.36379,-6.45364],[-38.37251,-6.45613],[-38.37777,-6.43687],[-38.38453,-6.42222],[-38.40174,-6.40956],[-38.42705,-6.41377],[-38.44796,-6.40335],[-38.45079,-6.39277],[-38.48506,-6.39942],[-38.48432,-6.37499],[-38.48856,-6.36161],[-38.47604,-6.34573],[-38.45839,-6.33021],[-38.4765,-6.33383],[-38.49418,-6.34482],[-38.50425,-6.35614],[-38.51515,-6.34717],[-38.53262,-6.34171],[-38.54501,-6.34459],[-38.54506,-6.35376],[-38.56251,-6.35565],[-38.57708,-6.34743],[-38.5821,-6.31927],[-38.5753,-6.30863],[-38.56672,-6.30442],[-38.57151,-6.28444],[-38.57955,-6.27963],[-38.55442,-6.2634],[-38.54585,-6.24543],[-38.53847,-6.2469],[-38.52835,-6.23918],[-38.51971,-6.22304],[-38.52929,-6.21374],[-38.5272,-6.19338],[-38.50133,-6.19095],[-38.50076,-6.17968],[-38.48707,-6.16516],[-38.47549,-6.15704],[-38.47642,-6.14441],[-38.46209,-6.11232],[-38.44077,-6.09687],[-38.44732,-6.08528],[-38.43306,-6.07813],[-38.42744,-6.06938],[-38.41319,-6.05832],[-38.38184,-6.05347],[-38.38546,-6.0624],[-38.37836,-6.06683],[-38.37698,-6.07945],[-38.36525,-6.08846],[-38.34736,-6.0807],[-38.34678,-6.06728],[-38.33676,-6.0804],[-38.31992,-6.07704],[-38.3065,-6.08703],[-38.29079,-6.07315],[-38.27563,-6.06872],[-38.26497,-6.05425],[-38.25257,-6.0431],[-38.25269,-6.01191],[-38.2445,-5.99946],[-38.21448,-5.9743],[-38.202,-5.9621],[-38.19237,-5.95956],[-38.18358,-5.95022],[-38.17759,-5.95347],[-38.16479,-5.94653],[-38.16321,-5.92669],[-38.14463,-5.91375],[-38.14255,-5.90164],[-38.12764,-5.89156],[-38.12252,-5.88174],[-38.12055,-5.85835],[-38.11629,-5.84799],[-38.11886,-5.83283],[-38.11436,-5.82226],[-38.10049,-5.80453],[-38.07354,-5.77787],[-38.06151,-5.76205],[-38.05754,-5.74816],[-38.04965,-5.73982],[-38.04701,-5.73026],[-38.07523,-5.72347],[-38.08717,-5.73052],[-38.08969,-5.71485],[-38.08284,-5.6984],[-38.08453,-5.68426],[-38.08199,-5.67012],[-38.05338,-5.6461],[-38.03668,-5.63949],[-38.01396,-5.5944],[-37.99833,-5.58532],[-37.99789,-5.56809],[-37.99004,-5.5558],[-37.97569,-5.55077],[-37.95062,-5.53661],[-37.94165,-5.52355],[-37.9347,-5.50528],[-37.9204,-5.50537],[-37.90225,-5.50066],[-37.89842,-5.48588],[-37.89223,-5.48076],[-37.88954,-5.45229],[-37.87698,-5.42739],[-37.86048,-5.40669],[-37.85932,-5.39573],[-37.86374,-5.37409],[-37.85766,-5.35672],[-37.84747,-5.34002],[-37.83571,-5.33539],[-37.82287,-5.32294],[-37.80429,-5.31279],[-37.78311,-5.29482],[-37.78261,-5.28674],[-37.79186,-5.26877],[-37.79046,-5.25496],[-37.78296,-5.23226],[-37.78997,-5.2145],[-37.78742,-5.20393],[-37.77631,-5.18712],[-37.76496,-5.13962],[-37.73342,-5.10064],[-37.73163,-5.08453],[-37.72509,-5.07062],[-37.71049,-5.06115],[-37.67762,-5.05409],[-37.66027,-4.99791],[-37.64034,-4.9264],[-37.55855,-4.90791],[-37.44645,-4.88096],[-37.25266,-4.83139],[-37.23218,-4.86526],[-37.20965,-4.89536],[-37.19539,-4.90813],[-37.18029,-4.9172],[-37.15764,-4.94537],[-37.1501,-4.94925],[-37.1374,-4.94726],[-37.14478,-4.94164],[-37.14167,-4.93565],[-37.12728,-4.9362],[-37.11636,-4.927],[-37.10389,-4.92238],[-37.08087,-4.92974],[-37.05397,-4.94659],[-37.03726,-4.94987],[-37.00811,-4.93555],[-37.00331,-4.92938],[-36.97894,-4.93162],[-36.95997,-4.91863],[-36.93389,-4.93783],[-36.91883,-4.94652],[-36.9009,-4.95171],[-36.87851,-4.95059],[-36.86714,-4.95811],[-36.82949,-5.00679],[-36.81217,-5.02605],[-36.78938,-5.04369],[-36.76881,-5.04909],[-36.73441,-5.06682],[-36.7291,-5.07718],[-36.68866,-5.0883],[-36.67974,-5.08436],[-36.66867,-5.0876],[-36.64817,-5.08753],[-36.6134,-5.09433],[-36.6097,-5.09195],[-36.61103,-5.07855],[-36.58337,-5.08534],[-36.54227,-5.08854],[-36.54287,-5.08067],[-36.53444,-5.07116],[-36.51591,-5.06759],[-36.50776,-5.06231],[-36.49194,-5.06376],[-36.47391,-5.06969],[-36.44923,-5.06644],[-36.38816,-5.08691],[-36.37205,-5.0892],[-36.35887,-5.08641],[-36.33159,-5.08704],[-36.30832,-5.10211],[-36.30702,-5.11198],[-36.29219,-5.11629],[-36.28822,-5.12447],[-36.28899,-5.15564],[-36.28639,-5.15693],[-36.27631,-5.20722],[-36.27836,-5.22461],[-36.27584,-5.28948],[-36.36819,-5.25078],[-36.38034,-5.27127],[-36.38127,-5.31487],[-36.39501,-5.32592],[-36.41033,-5.33415],[-36.43987,-5.36988],[-36.46991,-5.59837],[-36.31789,-5.64742],[-36.30695,-5.65026],[-36.28848,-5.66303],[-36.26912,-5.68022],[-36.26224,-5.67988],[-36.17973,-5.47753],[-36.22323,-5.43387],[-36.15994,-5.43411],[-36.12855,-5.45682],[-36.1409,-5.50024],[-36.17198,-5.54468],[-36.14369,-5.56694],[-36.14316,-5.59153],[-36.06253,-5.65529],[-36.09183,-5.74903],[-36.1156,-5.80918],[-36.1125,-5.8422],[-36.11784,-5.85905],[-36.13612,-5.86394],[-36.14184,-5.8571],[-36.15094,-5.85873],[-36.15908,-5.85025],[-36.16798,-5.85594],[-36.17808,-5.85339],[-36.18576,-5.85816],[-36.19682,-5.88312],[-36.21288,-5.87373],[-36.22418,-5.89995],[-36.25796,-5.86484],[-36.25994,-5.85961],[-36.25396,-5.83104],[-36.26362,-5.83322],[-36.26946,-5.84322],[-36.27609,-5.84555],[-36.28475,-5.85929],[-36.32067,-5.86557],[-36.33234,-5.8941],[-36.33194,-5.87285],[-36.35112,-5.87063],[-36.36821,-5.87466],[-36.37775,-5.86678],[-36.38844,-5.85191],[-36.40113,-5.85962],[-36.41482,-5.85843],[-36.42678,-5.90466],[-36.43547,-5.91089],[-36.47501,-5.92657],[-36.54038,-5.98974],[-36.54744,-6.05627],[-36.63872,-6.08901],[-36.65327,-6.11183],[-36.66875,-6.11234],[-36.69341,-6.1037],[-36.71491,-6.09982],[-36.72665,-6.08959],[-36.71988,-6.07195],[-36.73086,-6.0566],[-36.74277,-6.05515],[-36.7495,-6.06268],[-36.75531,-6.05569],[-36.76657,-6.05616],[-36.78213,-6.05008],[-36.78502,-6.04122],[-36.79336,-6.04011],[-36.80132,-6.0501],[-36.81251,-6.05324],[-36.83611,-6.0524],[-36.83491,-6.04151],[-36.85539,-6.04428],[-36.84788,-6.03465],[-36.85465,-6.02527],[-36.84896,-6.01033],[-36.86163,-5.98155],[-36.86848,-5.97355],[-36.87992,-5.97771],[-36.90136,-5.97403],[-36.90677,-5.97546],[-36.91894,-5.96569],[-36.92767,-5.97174],[-36.9366,-5.96835],[-36.93951,-5.9546],[-36.95139,-5.92969],[-36.96477,-5.92469],[-36.9731,-5.91281],[-36.97225,-5.90481],[-36.96101,-5.90028],[-36.95517,-5.88433],[-36.93801,-5.8707],[-36.94202,-5.85836],[-36.95889,-5.85385],[-36.9668,-5.84098],[-36.9774,-5.81362],[-36.99004,-5.8172],[-37.00966,-5.83712],[-37.01173,-5.8584],[-37.01536,-5.87085],[-37.02651,-5.88479],[-37.03547,-5.89074],[-37.06692,-5.9846],[-37.12216,-5.95487],[-37.12869,-5.9564],[-37.13117,-5.96809],[-37.14329,-5.97921],[-37.14794,-5.99086],[-37.15449,-5.99255],[-37.16262,-6.02218],[-37.17393,-6.04802],[-37.19634,-6.04724],[-37.20216,-6.03884],[-37.22269,-6.04215],[-37.23186,-6.02759],[-37.25061,-6.02591],[-37.25647,-6.02847],[-37.26358,-6.04636],[-37.27248,-6.0557],[-37.28692,-6.05799],[-37.29557,-6.05009],[-37.3092,-6.05776],[-37.33578,-6.06746],[-37.35443,-6.08649],[-37.37156,-6.08278],[-37.38234,-6.08555],[-37.39363,-6.10939],[-37.40781,-6.11278],[-37.42595,-6.109],[-37.44569,-6.1122],[-37.45391,-6.12007],[-37.45895,-6.145],[-37.48299,-6.15168],[-37.48937,-6.14444],[-37.5034,-6.1444],[-37.50289,-6.15214],[-37.53635,-6.15284],[-37.53999,-6.16593],[-37.56065,-6.16453],[-37.56962,-6.15544],[-37.58227,-6.16149],[-37.59991,-6.17401],[-37.63848,-6.17984],[-37.64671,-6.18939],[-37.67317,-6.19058],[-37.70007,-6.18512],[-37.709,-6.177],[-37.74237,-6.18898],[-37.75486,-6.20206],[-37.75607,-6.21716],[-37.76385,-6.2189],[-37.77562,-6.23134],[-37.76142,-6.23955],[-37.77661,-6.24587],[-37.76174,-6.25287],[-37.77142,-6.27307],[-37.75808,-6.28659],[-37.76488,-6.29224],[-37.79452,-6.28903],[-37.81042,-6.29166],[-37.82403,-6.30603],[-37.81648,-6.31621],[-37.83373,-6.32178],[-37.84293,-6.3358],[-37.83432,-6.34172],[-37.84412,-6.35436],[-37.84153,-6.36303],[-37.85424,-6.36632],[-37.85889,-6.37435],[-37.88758,-6.36414],[-37.88851,-6.38721],[-37.88426,-6.39168],[-37.89026,-6.40014],[-37.90153,-6.39968],[-37.92293,-6.41466],[-37.92605,-6.42114],[-37.94227,-6.42406],[-37.95521,-6.40806],[-37.9554,-6.39821],[-37.96802,-6.40512],[-37.97106,-6.42243],[-37.98344,-6.42814],[-38.0137,-6.42743],[-38.00823,-6.43219],[-38.01985,-6.44694],[-38.01273,-6.46827],[-38.02182,-6.46846],[-38.02676,-6.47476]]],[[[-37.04483,-4.81636],[-37.04412,-4.81854],[-37.04575,-4.81668],[-37.04483,-4.81636]]]]},"properties":{"CD_REG":"2403","NM_REG":"Mossoró","SIGLA_UF":"RN"}}]}